{"type": "FeatureCollection", "features": [{"type": "Feature", "properties": {"threshold": 70}, "geometry": {"type": "MultiPolygon", "coordinates": [[[[108.10194339475686, 16.083790329066055], [108.10336448422389, 16.089971769057804], [108.11092523000322, 16.085231574686194], [108.11481687190867, 16.085652288256295], [108.11887466772431, 16.09647071890387], [108.12889029855317, 16.102663538573605], [108.13387699794555, 16.098185191826996], [108.13532910039213, 16.09184832259233], [108.14044035560785, 16.09120148812023], [108.14844269267441, 16.085343312206117], [108.15235991206482, 16.07615623490652], [108.16567798163356, 16.080113242639786], [108.1703894044398, 16.072531636933956], [108.17589571508984, 16.078595189525863], [108.18376228028946, 16.075454880511444], [108.19871044402532, 16.074796772067703], [108.20653800234136, 16.078580682476634], [108.21056521297857, 16.08395816953435], [108.21705111378402, 16.080838676912297], [108.22495970708037, 16.08280842974806], [108.2277821112609, 16.09867069580902], [108.23596452700549, 16.09801819635012], [108.2355184490394, 16.093259987329645], [108.24319718697592, 16.081207388580584], [108.241648264071, 16.06769743993089], [108.23599279958262, 16.05793474292766], [108.23943158008447, 16.044696866581226], [108.23496910098535, 16.04319119782373], [108.23245589322781, 16.047914433280383], [108.22884026808595, 16.04729762522597], [108.22623818491819, 16.04181184573282], [108.23280438054519, 16.031439936666235], [108.22492331328404, 16.026636388804555], [108.22758306845532, 16.02228695428603], [108.23317044187989, 16.024157454387428], [108.23808084997776, 16.019159723349844], [108.23410486534473, 16.01530409757209], [108.23207901180068, 16.005490951650586], [108.22148674699977, 16.00358635520991], [108.22561125701037, 15.99759531744709], [108.21570119455602, 15.990312036508783], [108.21746621354414, 15.97205012717397], [108.21303930687645, 15.962383892042183], [108.20579321451326, 15.965761079501457], [108.20547460535336, 15.974650955550587], [108.20084236273729, 15.9832991603398], [108.19277208409999, 15.98775313970496], [108.18666853905384, 15.998193907328337], [108.18251941023901, 15.99902986278707], [108.17411642422658, 16.0075616685179], [108.16846379293976, 16.00845356448388], [108.17309327561496, 16.01343423480252], [108.18337894215487, 16.01655508047682], [108.18828368117701, 16.02268890063141], [108.19513317455922, 16.021986430540004], [108.2012475154737, 16.02540915215903], [108.20536882086424, 16.02446928565708], [108.20822909089004, 16.020070388104838], [108.20832870719754, 16.011016599358534], [108.2120630946751, 16.01120863960705], [108.21743034285704, 16.016873201888227], [108.21417896877436, 16.02553565962141], [108.2190822225681, 16.034702303833576], [108.21723386593595, 16.04281693632467], [108.21286125377985, 16.04433784938999], [108.20812052728762, 16.038695605791858], [108.2022482751803, 16.040561329392037], [108.20206270816905, 16.04468590984642], [108.20677539697489, 16.04805718708559], [108.2069861810767, 16.052095164395933], [108.20199081723017, 16.055440123973078], [108.20031667857126, 16.06237976559272], [108.19553277932681, 16.062458183603376], [108.1949198933537, 16.05623981642087], [108.19005281290755, 16.051507608180433], [108.19099165725346, 16.02977723479941], [108.182561880175, 16.0313361877537], [108.17736064033595, 16.029249427481503], [108.17492356929463, 16.033234090814165], [108.17658749438374, 16.040393778172366], [108.17138566383483, 16.046947950808338], [108.17007248398122, 16.056046890460873], [108.15949453551815, 16.05804884292026], [108.15821178637447, 16.06725719965372], [108.15338784086293, 16.069389969247684], [108.140122138156, 16.06828699428954], [108.12573180990444, 16.07616186412218], [108.11927639500328, 16.072122995833823], [108.1102724405588, 16.072001522392092], [108.10738675035725, 16.07912043181602], [108.10194339475686, 16.083790329066055]], [[108.22466940617261, 16.05260137314233], [108.22977081782817, 16.052709005825825], [108.22820220833053, 16.060657321227325], [108.22416956819235, 16.058345466721427], [108.22466940617261, 16.05260137314233]], [[108.21353773414141, 16.06262906190519], [108.21166684706942, 16.058666928150917], [108.21781819607841, 16.05730139624633], [108.21819162363805, 16.06261288513764], [108.21353773414141, 16.06262906190519]]], [[[108.21461470418959, 15.947100553888852], [108.21726481916214, 15.953052902859389], [108.22607760910145, 15.954586754952318], [108.22834671846994, 15.942214863063054], [108.2324366080199, 15.935359260030477], [108.22875092474129, 15.928786974605082], [108.21819257220062, 15.930523721898949], [108.21461470418959, 15.947100553888852]]], [[[108.17241926804812, 15.968976647999012], [108.17197045838148, 15.972260446671436], [108.1858265876746, 15.976221437323357], [108.1860024864045, 15.96819029392319], [108.18226371232083, 15.962716960590127], [108.17713889097391, 15.962691170836377], [108.17241926804812, 15.968976647999012]]], [[[108.13830230211056, 16.04817181024077], [108.13926037041463, 16.05327916509237], [108.14608836851988, 16.05341167476111], [108.14914621390967, 16.042464491857057], [108.14680892398833, 16.040357448252493], [108.14035569115474, 16.041187463691017], [108.13830230211056, 16.04817181024077]]], [[[108.1195631532733, 15.916416848077972], [108.11886106321991, 15.919494037651395], [108.12390508981473, 15.922145205823606], [108.12304184390035, 15.932833993307307], [108.12721395191629, 15.93386365462738], [108.13620276256941, 15.92877976832374], [108.13310705050606, 15.92460011810698], [108.1321059613627, 15.909461466150544], [108.12265366465112, 15.910069478406642], [108.1195631532733, 15.916416848077972]]], [[[108.10463295402268, 16.12808307788758], [108.1080985097603, 16.1350123586959], [108.11937694190203, 16.144333324675085], [108.12085571208173, 16.13698255471529], [108.12493154895074, 16.13248845716355], [108.12488148934641, 16.125144246718932], [108.11221649506548, 16.11975019308361], [108.10463295402268, 16.12808307788758]]], [[[108.09065541360214, 15.905412175438181], [108.09525929573219, 15.907918099274662], [108.10868982430542, 15.900490334703166], [108.10461571404068, 15.896565030790516], [108.09320733153189, 15.898089422069944], [108.09005968808414, 15.900240061311544], [108.09065541360214, 15.905412175438181]]]]}}, {"type": "Feature", "properties": {"threshold": 80}, "geometry": {"type": "MultiPolygon", "coordinates": [[[[108.23130706074312, 15.984776178967095], [108.23119704083524, 15.986936460658937], [108.23676123458378, 15.989185096496566], [108.233342340439, 15.995225402129748], [108.2342242428528, 15.99907630572832], [108.23961042799856, 16.000305557467758], [108.24351011470146, 15.997101968103593], [108.24130283245562, 15.99333442950527], [108.24363883542871, 15.986302329115093], [108.24068765910587, 15.980246355845496], [108.24636943236126, 15.974229379688902], [108.24355610287269, 15.966021913628111], [108.23811187308999, 15.9670016185111], [108.23130706074312, 15.984776178967095]]], [[[108.08989192123165, 16.099146776091338], [108.09532530299705, 16.104647539518012], [108.10117588072852, 16.102977901493468], [108.10030797457809, 16.093573816286828], [108.11084743635044, 16.08737200473955], [108.11982999172072, 16.097420434843478], [108.12905383503038, 16.102634370807593], [108.13387699794555, 16.098185191826996], [108.13532910039213, 16.09184832259233], [108.14044035560785, 16.09120148812023], [108.14844269267441, 16.085343312206117], [108.15150667250275, 16.076666421087587], [108.16590640283827, 16.08009753308873], [108.17087688228503, 16.07247769654202], [108.17581354908998, 16.07858229369773], [108.18376228028946, 16.075454880511444], [108.19871044402532, 16.074796772067703], [108.20653800234136, 16.078580682476634], [108.21056521297857, 16.08395816953435], [108.21680137019882, 16.080859180357653], [108.22450195819236, 16.08258121716272], [108.2277821112609, 16.09867069580902], [108.23596452700549, 16.09801819635012], [108.2355184490394, 16.093259987329645], [108.24319718697592, 16.081207388580584], [108.241648264071, 16.06769743993089], [108.23599279958262, 16.05793474292766], [108.23943158008447, 16.044696866581226], [108.23496910098535, 16.04319119782373], [108.23245589322781, 16.047914433280383], [108.22884026808595, 16.04729762522597], [108.22623818491819, 16.04181184573282], [108.23280438054519, 16.031439936666235], [108.22492331328404, 16.026636388804555], [108.22758306845532, 16.02228695428603], [108.23317044187989, 16.024157454387428], [108.23808084997776, 16.019159723349844], [108.23410486534473, 16.01530409757209], [108.23207901180068, 16.005490951650586], [108.22186329484985, 16.004212857702836], [108.22163441372035, 16.00065579735506], [108.22556513392682, 15.997440851341922], [108.21570119455602, 15.990312036508783], [108.21840184772401, 15.966440788918565], [108.21474084127384, 15.962405922728038], [108.2075404208869, 15.962490952838053], [108.19916003212909, 15.984811530835898], [108.19277208409999, 15.98775313970496], [108.18666853905384, 15.998193907328337], [108.18010616091904, 15.998908857174618], [108.17717966324918, 16.003214623563142], [108.1667735504633, 16.007608082823637], [108.18828368117701, 16.02268890063141], [108.19513317455922, 16.021986430540004], [108.2012475154737, 16.02540915215903], [108.20536882086424, 16.02446928565708], [108.20822909089004, 16.020070388104838], [108.20832870719754, 16.011016599358534], [108.2120630946751, 16.01120863960705], [108.21743034285704, 16.016873201888227], [108.21417896877436, 16.02553565962141], [108.2190822225681, 16.034702303833576], [108.21723386593595, 16.04281693632467], [108.21286125377985, 16.04433784938999], [108.20812052728762, 16.038695605791858], [108.2022482751803, 16.040561329392037], [108.20206270816905, 16.04468590984642], [108.20677539697489, 16.04805718708559], [108.2069861810767, 16.052095164395933], [108.20199081723017, 16.055440123973078], [108.20031667857126, 16.06237976559272], [108.19553277932681, 16.062458183603376], [108.1949198933537, 16.05623981642087], [108.19005281290755, 16.051507608180433], [108.19099165725346, 16.02977723479941], [108.182561880175, 16.0313361877537], [108.17720091490865, 16.02929399858534], [108.1749144199918, 16.033374987844315], [108.17658749438374, 16.040393778172366], [108.17138566383483, 16.046947950808338], [108.17007248398122, 16.056046890460873], [108.1604197774701, 16.057183897451544], [108.15901218343264, 16.066340155838095], [108.1543596061964, 16.069169345818253], [108.140122138156, 16.06828699428954], [108.12498244221314, 16.07615178901837], [108.11074308564716, 16.06901421155329], [108.10594159544627, 16.062950000461772], [108.1015981106955, 16.062980531680545], [108.10116879486827, 16.073724366906035], [108.10571802343524, 16.07824152156499], [108.08989192123165, 16.099146776091338]], [[108.22466940617261, 16.05260137314233], [108.22977081782817, 16.052709005825825], [108.22820220833053, 16.060657321227325], [108.22416956819235, 16.058345466721427], [108.22466940617261, 16.05260137314233]], [[108.21353773414141, 16.06262906190519], [108.21166684706942, 16.058666928150917], [108.21781819607841, 16.05730139624633], [108.21819162363805, 16.06261288513764], [108.21353773414141, 16.06262906190519]]], [[[108.21200481330449, 15.939354689555849], [108.2145077979955, 15.954502018154853], [108.22475225322616, 15.955722105166801], [108.23327051259292, 15.934228245982673], [108.22868015052073, 15.928744682238337], [108.22293162638762, 15.928609178269445], [108.21227703535516, 15.935262254774004], [108.21200481330449, 15.939354689555849]]], [[[108.17155976380194, 15.96999718698437], [108.17272733913099, 15.973875380360868], [108.17676147988485, 15.973916366530842], [108.18369544320889, 15.980604807526944], [108.18657611030557, 15.980416233422384], [108.18772315305318, 15.968290875807947], [108.18072515087064, 15.9561526919016], [108.1769825961339, 15.957153121486726], [108.17155976380194, 15.96999718698437]]], [[[108.13821670265416, 16.003861245159214], [108.13893049960224, 16.012068938545188], [108.14427881008767, 16.015583686662918], [108.15114070073682, 16.01541036684389], [108.1522517599636, 16.008081373373578], [108.1453053000733, 15.998538375672407], [108.13912443516652, 15.998456120682253], [108.13821670265416, 16.003861245159214]]], [[[108.1195631532733, 15.916416848077972], [108.11886106321991, 15.919494037651395], [108.12390508981473, 15.922145205823606], [108.12304184390035, 15.932833993307307], [108.12721395191629, 15.93386365462738], [108.13620276256941, 15.92877976832374], [108.13310705050606, 15.92460011810698], [108.1321059613627, 15.909461466150544], [108.12265366465112, 15.910069478406642], [108.1195631532733, 15.916416848077972]]], [[[108.10463295402268, 16.12808307788758], [108.1080985097603, 16.1350123586959], [108.11937694190203, 16.144333324675085], [108.12085571208173, 16.13698255471529], [108.12493154895074, 16.13248845716355], [108.12488148934641, 16.125144246718932], [108.11221649506548, 16.11975019308361], [108.10463295402268, 16.12808307788758]]], [[[108.09065541360214, 15.905412175438181], [108.09525929573219, 15.907918099274662], [108.10868982430542, 15.900490334703166], [108.10461571404068, 15.896565030790516], [108.09320733153189, 15.898089422069944], [108.09005968808414, 15.900240061311544], [108.09065541360214, 15.905412175438181]]]]}}, {"type": "Feature", "properties": {"threshold": 90}, "geometry": {"type": "MultiPolygon", "coordinates": [[[[108.23180928172292, 15.982354838288362], [108.23099059178674, 15.986686405919187], [108.23639302704612, 15.990100931940791], [108.2333614001269, 15.997345992361394], [108.23540728831271, 16.00025148486661], [108.23953473823421, 16.000339000305033], [108.24350101907417, 15.997242876373843], [108.24126060537172, 15.978541028962645], [108.2463785222511, 15.974088470501485], [108.24634736405127, 15.96882268390008], [108.24090328165357, 15.962619219449001], [108.2363525765509, 15.965474394205682], [108.23773340490767, 15.9709338129546], [108.23180928172292, 15.982354838288362]]], [[[108.07212435073917, 16.091495885769014], [108.07250589596896, 16.09859359127489], [108.07732857892584, 16.098578570237898], [108.0810480560601, 16.094197957148264], [108.08610312740038, 16.094439505399215], [108.08891360421511, 16.076855497154355], [108.07664923837352, 16.07668815542501], [108.07296749778195, 16.081095203051394], [108.07212435073917, 16.091495885769014]]], [[[108.095046364378, 16.07957666493919], [108.09329873056933, 16.085806745536225], [108.09541916282438, 16.08984278730711], [108.08967290375911, 16.100432612424385], [108.09548792833613, 16.10468111834632], [108.10221394070496, 16.102830361331566], [108.10521566079701, 16.094533559248475], [108.11360029645866, 16.092195477533103], [108.12913259932357, 16.10260831456027], [108.13387699794555, 16.098185191826996], [108.13532910039213, 16.09184832259233], [108.14044035560785, 16.09120148812023], [108.14844269267441, 16.085343312206117], [108.15150667250275, 16.076666421087587], [108.16590640283827, 16.08009753308873], [108.17087688228503, 16.07247769654202], [108.17581354908998, 16.07858229369773], [108.18376228028946, 16.075454880511444], [108.19871044402532, 16.074796772067703], [108.20653800234136, 16.078580682476634], [108.21056521297857, 16.08395816953435], [108.21680137019882, 16.080859180357653], [108.22450195819236, 16.08258121716272], [108.2277821112609, 16.09867069580902], [108.23596452700549, 16.09801819635012], [108.2355184490394, 16.093259987329645], [108.24319718697592, 16.081207388580584], [108.241648264071, 16.06769743993089], [108.23599279958262, 16.05793474292766], [108.23943158008447, 16.044696866581226], [108.23496910098535, 16.04319119782373], [108.23245589322781, 16.047914433280383], [108.22884026808595, 16.04729762522597], [108.22623818491819, 16.04181184573282], [108.23280438054519, 16.031439936666235], [108.22492331328404, 16.026636388804555], [108.22758306845532, 16.02228695428603], [108.23317044187989, 16.024157454387428], [108.23808084997776, 16.019159723349844], [108.23410486534473, 16.01530409757209], [108.23207901180068, 16.005490951650586], [108.22186329484985, 16.004212857702836], [108.22163441372035, 16.00065579735506], [108.22556513392682, 15.997440851341922], [108.21553968243599, 15.989627455074576], [108.21840184772401, 15.966440788918565], [108.21530931684444, 15.957986203209671], [108.22510840211595, 15.955521774017605], [108.22925542415717, 15.944702799539002], [108.2349189066796, 15.939586850691878], [108.22881707354568, 15.928835775245103], [108.22293162638762, 15.928609178269445], [108.20873497881014, 15.934586538373736], [108.20950661947282, 15.940309069433638], [108.21355301961688, 15.943963211896653], [108.21334145755668, 15.954092912450603], [108.20242642557153, 15.960023968062014], [108.20295504286528, 15.97269139662813], [108.19704728396079, 15.983940603143862], [108.19032856908504, 15.982903273550445], [108.18936711837482, 15.968981687434633], [108.18065438118421, 15.956110384136663], [108.1770330542863, 15.957089131981604], [108.17473222536859, 15.96402432959406], [108.1698958006733, 15.968057068776528], [108.1700276523501, 15.971208687416828], [108.17685861358568, 15.974754231369774], [108.18907259811517, 15.991165330483392], [108.18586049636049, 15.998757321876742], [108.1723202529188, 15.998072623951877], [108.17137362544143, 16.00190719715097], [108.16688374534206, 16.004083350609534], [108.16699686741197, 16.00909456722343], [108.18067094221279, 16.019296222601287], [108.2012475154737, 16.02540915215903], [108.20536882086424, 16.02446928565708], [108.20822909089004, 16.020070388104838], [108.2085512435096, 16.010905248629744], [108.2120630946751, 16.01120863960705], [108.2176382567044, 16.017313546619334], [108.21421157945555, 16.02318772452483], [108.2190822225681, 16.034702303833576], [108.21723386593595, 16.04281693632467], [108.21286125377985, 16.04433784938999], [108.20812052728762, 16.038695605791858], [108.2022482751803, 16.040561329392037], [108.20206270816905, 16.04468590984642], [108.20677539697489, 16.04805718708559], [108.2069861810767, 16.052095164395933], [108.20199081723017, 16.055440123973078], [108.20031667857126, 16.06237976559272], [108.19553277932681, 16.062458183603376], [108.1949198933537, 16.05623981642087], [108.19005281290755, 16.051507608180433], [108.19099165725346, 16.02977723479941], [108.182561880175, 16.0313361877537], [108.17736064033595, 16.029249427481503], [108.17492356929463, 16.033234090814165], [108.17658749438374, 16.040393778172366], [108.17138566383483, 16.046947950808338], [108.17007248398122, 16.056046890460873], [108.16035734601344, 16.05723712277395], [108.1580015157337, 16.067389046145816], [108.15338784086293, 16.069389969247684], [108.140122138156, 16.06828699428954], [108.12523148759163, 16.076178891080467], [108.11074308564716, 16.06901421155329], [108.10594159544627, 16.062950000461772], [108.10027090349557, 16.06279214188685], [108.09982862893418, 16.07164342407179], [108.09612261492363, 16.073854335912422], [108.095046364378, 16.07957666493919]], [[108.22466940617261, 16.05260137314233], [108.22977081782817, 16.052709005825825], [108.22820220833053, 16.060657321227325], [108.22416956819235, 16.058345466721427], [108.22466940617261, 16.05260137314233]], [[108.21353773414141, 16.06262906190519], [108.21166684706942, 16.058666928150917], [108.21781819607841, 16.05730139624633], [108.21819162363805, 16.06261288513764], [108.21353773414141, 16.06262906190519]]], [[[108.222213839488, 15.906229588971422], [108.2338691106721, 15.911385546653907], [108.24456722110551, 15.90549524180025], [108.2448007245337, 15.899800382364974], [108.24206139658733, 15.898395363810408], [108.2302726666927, 15.903843296840172], [108.22243182680693, 15.903083086155478], [108.222213839488, 15.906229588971422]]], [[[108.13807378711962, 16.00454142110694], [108.13974623754396, 16.014549290684233], [108.15114070073682, 16.01541036684389], [108.1522517599636, 16.008081373373578], [108.1453053000733, 15.998538375672407], [108.13912443516652, 15.998456120682253], [108.13807378711962, 16.00454142110694]]], [[[108.1195631532733, 15.916416848077972], [108.11886106321991, 15.919494037651395], [108.12390508981473, 15.922145205823606], [108.12304184390035, 15.932833993307307], [108.12721395191629, 15.93386365462738], [108.13620276256941, 15.92877976832374], [108.13310705050606, 15.92460011810698], [108.1321059613627, 15.909461466150544], [108.12265366465112, 15.910069478406642], [108.1195631532733, 15.916416848077972]]], [[[108.10463295402268, 16.12808307788758], [108.1080985097603, 16.1350123586959], [108.11937694190203, 16.144333324675085], [108.12085571208173, 16.13698255471529], [108.12493154895074, 16.13248845716355], [108.12488148934641, 16.125144246718932], [108.11221649506548, 16.11975019308361], [108.10463295402268, 16.12808307788758]]]]}}, {"type": "Feature", "properties": {"threshold": 95}, "geometry": {"type": "MultiPolygon", "coordinates": [[[[108.23026874784193, 15.984347176701696], [108.23431474348934, 15.999211167011408], [108.24232529038547, 15.998604663390562], [108.24364995220893, 15.986382095731514], [108.2412205629475, 15.978780253515922], [108.24625795855133, 15.975357440892381], [108.2464444252386, 15.969271215417729], [108.24267959057556, 15.96267640401559], [108.23469885600737, 15.964557160052758], [108.2343160511145, 15.975767077359142], [108.23026874784193, 15.984347176701696]]], [[[108.07212435073917, 16.091495885769014], [108.07227273333233, 16.09850931293371], [108.09302822700751, 16.102284110833878], [108.09540576243764, 16.104668190701688], [108.10209471484184, 16.102942430207968], [108.10696820593078, 16.09558054754041], [108.11566914058373, 16.094311331626614], [108.12897280785351, 16.10265283814787], [108.13387699794555, 16.098185191826996], [108.13532910039213, 16.09184832259233], [108.14044035560785, 16.09120148812023], [108.14844269267441, 16.085343312206117], [108.15150667250275, 16.076666421087587], [108.16590640283827, 16.08009753308873], [108.17112238302896, 16.072484907746865], [108.17581354908998, 16.07858229369773], [108.18376228028946, 16.075454880511444], [108.19871044402532, 16.074796772067703], [108.20653800234136, 16.078580682476634], [108.21056521297857, 16.08395816953435], [108.21680137019882, 16.080859180357653], [108.22450195819236, 16.08258121716272], [108.2277821112609, 16.09867069580902], [108.23590779662992, 16.098077104137186], [108.2355184490394, 16.093259987329645], [108.24319718697592, 16.081207388580584], [108.241648264071, 16.06769743993089], [108.23599279958262, 16.05793474292766], [108.23943158008447, 16.044696866581226], [108.23496910098535, 16.04319119782373], [108.23245589322781, 16.047914433280383], [108.22884026808595, 16.04729762522597], [108.22623818491819, 16.04181184573282], [108.23280438054519, 16.031439936666235], [108.22492331328404, 16.026636388804555], [108.22758306845532, 16.02228695428603], [108.23317044187989, 16.024157454387428], [108.23808084997776, 16.019159723349844], [108.23410486534473, 16.01530409757209], [108.23207901180068, 16.005490951650586], [108.22186329484985, 16.004212857702836], [108.22163441372035, 16.00065579735506], [108.22556513392682, 15.997440851341922], [108.21553968243599, 15.989627455074576], [108.21840184772401, 15.966440788918565], [108.21530931684444, 15.957986203209671], [108.22510840211595, 15.955521774017605], [108.22925542415717, 15.944702799539002], [108.23576959323576, 15.939597766090907], [108.22887796046373, 15.928890614632401], [108.22293162638762, 15.928609178269445], [108.20877869518534, 15.934518062866243], [108.21213751801791, 15.943849372229126], [108.20634792963011, 15.956878791868814], [108.2015276644142, 15.96090824694962], [108.20042687296169, 15.971312436376516], [108.19564076231433, 15.971430840142556], [108.17932230893639, 15.956000033411053], [108.1699827908891, 15.967831586473025], [108.1680900632243, 15.975441912478043], [108.17107868471898, 15.980514934867967], [108.18405117942535, 15.982957617204706], [108.18907259811517, 15.991165330483392], [108.18586049636049, 15.998757321876742], [108.1723202529188, 15.998072623951877], [108.17137362544143, 16.00190719715097], [108.16688374534206, 16.004083350609534], [108.16705775506918, 16.009149424942006], [108.18067094221279, 16.019296222601287], [108.2012475154737, 16.02540915215903], [108.20536882086424, 16.02446928565708], [108.20822909089004, 16.020070388104838], [108.2085512435096, 16.010905248629744], [108.2120630946751, 16.01120863960705], [108.2176382567044, 16.017313546619334], [108.21421157945555, 16.02318772452483], [108.2190822225681, 16.034702303833576], [108.2171462815186, 16.043043987667104], [108.21264256306925, 16.04423842703777], [108.20820268152644, 16.038708486942333], [108.2022482751803, 16.040561329392037], [108.20206270816905, 16.04468590984642], [108.20677539697489, 16.04805718708559], [108.2069861810767, 16.052095164395933], [108.20199081723017, 16.055440123973078], [108.20014587823876, 16.062557102544094], [108.19553277932681, 16.062458183603376], [108.1949198933537, 16.05623981642087], [108.19005281290755, 16.051507608180433], [108.19099165725346, 16.02977723479941], [108.182561880175, 16.0313361877537], [108.17736064033595, 16.029249427481503], [108.17492356929463, 16.033234090814165], [108.17658749438374, 16.040393778172366], [108.17138566383483, 16.046947950808338], [108.17007248398122, 16.056046890460873], [108.16035734601344, 16.05723712277395], [108.1580015157337, 16.067389046145816], [108.15338784086293, 16.069389969247684], [108.140122138156, 16.06828699428954], [108.12523148759163, 16.076178891080467], [108.11074308564716, 16.06901421155329], [108.10594159544627, 16.062950000461772], [108.09933878465976, 16.062799064224514], [108.09900352928291, 16.071609623847515], [108.09492180772985, 16.076337055013465], [108.07659247539253, 16.07674701436462], [108.07296749778195, 16.081095203051394], [108.07212435073917, 16.091495885769014]], [[108.22466940617261, 16.05260137314233], [108.22977081782817, 16.052709005825825], [108.22820220833053, 16.060657321227325], [108.22416956819235, 16.058345466721427], [108.22466940617261, 16.05260137314233]], [[108.21353773414141, 16.06262906190519], [108.21166684706942, 16.058666928150917], [108.21781819607841, 16.05730139624633], [108.21819162363805, 16.06261288513764], [108.21353773414141, 16.06262906190519]], [[108.19694566799247, 15.97956988505492], [108.19443894272825, 15.98200554915378], [108.19076925095553, 15.979825625791465], [108.19226006971616, 15.97219766388852], [108.19581212607036, 15.973032508961225], [108.19694566799247, 15.97956988505492]], [[108.08712646413912, 16.086168629999175], [108.08948115947359, 16.081910097364258], [108.09297185354849, 16.08280614428273], [108.09549957971957, 16.0893650364925], [108.09195338054613, 16.094046437542524], [108.08678427185863, 16.092733383026456], [108.08712646413912, 16.086168629999175]]], [[[108.13807378711962, 16.00454142110694], [108.13974623754396, 16.014549290684233], [108.15114070073682, 16.01541036684389], [108.1522517599636, 16.008081373373578], [108.1453053000733, 15.998538375672407], [108.13912443516652, 15.998456120682253], [108.13807378711962, 16.00454142110694]]], [[[108.13367577244358, 15.941557035805669], [108.13526023350323, 15.958078429223734], [108.13254055308192, 15.962120278941091], [108.13775824866323, 15.964480481393688], [108.14097591373624, 15.963133763039265], [108.14292495024604, 15.947121432100728], [108.13588367864499, 15.938274349471843], [108.13367577244358, 15.941557035805669]]], [[[108.1195631532733, 15.916416848077972], [108.11886106321991, 15.919494037651395], [108.12390508981473, 15.922145205823606], [108.12304184390035, 15.932833993307307], [108.12721395191629, 15.93386365462738], [108.13620276256941, 15.92877976832374], [108.13310705050606, 15.92460011810698], [108.1321059613627, 15.909461466150544], [108.12265366465112, 15.910069478406642], [108.1195631532733, 15.916416848077972]]], [[[108.10463295402268, 16.12808307788758], [108.1080985097603, 16.1350123586959], [108.11937694190203, 16.144333324675085], [108.12085571208173, 16.13698255471529], [108.12493154895074, 16.13248845716355], [108.12488148934641, 16.125144246718932], [108.11221649506548, 16.11975019308361], [108.10463295402268, 16.12808307788758]]]]}}]}