{"type": "Feature", "properties": {"city": "Mumbai", "country": "India", "real_area": 507.92}, "geometry": {"type": "MultiLineString", "coordinates": [[[72.9643114359808, 18.8704333794083], [72.964317954345, 18.8751874118994], [72.9683721664742, 18.8777867045859], [72.9683787524573, 18.8825406984853], [72.9643309917212, 18.8846951401395], [72.960276948787, 18.8820957266041], [72.9602704973861, 18.8773419922629], [72.9562168258468, 18.874742678837], [72.9562104420426, 18.8699889059617], [72.9602575952255, 18.8678341868971], [72.9643114359808, 18.8704333794083]], [[88.4401954400218, 22.6382291140423], [88.4404774612747, 22.6431961152455], [88.435890837958, 22.645773858782], [88.4310223662285, 22.643384648313], [88.4307405143792, 22.6384177412485], [88.4353269648552, 22.6358399505026], [88.4401954400218, 22.6382291140423]], [[72.9765016657825, 18.8972474549925], [72.9764949445178, 18.8924935388196], [72.9805434149494, 18.8903389554384], [72.9845989103904, 18.892938426906], [72.984605766313, 18.8976926024631], [72.9805569921288, 18.8998470471679], [72.980563781056, 18.904600924206], [72.9765151089798, 18.9067549496824], [72.9724599517657, 18.9041552368555], [72.9724532974877, 18.8994016192031], [72.9765016657825, 18.8972474549925]], [[73.0053273827297, 19.2005022579173], [73.0053345908328, 19.205249693649], [73.0012804597524, 19.2073928046279], [72.9972194249073, 19.2047886198224], [72.9972123518293, 19.2000414421021], [73.0012661785791, 19.1978981911764], [73.0053273827297, 19.2005022579173]], [[73.0742640217891, 19.1592795719417], [73.0742556676251, 19.1545287237535], [73.0783126429473, 19.1523808304779], [73.0823782763861, 19.1549839246408], [73.082386765824, 19.1597350304793], [73.0783294865414, 19.1618827845042], [73.0783379087577, 19.1666335873869], [73.0742807309487, 19.1687809200554], [73.0702154349207, 19.166177589149], [73.0702071479695, 19.1614270439176], [73.0742640217891, 19.1592795719417]], [[73.1108372644344, 19.1684545133989], [73.1108283008464, 19.163702680506], [73.1067606736848, 19.1610995663259], [73.1067517782385, 19.1563476878933], [73.1108103745632, 19.154198666229], [73.1108014118678, 19.1494464849672], [73.1148601093838, 19.1472970421137], [73.1189280734057, 19.1498999195157], [73.1189371715082, 19.1546523581887], [73.1230055074985, 19.1572553291749], [73.1230146737727, 19.1620077223723], [73.1189553686193, 19.1641568872304], [73.1189644676278, 19.168908977477], [73.1149052636074, 19.1710577210319], [73.1149142953515, 19.175809508204], [73.110855192503, 19.1779578303881], [73.1067873617956, 19.1753545045155], [73.1067784654634, 19.1706029746981], [73.1108372644344, 19.1684545133989]], [[73.1794684917155, 18.9463643125007], [73.1794785917653, 18.951123676251], [73.1754194969434, 18.9532831942156], [73.175429529767, 18.9580422587412], [73.1713705354536, 18.9602013573721], [73.1673018115231, 18.9576015292153], [73.1672919141343, 18.9528427224783], [73.1713506052489, 18.9506834861099], [73.1713406406425, 18.9459243801463], [73.175399432295, 18.943764724502], [73.1794684917155, 18.9463643125007]], [[73.0823528097628, 19.1407299112178], [73.0823612983555, 19.1454813649489], [73.0783042215695, 19.1476296794565], [73.0742389601289, 19.1450266794198], [73.0742306067966, 19.1402754833965], [73.0782873796523, 19.1381270297025], [73.0823528097628, 19.1407299112178]], [[73.2450289033699, 19.1640233989812], [73.2450401048095, 19.1687796452862], [73.2409747365842, 19.1709330485043], [73.2368984703146, 19.1683303436678], [73.2368874047697, 19.1635743538163], [73.2409524696075, 19.1614208123481], [73.2450289033699, 19.1640233989812]], [[73.2368542103407, 19.1493056861714], [73.2368652747827, 19.1540620250069], [73.232800513332, 19.1562157047185], [73.2287249908335, 19.1536131838313], [73.2287140622415, 19.148857101567], [73.2327785203057, 19.146703283619], [73.2368542103407, 19.1493056861714]], [[72.9567666252586, 19.2831408799779], [72.9567730275007, 19.2878846617515], [72.9527201248201, 19.2900227056984], [72.9486611245817, 19.2874171084975], [72.948654857258, 19.28267358474], [72.9527074552622, 19.2805354001678], [72.9567666252586, 19.2831408799779]], [[73.0907089040502, 19.2694393726808], [73.0907175356674, 19.2741879327358], [73.0866582299978, 19.2763314787052], [73.0825905968917, 19.2737266043302], [73.0825821006878, 19.2689783014031], [73.0866411021846, 19.2668346157236], [73.0907089040502, 19.2694393726808]], [[73.1434563297353, 19.2225443164349], [73.1434658389808, 19.2272957784883], [73.1394046089665, 19.2294431266719], [73.1353341735978, 19.226839151966], [73.1312733485024, 19.2289862175336], [73.127203453649, 19.2263822172053], [73.1271942155087, 19.2216312690991], [73.1312547366924, 19.219484064318], [73.1353247999205, 19.2220879468563], [73.1393857260515, 19.2199404595092], [73.1434563297353, 19.2225443164349]], [[72.8150794495659, 19.4288847460443], [72.8150753996462, 19.4241492082085], [72.811023607845, 19.421541108266], [72.8110196253825, 19.4168055211384], [72.8150673002098, 19.4146777755332], [72.8191192629279, 19.4172857591474], [72.8231673470166, 19.4151577316583], [72.8231631629714, 19.410421578518], [72.8191110293738, 19.4078137112885], [72.8191069128014, 19.4030775090984], [72.8231547952972, 19.4009489157164], [72.8272070997368, 19.4035566665047], [72.8312553913598, 19.4014277912554], [72.8353082394376, 19.4040355185491], [72.8393569400943, 19.4019063613915], [72.8434103317481, 19.4045140650913], [72.843414852027, 19.4092510423725], [72.839365846044, 19.4113800576479], [72.8353126251162, 19.4087722375248], [72.8312640281403, 19.4109009708426], [72.8312683467453, 19.4156373823461], [72.8272198534889, 19.4177656917601], [72.8272241050215, 19.4225017956709], [72.8231757155232, 19.4246296811169], [72.8231798999846, 19.4293654773146], [72.819131614283, 19.4314929387286], [72.8191357316744, 19.436228427093], [72.815087549808, 19.4383554644112], [72.8110355560247, 19.4357471555201], [72.811031573166, 19.431011925517], [72.8150794495659, 19.4288847460443]], [[72.9765352754463, 18.9210153466553], [72.9765419980474, 18.9257685867174], [72.9724932264632, 18.9279216346733], [72.9684380361259, 18.9253215814253], [72.9684314481786, 18.9205686006942], [72.9724799159227, 18.9184154138807], [72.9765352754463, 18.9210153466553]], [[73.0175128224598, 19.2083145984929], [73.0175202335278, 19.2130622462485], [73.0134653917263, 19.215205499247], [73.0094034431685, 19.2126012443945], [73.009396167179, 19.2078538545326], [73.0134507046766, 19.2057104616299], [73.0175128224598, 19.2083145984929]], [[73.2043939802871, 19.1903031173568], [73.2044045046604, 19.1950573816304], [73.2003407487761, 19.1972082513816], [73.1962667721188, 19.1946049954883], [73.1962563835124, 19.1898509878539], [73.2003198358041, 19.1876999794738], [73.2043939802871, 19.1903031173568]], [[72.9081102638537, 19.2803325231808], [72.9081158570546, 19.2850747559775], [72.9040653997383, 19.2872111085242], [72.9000096540683, 19.284605369197], [72.9000041955979, 19.2798633947685], [72.9040543480748, 19.2777269012995], [72.9081102638537, 19.2803325231808]], [[72.8675008996134, 19.1926269149774], [72.8715482103449, 19.1904881686335], [72.8756007427614, 19.1930926045615], [72.875605794213, 19.1978359050469], [72.8796586989032, 19.2004404368435], [72.8796638178835, 19.2051836923932], [72.8837170948638, 19.2077883198852], [72.8837222813872, 19.212531530319], [72.879674056353, 19.2146698544251], [72.8796791758423, 19.2194127607858], [72.8756310539827, 19.2215506627366], [72.8715781174395, 19.2189457991371], [72.8675304036195, 19.2210834197331], [72.8675353215243, 19.2258257630631], [72.8715880877928, 19.2284307446319], [72.8715930732173, 19.23317304248], [72.867545157823, 19.2353100999231], [72.8675500762169, 19.2400520933318], [72.8716030445622, 19.2426572880742], [72.8716080304825, 19.2473992356989], [72.8675599134938, 19.2495357298034], [72.8675648323768, 19.254277372745], [72.8635168186888, 19.2564134443751], [72.8594641910391, 19.2538080141067], [72.8554165856323, 19.2559438042959], [72.8554213029412, 19.2606848836551], [72.8513738009408, 19.2628202512953], [72.8473218866081, 19.2602146807252], [72.8473173038059, 19.2554738602018], [72.8432657619285, 19.2528683848037], [72.8432612465923, 19.2481275183695], [72.8473081386571, 19.2459918684397], [72.8473035563105, 19.2412506973222], [72.8432522163689, 19.2386454350874], [72.8392056292692, 19.2407812261513], [72.8351548322534, 19.2381759416162], [72.8351504518056, 19.2334349839004], [72.839196733942, 19.2312990517096], [72.8391922864995, 19.2265577895542], [72.8351416913455, 19.2239527186592], [72.8310957141706, 19.2260887919699], [72.8311000271961, 19.2308297950563], [72.8270541536083, 19.2329654460346], [72.823004271991, 19.2303602350962], [72.8230000933512, 19.2256194911371], [72.827045661951, 19.2234836989897], [72.8270414163333, 19.2187426507128], [72.8229917364871, 19.2161376537693], [72.8189464728735, 19.2182735870786], [72.8148973360277, 19.2156685682558], [72.8148932921442, 19.2109277342121], [72.8189382507735, 19.2087916597482], [72.8189341399278, 19.2040505216304], [72.8148852047792, 19.2014457172791], [72.8148811612976, 19.196704534511], [72.8189259186449, 19.1945678967932], [72.8189218082078, 19.189826410195], [72.8148730747364, 19.1872218206752], [72.8148690316566, 19.1824802897287], [72.8108206704724, 19.1798757970024], [72.8108166947356, 19.1751342218878], [72.8148609458991, 19.1729968800822], [72.8189094777135, 19.1756012544104], [72.8189135877421, 19.1803430889429], [72.8229624918233, 19.1829475601299], [72.8270074564561, 19.1808100783958], [72.8270032121044, 19.1760679845036], [72.8310482803221, 19.1739300808601], [72.8310439690113, 19.1691876835042], [72.8269947238227, 19.166583449152], [72.8269904798928, 19.1618410078139], [72.8310353468182, 19.1597025414694], [72.8310310359358, 19.1549597969121], [72.8269819924548, 19.1523557781172], [72.8269777489466, 19.1476129898801], [72.8229290776544, 19.1450090683132], [72.8229249015059, 19.1402662365764], [72.818876602386, 19.1376624124103], [72.8188724935826, 19.1329195373541], [72.8148245666188, 19.1303158107614], [72.8148205251459, 19.1255728925659], [72.8188642763841, 19.1234334413727], [72.8229123738904, 19.126037049145], [72.8269565335145, 19.1238973172375], [72.8269522908497, 19.1191538368432], [72.8229040228384, 19.1165503479478], [72.8228998475198, 19.1118068246588], [72.8188519516071, 19.1092034336405], [72.8188478436202, 19.104459867637], [72.8228914972976, 19.1023194330043], [72.8228873223939, 19.0975755647604], [72.8269310796337, 19.0954347088888], [72.826926837812, 19.0906905385273], [72.8228789730013, 19.0880874837437], [72.8228747985125, 19.0833432710927], [72.8269183545902, 19.0812018535206], [72.82691411319, 19.0764573389973], [72.8228664499495, 19.0738545018098], [72.8228622758754, 19.0691099452998], [72.8188149846228, 19.0665072067037], [72.8188108778602, 19.0617626083871], [72.8228539281418, 19.059620488847], [72.8228497544824, 19.0548755890262], [72.818802664743, 19.0522730686243], [72.8187985583884, 19.0475281272999], [72.8147518405837, 19.0449257058998], [72.8147478015194, 19.0401807232521], [72.8187903460872, 19.0380379020698], [72.8228372343333, 19.0406402039174], [72.8228414075782, 19.0453854465004], [72.8268886677385, 19.0479878474155], [72.8309319250455, 19.0458448862049], [72.8349797274996, 19.0484472665371], [72.8390233928306, 19.0463040248759], [72.8390189511308, 19.0415582625971], [72.8349709783509, 19.038956001799], [72.8349666039938, 19.0342101982042], [72.8309190031034, 19.0316080364322], [72.8309146960747, 19.0268621917016], [72.8268674670575, 19.0242601291283], [72.8268632273425, 19.0195142434424], [72.8228163701821, 19.0169122802401], [72.8187739231161, 19.0190560829921], [72.814727608204, 19.0164540995367], [72.814723569942, 19.0117084331252], [72.8106776268743, 19.0091065493201], [72.8106736558748, 19.0043608423716], [72.8066280846351, 19.0017590583891], [72.8066241808834, 18.997013311084], [72.81066571427, 18.9948690875976], [72.8106617436648, 18.990123039894], [72.8066163737676, 18.9875214758997], [72.8066124704036, 18.9827753881427], [72.8025674722812, 18.9801739243811], [72.8025636361438, 18.975427796751], [72.7985190097798, 18.9728264333943], [72.7985152408545, 18.9680802660714], [72.80255596425, 18.9659352017694], [72.8025521284936, 18.9611887345402], [72.7985077033782, 18.9585875920075], [72.7985039348272, 18.9538410853887], [72.7944598814168, 18.9512400436709], [72.7944561800567, 18.946493497843], [72.7984963980994, 18.9443477332832], [72.802540621986, 18.9469486546321], [72.8065812481428, 18.9448026101917], [72.8106260141328, 18.9474035120614], [72.8146670483109, 18.9452571877014], [72.8187123563426, 18.9478580699946], [72.8227537984489, 18.9457114656759], [72.8227496281048, 18.9409638391374], [72.8187041497492, 18.9383630772514], [72.8187000466562, 18.933615411635], [72.8146549399405, 18.9310147506544], [72.8146509040842, 18.9262670461405], [72.8186918408778, 18.9241197422184], [72.8186877381922, 18.9193717385406], [72.8146428327724, 18.9167712992325], [72.8146387973168, 18.9120232569608], [72.8105942634836, 18.9094229189681], [72.8105902952435, 18.904674838283], [72.8146307268064, 18.9025268350882], [72.8186754309504, 18.9051270523638], [72.8227162703207, 18.902978769388], [72.8267615162838, 18.9055789673368], [72.8267657526314, 18.91032756897], [72.8308113701565, 18.9129278681934], [72.8308156737641, 18.9176764312985], [72.8348616628676, 18.9202768316243], [72.8348660337499, 18.9250253560209], [72.8389123944482, 18.9276258572769], [72.8389168326196, 18.9323743427843], [72.8429635649288, 18.9349749447983], [72.8429680704039, 18.939723391236], [72.8470151743406, 18.9423240938357], [72.8470197471338, 18.9470725010232], [72.8429770818016, 18.9492199454523], [72.8429815877242, 18.9539680531085], [72.8470288931745, 18.9565689764354], [72.8470334664219, 18.9613170445377], [72.8510811435527, 18.9639180680399], [72.8510857841396, 18.9686660964079], [72.8551338329672, 18.9712672199129], [72.8551385409079, 18.976015208366], [72.8510950657743, 18.9781618133269], [72.8510997068222, 18.9829095017558], [72.8470563349309, 18.9850556865656], [72.847060909087, 18.9898030748464], [72.851108989379, 18.9924045382463], [72.8551526656657, 18.9902584933621], [72.8592012878506, 18.9928599363504], [72.8592060636342, 18.9976075441618], [72.8551620829505, 18.9997534491123], [72.8551667918268, 19.00450075653], [72.859215615676, 19.0071024188108], [72.8592203919342, 19.0118496855261], [72.8632695875865, 19.0144514469886], [72.8673141770696, 19.0123058219293], [72.8713639146018, 19.0149075626595], [72.871368892598, 19.0196550481909], [72.8754190019451, 19.0222568878232], [72.8794643033063, 19.0201111221924], [72.8835149544664, 19.0227129408875], [72.8835201342912, 19.0274606448806], [72.887571157278, 19.0300625621982], [72.8916171703716, 19.0279166558659], [72.8956687351044, 19.0305185520414], [72.8997151554593, 19.0283723650524], [72.9037672618753, 19.0309742399881], [72.9037727780992, 19.0357224214958], [72.9078252563489, 19.0383243946669], [72.9118723881692, 19.0361780667577], [72.9159254080347, 19.0387800184838], [72.9199729469012, 19.03663340979], [72.9240265083195, 19.0392353399733], [72.9280744541378, 19.0370884504558], [72.9280685342861, 19.0323394910771], [72.932116582745, 19.0301921810688], [72.9361708552649, 19.0327939700663], [72.9361769097218, 19.0375431886177], [72.9402315540564, 19.0401450754216], [72.9442803134954, 19.0379976241389], [72.9442741244022, 19.0332481464735], [72.9483229863473, 19.0311002747208], [72.9523783415403, 19.0337020201618], [72.952384665301, 19.0384517568822], [72.9483354991934, 19.0405994891061], [72.9483417559275, 19.0453489248264], [72.9442926922973, 19.047496236523], [72.9442988820059, 19.0522453711195], [72.9402499208916, 19.0543922622213], [72.9402560435758, 19.0591410955701], [72.9362071850162, 19.0612875660096], [72.9362132406772, 19.0660360979872], [72.9321644847109, 19.0681821476972], [72.9281099773687, 19.0655798051877], [72.9240616283402, 19.0677255739154], [72.924067482356, 19.0724735453386], [72.9200192360268, 19.0746188932593], [72.9200250230304, 19.0793665630634], [72.9240791909695, 19.0819691440064], [72.9240850455674, 19.0867167711289], [72.9281395854575, 19.0893194492041], [72.9281455076641, 19.0940670334645], [72.9240967553452, 19.0962116806461], [72.9241026105252, 19.1009589629187], [72.9281573526662, 19.1035618569541], [72.9281632754617, 19.1083090960614], [72.9322183896065, 19.1109120868172], [72.936267750659, 19.1087677195307], [72.9403234064983, 19.1113706879637], [72.9403295316184, 19.1161181425538], [72.9443855594728, 19.1187212074265], [72.9443917522598, 19.1234686184319], [72.9403417824678, 19.1256127057934], [72.9403479081971, 19.1303598143209], [72.9444041384499, 19.132963094199], [72.9444103318529, 19.1377101588387], [72.940360160265, 19.1398536848866], [72.9403662866036, 19.1446004468029], [72.944422719275, 19.1472039413257], [72.944428913294, 19.1519506590511], [72.9484857180703, 19.1545542493626], [72.9484919797843, 19.1593009227166], [72.9525491566814, 19.1619046086436], [72.9566002414798, 19.1597615027314], [72.9606579601004, 19.1623651656803], [72.9647094517664, 19.1602217782606], [72.9687677120469, 19.1628254181329], [72.9687743111412, 19.1675725638362], [72.9728329435486, 19.1701762989349], [72.9728396104117, 19.174923399789], [72.9768986149618, 19.1775272299407], [72.9769053496083, 19.1822742857647], [72.9809647263171, 19.184878210796], [72.9809715287615, 19.1896252214094], [72.9850312776448, 19.1922292411467], [72.9890843934977, 19.1900861320662], [72.989077456104, 19.1853388632656], [72.9850175378144, 19.1827349617333], [72.985010668241, 19.1779876476636], [72.9890635820069, 19.1758439769401], [72.9890566453035, 19.171096359537], [72.9849969297778, 19.1684926711029], [72.9849900608879, 19.1637450087338], [72.9890427725869, 19.1616007765548], [72.9890358365737, 19.1568528110977], [72.9849763237915, 19.1542493361227], [72.984969455585, 19.1495013260026], [72.9890219652374, 19.147356532556], [72.9890150299143, 19.1426082195934], [72.9930676417765, 19.1404630048004], [72.9930606393356, 19.1357143891186], [72.9890011599581, 19.1331112465898], [72.9889942253249, 19.1283625866708], [72.9849351179691, 19.1257595396964], [72.9849282511291, 19.121010835721], [72.9889803567485, 19.1188649203033], [72.9889734228053, 19.114115913977], [72.9930256306146, 19.1119695774612], [72.9930186295669, 19.1072202689074], [72.9970709395273, 19.1050735113608], [72.9970638713742, 19.100323900703], [72.9930046281681, 19.0977213060658], [72.992997627817, 19.0929716519003], [72.9970497357712, 19.0908243338996], [72.9970426683212, 19.0860743778764], [72.992983627811, 19.0834719983851], [72.9929766281561, 19.0787219991577], [72.988917959536, 19.0761197160035], [72.984866459815, 19.0782673129629], [72.9808083323423, 19.0756650071401], [72.9808015353096, 19.0709152235366], [72.9848527309159, 19.0687674871091], [72.9848458668077, 19.0640174020161], [72.9888971646028, 19.0618692449211], [72.9929556305842, 19.0644713123296], [72.9970073345864, 19.0623228739884], [72.9970002685424, 19.0575722288845], [73.0010520746271, 19.0554233699539], [73.0010449414965, 19.0506724236092], [73.0050968496249, 19.0485231441569], [73.0050896494068, 19.0437718966953], [73.001030675945, 19.0411701873295], [73.0010235435239, 19.0364188975169], [73.0050752496866, 19.0342690584288], [73.0050680501846, 19.0295174677464], [73.0091198583424, 19.0273672083297], [73.0091125917583, 19.0226153169015], [73.0050536518967, 19.0200139435893], [73.0050464531108, 19.0152620102372], [73.009098059313, 19.0131111915001], [73.0090907934518, 19.0083589576495], [73.0131425016003, 19.0062077187773], [73.0131351686626, 19.0014551845524], [73.0171869787187, 18.9993035256133], [73.0212464255587, 19.0019045398435], [73.0252986413086, 18.9997525997934], [73.0293586287137, 19.0023535915581], [73.0334112500621, 19.0002013703582], [73.0374717779679, 19.0028023395594], [73.0374795156957, 19.0075556496919], [73.0415404152593, 19.0101567159528], [73.0415482208675, 19.0149099842336], [73.0456094921046, 19.0175111473808], [73.0456173656079, 19.0222643736286], [73.0496790085342, 19.0248656334886], [73.053732946701, 19.0227135475115], [73.0577951300469, 19.0253147843868], [73.0618494735375, 19.0231624170334], [73.0659121972383, 19.0257636308258], [73.0699669459569, 19.0236109820575], [73.0740302099479, 19.0262121726688], [73.0740385566313, 19.0309661315537], [73.07810219231, 19.0335674183808], [73.0821576498506, 19.0314146268286], [73.0862218257488, 19.0340158902686], [73.0902776882973, 19.0318628171743], [73.090269071278, 19.0271083420193], [73.0862047269014, 19.0245071980645], [73.0821491680147, 19.026660409779], [73.0780853637985, 19.0240592424468], [73.0780769499614, 19.0193049829506], [73.0821322051871, 19.0171516326237], [73.0821237241954, 19.0123970726408], [73.0861790807573, 19.0102433022776], [73.0861705326098, 19.0054884419325], [73.0902259904692, 19.0033342516017], [73.0942903000711, 19.005935060113], [73.0983461627626, 19.0037805883233], [73.0983374122708, 18.9990251695817], [73.0942729342827, 18.9964244807893], [73.0942642518205, 18.9916690200941], [73.0902001454135, 18.9890684278462], [73.0901915309665, 18.9843129253787], [73.0861277961251, 18.9817124298491], [73.0861192496786, 18.9769568857907], [73.0901743029296, 18.9748015789887], [73.094238206162, 18.9774019546118], [73.0982936641655, 18.9752463664732], [73.0982849154151, 18.9704902644014], [73.1023404745894, 18.9683342566281], [73.1064050859918, 18.9709344891857], [73.1104610497544, 18.9687782000487], [73.1145262009084, 18.9713784094054], [73.118582569163, 18.9692218388664], [73.1185734828277, 18.9644649208181], [73.1226299520781, 18.9623079307365], [73.1266958110558, 18.9649079968052], [73.1307526846337, 18.9627507252948], [73.1348190831729, 18.9653507679763], [73.1348284400639, 18.9701082021477], [73.1307712631145, 18.9722653356055], [73.1267050326534, 18.9696651729449], [73.1226482600032, 18.9718220249241], [73.1226574144213, 18.9765789014542], [73.1267234767665, 18.979179184038], [73.1307805528172, 18.9770224701689], [73.1348471547771, 18.9796227292477], [73.1389046350986, 18.9774657338502], [73.1429717766076, 18.9800659693258], [73.1429812697678, 18.9848233200469], [73.1389234860734, 18.9869801773764], [73.1389329120299, 18.9917372282426], [73.1348752291756, 18.9938936658681], [73.1348845879295, 18.9986504167544], [73.1389517648813, 19.0012509878737], [73.1430097511385, 18.9990946883814], [73.1470774676866, 19.0016952356716], [73.1470870299551, 19.0064522021144], [73.1430287402942, 19.0086083634658], [73.1389611917762, 19.0060076965157], [73.1349033063689, 19.0081635761773], [73.1349126660544, 19.0129199845911], [73.130854881536, 19.015075444353], [73.1267880408011, 19.01247463395], [73.122730660701, 19.0146298120492], [73.1186643597468, 19.0120289778955], [73.1146073841617, 19.0141838743704], [73.1146164060196, 19.0189394666437], [73.1105595314986, 19.0210939431273], [73.1105684861667, 19.0258492349197], [73.1065117127488, 19.0280032913432], [73.1065206002282, 19.03275828253], [73.1105863963943, 19.0353594752192], [73.1105953519538, 19.0401144236036], [73.1065383760716, 19.0422679213704], [73.1065472644356, 19.0470225689014], [73.1024903897052, 19.0491756464135], [73.098424930254, 19.0465742149804], [73.094368460379, 19.0487270108119], [73.0903035410705, 19.0461255556774], [73.0862474761471, 19.0482780698672], [73.0862560268472, 19.0530319004994], [73.0822000632507, 19.0551839943438], [73.082208546775, 19.059937523871], [73.0862731290985, 19.062539217545], [73.0862816806497, 19.0672927038358], [73.0903466347443, 19.069894492965], [73.0944032057856, 19.0677426766277], [73.0943945190016, 19.0629889324036], [73.0984511913115, 19.0608366956063], [73.1025168540923, 19.0634383417402], [73.1065739312974, 19.0612858232015], [73.110640134209, 19.0638874454179], [73.1106490915517, 19.0686417053299], [73.1147156662166, 19.071243422677], [73.1147246916676, 19.0759976389965], [73.1187916381012, 19.0785994513005], [73.1188007316752, 19.0833536238461], [73.1147427434682, 19.0855057263898], [73.1147517698178, 19.0902595973411], [73.110693882724, 19.0924112792641], [73.1066272729856, 19.0898092289659], [73.1066183819667, 19.0850556157134], [73.1025521440399, 19.0824536602406], [73.0984949655503, 19.084605199041], [73.0944292678669, 19.082003219523], [73.0903724943804, 19.08415447651], [73.0863073370058, 19.0815524730452], [73.0862987846033, 19.0767993316472], [73.0822339990367, 19.074197423398], [73.0781779344306, 19.0763485374824], [73.0781863516179, 19.0811014209446], [73.0741303884262, 19.0832521144216], [73.0741387384331, 19.0880046962833], [73.0782031868302, 19.0906068426045], [73.0782116048554, 19.0953593806798], [73.074155439278, 19.0975095144952], [73.0700911595225, 19.094907249222], [73.070082876695, 19.0901549690849], [73.0660189687959, 19.087552799004], [73.0660107539643, 19.0828004751388], [73.0700663118643, 19.0806500633584], [73.0700580298611, 19.0758974378915], [73.0659943251186, 19.0732954822602], [73.0659861111046, 19.0685428133692], [73.0619227781661, 19.0659409533434], [73.0619146321266, 19.0611882412095], [73.0659696838939, 19.0590371309901], [73.0659614706973, 19.0542841176245], [73.0618983408583, 19.0516824726486], [73.0618901956295, 19.0469294163443], [73.0578274375421, 19.044327867387], [73.0578193602664, 19.039574768325], [73.053756973915, 19.03697331556], [73.0537489645781, 19.0322201739215], [73.049686949947, 19.0296188175223], [73.0456331133978, 19.031770483293], [73.0456409876845, 19.036523366587], [73.0415872527918, 19.038674612083], [73.0375259474509, 19.0360731132118], [73.0334726181133, 19.0382240773485], [73.0334802902645, 19.0429764013735], [73.0294270626899, 19.0451269451566], [73.0294346677259, 19.0498789681923], [73.0334956353302, 19.0524807058505], [73.0335033082447, 19.05723268618], [73.0294498785545, 19.0593826704433], [73.0294574843471, 19.0641343495363], [73.0335186548373, 19.0667363027147], [73.0335263285153, 19.0714879387975], [73.0294726966892, 19.0736373633512], [73.0254116951405, 19.0710352909853], [73.0213584691127, 19.073184434087], [73.0213659406648, 19.0779355103351], [73.0254267732343, 19.0805377018324], [73.0254343126562, 19.0852887348247], [73.0213808845124, 19.0874373179666], [73.0213883568079, 19.0921880492278], [73.0254493922503, 19.0947904556407], [73.0254569324224, 19.0995411433423], [73.0295183397704, 19.102143645422], [73.0295259478338, 19.1068942893829], [73.0335877271032, 19.1094968869557], [73.0335954030723, 19.1142474869951], [73.0295411647177, 19.1163952312824], [73.0295487735382, 19.1211455290988], [73.025494637035, 19.1232928523399], [73.0214331957859, 19.1206900171786], [73.0214257220032, 19.1159399775419], [73.0173646527178, 19.1133372377424], [73.0133112262951, 19.1154844188034], [73.0133185650712, 19.1202342002013], [73.0173794652687, 19.1228370587765], [73.0173868719128, 19.1275867960657], [73.0133332433536, 19.1297334165394], [73.0092725122818, 19.1271304392446], [73.0052192898718, 19.129276778104], [73.0052264943892, 19.1340259546816], [73.0092870562978, 19.1366290506399], [73.0092943286676, 19.1413781828638], [73.005240904141, 19.1435239608873], [73.0052481093754, 19.1482727903934], [73.0011947869233, 19.150418147091], [73.0012019250233, 19.1551666737561], [73.0052625205611, 19.157770101907], [73.0052697265125, 19.1625185837925], [73.0012162019336, 19.1646633793419], [73.0012233407439, 19.1694115581408], [73.0052841391323, 19.1720151995159], [73.0052913458008, 19.176763333232], [73.001237619075, 19.1789075674455], [73.0012447585957, 19.1836553978294], [72.9971911340031, 19.1857992104023], [72.9971982063772, 19.1905467373311], [72.9931446839566, 19.1926901281965], [72.9931516891852, 19.1974373515473], [72.9890982689754, 19.1995803206385], [72.9891052070596, 19.2043272402884], [72.9931657003394, 19.2069314489171], [72.9931727062652, 19.2116783228143], [72.9972335717672, 19.2142826256282], [72.9972406455492, 19.219029453592], [72.9931867188139, 19.221171720729], [72.993193725437, 19.2259182446248], [72.9972547938172, 19.228522759337], [72.9972618683032, 19.2332692369966], [72.9932077393804, 19.235410941989], [72.9932147467008, 19.2401571153358], [72.9891607200188, 19.2422983981844], [72.9891676601747, 19.2470442670959], [72.9851137357722, 19.2491851277343], [72.9851206087647, 19.253930692088], [72.9891815411772, 19.2565356536997], [72.9891884820239, 19.2612811712704], [72.9851343554337, 19.263421469332], [72.9810735925109, 19.2608163901236], [72.9770198727841, 19.2629564061427], [72.977026611453, 19.2677013610139], [72.9729729941223, 19.2698409546242], [72.9729796656311, 19.2745856045707], [72.9689261507354, 19.276724775706], [72.96486626893, 19.2741194373582], [72.9608131611281, 19.2762583264719], [72.9567538214115, 19.2736529641086], [72.9567474198066, 19.2689088301343], [72.9526884525013, 19.2663035613669], [72.9526821186679, 19.2615593805414], [72.9567346172336, 19.2594202104097], [72.9607937542424, 19.2620253616086], [72.9648466599568, 19.2598859095543], [72.964840124066, 19.2551411658517], [72.9688931322729, 19.2530012914355], [72.9688865292376, 19.248256243052], [72.964827052935, 19.2456513271587], [72.9648205176946, 19.2409062322899], [72.9607614137243, 19.2383014103625], [72.9607549462643, 19.2335562691889], [72.9648074478642, 19.2314156918115], [72.9648009132741, 19.2266702463234], [72.9607420119879, 19.2240656364034], [72.9566898149163, 19.226206354103], [72.952631455563, 19.2236017206279], [72.9526251236201, 19.2188564873863], [72.9485671365513, 19.2162519483977], [72.948560872345, 19.2115066693928], [72.9445032575447, 19.2089022250641], [72.9444970610605, 19.2041569004766], [72.9404398185128, 19.2015525509812], [72.9404336897362, 19.1968071809915], [72.9444846687086, 19.1946659020738], [72.9444784728408, 19.1899202283802], [72.9404214327925, 19.187316092087], [72.9363707583413, 19.1894575112914], [72.9323142602506, 19.1868533519828], [72.9323082668453, 19.1821078917303], [72.9363586367768, 19.1799663322464], [72.936352576296, 19.1752205685343], [72.9322962806308, 19.1726166229057], [72.9322902878217, 19.1678708144553], [72.9282343643241, 19.1652669644189], [72.928228439172, 19.1605211114106], [72.9322783027994, 19.1583788497826], [72.9322723105863, 19.1536326936821], [72.9282165894572, 19.151029057925], [72.9282106648944, 19.1462828575695], [72.9241553158799, 19.1436793178166], [72.9241494589528, 19.1389330733866], [72.928198816358, 19.1367901099375], [72.9281928923844, 19.132043562783], [72.9241377456812, 19.1294402379087], [72.920088692731, 19.1315833414872], [72.9160340878975, 19.1289799942623], [72.9119854422075, 19.1311228166502], [72.9079313793067, 19.1285194471728], [72.9079257922218, 19.1237733740831], [72.903872101392, 19.121170101237], [72.899824167564, 19.1233127826947], [72.899829620066, 19.1280585967782], [72.9038831409712, 19.1306619884097], [72.9038886610352, 19.135407758896], [72.8998405256123, 19.1375498787437], [72.8957871746693, 19.1349463683832], [72.8957817891792, 19.1302008569036], [72.8917288103326, 19.1275974432162], [72.8876813869886, 19.1297394222697], [72.8876866379359, 19.134484674684], [72.8836393176389, 19.1366262323288], [72.8795870509921, 19.1340226779364], [72.8795819345561, 19.129277684646], [72.8836289502633, 19.1271359866247], [72.8836237668332, 19.1223906907294], [72.8795717021928, 19.1197873520379], [72.8755249910738, 19.1219291904282], [72.8755300400149, 19.1266742271415], [72.8714834320385, 19.1288156441702], [72.8714884139944, 19.1335603782782], [72.875540138399, 19.1361639545393], [72.875545187842, 19.140908645102], [72.8714983784016, 19.1430495002202], [72.8674468241711, 19.1404458052588], [72.8634004225955, 19.1425863793652], [72.8593494107278, 19.1399826626243], [72.8553034171109, 19.1421229557587], [72.8553081306692, 19.146866825046], [72.8593589722673, 19.14947066044], [72.8593637532747, 19.1542144859955], [72.8553175582543, 19.1563542169144], [72.8553222722811, 19.1610977393739], [72.8593733157648, 19.1637017900979], [72.8593780972474, 19.1684452685232], [72.8634295129399, 19.1710494158076], [72.8674763174232, 19.1689099662017], [72.8715282755858, 19.1715140914735], [72.8755754880146, 19.1693743607381], [72.8755704375674, 19.1646303641196], [72.8796177531691, 19.1624902116535], [72.8836704238888, 19.1650941963668], [72.8836756088652, 19.1698384519943], [72.8796279885848, 19.1719784638989], [72.8796331065471, 19.1767224161866], [72.8755855894111, 19.1788620063037], [72.8715332590278, 19.1762577847519], [72.8674861498105, 19.1783970936903], [72.8674910662485, 19.1831404835062], [72.8634440602813, 19.1852793705816], [72.8634489097165, 19.1900224568126], [72.8675008996134, 19.1926269149774]], [[72.8754997488778, 19.0982022791527], [72.8754947009404, 19.0934565517823], [72.8795410091712, 19.0913135903809], [72.8795358942608, 19.0865675610188], [72.8754846055673, 19.0839647524136], [72.8714386018628, 19.0861078540475], [72.8673878552549, 19.0835050240305], [72.8633422592542, 19.0856478448886], [72.8592920547945, 19.0830449935578], [72.8552468665913, 19.0851875336795], [72.851197204342, 19.0825846611329], [72.8471524240299, 19.0847269205578], [72.8471570013686, 19.0894719121497], [72.8512064933575, 19.0920749038462], [72.8552515782759, 19.0899327848016], [72.8593016125332, 19.0925357552731], [72.8633471053161, 19.0903933554825], [72.8673976817795, 19.092996304631], [72.867402595286, 19.0977417726461], [72.8714535437693, 19.1003448194396], [72.8754997488778, 19.0982022791527]], [[72.8592586076953, 19.049823716566], [72.8592633853775, 19.0545699566949], [72.8633131862539, 19.0571723731591], [72.8673583795875, 19.0550284300539], [72.8673534675458, 19.0502819303393], [72.8633034965379, 19.0476796333161], [72.8592586076953, 19.049823716566]], [[72.8916277994024, 19.037412240599], [72.8875764045729, 19.0348102248318], [72.8835304944555, 19.0369557106224], [72.8835356747951, 19.041703072249], [72.8794898676927, 19.0438481374308], [72.8794949810781, 19.0485951979267], [72.8835460359891, 19.0511974527081], [72.8875921475005, 19.0490525275153], [72.8875868996841, 19.0443052075515], [72.8916331141819, 19.0421598616927], [72.8916277994024, 19.037412240599]], [[72.9078978595744, 19.1000412797759], [72.9038500244288, 19.1021849437978], [72.9038555433952, 19.106931405892], [72.9079090320779, 19.1095344630267], [72.9119571716724, 19.1073909391044], [72.9119515181275, 19.1026442179472], [72.9078978595744, 19.1000412797759]], [[72.859421137723, 19.211131354634], [72.859416354814, 19.2063889208809], [72.8553647055531, 19.2037842263285], [72.8513180095676, 19.2059218474191], [72.8513226580013, 19.2106640221618], [72.855374136888, 19.2132688348236], [72.859421137723, 19.211131354634]], [[72.8957171772179, 19.0732457352883], [72.8916650065572, 19.0706431865882], [72.8876183891909, 19.0727874109327], [72.8876236380506, 19.0775340439086], [72.8916756387579, 19.0801367118345], [72.8957225605667, 19.0779926275593], [72.8957171772179, 19.0732457352883]], [[72.9241143214675, 19.1104531821871], [72.9200597490803, 19.1078501692068], [72.9160112022388, 19.109993974211], [72.916016923369, 19.1147406521384], [72.920071325965, 19.1173437840074], [72.9241201772297, 19.1152001190608], [72.9241143214675, 19.1104531821871]], [[73.0865640410977, 19.224092924672], [73.0865554801759, 19.219343262477], [73.0824886610594, 19.2167392283422], [73.0824801682396, 19.2119895195694], [73.0865383591848, 19.2098435875716], [73.0865297991155, 19.2050935749831], [73.0905880914958, 19.2029472212667], [73.090579464176, 19.1981969049857], [73.0865126798293, 19.1955931998394], [73.0865041206123, 19.1908428374063], [73.0824377083686, 19.188239225559], [73.08242921724, 19.1834888171547], [73.0864870030308, 19.1813417631226], [73.0905535839347, 19.183945256823], [73.0905622103955, 19.1886959227029], [73.094629163381, 19.1912995097678], [73.0946378579524, 19.1960501296179], [73.098705183035, 19.1986538098734], [73.1027639821336, 19.1965067522073], [73.1068318478869, 19.1991104074731], [73.1068407459913, 19.2038612384112], [73.1109089838512, 19.2064649865846], [73.1109179501177, 19.2112157710723], [73.1068585430864, 19.2133625501458], [73.1027904737631, 19.2107586840319], [73.0987314719973, 19.2129051807075], [73.0987402355666, 19.2176554041409], [73.0946813351387, 19.2198014790515], [73.094690031442, 19.2245513985479], [73.0906312323909, 19.2266970516263], [73.0906398614292, 19.2314466670624], [73.0865811637939, 19.2335918982416], [73.0825141412106, 19.230987653505], [73.0825056475449, 19.226238295371], [73.0865640410977, 19.224092924672]], [[73.1230880149218, 19.2000226802555], [73.1230971839352, 19.2047740256126], [73.1190372705724, 19.2069215088002], [73.1149684921132, 19.2043177858239], [73.1149594585699, 19.1995666976465], [73.1190190680234, 19.197419075266], [73.1230880149218, 19.2000226802555]], [[73.1353529218864, 19.2363412110174], [73.1394140508944, 19.2341942846701], [73.1434848584191, 19.2367983513693], [73.1434943686119, 19.2415494620748], [73.1394329356907, 19.2436962491951], [73.1394423785593, 19.2484470555999], [73.1435133899453, 19.251051331711], [73.1435229010858, 19.2558020905197], [73.14759428468, 19.2584064582097], [73.147603864107, 19.2631571692411], [73.1435419243145, 19.2653032558134], [73.1394707090468, 19.2626987706517], [73.1354091742242, 19.2648445744369], [73.1313384995724, 19.2622400633069], [73.1313291913494, 19.2574898658729], [73.1272588889337, 19.2548854463651], [73.1272496489525, 19.2501352012717], [73.1231797187573, 19.2475308735603], [73.1231705470035, 19.2427805809885], [73.1191009890135, 19.2401763452481], [73.1190918854723, 19.235426005379], [73.1150226996722, 19.2328218617837], [73.1150136643291, 19.2280714747984], [73.1109448507034, 19.2254674235227], [73.1109358835438, 19.2207169896023], [73.1149955945429, 19.2185703498352], [73.1190645766623, 19.2211742833016], [73.1190736792967, 19.2259249743448], [73.1231430335691, 19.2285290001963], [73.1231522044093, 19.2332796442455], [73.12722193085, 19.2358837623078], [73.1312826548709, 19.2337371185871], [73.1353529218864, 19.2363412110174]], [[72.8110674236487, 19.4736247006623], [72.8110714076961, 19.4783588560426], [72.8070230303913, 19.4804839115665], [72.8029709746308, 19.4778749541005], [72.8029671251248, 19.4731410569607], [72.8070151968458, 19.471015859047], [72.8110674236487, 19.4736247006623]], [[73.163804061917, 19.2308120035085], [73.1638139107093, 19.2355639319822], [73.1597515673218, 19.2377117064457], [73.1556796789765, 19.2351076915061], [73.1556699658368, 19.2303560197978], [73.1597320053976, 19.2282081062641], [73.163804061917, 19.2308120035085]], [[72.8677370960711, 19.4201607689713], [72.8677420208296, 19.4248981638216], [72.8636915865629, 19.4270274595488], [72.859636532822, 19.4244195022224], [72.8596317427716, 19.4196823654434], [72.8636818717619, 19.4175529279199], [72.8677370960711, 19.4201607689713]], [[73.0661340050612, 19.1540732165278], [73.0661422239823, 19.1588238070062], [73.062085755722, 19.1609709969725], [73.0580213725648, 19.1583677358109], [73.0580132888553, 19.1536174031017], [73.053949277729, 19.1510142362172], [73.0539412620127, 19.1462638585005], [73.0579971222411, 19.144116389841], [73.0620613021935, 19.1467194382409], [73.0620694530992, 19.1514700737852], [73.0661340050612, 19.1540732165278]], [[73.1510395776301, 18.951960863187], [73.1510492042425, 18.956719154167], [73.1469914215468, 18.9588774080882], [73.1470009809601, 18.9636353997125], [73.1429432990169, 18.9657932341951], [73.1388763609818, 18.9631932149989], [73.1388669369016, 18.9584354813447], [73.1429243155311, 18.9562775089171], [73.1429148242606, 18.9515194759053], [73.1469723036717, 18.9493610840969], [73.1510395776301, 18.951960863187]], [[72.8554496100784, 19.2891289005773], [72.8554448918312, 19.2843885241589], [72.8513924029971, 19.2817826462637], [72.8513877522518, 19.2770422232725], [72.855435455806, 19.2749074194581], [72.855430738028, 19.2701666912967], [72.8594785449988, 19.2680314648118], [72.8635313747119, 19.2706371076498], [72.8675795900044, 19.2685015996655], [72.8675746706321, 19.2637603077367], [72.8716229892353, 19.2616243771562], [72.8716180028191, 19.2568827803006], [72.8756664246945, 19.2547464271893], [72.8797201378668, 19.2573518119334], [72.8797252588838, 19.2620936674496], [72.8837793444938, 19.2646991469347], [72.883784533081, 19.2694409561264], [72.8878389911451, 19.2720465301794], [72.8918884308387, 19.2699101774554], [72.8959434315611, 19.2725157283826], [72.8959488224098, 19.2772577495546], [72.8918990778514, 19.2793939613138], [72.8919044016225, 19.2841356773156], [72.8878547601835, 19.2862714663842], [72.8878600168782, 19.2910128770941], [72.8838104785972, 19.2931482434065], [72.8838156682167, 19.2978893487029], [72.8797662331324, 19.3000242921939], [72.8797713556777, 19.3047650919551], [72.8757220238288, 19.3068996125595], [72.8716678744215, 19.3042934745932], [72.8676189508542, 19.3064277134919], [72.8676238716945, 19.3111679491113], [72.8635750514685, 19.3133017650493], [72.8595216154443, 19.3106954866638], [72.8554732036609, 19.3128290209276], [72.8514203107068, 19.3102227194608], [72.8514156590364, 19.3054830009865], [72.8473631386649, 19.302876793803], [72.8473585544952, 19.2981370283327], [72.8433064066899, 19.2955309156058], [72.8433018900065, 19.2907911033194], [72.8473493866118, 19.2886571450418], [72.8514017049502, 19.2912631403811], [72.8554496100784, 19.2891289005773]], [[73.0414701764315, 18.9673721745624], [73.0414779797107, 18.9721264674796], [73.0374253569891, 18.97428008707], [73.0374330931776, 18.979034080237], [73.0333805721408, 18.981187280045], [73.0333882412396, 18.9859409733371], [73.0293358219263, 18.9880937532943], [73.0252760372892, 18.9854929787327], [73.0212240235344, 18.9876454776007], [73.017164779409, 18.9850446806908], [73.0171573801297, 18.9802915048403], [73.0130985076204, 18.9776908056176], [73.0130911761412, 18.9729375886978], [73.0090326752325, 18.9703369873357], [73.0090254115388, 18.9655837295278], [73.0130765139119, 18.9634308142162], [73.0130691831617, 18.9586772567772], [73.0090108848736, 18.9560768735742], [73.0090036219023, 18.9513232755514], [73.0130545223905, 18.9491698018094], [73.017112989605, 18.9517700648308], [73.0211642956949, 18.9496163102092], [73.0252233033197, 18.9522165512241], [73.029275014916, 18.9500625156843], [73.0333345628868, 18.9526627345948], [73.0333422304602, 18.9574171092078], [73.0374021499627, 18.9600174260687], [73.0374098853817, 18.9647717599245], [73.0414701764315, 18.9673721745624]], [[73.0498696751639, 19.1389103635237], [73.0498776229016, 19.1436607860669], [73.0458221683843, 19.1458079728555], [73.0458300489424, 19.1505580926853], [73.0417746961607, 19.1527048581997], [73.0417825095402, 19.1574546751925], [73.037727258533, 19.1596010193654], [73.0377350047349, 19.1643505333979], [73.0336798555411, 19.166496456162], [73.0336875345666, 19.171245667111], [73.03775049791, 19.1738492131849], [73.037758244883, 19.1785983788173], [73.033702893382, 19.180743740485], [73.0296400990751, 19.1781400761412], [73.0255851536245, 19.1802851558861], [73.0255926983004, 19.1850337602982], [73.029655323533, 19.187637542856], [73.0296629361409, 19.1923861017068], [73.0256077884031, 19.1945306201076], [73.0215453322824, 19.191926719392], [73.0174905907307, 19.1940709558496], [73.0134286759291, 19.1914670311323], [73.0134213335005, 19.1867189881242], [73.0174757708073, 19.1845746118829], [73.0174683612143, 19.1798262654211], [73.0134066493741, 19.1772225532103], [73.0133993076762, 19.1724741614264], [73.0174535427658, 19.1703292238451], [73.0174461339103, 19.1655805288528], [73.0215004709876, 19.1634351697749], [73.0214929949733, 19.1586861716975], [73.0255474339997, 19.1565403911902], [73.0255398908255, 19.1517910901509], [73.029594431762, 19.1496448882812], [73.0295868214269, 19.1448952844033], [73.0336414642347, 19.1427486612387], [73.0336337867376, 19.1379987546455], [73.0376885313778, 19.1358517102532], [73.0417512575775, 19.138454711889], [73.0458064080525, 19.1363073857148], [73.0498696751639, 19.1389103635237]], [[73.0496154867118, 18.9868360516873], [73.0496075476689, 18.9820818411908], [73.0536608794008, 18.9799280791106], [73.0577224538518, 18.9825286661502], [73.0577305279134, 18.9872831351598], [73.061792473953, 18.9898838193486], [73.065846514545, 18.9877299146486], [73.0699090007738, 18.9903305759992], [73.0699172778334, 18.9950852618644], [73.0658629335845, 18.9972390279827], [73.0618006159407, 18.9946382468181], [73.05774667684, 18.9967917316431], [73.0536848994443, 18.9941909276306], [73.0496313655875, 18.9963441312009], [73.0455701285047, 18.9937433044385], [73.0455622565679, 18.9889893939387], [73.0496154867118, 18.9868360516873]], [[72.9440699993355, 18.8764516646121], [72.9440761816653, 18.8812048796596], [72.9400296393289, 18.8833584803583], [72.9359772185296, 18.8807590048679], [72.9319310825153, 18.8829123253252], [72.927879202554, 18.8803128293778], [72.9278732891707, 18.8755601338597], [72.9319191212988, 18.8734066744954], [72.9359711706886, 18.8760060495557], [72.940017409166, 18.8738523099992], [72.9440699993355, 18.8764516646121]], [[73.0663806913942, 19.2965402023574], [73.070439286603, 19.2943982061984], [73.0704309922216, 19.2896508183958], [73.0744896890608, 19.2875083997568], [73.0785569845339, 19.2901135087995], [73.0785654143022, 19.2948611537316], [73.0745064132027, 19.297003432491], [73.0745147756901, 19.3017507721371], [73.070455876192, 19.30389262836], [73.0704641713996, 19.3086396625976], [73.0745315014979, 19.311245097683], [73.0745398648184, 19.3159920834612], [73.0704807626411, 19.3181333770823], [73.0664136014707, 19.3155278249244], [73.0664053735418, 19.3107810962177], [73.0623385848027, 19.3081756355931], [73.0582801929719, 19.3103167865929], [73.054213945657, 19.3077113005282], [73.0542059211566, 19.302964780611], [73.050140046263, 19.3003593863625], [73.0501320898162, 19.2956128182845], [73.0460665873283, 19.2930075160263], [73.0460586989204, 19.2882608999684], [73.0501161777148, 19.2861193288614], [73.0541818492538, 19.2887245138412], [73.0582397341592, 19.2865826602634], [73.0623059470745, 19.2891878200301], [73.0623141061002, 19.2939349506437], [73.0663806913942, 19.2965402023574]]]}}