{"type": "Feature", "geometry": {"type": "MultiPolygon", "coordinates": [[[[29.962098247929163, -18.873509500833286], [29.963139501044992, -18.86927385346756], [29.965717631494122, -18.867366103420068], [29.968601049876497, -18.867785067462666], [29.972477113477993, -18.871236648561116], [29.97284754135531, -18.87446899344997], [29.969802451711452, -18.880163171196813], [29.975977722256495, -18.888351530570382], [29.97409569616532, -18.89348627168201], [29.968130722753482, -18.893804673827205], [29.96526844951727, -18.891885295987088], [29.966339246101885, -18.881966170594538], [29.962107163734046, -18.8772238576614], [29.962098247929163, -18.873509500833286]]], [[[29.771852543008713, -18.920339690286305], [29.772519806978927, -18.916591253375465], [29.77790999183294, -18.912272291712465], [29.791040025536425, -18.91966788353599], [29.797167830264268, -18.915383732294384], [29.80451472426493, -18.91499299482566], [29.80689322273336, -18.91129189566505], [29.80846802697576, -18.902672538200388], [29.81638280602735, -18.901242200757764], [29.820102203985492, -18.896842828075755], [29.825968913665236, -18.894327802436216], [29.83120662292721, -18.882691599134894], [29.836296358853588, -18.880986511473168], [29.839418232196287, -18.882561313437737], [29.840596867128653, -18.887742014420567], [29.842736817660658, -18.889846070836462], [29.854437707517608, -18.888391838381438], [29.86297129953474, -18.891634476507363], [29.86889956594388, -18.899603734163584], [29.8717004818483, -18.91850142018144], [29.869755687330002, -18.93327720463307], [29.867213720082, -18.937124864177495], [29.852382924457824, -18.94160533570783], [29.84542503877755, -18.95288049585733], [29.83582597844329, -18.961265833177112], [29.830843576303053, -18.961107624627807], [29.823779628580287, -18.955888384625347], [29.820720362523083, -18.955471695943636], [29.815838797573605, -18.96028650501131], [29.80938051540782, -18.962012485636862], [29.80788291405793, -18.968659720179307], [29.804415580546713, -18.970685093119982], [29.796384298304115, -18.96847057756388], [29.7922048489536, -18.961705883849504], [29.78507130944208, -18.962075737346396], [29.78228647945597, -18.96024622408635], [29.77970845399111, -18.954929204487847], [29.781240820326033, -18.945598933148094], [29.775252134735016, -18.937055981492048], [29.771852543008713, -18.920339690286305]], [[29.83684019308865, -18.927881061548288], [29.83393987279992, -18.927487411803014], [29.831468786742743, -18.92930876350306], [29.8305068585302, -18.93405253765703], [29.831626295554027, -18.936871054041667], [29.836593168899224, -18.938716241494717], [29.845075724299768, -18.936173492899783], [29.846240109946955, -18.933356061205675], [29.845054933622844, -18.930509532221027], [29.83684019308865, -18.927881061548288]]], [[[29.711715522429806, -19.01442588173029], [29.71717605036989, -19.005248240099608], [29.72659591578507, -19.00217768949213], [29.737623269523446, -19.00584324733617], [29.74715770162192, -19.00296748689596], [29.75253311695727, -19.003174814296493], [29.75468314892803, -19.000927699036712], [29.755910161477452, -18.99340938070552], [29.75902961046448, -18.991326395312026], [29.776672350741027, -18.996557037314847], [29.782708251517846, -18.990227416947942], [29.78877771463734, -18.98863245063418], [29.79288548660015, -18.991051024299832], [29.79657214278927, -18.996806442469847], [29.805902770892278, -19.00121444523095], [29.80757576419977, -19.00397734279012], [29.804468261610054, -19.01135128586943], [29.795136494913354, -19.01385868455027], [29.792869365399106, -19.01639465185155], [29.797319661856488, -19.027126843973996], [29.796536740149534, -19.03653782721836], [29.785438173158216, -19.040160609858525], [29.779639234304994, -19.040279084360787], [29.774381982834814, -19.037634495351927], [29.760108092541437, -19.023184452097706], [29.753105602191972, -19.023018492125615], [29.748230060666643, -19.027882445112127], [29.744017631808102, -19.02845793437974], [29.739804921016272, -19.026451421280264], [29.738059037075608, -19.021776774779866], [29.735575599417967, -19.019944459343677], [29.71566018201678, -19.0217582719139], [29.712106207843465, -19.017471121151946], [29.711715522429806, -19.01442588173029]], [[29.766609325376177, -19.020715816091737], [29.769368334516457, -19.019001840452916], [29.770108109137364, -19.015767955321223], [29.76836775796481, -19.01310744927086], [29.765364483765868, -19.01236844454277], [29.76273200132503, -19.013991965439107], [29.76194766987904, -19.0172671648041], [29.763487193469693, -19.01995133122806], [29.766609325376177, -19.020715816091737]]], [[[29.791279827767116, -18.797084546128936], [29.79505341297591, -18.79318558131681], [29.80329122418755, -18.794172915033673], [29.805872848819334, -18.79845445269273], [29.804036051097444, -18.80652057536051], [29.800227508679555, -18.809130960047803], [29.79682678777669, -18.808565983526844], [29.791346236791924, -18.801293219538557], [29.791279827767116, -18.797084546128936]]], [[[29.723791814277156, -18.946744813883914], [29.72019229691326, -18.948339602696464], [29.71580603916129, -18.94595936047631], [29.715426345941243, -18.94256525868872], [29.71841866438048, -18.937948719811452], [29.721596018820144, -18.93757803502926], [29.725293239893855, -18.939872779210138], [29.725750930632646, -18.94263570046784], [29.723791814277156, -18.946744813883914]]], [[[29.70420016966325, -18.881822489963707], [29.705108299826357, -18.87699787652063], [29.71083567334721, -18.872806786888948], [29.716743509660063, -18.87484515961762], [29.71973046655258, -18.878781119141603], [29.718635176583113, -18.882365045582628], [29.70997895365746, -18.888112060146156], [29.706272841226074, -18.88682087786905], [29.70420016966325, -18.881822489963707]]], [[[29.683809760278567, -18.983088663771447], [29.684604891078674, -18.976171802894438], [29.687452778914537, -18.974993769967337], [29.690563978022112, -18.9762749573769], [29.691716818466848, -18.984156117001504], [29.690531874538618, -18.98711557183088], [29.685643249994733, -18.987840596666132], [29.683809760278567, -18.983088663771447]]]]}, "properties": {}}