{"type": "Feature", "properties": {"city": "Palangkaraya", "country": "Indonesia", "real_area": 11.84}, "geometry": {"type": "MultiLineString", "coordinates": [[[107.500358938636, -6.52640901583484], [107.500892147143, -6.52166683093206], [107.496953471923, -6.51908351531331], [107.492481493027, -6.52124258240798], [107.491948379846, -6.52598492119906], [107.495887150226, -6.52856803901564], [107.500358938636, -6.52640901583484]], [[107.429650966026, -6.51568357823514], [107.430183384423, -6.51093976272144], [107.426242000792, -6.50835480850837], [107.421768104405, -6.51051386737431], [107.421235781641, -6.51525783608201], [107.425177259622, -6.51784259273827], [107.429650966026, -6.51568357823514]], [[107.443816921229, -6.54024885386202], [107.443284396907, -6.54499106117108], [107.447224697904, -6.54757422692224], [107.451697428645, -6.54541538303673], [107.452230048487, -6.54067332905386], [107.448289842077, -6.53808996562181], [107.448822435471, -6.53334750941734], [107.444882012485, -6.53076378813006], [107.440408901545, -6.53292272071259], [107.439876403691, -6.53766533023159], [107.443816921229, -6.54024885386202]], [[107.451055945902, -6.62641859470934], [107.450523486195, -6.63115658028056], [107.454462433457, -6.6337360881965], [107.458933745817, -6.63157780838936], [107.459466300961, -6.62683997594152], [107.455527448318, -6.62426027016892], [107.456059977044, -6.61952203428201], [107.452120907908, -6.616941969815], [107.447649215453, -6.61910033907638], [107.447116782183, -6.6238387280753], [107.451055945902, -6.62641859470934]], [[107.440621988349, -6.56869884009574], [107.440089549244, -6.57343974399783], [107.444029606265, -6.57602179826399], [107.448502007868, -6.57386314634103], [107.449034542491, -6.56912239564091], [107.453506918565, -6.56696369202437], [107.454039522237, -6.56222269197915], [107.450099654343, -6.55964024226629], [107.450632231573, -6.55489883969422], [107.446692147124, -6.55231603191562], [107.442219390876, -6.55447482441886], [107.441686909165, -6.55921638025503], [107.437214127477, -6.56137512120464], [107.436681714842, -6.56611642771595], [107.440621988349, -6.56869884009574]], [[117.710765253884, 4.09128108579022], [117.71010891856, 4.0863957122041], [117.713764390942, 4.08332997923348], [117.718076444967, 4.08514964748305], [117.718732903405, 4.09003525590661], [117.715077184705, 4.09310096124351], [117.710765253884, 4.09128108579022]], [[106.608822504845, -6.02742680480616], [106.609346201257, -6.02264753413671], [106.605369583775, -6.02002952269932], [106.600869184847, -6.022190975866], [106.600345587817, -6.02697039258439], [106.604322290323, -6.02958821009613], [106.608822504845, -6.02742680480616]], [[107.397801320551, -6.53553964739132], [107.398333340165, -6.53079627258038], [107.394391052747, -6.52821159114445], [107.39492304579, -6.52346781428815], [107.390980542056, -6.52088277550723], [107.386505951334, -6.52304171105758], [107.385974054065, -6.52778564070408], [107.389916651735, -6.53037048201857], [107.389384727877, -6.53511400963157], [107.393327109265, -6.53769849357693], [107.397801320551, -6.53553964739132]], [[107.481521684058, -6.46821018152096], [107.482054777015, -6.46346493758391], [107.478114678988, -6.46087891987154], [107.473641393017, -6.463038343741], [107.473108395501, -6.46778374155874], [107.477048588506, -6.47036956163478], [107.481521684058, -6.46821018152096]], [[107.389603754365, -6.57089580826092], [107.390135619613, -6.56615398693817], [107.386193482914, -6.56357061307835], [107.381719387104, -6.56572925807739], [107.381187617625, -6.57047123200479], [107.385129848178, -6.57305440833705], [107.389603754365, -6.57089580826092]]]}}