{"type": "Feature", "properties": {"city": "Aiteke Bi", "country": "Kazakhstan", "real_area": 21.81}, "geometry": {"type": "MultiLineString", "coordinates": [[[62.0972399838364, 45.7647025658612], [62.0900541212838, 45.7660780269794], [62.0847734650703, 45.7623977505262], [62.0866785465867, 45.7573424421025], [62.0938632878252, 45.7559671164436], [62.0991440687324, 45.7596469637753], [62.1063290489414, 45.7582708546677], [62.1116110653275, 45.7619502119705], [62.1097079774815, 45.7670061075184], [62.1025218760706, 45.768382352328], [62.0972399838364, 45.7647025658612]], [[62.1253530346048, 45.8672264522383], [62.1272582324171, 45.8621702621878], [62.1344564492081, 45.8607933066692], [62.136360636789, 45.8557368958145], [62.1310676088457, 45.8520577335338], [62.1238705166675, 45.8534345528676], [62.118578727721, 45.8497548976429], [62.1204839072364, 45.8446988523643], [62.1151932334018, 45.8410191337452], [62.1170984036054, 45.8359631611774], [62.1242932474588, 45.8345866140148], [62.126197408339, 45.8295304211341], [62.1209077253981, 45.82585106863], [62.1228118771601, 45.8207949488406], [62.1300047120702, 45.8194178884362], [62.1319078550941, 45.8143615488091], [62.1390998046231, 45.812983839459], [62.1443897338842, 45.8166623334219], [62.1424875908017, 45.8217189659937], [62.1477786344318, 45.8253973968053], [62.154971943673, 45.8240187656915], [62.1602642243685, 45.8276967037285], [62.1674577697594, 45.8263172870543], [62.1727512872729, 45.8299947319789], [62.1708511377812, 45.8350520229335], [62.1761457706661, 45.8387294038319], [62.1833406743701, 45.837349064325], [62.1886365441213, 45.8410259514768], [62.1867373892118, 45.8460836075464], [62.1795413623674, 45.847464084255], [62.1776411980408, 45.8525215207517], [62.1829380628959, 45.8561987727486], [62.1810378913166, 45.8612562816911], [62.1738398523044, 45.8626362463326], [62.1685431088555, 45.8589585649138], [62.1613453055338, 45.8603377430227], [62.1594431215208, 45.8653947394381], [62.152244430184, 45.8667732678226], [62.146949047374, 45.8630946630938], [62.1397505929707, 45.8644724049766], [62.1378463967079, 45.869528888056], [62.1306470550035, 45.8709059798256], [62.1253530346048, 45.8672264522383]]]}}