{"type": "Feature", "properties": {"city": "Xalapa de Enriquez", "country": "Mexico", "real_area": 68.56}, "geometry": {"type": "MultiLineString", "coordinates": [[[-96.1337404361652, 19.1693053706425], [-96.129235717905, 19.1721365623701], [-96.1294690206251, 19.1772405511358], [-96.1342074244407, 19.1795134777727], [-96.1387124370482, 19.1766821523474], [-96.1384787514868, 19.1715780339971], [-96.1337404361652, 19.1693053706425]], [[-96.9224295325296, 19.505079820665], [-96.917908397762, 19.5079359539283], [-96.9131205944278, 19.5056704492718], [-96.9085994827428, 19.5085262692172], [-96.9038120897669, 19.5062605700811], [-96.90354590997, 19.5011393082651], [-96.898759028921, 19.4988736720423], [-96.8942382263153, 19.5017290403434], [-96.8894517559139, 19.4994632098693], [-96.8891861893687, 19.4943422684768], [-96.8844002309396, 19.4920765012615], [-96.8798797379458, 19.4949314180289], [-96.8750941904534, 19.4926654567903], [-96.8705737215224, 19.4955200602451], [-96.8657885851858, 19.4932539050689], [-96.8612681405589, 19.4961081951583], [-96.8564834155973, 19.4938418461303], [-96.8562192359697, 19.4887214646261], [-96.8514350231643, 19.4864551794869], [-96.8511710693902, 19.4813349999607], [-96.8463873687166, 19.4790687789136], [-96.8418675213437, 19.4819224796918], [-96.8421310882774, 19.4870425394494], [-96.8469148894196, 19.4893090182122], [-96.8471786821482, 19.4944292800077], [-96.8426582868527, 19.497282943208], [-96.8429219184994, 19.50240328705], [-96.8477063323724, 19.5046700874939], [-96.8479701898735, 19.5097906330255], [-96.8434492465243, 19.512644258262], [-96.8437129429078, 19.5177648854729], [-96.8484979696665, 19.5200320072683], [-96.853019199504, 19.5171782442534], [-96.8578046380876, 19.5194451720281], [-96.8580689474747, 19.5245661203264], [-96.8628548984501, 19.5268331114615], [-96.8673764392572, 19.5239788968164], [-96.872162801769, 19.5262456937025], [-96.8724277243583, 19.5313669626251], [-96.8772145992169, 19.5336338225259], [-96.8774797479558, 19.538755292261], [-96.8822671351855, 19.5410222149731], [-96.8867892725576, 19.5381674106467], [-96.8915770709654, 19.5404341387391], [-96.8918428332229, 19.5455559283706], [-96.887320409758, 19.5484108706361], [-96.8825325101332, 19.5461438853162], [-96.8780101105585, 19.5489985135346], [-96.8782753244276, 19.554120264914], [-96.8830633252131, 19.5563875074568], [-96.8833287653506, 19.5615094590952], [-96.8881172786492, 19.5637767639811], [-96.8883829451144, 19.5688989156739], [-96.8931719709502, 19.5711662826991], [-96.8976952289775, 19.5683112409162], [-96.9024846659328, 19.5705784128377], [-96.9027509463075, 19.5757008835666], [-96.9075408957545, 19.5779681172811], [-96.9120644632395, 19.575112623269], [-96.9168548235162, 19.577379661651], [-96.9171217179987, 19.582502450952], [-96.9219125907213, 19.5847695507805], [-96.9264364671299, 19.5819136044284], [-96.9312277503922, 19.584180508696], [-96.9314952591807, 19.5893036161044], [-96.9362870548428, 19.5915705814719], [-96.9408112396407, 19.5887141826691], [-96.9405433431472, 19.5835909566117], [-96.9357516495655, 19.5813242479911], [-96.9354839798118, 19.5762012211323], [-96.9400076159765, 19.5733447843089], [-96.939739785294, 19.568221838223], [-96.9442631584301, 19.5653652254995], [-96.9439951668551, 19.5602423604096], [-96.9485182769427, 19.5573855720047], [-96.9533096639454, 19.559651510357], [-96.9578327962161, 19.5567944080586], [-96.9575642562279, 19.5516715058534], [-96.9527729715307, 19.5494058242663], [-96.9525046582797, 19.544283121838], [-96.9477138855126, 19.5420175016575], [-96.9474457989395, 19.536894999211], [-96.9426555380788, 19.5346294406409], [-96.9423876781246, 19.5295071383809], [-96.9469096916328, 19.5266502762995], [-96.9466416708937, 19.5215280559939], [-96.9418520239958, 19.5192628161915], [-96.9415842298158, 19.5141407964215], [-96.9367950946829, 19.5118756186983], [-96.932273651739, 19.5147322037453], [-96.9274849264549, 19.5124668312288], [-96.9272177460025, 19.5073451307563], [-96.9224295325296, 19.505079820665]]]}}