{"type": "Feature", "geometry": {"type": "MultiPolygon", "coordinates": [[[[-106.22187822139577, 31.612275806903284], [-106.22468282485724, 31.61616788822372], [-106.22375737654988, 31.61981905242812], [-106.21042942182605, 31.62495402425285], [-106.20263013181341, 31.617188100054587], [-106.19671199031504, 31.61679898097495], [-106.19214673358299, 31.61428725336699], [-106.17899866481716, 31.613925752017455], [-106.17698847060473, 31.611674923047946], [-106.17680288716765, 31.608393988067597], [-106.1798544096404, 31.604829355691656], [-106.19342131433274, 31.604317782354414], [-106.1999740805522, 31.5961919096832], [-106.20567567077605, 31.594617927433426], [-106.2082123513316, 31.595855988250264], [-106.2165590131054, 31.607866005942334], [-106.22187822139577, 31.612275806903284]]], [[[-106.6085959230241, 31.814845312284895], [-106.60529080973265, 31.824105016397827], [-106.59858984814962, 31.82569864516317], [-106.59452464173678, 31.82409854165871], [-106.5916844506223, 31.8200818003358], [-106.58672883720462, 31.81693224480476], [-106.5853442973698, 31.80886818050515], [-106.57957086897365, 31.80499671901195], [-106.5636497928837, 31.798382559358473], [-106.5484809783325, 31.797514127938893], [-106.5466042562874, 31.792884245868887], [-106.55172360589879, 31.78840390724125], [-106.55232328493213, 31.78506853821716], [-106.543810093217, 31.776798621469297], [-106.5383619240261, 31.776161274589178], [-106.53573320890584, 31.77764405549555], [-106.53500673467553, 31.783952278522495], [-106.53132084228587, 31.788028438471407], [-106.53081684098909, 31.79290085245052], [-106.5290565393037, 31.79499857867157], [-106.52524174666115, 31.79576941895799], [-106.5185108283994, 31.793659057177294], [-106.5130722907437, 31.797266305515183], [-106.50706432185582, 31.796390039808784], [-106.49982888409471, 31.782887344773748], [-106.49648549892753, 31.77291596165926], [-106.48506017732078, 31.76826725310928], [-106.48265231203055, 31.755481237324048], [-106.47972646991947, 31.752231995095855], [-106.47323865142569, 31.753376648463234], [-106.46838153237921, 31.752288176953215], [-106.45660691795655, 31.75540464066359], [-106.45042098720369, 31.75363921258503], [-106.44309394789516, 31.757968526360493], [-106.42275633074672, 31.755838706709092], [-106.41411641514834, 31.75312073099068], [-106.4094767465275, 31.74957922226097], [-106.40687414150926, 31.74179515526754], [-106.4008598212532, 31.741373948653713], [-106.39129085756758, 31.736795137731217], [-106.38616608526111, 31.737342419726566], [-106.37854141612169, 31.73298996210047], [-106.37675859873218, 31.729300217054455], [-106.37775462270162, 31.722916890635634], [-106.37332764085261, 31.71915510891908], [-106.36871685865096, 31.711410389689473], [-106.36164842916, 31.708474550766788], [-106.35257679209083, 31.70735898231829], [-106.34412143525813, 31.711331912735616], [-106.33994241696033, 31.71113352788823], [-106.33658677413449, 31.70886961998703], [-106.33584819945617, 31.703840318746195], [-106.34559626374495, 31.69642889091757], [-106.34695378733399, 31.691910803657294], [-106.34514158601158, 31.68315285138002], [-106.33545948322919, 31.67663077292442], [-106.33131042358809, 31.678582448221405], [-106.32934448327944, 31.687371680808738], [-106.32295245067012, 31.69334517548784], [-106.32309798412638, 31.696078665163327], [-106.32628695695321, 31.700594121207477], [-106.32554718889462, 31.707135033234277], [-106.32122660894903, 31.710111970197154], [-106.31431123230473, 31.710278889913276], [-106.31100964047805, 31.71321612718687], [-106.31025296625414, 31.716113797556726], [-106.31180872014679, 31.722270473248713], [-106.31861202103549, 31.72991948244249], [-106.31533733820397, 31.73876915830641], [-106.32257953331404, 31.744132639408836], [-106.32252639181786, 31.751155805194117], [-106.32655547019725, 31.758555944945286], [-106.33349015713782, 31.761182511269332], [-106.34037304542804, 31.760872847466484], [-106.34306749293904, 31.763033051174254], [-106.34467163564669, 31.780668775048063], [-106.34366164011314, 31.785855512397173], [-106.34538418221481, 31.78903643360591], [-106.34992824999448, 31.79184982166184], [-106.35003405649866, 31.796586191792205], [-106.34409363180222, 31.80187591848382], [-106.33699084901328, 31.800985384318288], [-106.32777359704681, 31.802220533317257], [-106.3197529760928, 31.798742774578997], [-106.31475643960354, 31.801899723607928], [-106.30732590720211, 31.802189289839447], [-106.30102331833479, 31.804704230315092], [-106.29755214390164, 31.802145828345775], [-106.29663466676656, 31.79418386541195], [-106.29267695089793, 31.792335871058143], [-106.28970639974364, 31.794102207238712], [-106.28869198188028, 31.799644968655656], [-106.28644896136744, 31.801745392265627], [-106.26776406760072, 31.80188343107551], [-106.263337890411, 31.79833034896779], [-106.26227557673172, 31.792273958619845], [-106.26448419747528, 31.78790418656782], [-106.26570578918681, 31.777808056922918], [-106.26938106982512, 31.772727852683364], [-106.2695942941494, 31.76961633395632], [-106.26127287650023, 31.76350569571565], [-106.2582052558211, 31.75929634160822], [-106.24791422087189, 31.757576347786642], [-106.24680857217632, 31.746690709673985], [-106.25036493440088, 31.74149384959587], [-106.26104902358554, 31.74015977858437], [-106.26663449198368, 31.73099574923666], [-106.27089711054887, 31.730430968136478], [-106.27720043050192, 31.735479173476048], [-106.28096428485554, 31.735058693757423], [-106.28267879458589, 31.7320818371592], [-106.28176934972632, 31.72065838902802], [-106.2775174283021, 31.719112479143774], [-106.27118225574539, 31.72322798443395], [-106.26722850006819, 31.720991975189243], [-106.26398486316174, 31.715951237568827], [-106.25776143178896, 31.71556012357926], [-106.25484125913651, 31.717357764284024], [-106.25386579044198, 31.722387607682922], [-106.25162883644035, 31.724503251718417], [-106.24595820410966, 31.72567180783544], [-106.23267227596786, 31.724923840288184], [-106.22968877141219, 31.722787120764576], [-106.22805222541983, 31.716582081216522], [-106.21746252436489, 31.709959932769532], [-106.21499866406609, 31.71116201402694], [-106.21176261958826, 31.716365132696595], [-106.21059020133487, 31.72889821555245], [-106.19824794454865, 31.73004025333238], [-106.19523157174727, 31.72665973824179], [-106.1952594469003, 31.698479914474685], [-106.19819871240276, 31.69558382030344], [-106.21384626570567, 31.694731928169475], [-106.21525628146627, 31.69203850703549], [-106.21528286890651, 31.68125246006205], [-106.22447736006013, 31.678127956725685], [-106.22912368681632, 31.666457501383505], [-106.23320240444964, 31.663853893855574], [-106.24143483857011, 31.663941638985907], [-106.2470005408442, 31.668545629393947], [-106.25773272079711, 31.6666579614166], [-106.26193053143697, 31.670272329882163], [-106.26421924818418, 31.676517882584655], [-106.27066118061116, 31.678718490532003], [-106.28455124730176, 31.67115562009944], [-106.28916611158446, 31.67039374990505], [-106.29357768909645, 31.66684043017002], [-106.30088874651528, 31.666095784814154], [-106.30539989782389, 31.658948388506204], [-106.31253804026105, 31.658307717929368], [-106.31750074138651, 31.65581124361624], [-106.32290017035682, 31.655984523042132], [-106.32852927861258, 31.658730021995986], [-106.3343381961662, 31.655000506523322], [-106.33562856335081, 31.651383530579704], [-106.33205787415442, 31.64266654378033], [-106.33287912016281, 31.63046117152092], [-106.34052663939089, 31.625278464014375], [-106.34387742768699, 31.606944036569477], [-106.35505431987198, 31.597439934541217], [-106.35317388547988, 31.590038293068556], [-106.3555779885483, 31.58428597112898], [-106.34943145452294, 31.57424181586286], [-106.34566863086592, 31.57303861747812], [-106.3386234225167, 31.57459833007216], [-106.3295442167445, 31.566597800718156], [-106.32889768816656, 31.562635305980645], [-106.33352124706212, 31.55520408057444], [-106.3363752063188, 31.55472421482291], [-106.34331345049814, 31.557340746598136], [-106.35725457125675, 31.545349105645872], [-106.36021407651631, 31.545386832695943], [-106.3643066941054, 31.5481497363098], [-106.36975884976168, 31.548352237316596], [-106.37764099713075, 31.54556556536864], [-106.38620603633242, 31.552112545672415], [-106.38998766251956, 31.55906568555453], [-106.39433169134836, 31.55934512008935], [-106.40056198512008, 31.556684363929456], [-106.40954327347802, 31.564131857880586], [-106.41654961999245, 31.563759262869258], [-106.4193969627385, 31.565299128662353], [-106.42039324271535, 31.568945438058964], [-106.41675486230457, 31.573614485357915], [-106.41650844542983, 31.576374226155195], [-106.42230817908836, 31.58204703585194], [-106.4248212438917, 31.592578844676186], [-106.42708743499993, 31.595050249619224], [-106.43210637539383, 31.596540205046374], [-106.4384589851028, 31.59389991850668], [-106.44242912364962, 31.595608208022565], [-106.44873085811838, 31.601630229930212], [-106.45620135590154, 31.60145183648544], [-106.46112466100067, 31.59950930695329], [-106.4685176374387, 31.603664855238826], [-106.4725468766582, 31.602919155769985], [-106.4754454464388, 31.597578414939946], [-106.48061932914959, 31.594605149929947], [-106.4847177504323, 31.59448558771904], [-106.48716509934223, 31.596795201869323], [-106.48500451351526, 31.608333615639815], [-106.48068407312041, 31.611722938445745], [-106.47952894028337, 31.617217601786958], [-106.47528234488973, 31.62167238366499], [-106.47579296494555, 31.627013777133573], [-106.47354896520918, 31.636656420957422], [-106.47055167984695, 31.641075213010502], [-106.46920077482761, 31.65289678035405], [-106.46224138576297, 31.657276373443924], [-106.45718366530367, 31.666711841581357], [-106.46349768721106, 31.672976617692342], [-106.46380309846836, 31.679867470579563], [-106.46641144216147, 31.682636987854806], [-106.47781950837383, 31.678631301323133], [-106.48506690998138, 31.680944564865932], [-106.4891514120313, 31.67556328115726], [-106.49303147897429, 31.674041363358658], [-106.49653816084832, 31.675900927620823], [-106.49806781175639, 31.68217095751413], [-106.49489316273815, 31.689648514572916], [-106.49104198060962, 31.69219837868724], [-106.48739341179076, 31.697803810495667], [-106.48854776143605, 31.705101541041522], [-106.48757376889553, 31.70808749110484], [-106.48476509664341, 31.710111263903375], [-106.4791443959932, 31.710113781610158], [-106.47559900324448, 31.71474190247735], [-106.47599928452624, 31.727822262993346], [-106.46763002463659, 31.72648887994331], [-106.46444869009102, 31.722673912832196], [-106.45785277472541, 31.71870341986746], [-106.45111041688617, 31.721189497912043], [-106.45121675019165, 31.726321643196297], [-106.4654810277743, 31.73843428228298], [-106.47359341286652, 31.737278580688493], [-106.47786719328647, 31.733630219024267], [-106.47819852883563, 31.730115764534293], [-106.48710619704126, 31.727822707732788], [-106.49219483737289, 31.7292280929495], [-106.49409815484451, 31.7327526410862], [-106.49117982774987, 31.74331072371388], [-106.4920454039324, 31.74665662710047], [-106.49479834458123, 31.74806839153953], [-106.49996981871566, 31.746962500870225], [-106.50298931486523, 31.74795644128405], [-106.50628433546544, 31.75492211883612], [-106.5190239743984, 31.761447637471598], [-106.52259885781423, 31.765102897495527], [-106.5236051583522, 31.7718059313487], [-106.53008706317588, 31.775316202982218], [-106.53420265616798, 31.773656668695327], [-106.53677667793642, 31.766275377739195], [-106.543750065865, 31.76564018503017], [-106.54860377246526, 31.76144494166094], [-106.55628701417174, 31.7604575181763], [-106.56315514855288, 31.76324232621321], [-106.57412915783551, 31.757807312156842], [-106.57793084920424, 31.758181062397483], [-106.58154577140756, 31.763560012153498], [-106.58268799547102, 31.771128294701317], [-106.57873754773806, 31.778051086241806], [-106.57807610660002, 31.78480436643867], [-106.5805858479175, 31.78664409154461], [-106.5861373962979, 31.78709262991703], [-106.59125585463886, 31.795584261858945], [-106.59918090547939, 31.797895538257748], [-106.60162056095804, 31.80659207636307], [-106.60800165536793, 31.810625993781333], [-106.6085959230241, 31.814845312284895]], [[-106.22513734711029, 31.70202836781728], [-106.22965592001175, 31.69897126962759], [-106.2295033509255, 31.696236634016056], [-106.2272153342547, 31.693944510096397], [-106.21634974708726, 31.6947335324382], [-106.21351347419893, 31.6971327425066], [-106.21363694151448, 31.70534628236271], [-106.21586503390282, 31.70800629829914], [-106.21967942865233, 31.707725107827198], [-106.22513734711029, 31.70202836781728]], [[-106.29521741101118, 31.753071831432912], [-106.29227649970954, 31.751590490427294], [-106.28914756831435, 31.752901665842877], [-106.28622827543037, 31.757956455000368], [-106.28760375158066, 31.76184143352748], [-106.29171567345205, 31.763165999280705], [-106.29691777438524, 31.759836372668452], [-106.29772508249602, 31.75619310479179], [-106.29521741101118, 31.753071831432912]], [[-106.29810973568543, 31.77559322701038], [-106.29715376314537, 31.77217165272309], [-106.29255269558848, 31.7693754722775], [-106.28947715893483, 31.771055007314274], [-106.28789465890841, 31.775740828568484], [-106.28995954527564, 31.779171082687242], [-106.29414342427316, 31.779842630962428], [-106.29698151772527, 31.778631534788982], [-106.29810973568543, 31.77559322701038]], [[-106.28826249025687, 31.70394355763039], [-106.2897363448023, 31.706920769913463], [-106.29347422294116, 31.70783869015626], [-106.29634105649279, 31.70669605345906], [-106.29754126769386, 31.703852842895735], [-106.29636040432966, 31.70100154232412], [-106.29218520105627, 31.69882616975322], [-106.28908730839206, 31.700299537335862], [-106.28826249025687, 31.70394355763039]], [[-106.30991165018222, 31.754224121555968], [-106.30706891460594, 31.755209340322807], [-106.30571693681289, 31.75789708242768], [-106.30666538980483, 31.760831561044032], [-106.30938729076266, 31.762260799625917], [-106.31231939083592, 31.76133653943064], [-106.31377449702121, 31.758525839649018], [-106.31278914709424, 31.75558083603891], [-106.30991165018222, 31.754224121555968]], [[-106.36000284830216, 31.640159094542465], [-106.36169253000539, 31.635794301560672], [-106.36021566061122, 31.632662065275913], [-106.35684777248332, 31.631856226018336], [-106.35301393258544, 31.634352456603104], [-106.352129472842, 31.6372479441224], [-106.35352692372321, 31.639933693188638], [-106.35692038122056, 31.641408456268106], [-106.36000284830216, 31.640159094542465]], [[-106.36668797760998, 31.594703218999694], [-106.36343266976033, 31.593678306477365], [-106.3605242411884, 31.59539364337686], [-106.35987994576446, 31.598345794663715], [-106.36178329159718, 31.60145423314748], [-106.36515025913863, 31.602435110073955], [-106.36807497337543, 31.600820242187677], [-106.3687927040265, 31.597303805618317], [-106.36668797760998, 31.594703218999694]], [[-106.39256469179524, 31.57439171639155], [-106.39054230349343, 31.57115753016848], [-106.38671362246123, 31.570882711190052], [-106.38090012447408, 31.575205462619202], [-106.38040081245317, 31.579008207155518], [-106.3824961911335, 31.581337638723582], [-106.38555430757737, 31.581543031294146], [-106.39151695373768, 31.577530384676983], [-106.39256469179524, 31.57439171639155]], [[-106.40650918679773, 31.633540542143038], [-106.40429786389242, 31.631185672569995], [-106.400942747554, 31.631297455778448], [-106.3982976939949, 31.634305772641206], [-106.39837531446703, 31.637748554500995], [-106.40071762610393, 31.639752491075097], [-106.40378947101772, 31.639495675143237], [-106.40657903523301, 31.63698637656225], [-106.40650918679773, 31.633540542143038]], [[-106.43331667817161, 31.63606111188284], [-106.43058965718305, 31.633758888425383], [-106.42584838352347, 31.63450080197326], [-106.42081899810972, 31.643173524357707], [-106.42162243937724, 31.647160045738755], [-106.42476760702425, 31.64850465360555], [-106.42761968793536, 31.647364404116885], [-106.43326124861309, 31.639460809762483], [-106.43331667817161, 31.63606111188284]]], [[[-106.23923146712534, 31.588785148610285], [-106.23650260735486, 31.59261286414012], [-106.23167130340876, 31.592751454413893], [-106.22898339973706, 31.587694954920323], [-106.2207789672597, 31.579362268977846], [-106.21404430815787, 31.580035657646327], [-106.21139732818531, 31.57885525252113], [-106.2054654475956, 31.57197358586503], [-106.20528503670177, 31.567444779988083], [-106.21666644492535, 31.56223210239046], [-106.22062114264408, 31.55881216165724], [-106.2293295310259, 31.560349096541508], [-106.23569111677325, 31.567485331887966], [-106.23371550372013, 31.57785957439776], [-106.23921102793616, 31.58452755827549], [-106.23923146712534, 31.588785148610285]]], [[[-106.2933149083722, 31.55488465536514], [-106.29040684667844, 31.559145645198274], [-106.27899683909428, 31.559482297065372], [-106.26928537950441, 31.544490563872788], [-106.271670744195, 31.537929366578744], [-106.28234818542931, 31.532150021202632], [-106.2895184327181, 31.536114125176532], [-106.2922828036366, 31.544525757376917], [-106.2933149083722, 31.55488465536514]]], [[[-106.32170194738993, 31.621204289237156], [-106.31059548853743, 31.62900131042722], [-106.30480824038519, 31.626350388085122], [-106.30100667049554, 31.620213894046863], [-106.3006707895571, 31.607894622803926], [-106.29618329772698, 31.604299602375868], [-106.29283247151055, 31.59861373616076], [-106.29379075794658, 31.59438776800162], [-106.30724734269195, 31.590095225843797], [-106.31079389246993, 31.591181391698036], [-106.31395235523406, 31.604021067923423], [-106.3192022495548, 31.61161522398165], [-106.32445027022946, 31.615680242023032], [-106.3242722729343, 31.618969161043395], [-106.32170194738993, 31.621204289237156]]], [[[-106.45181008780584, 31.831502419888572], [-106.44940399623668, 31.833951363853465], [-106.44444939060058, 31.834149703638786], [-106.43935725234738, 31.829793242921948], [-106.43027400136467, 31.829000101944906], [-106.42280469080791, 31.825606909547385], [-106.41601167827106, 31.815298642786086], [-106.41497458018492, 31.81117072337431], [-106.4108209440185, 31.806896214947695], [-106.41372786113816, 31.79886853986878], [-106.4101785292618, 31.793986691895526], [-106.39481528857748, 31.795501589603262], [-106.39234028768232, 31.793421859300587], [-106.39173045464845, 31.787814327787938], [-106.3897331576156, 31.78558674107514], [-106.37884766011092, 31.783053108593133], [-106.37285276084016, 31.778366760629723], [-106.3619931410468, 31.775913293800983], [-106.35723610901734, 31.776996377339273], [-106.3534731064502, 31.776031472822318], [-106.3520514658713, 31.771927564561967], [-106.35339871779799, 31.766768318908706], [-106.35112229315648, 31.760313705617904], [-106.35509896700556, 31.751105072662128], [-106.36561257586708, 31.749535099245815], [-106.37024916854413, 31.74713236352011], [-106.37802453941002, 31.74889730094406], [-106.38811893333131, 31.756428926770408], [-106.39944999273783, 31.757837675066853], [-106.40747703580101, 31.76467216519549], [-106.41353839891603, 31.765957000289106], [-106.41500263279288, 31.76859684047065], [-106.41446332111651, 31.775782391169617], [-106.4187305549203, 31.780010640662866], [-106.4217026372557, 31.7858865605869], [-106.4332039635687, 31.792245419972794], [-106.44013060671573, 31.800031800893034], [-106.44477860826638, 31.816294467576384], [-106.45172638138574, 31.826678157669654], [-106.45181008780584, 31.831502419888572]]], [[[-106.40048251703641, 31.82975219798747], [-106.39650092370005, 31.83060193129877], [-106.39161598312685, 31.83642068188822], [-106.37992703140746, 31.834305225112516], [-106.37465304728129, 31.835137177447407], [-106.37171651079865, 31.833241970677804], [-106.36937591180919, 31.826665964302485], [-106.37132740932967, 31.821363043545574], [-106.37721524787823, 31.81786652700107], [-106.40080345447544, 31.81766579526142], [-106.40522838334124, 31.820773453594384], [-106.40603847887267, 31.82480112935627], [-106.40471180419537, 31.827718405526966], [-106.40048251703641, 31.82975219798747]]], [[[-106.44399686364167, 31.87883898614541], [-106.44391370780532, 31.88367177509833], [-106.44181040589598, 31.886260242398528], [-106.43145389451702, 31.88531964176506], [-106.42841485530458, 31.886866816359664], [-106.42777319092622, 31.899185381109195], [-106.42622397035149, 31.901843678814934], [-106.41162915660092, 31.902831236285675], [-106.40824100843822, 31.900248018595608], [-106.40869088204363, 31.892617675756078], [-106.40346958436221, 31.887881879027624], [-106.40029079920038, 31.874810440139235], [-106.40594949245558, 31.866539320631418], [-106.424440563302, 31.866322920376657], [-106.43221620814158, 31.863912055444533], [-106.4430091514595, 31.87084750450313], [-106.44399686364167, 31.87883898614541]]], [[[-106.55743991069394, 31.609650533600686], [-106.55952126746249, 31.61349662972813], [-106.55657722087625, 31.62015081898636], [-106.54752648580242, 31.623272692010687], [-106.53483105481078, 31.62165574868778], [-106.52891284737342, 31.626971879794798], [-106.5240541593791, 31.62846563790492], [-106.52071625713774, 31.62755810270858], [-106.51794767663787, 31.6211678909776], [-106.51116119457716, 31.617026536351226], [-106.51453160542582, 31.604051272358912], [-106.51918702212879, 31.6007515825026], [-106.52161766609436, 31.59681236976366], [-106.52049634603976, 31.58859877417107], [-106.52809971096202, 31.57979416081641], [-106.52947788922566, 31.572876819126076], [-106.53451102237618, 31.570537494176975], [-106.54088749162423, 31.563249393384748], [-106.5449349750227, 31.56419604383169], [-106.5466219996049, 31.5687406555537], [-106.54148882645808, 31.585397527846332], [-106.53568888610451, 31.589398243840236], [-106.53446659505194, 31.595139245128973], [-106.53993222297416, 31.60250594434202], [-106.54722185617561, 31.605344950977273], [-106.5535460104467, 31.605278019719265], [-106.55743991069394, 31.609650533600686]]], [[[-106.58096439652489, 31.83873254228861], [-106.57636927000081, 31.846798144582912], [-106.56602830788763, 31.850454154219445], [-106.56302927274508, 31.848999394503934], [-106.56051006659904, 31.84415083753673], [-106.55605636860189, 31.84182491299241], [-106.53712649808287, 31.83818033972582], [-106.53367685028313, 31.834450728630426], [-106.53530839631561, 31.82668805407649], [-106.52825123965248, 31.822456807035227], [-106.52493302998663, 31.815268273631748], [-106.52509967847043, 31.812234439170734], [-106.52893622022233, 31.808720694695115], [-106.53480228175316, 31.81000239003259], [-106.54380683323781, 31.807899347413432], [-106.5507680253433, 31.811167209296705], [-106.55631125589387, 31.81122913261217], [-106.55936418476792, 31.815105789253234], [-106.55749787844286, 31.820550693648244], [-106.5584005388925, 31.82347578620545], [-106.57135704186177, 31.831960393430517], [-106.57844494934797, 31.832152533666754], [-106.58063978163574, 31.83491299790708], [-106.58096439652489, 31.83873254228861]]]]}, "properties": {}}