{"type": "Feature", "properties": {"city": "Tarija", "country": "Bolivia", "real_area": 43.49}, "geometry": {"type": "LineString", "coordinates": [[-64.7652777065259, -21.5251324393183], [-64.7692152669137, -21.5283056400894], [-64.7685491128658, -21.5330204908966], [-64.7724869620856, -21.5361936771671], [-64.7718208188169, -21.5409083441072], [-64.7672167543391, -21.5424496229463], [-64.7665505498594, -21.5471639040801], [-64.7619466302958, -21.5487047645723], [-64.7580091933335, -21.5455315132726], [-64.7534056969011, -21.547072124761], [-64.7494687550527, -21.5438988263628], [-64.7448656818919, -21.5454391889135], [-64.7441992724162, -21.5501526803908], [-64.7395963444591, -21.5516926245335], [-64.7389298738522, -21.5564057299935], [-64.7428664030384, -21.5595790932247], [-64.7421999431354, -21.5642920144728], [-64.7375968822122, -21.565831370584], [-64.7369303611781, -21.5705439056063], [-64.7323274455723, -21.5720828431499], [-64.7283913292904, -21.5689094152871], [-64.7290579221196, -21.5641970821757], [-64.7251220948039, -21.5610236396358], [-64.7205198812102, -21.5625624979187], [-64.716584549434, -21.5593890085496], [-64.7119827597148, -21.5609276180179], [-64.7113160234424, -21.5656395470916], [-64.7067143793635, -21.567177737983], [-64.706047582053, -21.5718892807244], [-64.7014460836882, -21.573427052985], [-64.6975116610539, -21.5702534523793], [-64.6981785299861, -21.5655421117653], [-64.7027797499433, -21.564004169625], [-64.703446557864, -21.5592924426782], [-64.6995122174392, -21.556118860066], [-64.6949112758879, -21.5576569721044], [-64.6942443963678, -21.5623684968524], [-64.6896436006719, -21.563906190308], [-64.6857099629462, -21.5607325289787], [-64.6811095916509, -21.562269973816], [-64.680442579622, -21.5669809099595], [-64.6758423543631, -21.5685179361571], [-64.671909419649, -21.5653441962947], [-64.6725765031528, -21.5606334624942], [-64.6771764499081, -21.5590962662086], [-64.6778434724802, -21.5543851460738], [-64.6824435653058, -21.5528475311994], [-64.6863769140167, -21.5560212065014], [-64.6909774312748, -21.5544833430782], [-64.6916443213736, -21.5497716343714], [-64.6877107657548, -21.5465979914254], [-64.6883776664233, -21.5418860989351], [-64.6929780511683, -21.5403476470447], [-64.6936448908651, -21.5356353685333], [-64.6982454214593, -21.534096498216], [-64.6989122001711, -21.5293838337878], [-64.7035128765409, -21.5278445450977], [-64.7041795942542, -21.5231314948575], [-64.7002457071955, -21.5199579357148], [-64.7009124355092, -21.5152447021783], [-64.7055129792818, -21.5137048253691], [-64.7094470730275, -21.5168783519011], [-64.7140480407275, -21.5153382266279], [-64.7147146364041, -21.5106244050778], [-64.7193157496585, -21.5090838615945], [-64.7199822842968, -21.5043696545466], [-64.7245835430321, -21.5028286929077], [-64.7285185453162, -21.5060021079498], [-64.7331202276241, -21.5044608977873], [-64.73378662947, -21.4997461030096], [-64.7383884570774, -21.4982044747493], [-64.7423241609598, -21.501377810779], [-64.7469264118923, -21.4998359339322], [-64.7475926808307, -21.4951205516035], [-64.7521950768813, -21.4935782567171], [-64.7561314820482, -21.4967515135509], [-64.7554652849748, -21.5014670980715], [-64.7594019789309, -21.5046403411806], [-64.7587357926002, -21.5093557425362], [-64.7541328404138, -21.5108976986667], [-64.7534665929252, -21.5156127146327], [-64.7574033695205, -21.5187859765218], [-64.7567371327705, -21.523500809043], [-64.760674198197, -21.5266740567663], [-64.7652777065259, -21.5251324393183]]}}