{"type": "Feature", "geometry": {"type": "MultiPolygon", "coordinates": [[[[-115.22612242602288, 32.61813433212635], [-115.22687792819612, 32.622371519185286], [-115.23433446957064, 32.62708288621223], [-115.23454040544543, 32.630088861216066], [-115.23258888216631, 32.63238447708075], [-115.22210638851308, 32.635119985142815], [-115.21645261976983, 32.63361509396394], [-115.19462417796099, 32.639210616740584], [-115.19055103200344, 32.637054147825445], [-115.18841150420448, 32.63025533188922], [-115.18938334557846, 32.62549513915499], [-115.1970165259046, 32.619746121278155], [-115.20391077555715, 32.61734785280043], [-115.20743555863527, 32.611407982352716], [-115.22092550611389, 32.61104059909293], [-115.22566808967662, 32.614051171229086], [-115.22612242602288, 32.61813433212635]]], [[[-115.24268831707266, 32.54817077022484], [-115.24365583493659, 32.554880562729544], [-115.23703284487561, 32.56029063345959], [-115.22783402060399, 32.55720464295378], [-115.21996005606583, 32.55690328613736], [-115.21674619584833, 32.55323695336836], [-115.21797735402706, 32.549438811701904], [-115.22777521610402, 32.54103726819313], [-115.23737289665696, 32.54070613226564], [-115.24268831707266, 32.54817077022484]]], [[[-115.28202007241124, 32.544995658052606], [-115.28646923615906, 32.55162053936745], [-115.28605900224477, 32.555858257524434], [-115.28376508806717, 32.55807528012298], [-115.25829193753455, 32.557161892950106], [-115.25508550086782, 32.55443217192843], [-115.25559130037841, 32.54984522273072], [-115.25947503557363, 32.545495060304376], [-115.25923016386508, 32.54000129465748], [-115.26164412861347, 32.537646039431614], [-115.2792149422579, 32.53784114555654], [-115.28161501845334, 32.540136414044866], [-115.28202007241124, 32.544995658052606]]], [[[-115.64203561209746, 32.672976398436404], [-115.63853846738597, 32.67556638017674], [-115.61594030200789, 32.67434236778208], [-115.6059362477731, 32.683305566787716], [-115.59476011500463, 32.68348625715871], [-115.58419911626247, 32.68255646328289], [-115.57934983373671, 32.67588407690241], [-115.56674306834273, 32.67517736954385], [-115.56494787473288, 32.67268602439497], [-115.56456366975132, 32.6655839845236], [-115.5616904461506, 32.66317758934449], [-115.531600288386, 32.66550208645451], [-115.52879546388728, 32.667517671888476], [-115.5294575030026, 32.680541860866356], [-115.51999973080052, 32.690502399075925], [-115.5206901713948, 32.70613953469013], [-115.52429950746911, 32.7173170410436], [-115.52666728784169, 32.71921503678039], [-115.5341162267342, 32.71993083819139], [-115.53702973294301, 32.72778437908511], [-115.54553258487091, 32.73056046007518], [-115.5460708080771, 32.74432730057111], [-115.54800327954125, 32.747055594396514], [-115.55449529812888, 32.7472194429596], [-115.55959242346223, 32.74127887400393], [-115.56721653301307, 32.74223661222575], [-115.56852767370323, 32.74499710319296], [-115.5681129395193, 32.75365653945924], [-115.57240577902537, 32.75761425628657], [-115.57398697240545, 32.76273394133164], [-115.58428867594583, 32.76483928983023], [-115.59074303883284, 32.776067402492004], [-115.59664054372867, 32.77851850768651], [-115.5982962966409, 32.78122851152871], [-115.59700680423734, 32.78810237417645], [-115.5870428604363, 32.79065154559123], [-115.58618351910548, 32.79772931974297], [-115.5819703812241, 32.80354700160145], [-115.58375740336126, 32.81358476130333], [-115.59551105018755, 32.81467919044777], [-115.59821550811718, 32.81690580800452], [-115.59751207903282, 32.83876127823271], [-115.5944228880678, 32.84042260118028], [-115.58639589945892, 32.84037833940169], [-115.57973492748778, 32.83526854016367], [-115.56931548153253, 32.8371604302804], [-115.5536375880675, 32.83669864308476], [-115.54080096968175, 32.82177335346283], [-115.540753869415, 32.81712250889158], [-115.54407887981105, 32.812504682518885], [-115.5429860442573, 32.80889932737598], [-115.53374112499966, 32.807119015495886], [-115.52940939266362, 32.80068891851064], [-115.51761973612757, 32.80025830852297], [-115.51469301725339, 32.79748038035992], [-115.51546331915472, 32.79302396940109], [-115.52217431235366, 32.787433864281496], [-115.5238324352937, 32.77888998140014], [-115.53770304744201, 32.777178274529945], [-115.54291222122818, 32.76795781978658], [-115.53876413605866, 32.757728837541045], [-115.53375961560529, 32.75397800362092], [-115.53337820387871, 32.74651236325501], [-115.53103117306841, 32.743045596087455], [-115.52459120202666, 32.73990230585878], [-115.51621898973487, 32.74000230477898], [-115.51388772983263, 32.73800209968136], [-115.5132569684876, 32.726304694159424], [-115.51501323488534, 32.72119102675697], [-115.51134747137327, 32.70565944684607], [-115.50740478741626, 32.70431908060637], [-115.49681333357562, 32.7047529153944], [-115.49181827191329, 32.702495150091295], [-115.48721175237426, 32.70459717265123], [-115.48210654639907, 32.704661146362575], [-115.46728831971818, 32.70051562272499], [-115.46274803741684, 32.69650685737184], [-115.46150433478203, 32.692945924278355], [-115.4621448113976, 32.68475648252718], [-115.46817063950998, 32.682112464482614], [-115.47007922871964, 32.679267439984386], [-115.46985592841568, 32.673073798261385], [-115.46661511548555, 32.670603203523804], [-115.40344082713185, 32.6755116911183], [-115.4012253939298, 32.677110746480025], [-115.40061279400942, 32.68015275793993], [-115.40606904965378, 32.685745017924816], [-115.40858986260825, 32.69328784619856], [-115.40683397232111, 32.69694619542177], [-115.38713033018885, 32.697602583969015], [-115.38300979764226, 32.69641794642971], [-115.37449062971312, 32.69760327079441], [-115.37092496127246, 32.696050521965915], [-115.36606732388148, 32.68411911277797], [-115.36622818064606, 32.67347567140751], [-115.36858747873858, 32.66382191881739], [-115.36707343074485, 32.6596982879134], [-115.3634197583226, 32.65782892172028], [-115.3585921229462, 32.6596998731976], [-115.34871801443947, 32.659286253750466], [-115.33682442184652, 32.65653638068382], [-115.33436722801645, 32.654901668850414], [-115.33192137005953, 32.649677119812935], [-115.3331238395537, 32.64497049013272], [-115.34458218237639, 32.63773044157885], [-115.35479544627103, 32.63726797771416], [-115.35951124830005, 32.63988190359143], [-115.3628375152036, 32.63935748475541], [-115.36546922104873, 32.63519156775875], [-115.36292287526389, 32.630171490331904], [-115.35314866518547, 32.62778013602053], [-115.35143321357569, 32.6204546001986], [-115.34876676456518, 32.61827126552182], [-115.31223887430231, 32.61810032231294], [-115.30867600665908, 32.61526347801516], [-115.30713975296402, 32.60727820184528], [-115.31212946304069, 32.59694174850011], [-115.32327758043655, 32.59423319397805], [-115.3259968479839, 32.59614581729721], [-115.3286026784467, 32.602906551738606], [-115.33359153136979, 32.603379658664544], [-115.33624880607168, 32.601859453989896], [-115.33892951619325, 32.58859263234662], [-115.33749882167668, 32.580309074542306], [-115.33047254204556, 32.57511536897224], [-115.31071938209399, 32.57014334781279], [-115.30758649785841, 32.57049962992615], [-115.30330607297763, 32.57422317020739], [-115.29607711847024, 32.57375267520274], [-115.29409235930318, 32.57013343822668], [-115.29732220962568, 32.55703264299802], [-115.299920984141, 32.55322350340272], [-115.30266706858032, 32.552071213951066], [-115.32164233353218, 32.55734576779452], [-115.32880816412795, 32.5496661290617], [-115.33504311549449, 32.55057737884582], [-115.34406029483642, 32.548668172297475], [-115.34475889769443, 32.54092685896881], [-115.33878833556437, 32.537794325822915], [-115.33738398011411, 32.53472983607145], [-115.33911324033426, 32.530368356172026], [-115.34283556075319, 32.5267442759066], [-115.34378265856928, 32.51779417384015], [-115.34082729026869, 32.512261040400645], [-115.33500380593291, 32.5068580311421], [-115.33403881379951, 32.5034220295573], [-115.33595872225526, 32.499430886612416], [-115.3415297389265, 32.49912291148136], [-115.34737249048078, 32.50490350789299], [-115.35406138351505, 32.50701954280719], [-115.35808629008069, 32.51139921448664], [-115.3587155195862, 32.51419287294769], [-115.35673967491336, 32.520626093860656], [-115.36227325952774, 32.52851168615283], [-115.36233810091808, 32.53828976042817], [-115.36702377775771, 32.54557767246716], [-115.36781449496112, 32.55047650614353], [-115.37288241195648, 32.55416019041491], [-115.38418065596758, 32.574389347978745], [-115.39266086281638, 32.576310722486014], [-115.40074210840028, 32.56306921011003], [-115.4111354974488, 32.554909895128496], [-115.41379555587433, 32.549168312450654], [-115.41188323711556, 32.54678191936162], [-115.40646557859836, 32.54468397361691], [-115.40402880564778, 32.536611608277184], [-115.40085367521506, 32.532002094905536], [-115.3787357829136, 32.5310269965214], [-115.37631080429729, 32.52925924359499], [-115.37579954634818, 32.52630220335048], [-115.38662288508057, 32.50948975800899], [-115.40638772548404, 32.50920044925653], [-115.41535995841812, 32.514259164309685], [-115.41741919671666, 32.51927849972299], [-115.41729320240572, 32.525034383672946], [-115.42330481710853, 32.53020245280183], [-115.42274927446155, 32.53547928738266], [-115.41669190408344, 32.53984520706382], [-115.41514095079839, 32.54930972095351], [-115.41915078121163, 32.55138476688536], [-115.42286829383616, 32.550640940405906], [-115.42712342989836, 32.54701469005304], [-115.43427209140829, 32.54761656264271], [-115.43681081839917, 32.55375652426439], [-115.43695451771971, 32.56456201530115], [-115.43864377679724, 32.567227489492], [-115.44406075744546, 32.56952759524219], [-115.45414062207043, 32.570779905851836], [-115.46257327420966, 32.56254950673424], [-115.48879675750055, 32.5598676389421], [-115.49065528530541, 32.56186975245177], [-115.49288149245123, 32.57059630488388], [-115.5030879254962, 32.575779161300865], [-115.5088610374337, 32.57505044057866], [-115.51298005001817, 32.57783150705398], [-115.52250746938672, 32.58003500279339], [-115.52436786055135, 32.58246414289046], [-115.5256374166781, 32.59190424973511], [-115.52870271037061, 32.59315824899955], [-115.53358668466119, 32.59246839092937], [-115.53597423778933, 32.593979142033], [-115.53975067622568, 32.6029669908094], [-115.53860864490001, 32.6054573928463], [-115.53247179617084, 32.6099021754063], [-115.53306314233875, 32.61570460824528], [-115.53486477890033, 32.618057207293354], [-115.53936339606335, 32.618404461770744], [-115.5441133799284, 32.613429914794665], [-115.56121194931015, 32.6133031079737], [-115.56675929223229, 32.60990125952678], [-115.58091047864647, 32.6116163201745], [-115.58233106273673, 32.619454700169634], [-115.58777709570876, 32.623381996530156], [-115.5908862756731, 32.62960590725798], [-115.59077290409073, 32.63564234464363], [-115.58752369775362, 32.64059468194456], [-115.58923404534009, 32.64596566290908], [-115.58771755154181, 32.654941712343366], [-115.59092267359101, 32.65989084568886], [-115.59752228438745, 32.6620506483833], [-115.60023263156117, 32.66758466920532], [-115.6135649561682, 32.67035931386804], [-115.61638771385714, 32.66854547680077], [-115.61735366396134, 32.66311101380535], [-115.61961192430816, 32.661004961768036], [-115.63886932345119, 32.661006825493615], [-115.64217572926205, 32.66395715686483], [-115.64203561209746, 32.672976398436404]], [[-115.5461707683369, 32.807064482084535], [-115.54435869043655, 32.81038750592831], [-115.54581214901687, 32.813497844582166], [-115.55039100302255, 32.814393800487984], [-115.55310690952989, 32.81292790976404], [-115.55390715418783, 32.80957434370468], [-115.55195352944932, 32.80641717876905], [-115.54906930664627, 32.80556313560371], [-115.5461707683369, 32.807064482084535]], [[-115.57089912493261, 32.650238665574555], [-115.5683083880152, 32.64750166442925], [-115.56455363472604, 32.64784075802285], [-115.56277109782144, 32.65075876845107], [-115.5634747919879, 32.65521441954818], [-115.56607945660913, 32.656879725861735], [-115.5700562659147, 32.6560666508194], [-115.57174098609323, 32.65345779390608], [-115.57089912493261, 32.650238665574555]]], [[[-115.32125311867658, 32.469087431185585], [-115.32119619329926, 32.475065835769016], [-115.31971694245694, 32.477609389077315], [-115.30975695093714, 32.47840770415894], [-115.29578496043035, 32.46510043834555], [-115.2949713211019, 32.46120047206047], [-115.29875947083781, 32.45703843197337], [-115.31082758028924, 32.453408479415096], [-115.3213077623285, 32.462559431718994], [-115.32125311867658, 32.469087431185585]]], [[[-115.40530183357139, 32.82073179338293], [-115.40256464842719, 32.823170799402384], [-115.39430732298922, 32.8233351037506], [-115.38419315355401, 32.8258867467244], [-115.36488240145064, 32.826372999964164], [-115.36046948207034, 32.82388900418418], [-115.3591355631175, 32.821422977643486], [-115.35918882774617, 32.813849162743594], [-115.3689128579481, 32.80452105995859], [-115.36971545021346, 32.789651638454956], [-115.37881475217009, 32.7849109991262], [-115.38964868054605, 32.78575079802472], [-115.39121953473098, 32.79334783863941], [-115.38593408370264, 32.79967504074007], [-115.38578732977606, 32.803492990782885], [-115.38834383902997, 32.80561472347496], [-115.39617184060309, 32.807309228726986], [-115.3997102192886, 32.813285665918244], [-115.4048376939097, 32.816129248511025], [-115.40530183357139, 32.82073179338293]]], [[[-115.61786432888319, 32.58240223487973], [-115.62521128922498, 32.584450755599015], [-115.62734846491092, 32.586901332061345], [-115.62696015254542, 32.59013096874827], [-115.62238141892261, 32.59587446440931], [-115.59980278379395, 32.590268641539204], [-115.59439102960805, 32.58715917473151], [-115.58605052548795, 32.59349788801936], [-115.57738704742103, 32.59630516730824], [-115.5747117076261, 32.59450343501282], [-115.57314907537508, 32.59006603557244], [-115.56816253076613, 32.58768947091758], [-115.56615265014007, 32.583952437075126], [-115.56930164773115, 32.57970338636941], [-115.5805762153811, 32.57672817250248], [-115.5836911800518, 32.57145368248425], [-115.58819454672853, 32.569050261237706], [-115.59148233212154, 32.57028113530403], [-115.59822363728115, 32.578530620971044], [-115.60443402735713, 32.57806848690319], [-115.61786432888319, 32.58240223487973]]]]}, "properties": {}}