{"type": "FeatureCollection", "features": [{"type": "Feature", "properties": {"threshold": 70}, "geometry": {"type": "MultiPolygon", "coordinates": [[[[74.24051597651882, 32.03695121407929], [74.24043100092841, 32.04015244115071], [74.24684218847992, 32.043696381105924], [74.25133995748733, 32.051111729494615], [74.26176682307538, 32.05282374630925], [74.2660269019938, 32.0502246323197], [74.26521687224485, 32.03945356837902], [74.25390460007057, 32.034083717165345], [74.25249733026125, 32.03077435602961], [74.24433868604278, 32.03072599977467], [74.24051597651882, 32.03695121407929]]], [[[74.10048463404043, 32.155305422304004], [74.10436095702926, 32.160887864392365], [74.11736411757083, 32.161710458112154], [74.12470893252825, 32.17469689256475], [74.13553565411253, 32.1753831660053], [74.14376889983365, 32.18225773901406], [74.1324265283162, 32.19195125262083], [74.13130088828332, 32.19564862280236], [74.12459372857612, 32.199833378744465], [74.1197894503559, 32.199495498616905], [74.1206920023688, 32.20510078780465], [74.12809572499368, 32.20600978316795], [74.13292244360713, 32.19620046837209], [74.14322944725906, 32.19326820626479], [74.14684201102135, 32.19922479053513], [74.15422945901992, 32.20133885850573], [74.15576042081254, 32.2053899262023], [74.16417218110409, 32.208560830789025], [74.16396426578807, 32.213913012721946], [74.15739530852238, 32.215722735728974], [74.15579556136275, 32.22135330389572], [74.1383220530042, 32.22264180124554], [74.14114298650594, 32.24811099543966], [74.14758639398313, 32.24802170426008], [74.15514631226806, 32.236087480810674], [74.15938364293659, 32.237957838847095], [74.15976012601365, 32.24499534071311], [74.16638502043371, 32.247434092257464], [74.16921081527026, 32.23778092920332], [74.18110597101193, 32.23280102831968], [74.17865975775851, 32.22064338990004], [74.1835887294321, 32.217277226048694], [74.19048587504984, 32.219511924034016], [74.19370491299684, 32.21850594084194], [74.19491407555418, 32.21466099700186], [74.19820503752744, 32.21442825144324], [74.20148539859385, 32.2194683477965], [74.20850482824963, 32.22044030149433], [74.21025499826601, 32.227823653450436], [74.21722304345349, 32.22961880154481], [74.2277781478746, 32.22329766509358], [74.22894803538883, 32.217000196953734], [74.23293652209935, 32.217029639319485], [74.2367255745303, 32.22054462250855], [74.23953324769674, 32.21949317734884], [74.23157661107147, 32.204863182220016], [74.22514961727553, 32.19960498710973], [74.22708262051, 32.19460766105257], [74.23359369283547, 32.191781622369945], [74.23221274701407, 32.18210715966042], [74.23498291102067, 32.1759898384652], [74.2461014640754, 32.17156818731516], [74.24729292984084, 32.16554704568821], [74.24437098323273, 32.15593211168779], [74.23118293611186, 32.15562152687328], [74.22768510062774, 32.15187195181632], [74.23545414005412, 32.14942244256021], [74.23896792088641, 32.14403349297218], [74.24344154652553, 32.14879008873723], [74.24868965459198, 32.148853259034084], [74.2510626192596, 32.14343740194461], [74.24330618649074, 32.13899607651001], [74.2368832263936, 32.14023050664666], [74.23570155306108, 32.134616612138494], [74.2309617490795, 32.13373649186189], [74.22380431282946, 32.12628241126467], [74.22348214743758, 32.11419820086476], [74.21771127337284, 32.11101596274663], [74.22870312368184, 32.10659360044509], [74.22990119769823, 32.09980942699195], [74.22705398106825, 32.08948142145646], [74.22105108951894, 32.08993187069783], [74.21520612263028, 32.08703796355723], [74.21637435184593, 32.07997529830898], [74.2315059111181, 32.07694123142271], [74.23555185868051, 32.06877615950663], [74.23210725504372, 32.06334494872396], [74.22186499554464, 32.06773722015395], [74.21949538547537, 32.06233231876867], [74.22124275009912, 32.05739458276808], [74.22629519643132, 32.05706680495813], [74.23661921618377, 32.048176647548686], [74.23537466352639, 32.042883235420945], [74.22487465336506, 32.04116128429381], [74.21973862465954, 32.037503331593044], [74.2208760142542, 32.02204990850599], [74.22878467363981, 32.01920199407726], [74.22758640513123, 32.01001901401304], [74.20945462573819, 32.008475505937255], [74.20277878460377, 32.0256869717086], [74.20536829541945, 32.02980533053585], [74.20398296997038, 32.042424243106524], [74.19866980187312, 32.04766059616065], [74.19139831755533, 32.048677466400754], [74.18628013955338, 32.05358500434692], [74.16223142957399, 32.06253742960046], [74.16316157006304, 32.06948984456021], [74.17179103344753, 32.0716858026443], [74.1744156965369, 32.07606697333188], [74.16654602014252, 32.080882098855966], [74.16441683378416, 32.09142205159234], [74.15297158440943, 32.09078078407463], [74.15006052655045, 32.10702267489356], [74.15379639564819, 32.114017238249666], [74.14567392668036, 32.11877767332639], [74.14492035162331, 32.124047935503086], [74.13641045211683, 32.130496385291984], [74.13645807042916, 32.13481934107292], [74.14339886186947, 32.14271161459027], [74.14109290975468, 32.14756623437485], [74.12961024475719, 32.15271727542185], [74.11926092628337, 32.14884893282138], [74.10372788331924, 32.15104031066825], [74.10048463404043, 32.155305422304004]], [[74.16043782094388, 32.17253052929172], [74.1594926671814, 32.17567614458589], [74.15533481892118, 32.17503269836229], [74.15662254218053, 32.171526220186934], [74.16043782094388, 32.17253052929172]], [[74.15118545662114, 32.17791197739464], [74.1537963127632, 32.17550045803289], [74.1565968510252, 32.17769355179349], [74.15399867432374, 32.180366458826356], [74.15118545662114, 32.17791197739464]]], [[[74.20503376890716, 31.971499585853795], [74.20140960090419, 31.97608951898926], [74.2085526893236, 31.981709438837512], [74.20579395055849, 31.99165776699313], [74.2140083375187, 31.99675747623109], [74.216739874201, 32.00201433954665], [74.22324545590162, 32.00205433718594], [74.22918337944525, 31.99305783568484], [74.24132543392044, 31.996716001975713], [74.24333838094162, 31.992281301780856], [74.2381898709971, 31.987352720955833], [74.23729230211731, 31.981214832155338], [74.24180473052421, 31.960981222043532], [74.23421411644367, 31.957412448020012], [74.2375163907969, 31.939808938865685], [74.23629204536968, 31.93222598740778], [74.22609181277389, 31.93390044635534], [74.22197213378776, 31.95362312917651], [74.21251258414667, 31.958179268441548], [74.2106372581522, 31.96730898871334], [74.20538399552001, 31.96871413105975], [74.20503376890716, 31.971499585853795]]], [[[73.96006583631777, 31.959407835765905], [73.95983009929658, 31.96781828542262], [73.96635257174162, 31.97431817502223], [73.98548851007847, 31.975025949501116], [73.98755248879397, 31.96226088396979], [73.98210113443922, 31.952725178407068], [73.97682136408795, 31.950173266032785], [73.9784891972425, 31.93804602717022], [73.97187229626094, 31.938965602817305], [73.97341590215618, 31.950355365842007], [73.96564028658217, 31.951723568714268], [73.96006583631777, 31.959407835765905]]]]}}, {"type": "Feature", "properties": {"threshold": 80}, "geometry": {"type": "MultiPolygon", "coordinates": [[[[74.32245424633089, 32.317317176252395], [74.32896129114516, 32.32024181748363], [74.33205187530353, 32.32622618403399], [74.33080401762246, 32.328739616892406], [74.32599944955645, 32.32923621665969], [74.32743182059122, 32.33782381570739], [74.33554543775337, 32.33386104923939], [74.3390552611883, 32.32774907098064], [74.3477860703129, 32.33346112577772], [74.3487032977357, 32.337032402920165], [74.35459372164446, 32.337010485371046], [74.35725621578632, 32.33953468210988], [74.36846868766246, 32.340300247056454], [74.37238019419186, 32.33358586272228], [74.37622998989713, 32.33222547629864], [74.37479832438324, 32.32287523121277], [74.36439761550643, 32.32206011352146], [74.35941182804713, 32.32612830336982], [74.35019315759607, 32.32446990651362], [74.34984832998886, 32.3199153639556], [74.35569791787505, 32.31810848571925], [74.35063038993717, 32.30901628821872], [74.34681425025327, 32.309503522684054], [74.34940965468648, 32.31612027945958], [74.34765516189235, 32.31884043289452], [74.3412361853765, 32.31733329237317], [74.3378051080933, 32.32096102720265], [74.33218302749697, 32.32015764974337], [74.32617937090154, 32.31114852578704], [74.32260315360728, 32.31152767048244], [74.32245424633089, 32.317317176252395]], [[74.35914379760791, 32.32931300870054], [74.363053219194, 32.326640943764694], [74.3712313557591, 32.329402481187955], [74.37255729689139, 32.33265113523001], [74.36776067508961, 32.334143461112525], [74.3611096087759, 32.332382833931625], [74.35914379760791, 32.32931300870054]]], [[[74.24051597651882, 32.03695121407929], [74.24043100092841, 32.04015244115071], [74.24684218847992, 32.043696381105924], [74.25133995748733, 32.051111729494615], [74.26176682307538, 32.05282374630925], [74.2660269019938, 32.0502246323197], [74.26521687224485, 32.03945356837902], [74.25390460007057, 32.034083717165345], [74.25249733026125, 32.03077435602961], [74.24433868604278, 32.03072599977467], [74.24051597651882, 32.03695121407929]]], [[[74.09985974504949, 32.15548738687247], [74.10436095702926, 32.160887864392365], [74.11716987797193, 32.16155821762131], [74.12357436802013, 32.17371608285556], [74.12941391936822, 32.175967841141215], [74.1307313486119, 32.181457006101226], [74.13843341540297, 32.18320675436886], [74.1372131650634, 32.18807996494429], [74.13258042699992, 32.18879426807632], [74.1287460908008, 32.193760381714576], [74.12100980249515, 32.19397366825497], [74.1179637362049, 32.197253242925896], [74.11780114938128, 32.20247423231538], [74.1206920023688, 32.20510078780465], [74.13070544763974, 32.20682927350753], [74.13722916113335, 32.20368840139616], [74.13706065782705, 32.19846360651913], [74.14322859306995, 32.1955716977592], [74.16415822156011, 32.21008705742035], [74.16348493822943, 32.21348961249664], [74.15728301623047, 32.215837215168854], [74.15477390170838, 32.221625493516775], [74.1383220530042, 32.22264180124554], [74.14114298650594, 32.24811099543966], [74.14744992974244, 32.24811534779457], [74.15207207022436, 32.24217212957175], [74.15649442761543, 32.24748316831883], [74.16607586556343, 32.24757191136719], [74.16964257659242, 32.238187560276884], [74.18264395895137, 32.23685612054285], [74.18215144777481, 32.226195734577466], [74.17892687342726, 32.22221417418158], [74.1844782986856, 32.21818970282852], [74.20749871958267, 32.21981137987824], [74.20930535875598, 32.226999263489105], [74.21722304345349, 32.22961880154481], [74.2277781478746, 32.22329766509358], [74.22946135613292, 32.21699057553165], [74.23681057032492, 32.22056326743326], [74.24223267125404, 32.21874622419653], [74.2320661324579, 32.20823973079816], [74.22826937287536, 32.199148218938646], [74.23628877214303, 32.19401504197766], [74.23247523192468, 32.18124220119668], [74.23661460596269, 32.175267144628], [74.24880567832875, 32.1700579318805], [74.2490810095722, 32.1663208422673], [74.24486670326145, 32.16319539309232], [74.24437098323273, 32.15593211168779], [74.23125816239317, 32.155627286120186], [74.22835007127773, 32.15280327096595], [74.2302667027226, 32.15045848760971], [74.23724180414715, 32.1501964021597], [74.23961421758246, 32.144678901707906], [74.24344154652553, 32.14879008873723], [74.24876920455674, 32.14882182574645], [74.2510626192596, 32.14343740194461], [74.2468875522006, 32.139780610416324], [74.2368832263936, 32.14023050664666], [74.23570155306108, 32.134616612138494], [74.2309617490795, 32.13373649186189], [74.22376970738391, 32.1255598197513], [74.22420125849904, 32.120218834041374], [74.2310724610778, 32.11971493672006], [74.23965546054968, 32.11284238023611], [74.23735144923705, 32.10998481146543], [74.22870009807181, 32.10859576630891], [74.22801521824248, 32.08877939658826], [74.22116117645271, 32.08991421475265], [74.21520612263028, 32.08703796355723], [74.22047382293557, 32.07819370586169], [74.23163564931863, 32.07761063093367], [74.23555185868051, 32.06877615950663], [74.23251477617708, 32.06347190970019], [74.22517054678676, 32.06435457339904], [74.22028211482544, 32.060620527276434], [74.22139647726966, 32.05739495612807], [74.22719130138749, 32.05707227188697], [74.22823189244544, 32.053467504272746], [74.23661921618377, 32.048176647548686], [74.23537466352639, 32.042883235420945], [74.22487465336506, 32.04116128429381], [74.21973862465954, 32.037503331593044], [74.2208760142542, 32.02204990850599], [74.22878467363981, 32.01920199407726], [74.22758640513123, 32.01001901401304], [74.20945462573819, 32.008475505937255], [74.20277878460377, 32.0256869717086], [74.20577854495892, 32.037962624430136], [74.20398296997038, 32.042424243106524], [74.19708621915515, 32.047548466206344], [74.18945331080305, 32.049511043425085], [74.18742820588889, 32.052786124728655], [74.17259285854368, 32.056155999571885], [74.17081331988128, 32.05951375967292], [74.16223142957399, 32.06253742960046], [74.16306544499801, 32.06936526482198], [74.16918116424877, 32.073401695158125], [74.16533961514655, 32.090292142519736], [74.15117169368665, 32.09153190850062], [74.1518829024018, 32.10226469353018], [74.14917028417527, 32.10714743453056], [74.1529783649148, 32.113796761824794], [74.1456810357803, 32.118014552686454], [74.14332860380968, 32.12578560927265], [74.1364626444203, 32.13035409460922], [74.13900070324928, 32.13926896395376], [74.13483040977394, 32.147659226057264], [74.13049149865849, 32.14943586033156], [74.1226882536434, 32.14734641264636], [74.11489897702404, 32.15029425410206], [74.10184863614322, 32.15104511863297], [74.09985974504949, 32.15548738687247]], [[74.21817060641747, 32.11066012117778], [74.22447132703984, 32.10907292283657], [74.22671544867332, 32.111687337797925], [74.22044937363894, 32.11362548272516], [74.21817060641747, 32.11066012117778]]], [[[74.20503376890716, 31.971499585853795], [74.20140960090419, 31.97608951898926], [74.2085526893236, 31.981709438837512], [74.20579395055849, 31.99165776699313], [74.2140083375187, 31.99675747623109], [74.216739874201, 32.00201433954665], [74.22324545590162, 32.00205433718594], [74.2294423157763, 31.99301557398335], [74.23693665769045, 31.99509605791489], [74.23938429343207, 31.998450895388327], [74.24399947424388, 31.99825834541902], [74.23729044348065, 31.981439509405295], [74.24180473052421, 31.960981222043532], [74.23421411644367, 31.957412448020012], [74.2375163907969, 31.939808938865685], [74.23629204536968, 31.93222598740778], [74.22609181277389, 31.93390044635534], [74.22197213378776, 31.95362312917651], [74.21251258414667, 31.958179268441548], [74.2106372581522, 31.96730898871334], [74.20538399552001, 31.96871413105975], [74.20503376890716, 31.971499585853795]]], [[[73.96006583631777, 31.959407835765905], [73.95981288848452, 31.969344480690758], [73.96416660156656, 31.970405684224467], [73.96635257174162, 31.97431817502223], [73.98548851007847, 31.975025949501116], [73.98755248879397, 31.96226088396979], [73.98210113443922, 31.952725178407068], [73.97682136408795, 31.950173266032785], [73.97971767027971, 31.943341736921894], [73.9784891972425, 31.93804602717022], [73.97009101860606, 31.938187996781934], [73.97352748583744, 31.950146680539063], [73.96564028658217, 31.951723568714268], [73.96006583631777, 31.959407835765905]]]]}}, {"type": "Feature", "properties": {"threshold": 90}, "geometry": {"type": "MultiPolygon", "coordinates": [[[[74.31374485380002, 32.30829593841758], [74.3146010167803, 32.31308846891081], [74.32573022855317, 32.31991644103806], [74.32595093438675, 32.33578267724939], [74.33361345781698, 32.34164726310739], [74.34671334362733, 32.33616167332184], [74.3638751746605, 32.34259178359619], [74.37056351101361, 32.33938272343717], [74.37619989926365, 32.33229558766836], [74.37794601953848, 32.32008340444548], [74.37259262862902, 32.319030344912115], [74.36876132053438, 32.3212585715174], [74.36592539167131, 32.31827713254738], [74.35869584010601, 32.317794111761124], [74.35747942117592, 32.31025116577558], [74.35253185195785, 32.30599854822519], [74.34345681512283, 32.30764282974014], [74.33979651232902, 32.31654516228947], [74.32470454413411, 32.302036942633094], [74.31667008585516, 32.30282713516496], [74.31374485380002, 32.30829593841758]]], [[[74.24051597651882, 32.03695121407929], [74.24043100092841, 32.04015244115071], [74.24684218847992, 32.043696381105924], [74.25133995748733, 32.051111729494615], [74.26176682307538, 32.05282374630925], [74.2660269019938, 32.0502246323197], [74.26521687224485, 32.03945356837902], [74.25390460007057, 32.034083717165345], [74.25249733026125, 32.03077435602961], [74.24433868604278, 32.03072599977467], [74.24051597651882, 32.03695121407929]]], [[[74.09985974504949, 32.15548738687247], [74.10166968309093, 32.160868785201366], [74.11736411757083, 32.161710458112154], [74.12445698777924, 32.175248515434475], [74.13397281836035, 32.18336341228941], [74.12963151023584, 32.19250702458639], [74.12281196449466, 32.193223024153355], [74.11791800462147, 32.19731692908054], [74.11780114938128, 32.20247423231538], [74.1206920023688, 32.20510078780465], [74.13037071438437, 32.20691309663636], [74.13970968074047, 32.20383823159938], [74.13732827749757, 32.19860097022436], [74.14322859306995, 32.1955716977592], [74.16415822156011, 32.21008705742035], [74.16384696760973, 32.213139708892946], [74.15829998130584, 32.21496560454135], [74.15402426898697, 32.221328776325606], [74.1383220530042, 32.22264180124554], [74.14114298650594, 32.24811099543966], [74.14744992974244, 32.24811534779457], [74.15207207022436, 32.24217212957175], [74.15649442761543, 32.24748316831883], [74.16607586556343, 32.24757191136719], [74.16973368686494, 32.239238701917145], [74.18173926282184, 32.23761342330192], [74.18661031752777, 32.23102634058592], [74.18650228610072, 32.22671286403065], [74.17985006914803, 32.222267016153495], [74.1840259237159, 32.218583029430874], [74.20749871958267, 32.21981137987824], [74.21025499826601, 32.227823653450436], [74.21888639144042, 32.229629092703625], [74.2216412990517, 32.22526208094353], [74.22783094541842, 32.22323805040963], [74.22946135613292, 32.21699057553165], [74.23681057032492, 32.22056326743326], [74.24223267125404, 32.21874622419653], [74.24221320826632, 32.21478859524282], [74.2320661324579, 32.20823973079816], [74.2295170041586, 32.20035817352349], [74.23239107225524, 32.19535334407237], [74.23630226457422, 32.193941308535436], [74.23247523192468, 32.18124220119668], [74.23661460596269, 32.175267144628], [74.24880567832875, 32.1700579318805], [74.2490810095722, 32.1663208422673], [74.24486670326145, 32.16319539309232], [74.24437098323273, 32.15593211168779], [74.23125816239317, 32.155627286120186], [74.22835007127773, 32.15280327096595], [74.2302667027226, 32.15045848760971], [74.23724180414715, 32.1501964021597], [74.23961421758246, 32.144678901707906], [74.24344154652553, 32.14879008873723], [74.24876920455674, 32.14882182574645], [74.2510626192596, 32.14343740194461], [74.2468875522006, 32.139780610416324], [74.2368832263936, 32.14023050664666], [74.23570155306108, 32.134616612138494], [74.2309617490795, 32.13373649186189], [74.22376970738391, 32.1255598197513], [74.22401243219295, 32.120376508969194], [74.23563794022847, 32.11894103975197], [74.23966811161733, 32.111316102090974], [74.22870009807181, 32.10859576630891], [74.22801521824248, 32.08877939658826], [74.22116117645271, 32.08991421475265], [74.21520612263028, 32.08703796355723], [74.22047382293557, 32.07819370586169], [74.23163564931863, 32.07761063093367], [74.23555185868051, 32.06877615950663], [74.23251477617708, 32.06347190970019], [74.22517054678676, 32.06435457339904], [74.22028211482544, 32.060620527276434], [74.23661921618377, 32.048176647548686], [74.23537466352639, 32.042883235420945], [74.22487465336506, 32.04116128429381], [74.21973862465954, 32.037503331593044], [74.2208760142542, 32.02204990850599], [74.22878467363981, 32.01920199407726], [74.22758640513123, 32.01001901401304], [74.20945462573819, 32.008475505937255], [74.20277878460377, 32.0256869717086], [74.20577854495892, 32.037962624430136], [74.20398296997038, 32.042424243106524], [74.19708621915515, 32.047548466206344], [74.18945331080305, 32.049511043425085], [74.18742820588889, 32.052786124728655], [74.17169677416155, 32.05615014696715], [74.16223142957399, 32.06253742960046], [74.16302859199705, 32.06929756241064], [74.16873382570776, 32.075576758181036], [74.16533961514655, 32.090292142519736], [74.16275134905753, 32.09189996976534], [74.15273029972978, 32.09032436698526], [74.15030630675484, 32.09222182007937], [74.15189998948841, 32.10202442425999], [74.14828217563115, 32.106229228273605], [74.14980662126865, 32.11412042440641], [74.14317149467958, 32.12597681070883], [74.1364626444203, 32.13035409460922], [74.13810135387875, 32.13978244739071], [74.13402366302992, 32.144993707985265], [74.11489897702404, 32.15029425410206], [74.10176580815921, 32.15106967022465], [74.09985974504949, 32.15548738687247]], [[74.21817060641747, 32.11066012117778], [74.22447132703984, 32.10907292283657], [74.22671544867332, 32.111687337797925], [74.22044937363894, 32.11362548272516], [74.21817060641747, 32.11066012117778]]], [[[74.20503376890716, 31.971499585853795], [74.20140960090419, 31.97608951898926], [74.2085526893236, 31.981709438837512], [74.20579395055849, 31.99165776699313], [74.2140083375187, 31.99675747623109], [74.216739874201, 32.00201433954665], [74.22324545590162, 32.00205433718594], [74.2294423157763, 31.99301557398335], [74.23693665769045, 31.99509605791489], [74.23938429343207, 31.998450895388327], [74.24399947424388, 31.99825834541902], [74.23729044348065, 31.981439509405295], [74.24180473052421, 31.960981222043532], [74.23421411644367, 31.957412448020012], [74.2375163907969, 31.939808938865685], [74.23629204536968, 31.93222598740778], [74.22609181277389, 31.93390044635534], [74.22197213378776, 31.95362312917651], [74.21251258414667, 31.958179268441548], [74.2106372581522, 31.96730898871334], [74.20538399552001, 31.96871413105975], [74.20503376890716, 31.971499585853795]]], [[[73.96006583631777, 31.959407835765905], [73.95981288848452, 31.969344480690758], [73.96416660156656, 31.970405684224467], [73.96635257174162, 31.97431817502223], [73.98548851007847, 31.975025949501116], [73.98755248879397, 31.96226088396979], [73.98210113443922, 31.952725178407068], [73.97682136408795, 31.950173266032785], [73.97971767027971, 31.943341736921894], [73.9784891972425, 31.93804602717022], [73.97009101860606, 31.938187996781934], [73.97352748583744, 31.950146680539063], [73.96564028658217, 31.951723568714268], [73.96006583631777, 31.959407835765905]]]]}}, {"type": "Feature", "properties": {"threshold": 95}, "geometry": {"type": "MultiPolygon", "coordinates": [[[[74.39264935726524, 32.30821993713976], [74.38914156174513, 32.31264814863629], [74.40056203555544, 32.31585279492945], [74.40549304565202, 32.32362031687502], [74.41572894593259, 32.322695165884575], [74.41584077526986, 32.318166411405464], [74.41235677411622, 32.31511180039475], [74.41947081608718, 32.31265982937593], [74.41921021657744, 32.301814224254564], [74.41096611752828, 32.3002941460697], [74.40790080836753, 32.30992149854143], [74.40292146091396, 32.31030076824264], [74.3998968651369, 32.306941557547354], [74.39264935726524, 32.30821993713976]]], [[[74.313731717637, 32.310038410614254], [74.31554676645409, 32.3146752092963], [74.32140287654353, 32.31606618557439], [74.32469037345847, 32.3202021688015], [74.32686193791912, 32.338147270752835], [74.33361345781698, 32.34164726310739], [74.34671334362733, 32.33616167332184], [74.3638751746605, 32.34259178359619], [74.37056351101361, 32.33938272343717], [74.37619989926365, 32.33229558766836], [74.37794601953848, 32.32008340444548], [74.35869584010601, 32.317794111761124], [74.35747942117592, 32.31025116577558], [74.35253185195785, 32.30599854822519], [74.34345681512283, 32.30764282974014], [74.33997410852469, 32.31617616255564], [74.32372914917069, 32.3012434210185], [74.31653370791668, 32.302920962346484], [74.313731717637, 32.310038410614254]]], [[[74.24051597651882, 32.03695121407929], [74.24043100092841, 32.04015244115071], [74.24684218847992, 32.043696381105924], [74.25133995748733, 32.051111729494615], [74.26176682307538, 32.05282374630925], [74.2660269019938, 32.0502246323197], [74.26521687224485, 32.03945356837902], [74.25390460007057, 32.034083717165345], [74.25249733026125, 32.03077435602961], [74.24433868604278, 32.03072599977467], [74.24051597651882, 32.03695121407929]]], [[[74.09985974504949, 32.15548738687247], [74.10166968309093, 32.160868785201366], [74.11736411757083, 32.161710458112154], [74.12445698777924, 32.175248515434475], [74.13397281836035, 32.18336341228941], [74.12963151023584, 32.19250702458639], [74.12281196449466, 32.193223024153355], [74.11791800462147, 32.19731692908054], [74.11780114938128, 32.20247423231538], [74.1206920023688, 32.20510078780465], [74.13037071438437, 32.20691309663636], [74.13970968074047, 32.20383823159938], [74.13732827749757, 32.19860097022436], [74.14322859306995, 32.1955716977592], [74.16415822156011, 32.21008705742035], [74.16384696760973, 32.213139708892946], [74.15829998130584, 32.21496560454135], [74.15402426898697, 32.221328776325606], [74.1383220530042, 32.22264180124554], [74.14114298650594, 32.24811099543966], [74.14744992974244, 32.24811534779457], [74.15207207022436, 32.24217212957175], [74.15649442761543, 32.24748316831883], [74.16607586556343, 32.24757191136719], [74.16973368686494, 32.239238701917145], [74.18173926282184, 32.23761342330192], [74.18661031752777, 32.23102634058592], [74.18650228610072, 32.22671286403065], [74.17985006914803, 32.222267016153495], [74.1840259237159, 32.218583029430874], [74.20749871958267, 32.21981137987824], [74.21025499826601, 32.227823653450436], [74.21888639144042, 32.229629092703625], [74.2216412990517, 32.22526208094353], [74.22783094541842, 32.22323805040963], [74.22946135613292, 32.21699057553165], [74.23681057032492, 32.22056326743326], [74.24223267125404, 32.21874622419653], [74.24221320826632, 32.21478859524282], [74.2320661324579, 32.20823973079816], [74.2295170041586, 32.20035817352349], [74.23239107225524, 32.19535334407237], [74.23630226457422, 32.193941308535436], [74.23247523192468, 32.18124220119668], [74.23661460596269, 32.175267144628], [74.24880567832875, 32.1700579318805], [74.2490810095722, 32.1663208422673], [74.24486670326145, 32.16319539309232], [74.24437098323273, 32.15593211168779], [74.23125816239317, 32.155627286120186], [74.22835007127773, 32.15280327096595], [74.2302667027226, 32.15045848760971], [74.23724180414715, 32.1501964021597], [74.23961421758246, 32.144678901707906], [74.24344154652553, 32.14879008873723], [74.24876920455674, 32.14882182574645], [74.2510626192596, 32.14343740194461], [74.2468875522006, 32.139780610416324], [74.2368832263936, 32.14023050664666], [74.23570155306108, 32.134616612138494], [74.2309617490795, 32.13373649186189], [74.22376970738391, 32.1255598197513], [74.22401243219295, 32.120376508969194], [74.23563794022847, 32.11894103975197], [74.23966811161733, 32.111316102090974], [74.22870009807181, 32.10859576630891], [74.22801521824248, 32.08877939658826], [74.22116117645271, 32.08991421475265], [74.21520612263028, 32.08703796355723], [74.22047382293557, 32.07819370586169], [74.23163564931863, 32.07761063093367], [74.23555185868051, 32.06877615950663], [74.23251477617708, 32.06347190970019], [74.22517054678676, 32.06435457339904], [74.22028211482544, 32.060620527276434], [74.23661921618377, 32.048176647548686], [74.23537466352639, 32.042883235420945], [74.22487465336506, 32.04116128429381], [74.21973862465954, 32.037503331593044], [74.2208760142542, 32.02204990850599], [74.22878467363981, 32.01920199407726], [74.22758640513123, 32.01001901401304], [74.20945462573819, 32.008475505937255], [74.20277878460377, 32.0256869717086], [74.20577854495892, 32.037962624430136], [74.20398296997038, 32.042424243106524], [74.19708621915515, 32.047548466206344], [74.18945331080305, 32.049511043425085], [74.18742820588889, 32.052786124728655], [74.17169677416155, 32.05615014696715], [74.16223142957399, 32.06253742960046], [74.16302859199705, 32.06929756241064], [74.16873382570776, 32.075576758181036], [74.16533961514655, 32.090292142519736], [74.16275134905753, 32.09189996976534], [74.15273029972978, 32.09032436698526], [74.15030630675484, 32.09222182007937], [74.15189998948841, 32.10202442425999], [74.14828217563115, 32.106229228273605], [74.14980662126865, 32.11412042440641], [74.14317149467958, 32.12597681070883], [74.1364626444203, 32.13035409460922], [74.13810135387875, 32.13978244739071], [74.13402366302992, 32.144993707985265], [74.11489897702404, 32.15029425410206], [74.10176580815921, 32.15106967022465], [74.09985974504949, 32.15548738687247]], [[74.21817060641747, 32.11066012117778], [74.22447132703984, 32.10907292283657], [74.22671544867332, 32.111687337797925], [74.22044937363894, 32.11362548272516], [74.21817060641747, 32.11066012117778]]], [[[74.20503376890716, 31.971499585853795], [74.20140960090419, 31.97608951898926], [74.2085526893236, 31.981709438837512], [74.20579395055849, 31.99165776699313], [74.2140083375187, 31.99675747623109], [74.216739874201, 32.00201433954665], [74.22324545590162, 32.00205433718594], [74.2294423157763, 31.99301557398335], [74.23693665769045, 31.99509605791489], [74.23938429343207, 31.998450895388327], [74.24399947424388, 31.99825834541902], [74.23729044348065, 31.981439509405295], [74.24180473052421, 31.960981222043532], [74.23421411644367, 31.957412448020012], [74.2375163907969, 31.939808938865685], [74.23629204536968, 31.93222598740778], [74.22609181277389, 31.93390044635534], [74.22197213378776, 31.95362312917651], [74.21251258414667, 31.958179268441548], [74.2106372581522, 31.96730898871334], [74.20538399552001, 31.96871413105975], [74.20503376890716, 31.971499585853795]]], [[[74.12996942327689, 32.371004669249594], [74.13410297177346, 32.36964390356962], [74.13520689291039, 32.35653942965848], [74.13869836060101, 32.353792094912734], [74.13971384509783, 32.3482405867761], [74.13871542449823, 32.34347903119495], [74.14618636027633, 32.32775352540103], [74.144698709192, 32.320481339296876], [74.1518361692413, 32.31108130997725], [74.1616478440142, 32.308015395213715], [74.15617491027692, 32.302589914660786], [74.15823084129758, 32.29021736679237], [74.15434508079035, 32.28278343967711], [74.1579117924853, 32.27455321890567], [74.162883050394, 32.27139240124671], [74.15866580426574, 32.262838731606045], [74.15251925297513, 32.26448193622473], [74.1498497734479, 32.27028293462498], [74.14593728066316, 32.27229845609339], [74.15022968879933, 32.28324964889925], [74.14394501540514, 32.28914170854198], [74.14434601221971, 32.294754794141454], [74.13753194992688, 32.29687218034919], [74.13987744057887, 32.300914929753525], [74.13745330958858, 32.30381377326042], [74.13870971458898, 32.31621954618016], [74.13456867903561, 32.32289097266158], [74.13859038386919, 32.32475532760091], [74.1389912763677, 32.32883520704094], [74.13359707397971, 32.33493006320426], [74.1333731364149, 32.34393352118826], [74.12895040308038, 32.347254517669256], [74.12969755997426, 32.357443575064], [74.12612886793096, 32.360208366213826], [74.12996942327689, 32.371004669249594]]], [[[73.96006583631777, 31.959407835765905], [73.95981288848452, 31.969344480690758], [73.96416660156656, 31.970405684224467], [73.96635257174162, 31.97431817502223], [73.98548851007847, 31.975025949501116], [73.98755248879397, 31.96226088396979], [73.98210113443922, 31.952725178407068], [73.97682136408795, 31.950173266032785], [73.97971767027971, 31.943341736921894], [73.9784891972425, 31.93804602717022], [73.97009101860606, 31.938187996781934], [73.97352748583744, 31.950146680539063], [73.96564028658217, 31.951723568714268], [73.96006583631777, 31.959407835765905]]]]}}]}