{"type": "Feature", "properties": {"city": "Sialkot", "country": "Pakistan", "real_area": 127.98}, "geometry": {"type": "MultiLineString", "coordinates": [[[74.3201934355631, 31.5925993986664], [74.3195699400433, 31.5974986418735], [74.3141113602601, 31.5994655558142], [74.3092767775523, 31.5965328907814], [74.3099010391819, 31.5916337144087], [74.315359117432, 31.5896671362006], [74.3159828556652, 31.5847682512391], [74.3214401460749, 31.5828015619872], [74.326274199522, 31.5857334219336], [74.3256512272658, 31.5906323736174], [74.3201934355631, 31.5925993986664]], [[74.5040743930183, 32.5878755361503], [74.5034554017472, 32.592818105159], [74.4979197926771, 32.5948128101148], [74.4930036877151, 32.5918646067484], [74.4874677768579, 32.5938588459422], [74.4825521609618, 32.5909102398822], [74.4831727334178, 32.5859677969525], [74.4887081312351, 32.5839738969087], [74.4936234696135, 32.5869221006791], [74.4991585658693, 32.5849277350024], [74.499777810935, 32.5799855048068], [74.5053120926861, 32.5779910128999], [74.5102276419121, 32.580938411877], [74.5157616215676, 32.5789434545796], [74.5206776589586, 32.581890450862], [74.520059994935, 32.5868328065069], [74.5145255029419, 32.5888281032793], [74.5096091873328, 32.5858807048973], [74.5040743930183, 32.5878755361503]], [[74.5962559363989, 32.5262903890631], [74.5968672019789, 32.5213504049732], [74.6023929413622, 32.5193529338281], [74.6073079245496, 32.5222951063476], [74.6128333589427, 32.5202971717135], [74.6177488264032, 32.523238941611], [74.6171391398696, 32.5281790474916], [74.6116131962963, 32.5301773227138], [74.606697448459, 32.5272351514329], [74.6011711996694, 32.5292329630379], [74.5962559363989, 32.5262903890631]], [[74.4839876429995, 32.4112050323921], [74.4888897877103, 32.4141495954289], [74.488271284613, 32.4190848393104], [74.4931741918729, 32.4220294054797], [74.492555941072, 32.4269649913529], [74.4974596110499, 32.4299095604177], [74.4968416126891, 32.4348454881077], [74.4913191575513, 32.4368367836321], [74.4907006247891, 32.4417729899141], [74.4956053341276, 32.444717963756], [74.5011282997773, 32.4427263291631], [74.5060334956981, 32.445670903308], [74.5054160026495, 32.4506075141069], [74.5103219617952, 32.4535520904364], [74.5158451370609, 32.4515596539082], [74.5207515824651, 32.4545038301838], [74.5262744564321, 32.4525109309077], [74.5311813877862, 32.4554547069865], [74.5367039600772, 32.4534613450191], [74.5416113770723, 32.4564047207584], [74.5471336473097, 32.4544108961564], [74.552041549637, 32.4573538714133], [74.5575635174433, 32.4553595842337], [74.5624719047937, 32.4583021588657], [74.5618586026689, 32.4632394223594], [74.5667677533353, 32.466181997869], [74.5661547052725, 32.4711196020518], [74.5710646194235, 32.4740621782015], [74.5704518255671, 32.4790001228981], [74.5753625033715, 32.4819426994504], [74.574749963866, 32.4868809844851], [74.5796614054926, 32.4898235612024], [74.5851851074904, 32.4878274512763], [74.5900970337663, 32.4907696263703], [74.5956204316771, 32.4887730534679], [74.5962313942289, 32.4838346457837], [74.6017539788397, 32.4818379503683], [74.6066661097116, 32.4847793222657], [74.6060559357384, 32.489717790975], [74.6109688303833, 32.4926591623954], [74.6103589115331, 32.4975979710098], [74.6048353092281, 32.499595347299], [74.6042248566489, 32.5045344347895], [74.5987004405448, 32.5065316884336], [74.5980894540307, 32.5114710545962], [74.5925642240298, 32.5134681853434], [74.5876504899236, 32.5105256095578], [74.5882622655082, 32.5055863045625], [74.5833492957307, 32.5026437282285], [74.5778242709279, 32.5046400553497], [74.5772117063407, 32.5095792989779], [74.5821249555366, 32.5125222768865], [74.5815126456698, 32.5174618602359], [74.5864266593798, 32.5204048375723], [74.5858146043784, 32.5253447604669], [74.5907293827714, 32.5282877369931], [74.5901175827802, 32.5332279992569], [74.5950331260253, 32.5361709747347], [74.5944215811894, 32.5411115761918], [74.5993378894555, 32.5440545503831], [74.5987265999199, 32.5489954908572], [74.5931982121137, 32.5509933960368], [74.5882816237958, 32.5480500203184], [74.5827529312305, 32.5500474613228], [74.5778368283619, 32.5471036826953], [74.5723078314163, 32.549100659467], [74.5673922143076, 32.5461564780729], [74.5618629133607, 32.5481529905545], [74.561248718912, 32.553094024462], [74.5557186034839, 32.5550904125338], [74.5551038736579, 32.5600317236832], [74.5495729436513, 32.5620279870928], [74.5489576782418, 32.5669695752794], [74.5538741330865, 32.5699149619716], [74.5532591222984, 32.5748568889858], [74.5477268662318, 32.5768533673471], [74.5428101323601, 32.5739075787934], [74.5434259335595, 32.5689657137743], [74.538509965669, 32.5660199242436], [74.5329779178243, 32.5680155978336], [74.5280624371984, 32.5650694056076], [74.5286792829416, 32.560127941783], [74.5342108192008, 32.5581326078687], [74.534827129078, 32.5531914208525], [74.5403578510655, 32.5511959619044], [74.5409736252829, 32.5462550519015], [74.5360594673166, 32.5433096630646], [74.5305292566395, 32.5453047823325], [74.5256155856745, 32.5423589913007], [74.5262324036498, 32.537418482992], [74.5317621030414, 32.5354237033424], [74.5366754957207, 32.5383690924178], [74.5422048924734, 32.5363738484352], [74.5428203854889, 32.5314335550965], [74.5379072712046, 32.5284885679299], [74.538523018327, 32.5235486142135], [74.533610668975, 32.52060362707], [74.5280822942683, 32.5225981917448], [74.5274657579254, 32.5275380831517], [74.5219365697947, 32.5295325232451], [74.5170244292653, 32.5265867324031], [74.5114949391, 32.5285807082352], [74.5108770780005, 32.5335208143025], [74.5053467744681, 32.5355146651154], [74.5047283775575, 32.5404550481478], [74.4991972605616, 32.5424487736891], [74.4942850524607, 32.5395017769318], [74.4887536341168, 32.5414950377842], [74.4838419142568, 32.5385476394051], [74.4844618898254, 32.533607382449], [74.4795509353288, 32.5306599849036], [74.474019728428, 32.5326524420367], [74.4691092624968, 32.5297046432275], [74.4697302800718, 32.5247647896548], [74.4752609745864, 32.5227726714334], [74.4801711638894, 32.5257200679074], [74.485701557885, 32.5237274851986], [74.4863212504188, 32.5187878450289], [74.4814113378539, 32.5158408508427], [74.4820312833007, 32.5109015508989], [74.477122135575, 32.5079545580452], [74.4777423337905, 32.5030155985028], [74.4728339507344, 32.5000686072193], [74.4734544015742, 32.4951299882539], [74.4685467830179, 32.4921829987781], [74.4630184374142, 32.4941742259445], [74.4581113071877, 32.4912268361331], [74.4587327985425, 32.4862886215704], [74.4538264326608, 32.4833412340184], [74.4482982996951, 32.4853316586121], [74.4433924224663, 32.4823838710824], [74.4378639904828, 32.4843738317779], [74.4329586022153, 32.4814256444142], [74.4335819211366, 32.4764878989343], [74.4391098406632, 32.4744982766491], [74.4397326236719, 32.4695608083077], [74.4452597321975, 32.4675710607305], [74.4501645698985, 32.4705184430518], [74.4556913794759, 32.4685282318903], [74.4605967055502, 32.4714752145186], [74.4599754977023, 32.4764128107009], [74.4648815877678, 32.4793597958491], [74.4704086097778, 32.4773687824241], [74.4753151878936, 32.4803153675215], [74.4808419099748, 32.4783238904954], [74.4857489758324, 32.4812700753987], [74.4912753976066, 32.4792781348276], [74.4918942421901, 32.4743403483805], [74.4974198521931, 32.4723482834426], [74.4980381617688, 32.4674107749102], [74.5035629600966, 32.4654185858571], [74.50418073487, 32.4604813554435], [74.4992744988824, 32.457536377042], [74.493750211366, 32.4595282269689], [74.4888444622389, 32.4565828485857], [74.4894632771542, 32.451646022453], [74.4845582914512, 32.448700646445], [74.4790342145553, 32.4506916943904], [74.4741297160363, 32.4477459187579], [74.4747495704614, 32.4428094974512], [74.4802731363721, 32.4408187883791], [74.4808924560507, 32.4358826453464], [74.4864152112837, 32.4338918124256], [74.487033996421, 32.4289559478708], [74.4821308130553, 32.4260109795368], [74.4766085685331, 32.4280014735797], [74.4759889966885, 32.4329372748001], [74.4704659417378, 32.4349276450609], [74.465562969589, 32.431981875318], [74.4661833280714, 32.4270461376314], [74.4612811188538, 32.4241003711887], [74.4619017291492, 32.4191649755745], [74.4674237622561, 32.4171752827497], [74.4680438380012, 32.4122401656784], [74.4735650611777, 32.4102503492049], [74.4741846025772, 32.4053155108803], [74.4797050159188, 32.4033255710092], [74.4803240231777, 32.398391011635], [74.4858436267798, 32.3964009486176], [74.4907447332628, 32.399345106122], [74.490126512014, 32.4042797287728], [74.4846063982495, 32.4062701306769], [74.4839876429995, 32.4112050323921]], [[74.5753734530862, 32.5243982657293], [74.5698462909181, 32.5263946861366], [74.5692329118693, 32.5313348255815], [74.574147484461, 32.534278606163], [74.5796751567373, 32.5322818456187], [74.5802877462913, 32.5273416446643], [74.5753734530862, 32.5243982657293]], [[74.3537670582249, 32.4816176952374], [74.3482354376224, 32.4836038156568], [74.3433336993724, 32.4806520316527], [74.3439638544644, 32.4757145304168], [74.349494960572, 32.4737287473052], [74.3543964260592, 32.476680128156], [74.3599272365568, 32.4746938806476], [74.3648291934686, 32.4776448628175], [74.3642006129635, 32.482582495545], [74.3586692881942, 32.4845690804907], [74.3537670582249, 32.4816176952374]], [[74.2317687112228, 31.470298197908], [74.2323975993846, 31.4654048430326], [74.237847939479, 31.4634440729107], [74.2426698927094, 31.4663763230922], [74.2420417673632, 31.4712697463062], [74.2365909259483, 31.4732308510339], [74.2317687112228, 31.470298197908]], [[74.3628157299641, 32.5349224798613], [74.3634449209758, 32.5299826553481], [74.3689799259049, 32.5279949751383], [74.373886254705, 32.5309467818637], [74.3732578523523, 32.5358866718284], [74.3677223325172, 32.5378746896507], [74.3628157299641, 32.5349224798613]], [[74.2695461958184, 31.5407494147579], [74.2701729167701, 31.5358528177729], [74.2756277697157, 31.5338890339489], [74.2804564032486, 31.5368215119754], [74.2798304469248, 31.5417181765635], [74.2743750924177, 31.5436822955558], [74.2695461958184, 31.5407494147579]], [[74.563698229294, 32.4484282518056], [74.5643112517117, 32.4434916083631], [74.569831595619, 32.4414970761962], [74.5704440846175, 32.436560712144], [74.5759636167205, 32.4345660578605], [74.580871168494, 32.43750742763], [74.5802594668207, 32.4424438532216], [74.5747394260265, 32.4444388475386], [74.5741271910747, 32.4493755526345], [74.5686063382272, 32.4513704247689], [74.563698229294, 32.4484282518056]], [[74.586444825851, 32.5628738914756], [74.5870571850857, 32.5579323956276], [74.5925863878317, 32.5559346143], [74.5975037415255, 32.5588779884697], [74.5968921726245, 32.5638195454834], [74.5913624596736, 32.5658176671962], [74.586444825851, 32.5628738914756]], [[74.4120915342907, 32.4795066002329], [74.4127164283714, 32.4745689836212], [74.4182449443505, 32.4725802890416], [74.4231490791307, 32.4755288729561], [74.4225249725945, 32.4804665541016], [74.4169959437107, 32.4824555868331], [74.4120915342907, 32.4795066002329]], [[74.2928991049806, 31.6024317329036], [74.2935246563771, 31.597532332457], [74.2989838085906, 31.5955663126097], [74.3038179113719, 31.5984993577017], [74.3031931261487, 31.6033988252892], [74.2977334719483, 31.6053651806776], [74.2928991049806, 31.6024317329036]]]}}