{"type": "Feature", "geometry": {"type": "MultiPolygon", "coordinates": [[[[28.05292355194296, -26.041997573631534], [28.05126668800912, -26.0382754156935], [28.05566827070499, -26.032233535055628], [28.055478827125604, -26.02000735154071], [28.06129106835535, -26.01693055087108], [28.06729341821433, -26.017047172175893], [28.070536236169865, -26.012713806364676], [28.067009190458116, -26.003449521863274], [28.05915501067176, -26.002259898762137], [28.05661602115861, -26.000064975752966], [28.056797797262337, -25.996206905035727], [28.06039730973614, -25.990865630239743], [28.06758302987229, -25.986728116003533], [28.06975929268456, -25.98051315147522], [28.074341981422293, -25.978531192536288], [28.07743586568688, -25.978913507477035], [28.079577882319697, -25.981294701510542], [28.080478720399732, -25.99244849824771], [28.082975478972234, -25.995298732579286], [28.086399772918625, -25.995003189498494], [28.0935781760129, -25.988982343993165], [28.10189358633025, -25.987649735811647], [28.103809155375718, -25.97611969473508], [28.110725884541782, -25.97059411828221], [28.112453962532268, -25.96472970099609], [28.106959930172966, -25.95685878039027], [28.09848837363867, -25.95544326313048], [28.095810746804375, -25.951533329005745], [28.096553689763486, -25.94670091950635], [28.098750930089658, -25.944774258899365], [28.128633389288485, -25.93425686649152], [28.132841507240922, -25.930205178022224], [28.13245626555101, -25.92695031383301], [28.12862740169137, -25.922639277226377], [28.12847821332604, -25.916643992515716], [28.120018440625465, -25.90758890550983], [28.11146112903408, -25.908183218712264], [28.100663614686646, -25.90438325849419], [28.100899591674406, -25.899499650670585], [28.10655176593388, -25.896851421165234], [28.108008126943453, -25.893818744276683], [28.106721876787102, -25.890773237987897], [28.10003682874623, -25.885981997295776], [28.094590292348645, -25.876031050012866], [28.09537044078144, -25.872952706597058], [28.100442732386906, -25.86798805551167], [28.09980773355202, -25.86279528267288], [28.101837130893994, -25.856016659748043], [28.098537883864566, -25.85353353915732], [28.091816897291906, -25.854995743027235], [28.08054488825011, -25.85383421873402], [28.078079965329305, -25.843319135125295], [28.07291636520028, -25.838835110871962], [28.073553170890314, -25.833095433846957], [28.07610549479961, -25.830882642467035], [28.082514512015493, -25.83030533669222], [28.090140866873444, -25.833847424207566], [28.099626416471878, -25.828866259378234], [28.10814267537162, -25.829703224687385], [28.114180001971913, -25.835642812389327], [28.126146228792983, -25.833832156560657], [28.140052245066933, -25.82167869928842], [28.13006740201962, -25.802502135289735], [28.130606826428153, -25.798487710882736], [28.160622699844353, -25.792234062448834], [28.163000572873806, -25.794717772350033], [28.162578742609732, -25.79994538819985], [28.164741461083203, -25.804429665842214], [28.16234488860571, -25.81445544326908], [28.170159183198454, -25.82126688672309], [28.168836036099353, -25.828238544627652], [28.171366123657837, -25.833999037173466], [28.176398797947684, -25.834708250335993], [28.179172426229947, -25.8321207496181], [28.18069395863892, -25.82732719330165], [28.183489164385954, -25.825830903367613], [28.188027378760136, -25.826907968237265], [28.191917445201025, -25.830017791349633], [28.19793643528259, -25.829756397597787], [28.20007122986713, -25.83180906664492], [28.20337326317731, -25.84104482659306], [28.200268520389287, -25.847387702778413], [28.201351557398684, -25.856080442767112], [28.20423211637822, -25.858356979907754], [28.207565608248693, -25.8583715115219], [28.211832601854297, -25.85255257296034], [28.216423867644853, -25.85058871339738], [28.221543924994993, -25.853143646790798], [28.224894897675682, -25.862564330366425], [28.223265047481576, -25.865062992740928], [28.217114637601068, -25.86801549873869], [28.21661367927346, -25.87851204077161], [28.21102367773878, -25.881791676700793], [28.20831599033813, -25.8889319413188], [28.197943285160584, -25.890656690015586], [28.192348885938753, -25.896352017835344], [28.19167043726796, -25.899702240407137], [28.193828169378907, -25.90235336771771], [28.22083491934291, -25.9121544944019], [28.224392417269154, -25.916107996315084], [28.224689085351887, -25.92086944704691], [28.21899759530333, -25.93127611388601], [28.21884282957651, -25.93430271769792], [28.22158096342245, -25.936841893630227], [28.232994052247644, -25.937602259405242], [28.23582718315058, -25.939395088019786], [28.236704070628427, -25.943078455917874], [28.23419054462408, -25.95271964728101], [28.236402491640302, -25.959950234619008], [28.24310525506537, -25.966155916031866], [28.245555096629435, -25.974055699684655], [28.240873084428156, -25.979217343238005], [28.229721687911024, -25.97891246345022], [28.20499218284308, -25.962437059909497], [28.204309953287957, -25.958774639788643], [28.20690153982095, -25.955395904765982], [28.21637904230187, -25.95490378366096], [28.219304335580414, -25.952527943012665], [28.219485757465, -25.948297013443387], [28.217017014201737, -25.94274625125335], [28.21905843381514, -25.936513875987483], [28.2163103723107, -25.9333730838462], [28.213259509046672, -25.933645377442836], [28.2095271569282, -25.93762478008415], [28.19540982840166, -25.94458737174851], [28.18151042358675, -25.94458838323969], [28.175480530997575, -25.951058486840555], [28.160607985383653, -25.951803181613407], [28.155009175745356, -25.957634968037258], [28.147506621936483, -25.960986547721827], [28.145564038200817, -25.968304955983815], [28.139902344863287, -25.972373204986063], [28.13867719491588, -25.97843070579174], [28.143763364908228, -25.987462759864933], [28.142353802990982, -25.994471782670715], [28.13844581829696, -26.000157750191484], [28.12922543871643, -26.002187278768425], [28.124910295397104, -26.008620371629178], [28.117128315453304, -26.012231565066323], [28.110214147890797, -26.0210617273487], [28.10259074038375, -26.025777812637667], [28.09859049739783, -26.023986161347747], [28.095563079125583, -26.024632420618467], [28.093989417164497, -26.026857823405393], [28.09379903083993, -26.032087390278193], [28.09738362963734, -26.034536774582737], [28.10292815607024, -26.031951100067293], [28.107074769178254, -26.033595594091135], [28.113349515469675, -26.032101495586986], [28.125391869395052, -26.033669425911853], [28.12653502933714, -26.036970115739464], [28.122414960963894, -26.052683686349596], [28.12816003771232, -26.06323003246093], [28.126228247734826, -26.07115380531236], [28.130916364955514, -26.076023533205102], [28.139298490559884, -26.07965919578847], [28.143630929016876, -26.089819843489646], [28.15528648650701, -26.096223391457972], [28.16099605511007, -26.095219315842026], [28.162675809931066, -26.088057813917676], [28.15715951675532, -26.080520974215677], [28.157053142013275, -26.07589636142808], [28.159172268182765, -26.073468242153517], [28.1666526431905, -26.07094676261569], [28.168373116881266, -26.067613716440004], [28.160585613518993, -26.05691766096089], [28.156790163162626, -26.04499317805583], [28.164310728666454, -26.03757778639158], [28.17410362667024, -26.041811883399514], [28.189467052845934, -26.068822342520292], [28.196955018804008, -26.073173581910815], [28.19888883632879, -26.076375514529108], [28.197522694596223, -26.080199009019683], [28.19184277700135, -26.082702422264543], [28.18889042694432, -26.082713348809047], [28.184597790038254, -26.08004357668737], [28.180977917403883, -26.08120580152651], [28.17980474488204, -26.08510749335389], [28.18180530777318, -26.089565701880428], [28.1821142025847, -26.095670683727203], [28.188924986060847, -26.098431418853096], [28.192274216247995, -26.10382126101364], [28.197897259646417, -26.104904108822733], [28.202730451431083, -26.108328973370675], [28.20807327848709, -26.10602549392235], [28.214972058718285, -26.105674977866887], [28.21731599420979, -26.099553896560742], [28.21972340571435, -26.097717434749992], [28.224010410019627, -26.097490485003423], [28.230902497481157, -26.101032976359622], [28.231734436177742, -26.10560177025265], [28.22632132297355, -26.11347098897888], [28.228769883543933, -26.12345939097956], [28.22622395045828, -26.128368338313788], [28.226178500021092, -26.134265984190456], [28.221555366122953, -26.144719166250745], [28.223585697292787, -26.14813935761058], [28.232203827353644, -26.153077154294728], [28.23517544769953, -26.15703376510841], [28.240543588584714, -26.15814171684985], [28.245130519844654, -26.161664559974252], [28.2493716964942, -26.159340631164284], [28.2529277521066, -26.15042809097425], [28.25210852461231, -26.144587253302188], [28.256143229625774, -26.136901232567155], [28.25508130415951, -26.13397656011411], [28.2496014737482, -26.130464404940483], [28.24546831425845, -26.12458133340315], [28.24550513246188, -26.10791766982237], [28.24872904535364, -26.102203853046973], [28.247567492124055, -26.096067489656306], [28.254156976043003, -26.089800114889236], [28.251071747127895, -26.078791002850554], [28.255824204025647, -26.071667842009298], [28.26144101237225, -26.066721019210473], [28.267538764847522, -26.066924081153843], [28.273002616819966, -26.06358922232361], [28.278168050641362, -26.065552616475745], [28.285238613214794, -26.065003716424876], [28.287935047250098, -26.06885209581115], [28.2875468900063, -26.072266491870877], [28.28198549249737, -26.078623933400532], [28.27555733252902, -26.08040789709653], [28.271822450519032, -26.084973109438437], [28.272653106995765, -26.08792645881612], [28.28150655318993, -26.096187032173052], [28.277644994946762, -26.1114765901314], [28.277754702329858, -26.11675528381311], [28.279896830959025, -26.12115120087195], [28.277387259571817, -26.127271690190618], [28.27827029959917, -26.130639565035185], [28.28320314023735, -26.131873705202484], [28.28577942882449, -26.126497381858297], [28.292539501355453, -26.123528325206074], [28.2973340137252, -26.12767963964977], [28.302914817463776, -26.12970137055475], [28.306005631876587, -26.135569676129563], [28.310670515549884, -26.136585036312244], [28.323655128824253, -26.1285987218162], [28.32557960989035, -26.119626696685703], [28.33607891649303, -26.11214161987379], [28.339288696513997, -26.111918855057375], [28.34607360474994, -26.12080465259803], [28.346879454024876, -26.12812429741822], [28.35660902829381, -26.13678948549966], [28.356553068271978, -26.143756187017743], [28.35212382180293, -26.148199257171736], [28.35197681186985, -26.15168213111963], [28.354573617985295, -26.154827503424094], [28.363531661447805, -26.159676298536244], [28.36448180393081, -26.164434463982563], [28.35037788505559, -26.174110341654803], [28.325750707428433, -26.182105432284775], [28.323996631053674, -26.185068010962695], [28.324665187351187, -26.191590263041157], [28.319174358385556, -26.19478589433284], [28.310318789173632, -26.190182552607766], [28.305703256362964, -26.184637601769687], [28.29997464429208, -26.18434764386556], [28.29295963030065, -26.181485540992863], [28.284677771256284, -26.182869534666377], [28.281238907083527, -26.17738009506269], [28.27640977293079, -26.174783808994384], [28.27052030722909, -26.17674323637638], [28.259245257760682, -26.175629545260268], [28.25207927719269, -26.185300141911277], [28.239767411375357, -26.187361735987803], [28.233592265991156, -26.193439764191428], [28.222787222652496, -26.191878868206143], [28.206305900385356, -26.176587400867632], [28.20113649387475, -26.173929418119247], [28.19837517347733, -26.173721352635642], [28.189515452710133, -26.177561817723454], [28.181346741659123, -26.174240779337776], [28.177533333588677, -26.168937720701482], [28.172989381966605, -26.166833263839873], [28.16919576757682, -26.16200674175155], [28.165040542160074, -26.161961221611136], [28.16052554516894, -26.16494330855517], [28.153971002117864, -26.163659809475096], [28.148784253642177, -26.15252102932241], [28.15882582135675, -26.144916685109965], [28.159667572420833, -26.14116665502461], [28.157359165233107, -26.13787421794626], [28.152904496797028, -26.135154722734026], [28.148273880385446, -26.13459929417955], [28.134773594624704, -26.12468566762413], [28.13379525704094, -26.119572481709397], [28.14044975996839, -26.1108635523052], [28.14001138666635, -26.106777225400883], [28.134727475502764, -26.104657377191085], [28.127305066885125, -26.108244990178086], [28.12317172517034, -26.106593529322883], [28.105789366453372, -26.06778076377423], [28.092391782357026, -26.067593459798193], [28.08671605155184, -26.064087796868694], [28.079470668749966, -26.064953475478248], [28.07695007172019, -26.060645842168583], [28.07933721711698, -26.053875684355237], [28.074959471265462, -26.046692844308645], [28.067522386447315, -26.044338670368855], [28.063265321951537, -26.048608622094907], [28.05900973012432, -26.04974517249832], [28.056512374884004, -26.048201752174144], [28.05292355194296, -26.041997573631534]], [[28.16355058051473, -26.141651925948786], [28.161124384583758, -26.14341669031355], [28.160607650435427, -26.146371991614362], [28.162972839145432, -26.150132258784105], [28.165886455665735, -26.151232341442807], [28.174632692205716, -26.145099691897936], [28.176289923341617, -26.141315696356262], [28.174431534631758, -26.137354391220526], [28.171309578215425, -26.136079286260106], [28.16355058051473, -26.141651925948786]], [[28.123101671667758, -25.853984567861083], [28.126387412549864, -25.862376178716982], [28.13041047955869, -25.86520018398316], [28.13848680795829, -25.864331372710424], [28.141045338217296, -25.86209427098753], [28.14001435437436, -25.85170641197085], [28.137792966920372, -25.849023365751112], [28.13138183810131, -25.847038474240982], [28.125281321866577, -25.848580784790865], [28.123064211368103, -25.850706527475168], [28.123101671667758, -25.853984567861083]]], [[[28.28899155236006, -26.05877574697363], [28.27317491286616, -26.04555260506522], [28.268573923618987, -26.036169437583656], [28.258986300753218, -26.03690923515899], [28.25538130869385, -26.03488200612281], [28.252730553155047, -26.0268617604631], [28.252876017286038, -26.020340591320984], [28.24605271090159, -26.00603610253406], [28.24551390860509, -26.00024719485926], [28.247152317414194, -25.997614092157193], [28.2523393945338, -25.99789613078918], [28.260275969594918, -26.011915798147715], [28.268189081198194, -26.013977293789427], [28.278321003181574, -26.0269643199424], [28.28201932759463, -26.02679654200434], [28.28727560401118, -26.02162380411882], [28.29166913077118, -26.021486137884754], [28.294603649649737, -26.023767986774306], [28.295633933376926, -26.030049917735123], [28.302635263526813, -26.035643077553356], [28.305746313258123, -26.03584200690297], [28.312977767955037, -26.031889952027225], [28.316864959094598, -26.033590107296824], [28.31779403192204, -26.03997334125051], [28.311444555444638, -26.04601327250519], [28.308623450191366, -26.05955117793819], [28.305786682863275, -26.060602646524547], [28.28899155236006, -26.05877574697363]]], [[[27.988103076958502, -26.214286888918455], [27.987753048129775, -26.211062380228377], [27.99020545795572, -26.2075455970265], [28.000760135252545, -26.207337198316665], [28.00370690176992, -26.203736978397085], [28.008736379623464, -26.20180162166387], [28.01274884625772, -26.1936166984815], [28.012846374342228, -26.19087607411191], [28.010806399355516, -26.18852274885238], [28.00244004571192, -26.1889332477209], [27.99896755933238, -26.186257318461998], [27.999237323766614, -26.18269995889948], [28.002777845657, -26.178551251170187], [28.002962769211656, -26.173656917214473], [28.00527128607224, -26.171369813394538], [28.011482431269773, -26.172078127964525], [28.01472013587564, -26.176769399873876], [28.027101125812315, -26.18444220418152], [28.02985731710567, -26.18958928162484], [28.040312056297676, -26.192521056621164], [28.04152440639484, -26.195682937785385], [28.044316634352217, -26.19683249380549], [28.047381100821937, -26.19541996221207], [28.048313508311715, -26.192325099123487], [28.04655062686261, -26.189455323790177], [28.04348362744855, -26.188862663250568], [28.042747922593986, -26.18454040396053], [28.047656425795548, -26.176319169480326], [28.056369362964677, -26.173939313545915], [28.065573939615952, -26.188061218914484], [28.07315340850104, -26.187734754513052], [28.078126221645654, -26.189308902973593], [28.08363935174105, -26.187126453230615], [28.087919246572206, -26.180396996819706], [28.093963255648088, -26.17903213641139], [28.097442972139405, -26.172488165359987], [28.10083364689135, -26.17111817097679], [28.106836101057755, -26.17409400320948], [28.112114359117413, -26.17294644710445], [28.122066689154213, -26.175105734016814], [28.12440307906763, -26.18105816120544], [28.121607502776733, -26.18673869078661], [28.12263062074248, -26.190998960741148], [28.128311378120816, -26.194243601728605], [28.130982385087222, -26.19951094264612], [28.137965186514275, -26.20212475200522], [28.140471028564477, -26.208077765059084], [28.142975530929842, -26.209835931747136], [28.153610593658968, -26.209958537775147], [28.1563007276958, -26.208335448753857], [28.161786367543716, -26.19995316795368], [28.15841136878204, -26.189950583996715], [28.16075064280194, -26.18594775267872], [28.173089773248467, -26.18526454647576], [28.17740318164014, -26.189016634994793], [28.184380110354994, -26.19125539130684], [28.190198115353343, -26.188830196283504], [28.19367942981058, -26.189204728962864], [28.19636653826627, -26.19281538146248], [28.196045136760432, -26.19672007111078], [28.18950953532978, -26.200927973007133], [28.188658252548212, -26.205098054640615], [28.191708000872982, -26.210424094356842], [28.197755212631037, -26.21352000607769], [28.202648112586623, -26.221764400428448], [28.203427929647063, -26.227650885987035], [28.20074029397363, -26.23266757432701], [28.188008157249573, -26.23513868332229], [28.171363356748763, -26.221309628364505], [28.16803175071384, -26.22221806885581], [28.164686414609193, -26.226815256375268], [28.155821495535466, -26.22861175145367], [28.151011593796998, -26.23375276485413], [28.144794678261327, -26.235365226411375], [28.140404123736054, -26.239602506046474], [28.14074540287073, -26.24360434854442], [28.148384137798313, -26.248917264100534], [28.15010856598374, -26.25239460045146], [28.146711037561236, -26.260805857766837], [28.141136497835554, -26.262319494024222], [28.133812938746388, -26.25984454348244], [28.12857482989506, -26.254604623625863], [28.12674384289393, -26.249685089100577], [28.121704769502525, -26.246813130485794], [28.12104629707734, -26.243699646120344], [28.123530014636334, -26.238137967790415], [28.121590299998886, -26.234194480183557], [28.110537557180862, -26.230550907550878], [28.103758203623762, -26.232941648498848], [28.100084903222424, -26.23077639800204], [28.09991606067275, -26.22651787465007], [28.106270160149688, -26.220019553185107], [28.10766508018949, -26.212314549529395], [28.111692688792246, -26.20698895648964], [28.111443652200514, -26.20395783033327], [28.109134969962458, -26.20197799919816], [28.08949044483571, -26.205425533669626], [28.074143118419723, -26.205222059959084], [28.068367346299492, -26.203368334591968], [28.05885596109148, -26.213020271623147], [28.04757412293336, -26.211836997188186], [28.0403756345715, -26.215771584641843], [28.035398689674512, -26.215400173117004], [28.029310427595597, -26.21168867287033], [28.02586793451073, -26.21162270314706], [28.020909226722317, -26.215057580227676], [28.016830470509188, -26.222762214679985], [28.012634366557066, -26.22405423075448], [28.00077560744424, -26.218999438607085], [27.9914505989671, -26.21894674896056], [27.988103076958502, -26.214286888918455]]], [[[27.887504417531698, -26.093068616858286], [27.886874633077092, -26.090137290134763], [27.888831474742336, -26.086655515449728], [27.895635495608456, -26.083356074869595], [27.895680239844044, -26.076348864806516], [27.90314797738945, -26.064797008834415], [27.910274619164046, -26.060557769683818], [27.909597207383197, -26.0536466853334], [27.91940291710426, -26.025354129820833], [27.924795444785456, -26.028132828634206], [27.928495713809525, -26.025228386202816], [27.928527941545454, -26.02091048820509], [27.9267085552227, -26.018478718302998], [27.922301459962004, -26.01867729985729], [27.919011282574434, -26.024056639050645], [27.913635765756524, -26.02050389147298], [27.910179456173754, -26.014795877387318], [27.911426292367675, -26.01034575319578], [27.91529859740075, -26.007862305448235], [27.922120165077907, -25.99903729054477], [27.923367784865032, -25.981906253051545], [27.930946495341214, -25.979482108716773], [27.934364623562697, -25.98098004737464], [27.94184058868391, -25.99274446989794], [27.94207679955027, -25.9993973543458], [27.948312122883255, -26.00535957041245], [27.948206910216086, -26.011190507827234], [27.950286433588058, -26.013929841563975], [27.960896607596087, -26.01499579077832], [27.975585741136804, -26.010129681445633], [27.978096864625908, -26.006033628548593], [27.97769854178161, -26.000143883705853], [27.981245111683283, -25.990661860518383], [27.97717928936144, -25.985365638312892], [27.969285381612508, -25.9583148952462], [27.970553090207964, -25.949241087532553], [27.973915106068972, -25.946905492668748], [27.979833690200035, -25.948376147940067], [27.988942683258735, -25.946046506750413], [27.989884285514275, -25.94242195039073], [27.986618842602113, -25.936167616176146], [27.991449985870233, -25.92780782212456], [28.019327922961114, -25.913294893885052], [28.026526622735414, -25.914498018182815], [28.028091410011164, -25.918110724246148], [28.023007151138835, -25.944534020193846], [28.013281072400606, -25.95280894440271], [28.010578664815, -25.95221598874542], [28.004686327411722, -25.946930902831678], [27.9975980963602, -25.94794378756544], [27.995542102894092, -25.950271586947917], [27.994693856395028, -25.957932133896122], [27.99737541770732, -25.96178294820621], [28.014245218407403, -25.964498906541767], [28.020158007116397, -25.96707391357097], [28.020894149646637, -25.969972912753317], [28.01827723211782, -25.986161207201302], [28.022938046179455, -25.998835595256597], [28.01032722941347, -26.009813966650757], [28.01145445178348, -26.018896053941152], [28.00522571794652, -26.025090862743877], [28.00204865502945, -26.03393905172308], [27.996196108719904, -26.03570656796768], [27.989878083112423, -26.03208659777198], [27.984465071013574, -26.035409922776882], [27.978694812797173, -26.034795799532063], [27.97599487201666, -26.036452177757823], [27.974525679168202, -26.039711699739637], [27.975651812067778, -26.045677883120415], [27.973401232936926, -26.050298023525166], [27.97470022902453, -26.065669586754865], [27.981897191984242, -26.06993693758362], [27.98449427185212, -26.074544186732204], [27.99074200190319, -26.079047312385647], [27.994207865137454, -26.077601977085546], [27.99748291553606, -26.07248866936178], [27.998271966851206, -26.0680548624742], [28.001132972780905, -26.06571445404386], [28.00444795436812, -26.06624369968907], [28.00935425363749, -26.071107112333692], [28.01465461394761, -26.070394955513997], [28.017595819203795, -26.07176048692071], [28.02149718379575, -26.081155366599038], [28.02005604114802, -26.083836872851403], [28.015663682022, -26.086267518825274], [28.01489874119647, -26.0896265947852], [28.02511585385533, -26.10000313303525], [28.02471452422337, -26.10983002422631], [28.028850263926756, -26.11394920779816], [28.034632377957774, -26.112853995380377], [28.04202553151136, -26.106339430326205], [28.042078944446, -26.097193177182255], [28.05378537939927, -26.087020099754504], [28.05577887963341, -26.08117503773381], [28.05467099430856, -26.074134061349607], [28.057344871623663, -26.072079008314795], [28.060595157347137, -26.072477796599287], [28.067669440909118, -26.085454818931805], [28.07698048228018, -26.084643353210733], [28.081614941998517, -26.090118238985706], [28.088498502561503, -26.091946352783136], [28.08941341618474, -26.101148072807135], [28.093529986526484, -26.109706306814786], [28.09631565594154, -26.110812587656273], [28.10243903921132, -26.109570590539274], [28.105269675885882, -26.111574699693506], [28.104283779597868, -26.11796699394681], [28.093029513344, -26.126110928124376], [28.093277636333042, -26.12912374405995], [28.097089835198915, -26.133820726560554], [28.096531400019305, -26.13748081668994], [28.089176109316927, -26.14286435561855], [28.067254481664285, -26.148862922561772], [28.06539536381118, -26.151198698026736], [28.064838443801015, -26.157158292634367], [28.06281270087879, -26.159318628534713], [28.05277674368447, -26.15944063929155], [28.047632569622493, -26.153948339505018], [28.034540832617665, -26.150957446750848], [28.032244360907114, -26.14654494806091], [28.030100062937, -26.133922276475563], [28.024050836810662, -26.12077133055842], [28.01882176650789, -26.11757197704739], [28.014648042102838, -26.112438499527276], [28.011523006159795, -26.112293787094032], [28.006812107773303, -26.115201084255848], [27.999762987029715, -26.115010010187497], [27.995935325622266, -26.120570355912943], [27.99179765789614, -26.1215640710306], [27.986487313040328, -26.11939583750958], [27.98583317608943, -26.1131084216813], [27.983645258848522, -26.110866945951017], [27.976220380175945, -26.111664839768032], [27.96897562038587, -26.105750743876165], [27.961894383862997, -26.10716428182243], [27.958809509540938, -26.106093481414142], [27.957114670829913, -26.103464452964214], [27.95732773962353, -26.097816581179718], [27.95506488675401, -26.095296118122956], [27.950971268235985, -26.095298028978043], [27.94259142361006, -26.100939858451262], [27.934422731662522, -26.09653212577581], [27.929723466166507, -26.100036693339305], [27.920990325383872, -26.10219664833868], [27.91527606652956, -26.117549933111636], [27.918217160885103, -26.12464246753432], [27.925781392798207, -26.12425557317889], [27.929522442551423, -26.126458708267034], [27.929676913565952, -26.135465531716985], [27.938592089379007, -26.139014401069648], [27.940995773222838, -26.14589999643881], [27.945666484981853, -26.149347145723073], [27.946116106278172, -26.15274612871384], [27.94186541440651, -26.155810214848014], [27.9224893732779, -26.154624011685225], [27.916298536061248, -26.155841205971758], [27.91192277560698, -26.151889544612025], [27.912125945163254, -26.148054242334926], [27.91535190999003, -26.142953053502303], [27.911463728363493, -26.132303751498362], [27.90540793810223, -26.12929307438734], [27.90231114733133, -26.125843895577432], [27.90407903775825, -26.119414025527174], [27.902362643997893, -26.113794090958084], [27.90431727175362, -26.10721121036647], [27.887504417531698, -26.093068616858286]], [[28.066838133725387, -26.115822467772748], [28.065550594037127, -26.11947813576116], [28.068218350464008, -26.12324384205001], [28.074266386831123, -26.122748572919896], [28.076594057992136, -26.120833219021417], [28.07680041537711, -26.117470930237666], [28.074343430714144, -26.11480866952938], [28.069862724889564, -26.114028685999305], [28.066838133725387, -26.115822467772748]], [[27.93166261208475, -26.043584964993805], [27.93199801920869, -26.047000686233243], [27.935628993930838, -26.050264898551866], [27.940795462695235, -26.048276683410315], [27.942586846492613, -26.045778240364477], [27.941000081413083, -26.040980054222047], [27.93839185152237, -26.03928005667177], [27.933737438252734, -26.039818087587527], [27.93166261208475, -26.043584964993805]]], [[[28.039876524268163, -25.867332732832644], [28.045058127955745, -25.86010310837923], [28.048339145096747, -25.858999285824755], [28.058482640587275, -25.865343324474996], [28.060958838403092, -25.869188172558726], [28.0592745185001, -25.879571518632112], [28.044454720508647, -25.890205095012586], [28.036257792937906, -25.888211269751924], [28.031766432749155, -25.87910167584803], [28.03359788416957, -25.87357272192299], [28.039876524268163, -25.867332732832644]]], [[[27.889080685009233, -25.90745442220977], [27.889397988317526, -25.903586637089152], [27.89547644873126, -25.900453002513856], [27.89662745843558, -25.893734571777404], [27.899170414970328, -25.891393200091592], [27.912815271853983, -25.891331477640012], [27.942422460885346, -25.88646521910866], [27.94635828337936, -25.88922884196579], [27.94776926919402, -25.913542176203322], [27.944789748353557, -25.91819775258181], [27.926939579964806, -25.920934749509005], [27.920983153058934, -25.92364862907258], [27.911996091056178, -25.919007623708943], [27.898911720821634, -25.91877697735706], [27.89288204538932, -25.914885802390305], [27.889080685009233, -25.90745442220977]]], [[[27.87374727007545, -26.178318037161358], [27.8701404611038, -26.171687099332566], [27.8722939567165, -26.16729393549522], [27.88082099745027, -26.167659954287547], [27.8866979170135, -26.16218898090083], [27.894996370504632, -26.16389046658366], [27.899802637925802, -26.167432582371315], [27.904823988979004, -26.167250916943928], [27.91407028066141, -26.17038937115014], [27.91560312964841, -26.173124387235273], [27.914038997036986, -26.178185984980427], [27.91516628003882, -26.181392864743568], [27.941618745827267, -26.19444585284999], [27.943290648023662, -26.198913669039985], [27.93882570066478, -26.203274454324838], [27.933568351796985, -26.203028209592496], [27.926640491721194, -26.205089074168836], [27.920501510775242, -26.210997607918777], [27.91819970431948, -26.21566664360445], [27.914295989982115, -26.21660452780176], [27.90374653992249, -26.212436738179264], [27.900992482028638, -26.207046706654445], [27.894389934427572, -26.203721066527418], [27.892856519858285, -26.201162907326346], [27.895536740005326, -26.193736394721917], [27.899732464975042, -26.195243282101444], [27.90607504114019, -26.192213538510575], [27.907301289114585, -26.184607830284016], [27.905911834810283, -26.181492229592173], [27.903012803361598, -26.18053415757548], [27.899028247730136, -26.1816982376857], [27.894585971738493, -26.19077447211189], [27.883716807509877, -26.18827008964253], [27.875778316892685, -26.182659955535065], [27.87374727007545, -26.178318037161358]]]]}, "properties": {}}