{"type": "Feature", "geometry": {"type": "MultiPolygon", "coordinates": [[[[-75.18490710317641, 9.401550555246228], [-75.18629568997305, 9.404651110454363], [-75.18534195248114, 9.40761044347258], [-75.17534067022314, 9.412513609468682], [-75.16199900902207, 9.411843005576664], [-75.15857703748006, 9.40865872247257], [-75.15900070595409, 9.405438368191954], [-75.16182353390957, 9.403396935165555], [-75.17950469888265, 9.399467326086556], [-75.18490710317641, 9.401550555246228]]], [[[-75.21539131030055, 9.361685157482535], [-75.21248249386146, 9.366285180014243], [-75.20846340888376, 9.368348981702976], [-75.20283274319021, 9.366079455947876], [-75.20106062222033, 9.36309864909211], [-75.2025405437181, 9.355389226051015], [-75.20761360892656, 9.353107816067471], [-75.21498936886029, 9.355485572358269], [-75.2164390374094, 9.358478328824587], [-75.21539131030055, 9.361685157482535]]], [[[-75.24753826076133, 9.266470860223256], [-75.25246221034712, 9.269319682823316], [-75.25263677571496, 9.27521202490417], [-75.24380595748228, 9.283600422764637], [-75.24002256020111, 9.28398013707655], [-75.23406580366861, 9.277782358689077], [-75.23680359188091, 9.265183965409456], [-75.24096500452136, 9.26280395024376], [-75.24753826076133, 9.266470860223256]]], [[[-75.28887765012622, 9.15552632511674], [-75.2895480673748, 9.160569290766638], [-75.28438116500536, 9.165937459353916], [-75.28099022740692, 9.166690929280914], [-75.27746759217965, 9.164131467476881], [-75.27194770804148, 9.153163063585312], [-75.27370674195313, 9.144008189366035], [-75.26507162302622, 9.140355538895205], [-75.26303934677743, 9.137225900111973], [-75.26312518499444, 9.13437840419436], [-75.26594916231626, 9.13062684193927], [-75.27028572133482, 9.12940798197446], [-75.27608992762968, 9.131715409225723], [-75.27731346538769, 9.139903803962676], [-75.28402412216438, 9.143715773089713], [-75.28887765012622, 9.15552632511674]]], [[[-75.31902888789618, 9.327934461831545], [-75.31728681184985, 9.334038480240745], [-75.3195825147486, 9.339565662050521], [-75.31822617511058, 9.343008617324223], [-75.31202255560986, 9.344288067511767], [-75.30733221492211, 9.348443650676138], [-75.30094777691691, 9.346585517714727], [-75.2982981232177, 9.347283882300745], [-75.29305183459914, 9.358992005440284], [-75.28526389977735, 9.368330624948417], [-75.28109641202711, 9.368411609026905], [-75.2754390642016, 9.364946895362923], [-75.27478437405932, 9.360954477139714], [-75.27968987760097, 9.353086031740451], [-75.27768804895312, 9.348601704412658], [-75.27520702795138, 9.331168774806816], [-75.2807977704103, 9.32640071841199], [-75.28298255378151, 9.321264331735156], [-75.2926528147622, 9.319998231739765], [-75.29921991273994, 9.31658542891184], [-75.30697731424009, 9.318977278359673], [-75.31284894357081, 9.318311789009998], [-75.31796771926318, 9.323521713342926], [-75.31902888789618, 9.327934461831545]]], [[[-75.2960943808314, 9.117486335763388], [-75.29323550438852, 9.12568767086721], [-75.28717573559976, 9.125771686404233], [-75.28194065625772, 9.120629028926974], [-75.2800884179998, 9.111947141933165], [-75.28598050368248, 9.106621776309122], [-75.29574834385183, 9.108277111107697], [-75.29924316632143, 9.112884696626685], [-75.2960943808314, 9.117486335763388]]], [[[-75.33772456365222, 9.452344200396537], [-75.33628417002306, 9.456830700244165], [-75.33099460895339, 9.461747250283496], [-75.32272632986476, 9.459816887590557], [-75.31754273293969, 9.455254818223832], [-75.31167943942792, 9.45903108987058], [-75.30844040431963, 9.459194465317502], [-75.29974077329464, 9.455621429078157], [-75.29776363190561, 9.442511428247693], [-75.30050443649964, 9.439606782785658], [-75.30892240142958, 9.439025784902688], [-75.31135753442143, 9.442311495192444], [-75.31183340436657, 9.447503924837273], [-75.31777747968037, 9.45429987765666], [-75.32078830686032, 9.453857893178876], [-75.32488983217155, 9.449693568518024], [-75.33327098043912, 9.446051585865906], [-75.33753888325958, 9.44768833842901], [-75.33772456365222, 9.452344200396537]]], [[[-75.31343588104818, 9.164162464792804], [-75.31391625753803, 9.167470730558467], [-75.31115576205616, 9.172167287225033], [-75.30738666542787, 9.173535645916587], [-75.30450973617779, 9.172205014009165], [-75.3019955027252, 9.167200345518635], [-75.30367499158554, 9.163061209977528], [-75.30901909405493, 9.161447195762534], [-75.31343588104818, 9.164162464792804]]], [[[-75.33202521721394, 9.396654705979342], [-75.33223676836357, 9.400789750022346], [-75.3284725109272, 9.402889740263983], [-75.31503755797446, 9.40037186962377], [-75.31189407585583, 9.395724490901388], [-75.31500799351217, 9.391861131538567], [-75.32623463278433, 9.391575651624636], [-75.32928627115847, 9.392772738381732], [-75.33202521721394, 9.396654705979342]]], [[[-75.33766827193388, 9.161923559615635], [-75.33705161425867, 9.166661987242584], [-75.33304096766538, 9.169009041302058], [-75.3258548954448, 9.166018169235763], [-75.3240309968441, 9.163080544513335], [-75.32545118576579, 9.157864998088508], [-75.33260665243293, 9.1555461335436], [-75.33704732631844, 9.157734374099128], [-75.33766827193388, 9.161923559615635]]], [[[-75.3607071540539, 9.313633560181165], [-75.35856594438705, 9.316148790522137], [-75.35709526776304, 9.324652054595232], [-75.34446033553546, 9.331327176006468], [-75.34081176031104, 9.336546846324813], [-75.33783218411945, 9.337471476934356], [-75.33280089583823, 9.336119087781869], [-75.32819733073076, 9.332562760373188], [-75.3276367243091, 9.329296368116037], [-75.33073923179697, 9.323982107227522], [-75.32779541822732, 9.317906088018795], [-75.32771404731731, 9.313859165553833], [-75.32956776727676, 9.311421441971083], [-75.33783293208346, 9.312181410220605], [-75.34539599982763, 9.307534888052947], [-75.35185442124231, 9.308489946778167], [-75.35618976513099, 9.305085504562614], [-75.35926581835936, 9.304606602792159], [-75.36296547020406, 9.308066739628376], [-75.36282754494117, 9.311413826960399], [-75.3607071540539, 9.313633560181165]]], [[[-75.35072471029319, 9.243803056970563], [-75.35322086744846, 9.248102584559916], [-75.35272577204084, 9.251186759110366], [-75.3494085493933, 9.254655736808653], [-75.34456881873804, 9.25510484504824], [-75.34024286518343, 9.257738410962233], [-75.33923423134824, 9.260680141376005], [-75.34202171636613, 9.265557124238203], [-75.3414515545576, 9.269161811216463], [-75.33781865568848, 9.274611005211602], [-75.33190981490063, 9.275274427950475], [-75.32900080391903, 9.270673174220562], [-75.33096948559607, 9.264503585846379], [-75.33635865411004, 9.259641479388977], [-75.33311174388662, 9.253076457953144], [-75.33431076519382, 9.244498440410464], [-75.34386686254615, 9.239105875959257], [-75.35072471029319, 9.243803056970563]]], [[[-75.38263466509774, 9.392710375638682], [-75.38365649982073, 9.396666000322808], [-75.38091507295051, 9.40001424233037], [-75.37715050805575, 9.39967784271451], [-75.37262947019944, 9.39672226784702], [-75.36924285733814, 9.397521216493402], [-75.36562960958456, 9.407655679986437], [-75.36119554010249, 9.410575279472043], [-75.3571254583239, 9.40961660637677], [-75.35298168856286, 9.402055587751349], [-75.35372445103225, 9.396958706773619], [-75.36133315069344, 9.391594448454075], [-75.36943128163018, 9.39532015951391], [-75.37782143712163, 9.389740340968638], [-75.3807805003741, 9.390295575747755], [-75.38263466509774, 9.392710375638682]]], [[[-75.39416978116995, 9.329606092562534], [-75.3925956492414, 9.333007065913609], [-75.387377388032, 9.335977879572765], [-75.38591226581923, 9.343848253718608], [-75.3794690770578, 9.3469967596667], [-75.37641260910887, 9.351293697156002], [-75.36961166989283, 9.354081237847511], [-75.36763708248317, 9.35913567864095], [-75.37042495054514, 9.364261915719672], [-75.37234365220587, 9.378914595891507], [-75.37004407649408, 9.38198877992505], [-75.36596510571407, 9.381809746225228], [-75.36092369754084, 9.373454404939581], [-75.36076855884924, 9.36221519463936], [-75.35542772621612, 9.356020746883583], [-75.35833659156928, 9.350751185210198], [-75.36396960756872, 9.347017284044453], [-75.36434745443819, 9.337573677560739], [-75.36790032716252, 9.334465048265002], [-75.37483191332612, 9.337317674240548], [-75.38341349841352, 9.334493023538018], [-75.38629408635069, 9.3274657024641], [-75.38892249718096, 9.325584866646112], [-75.39271164143534, 9.326400138322175], [-75.39416978116995, 9.329606092562534]]], [[[-75.38547758796591, 9.186010001716866], [-75.38447678304314, 9.189532075417834], [-75.38086113840495, 9.19085605480397], [-75.37600258440573, 9.187925295130377], [-75.36963533208177, 9.188265436113404], [-75.36686040598536, 9.18619124367275], [-75.36620774718634, 9.183244168247127], [-75.36909119271465, 9.179294180329418], [-75.37882748715381, 9.177711573987212], [-75.38175603163921, 9.179439131803164], [-75.38547758796591, 9.186010001716866]]], [[[-75.378015164898, 9.430630300864488], [-75.38406520584974, 9.438284378225697], [-75.38347589924628, 9.44245250403329], [-75.37981593605478, 9.444624705006207], [-75.3713775100062, 9.440539559482277], [-75.3696424050589, 9.437718039266004], [-75.37091743404154, 9.431012024407133], [-75.378015164898, 9.430630300864488]]], [[[-75.40922028670404, 9.301381358944413], [-75.40403824231373, 9.30200163199837], [-75.40116275532873, 9.306047684584511], [-75.39596203905292, 9.309181664375785], [-75.39375913876817, 9.313857075182286], [-75.3910970037029, 9.31504853065884], [-75.3872332762064, 9.313160046043805], [-75.3846987188576, 9.306793584330666], [-75.37695783074261, 9.306577628403868], [-75.37425357329133, 9.302656337828157], [-75.3755411702584, 9.299287947204055], [-75.38019154128565, 9.296313131901869], [-75.38173045315759, 9.291307497559506], [-75.38595151089851, 9.289056960756765], [-75.38865971346094, 9.289951893068475], [-75.39295048314492, 9.294901730274873], [-75.40092345259156, 9.296545096526682], [-75.40687335670668, 9.293095546554003], [-75.41059325419306, 9.293199130230963], [-75.41276989688524, 9.297973418497788], [-75.40922028670404, 9.301381358944413]]], [[[-75.40193061357114, 9.413227183347571], [-75.40422153258439, 9.419616361339669], [-75.40357795807822, 9.422574613365784], [-75.40084769071734, 9.424266006731703], [-75.39507962164429, 9.42361574174457], [-75.39084182044166, 9.418361523397767], [-75.39175532196046, 9.411411879459132], [-75.39768326434093, 9.408600564086996], [-75.40193061357114, 9.413227183347571]]], [[[-75.41277130878282, 9.272692841722119], [-75.4126169253087, 9.275683105460201], [-75.40789838696244, 9.283494194233016], [-75.40451978955753, 9.28412722205104], [-75.40013486635354, 9.281739538994335], [-75.3996258598856, 9.278045853987674], [-75.40485790337766, 9.268768177152927], [-75.40893550761572, 9.268463135269208], [-75.41277130878282, 9.272692841722119]]], [[[-75.42095643190679, 9.131329741341546], [-75.4155908225099, 9.147343977715318], [-75.41100145790243, 9.149351363493945], [-75.40608542220279, 9.148728762320822], [-75.40458180452532, 9.141468141943934], [-75.41289146341073, 9.12777048066313], [-75.41545574576845, 9.126301185757459], [-75.41874854226714, 9.126973085131574], [-75.42095643190679, 9.131329741341546]]], [[[-75.4158413578734, 9.248722591367262], [-75.41171206359678, 9.249864247403522], [-75.4067448929987, 9.246319163388574], [-75.40498336516862, 9.240780315514506], [-75.40637347519966, 9.237650113695935], [-75.41043289613272, 9.236958133908368], [-75.41730740707965, 9.241936296901065], [-75.41819312337411, 9.245232217795712], [-75.4158413578734, 9.248722591367262]]], [[[-75.44870257382608, 9.44977026892617], [-75.44937465499827, 9.453000823429912], [-75.44723740320173, 9.457576369745725], [-75.43910354477003, 9.46228185990319], [-75.43430466955347, 9.460202376567578], [-75.43154876520346, 9.450381161336116], [-75.43693538525982, 9.443430382230128], [-75.44110786362849, 9.443183176644235], [-75.44870257382608, 9.44977026892617]]], [[[-75.46184301634396, 9.099224994869909], [-75.4590031351463, 9.103394217930799], [-75.44651512328475, 9.104735235383183], [-75.44195646577043, 9.101085895383529], [-75.4363335963303, 9.099338849862466], [-75.43415307172594, 9.094565088372102], [-75.43848056177123, 9.09083940240667], [-75.44633986923816, 9.095013450772287], [-75.45809741786897, 9.093910892513145], [-75.46093772649358, 9.095771164754636], [-75.46184301634396, 9.099224994869909]]], [[[-75.48796301128212, 9.084485303568533], [-75.48638351891506, 9.08780681936356], [-75.48347098122079, 9.088884925690472], [-75.48059961335053, 9.087481462944325], [-75.47906057953813, 9.083851569534708], [-75.4809562325771, 9.080679706382137], [-75.48382859272455, 9.079660925205747], [-75.48676759600541, 9.081097599117674], [-75.48796301128212, 9.084485303568533]]], [[[-75.52202244890366, 9.14831928586448], [-75.51944927495495, 9.155840555107412], [-75.51286800858621, 9.15626286854905], [-75.5088518256253, 9.158962089554759], [-75.50595481457088, 9.158994918347823], [-75.49955374421884, 9.153772135202681], [-75.49951631842133, 9.145122197763676], [-75.4973874674621, 9.142355338479183], [-75.4915694409733, 9.140191498716783], [-75.49097454017624, 9.135443721672326], [-75.49398472088211, 9.133120742032292], [-75.50180658851168, 9.133884172656218], [-75.50642190484504, 9.13188608725984], [-75.51005227780755, 9.132309553495316], [-75.51575182913645, 9.13668202783182], [-75.5177720980169, 9.141255884036667], [-75.52146008284635, 9.144002098709345], [-75.52202244890366, 9.14831928586448]]], [[[-75.51188450641362, 9.218241430024301], [-75.51495616218342, 9.220288922050166], [-75.51536996070985, 9.223702743811751], [-75.51245054088596, 9.227300202619318], [-75.50886003346707, 9.227512708778777], [-75.50609273993207, 9.225219591232683], [-75.50581928694872, 9.22196044985152], [-75.50832978673711, 9.218860328255664], [-75.51188450641362, 9.218241430024301]]], [[[-75.55138894764363, 9.264697449103728], [-75.55444946892612, 9.26853764233649], [-75.55387020413934, 9.272298453114177], [-75.54989058771378, 9.274596832649118], [-75.5443598134972, 9.273562371779237], [-75.54283227472334, 9.27015999634894], [-75.54462437508597, 9.26479066734929], [-75.54817718377261, 9.263125513591499], [-75.55138894764363, 9.264697449103728]]], [[[-75.59914985425128, 9.252489497857331], [-75.59741572968075, 9.25788993978849], [-75.59165513901542, 9.258986959912235], [-75.58904867799814, 9.256284856087891], [-75.58859633811014, 9.248971038318306], [-75.5908940690044, 9.246550612029969], [-75.5952857426616, 9.246138933473615], [-75.59892917769045, 9.248655470723934], [-75.59914985425128, 9.252489497857331]]], [[[-75.61348994023855, 9.217381456726896], [-75.60752999146341, 9.220801962294319], [-75.6044139871208, 9.219120038888027], [-75.60357498592843, 9.21614673527411], [-75.60748863761528, 9.210952632808148], [-75.61063948919934, 9.210001020311806], [-75.61452726710839, 9.212954423234645], [-75.61348994023855, 9.217381456726896]]]]}, "properties": {}}