{"type": "Feature", "properties": {"city": "Sincelejo", "country": "Colombia", "real_area": 22.46}, "geometry": {"type": "LineString", "coordinates": [[-75.3982229444519, 9.32516097337829], [-75.4022214037636, 9.32264280706119], [-75.401727528018, 9.31800564249615], [-75.4057261840365, 9.31548711658055], [-75.4102187751271, 9.31760594646443], [-75.414217687118, 9.31508725224331], [-75.4137239487481, 9.31044953694126], [-75.4177230573804, 9.30793048327617], [-75.41722935121, 9.30329233283599], [-75.4212286564708, 9.30077291981216], [-75.4207349825088, 9.29613433432033], [-75.4162418980379, 9.29401527731033], [-75.4157481510353, 9.2893763723076], [-75.4112550527368, 9.28725718703322], [-75.4107612326986, 9.28261796266171], [-75.4147606161945, 9.2800978080294], [-75.4142668283554, 9.27545814883677], [-75.4097735517827, 9.27333875986014], [-75.4057742275721, 9.27585910568092], [-75.401281101823, 9.27373966434613], [-75.3972820337362, 9.27625984215928], [-75.3977760320019, 9.28089927007812], [-75.3937771607032, 9.28341908859579], [-75.3892843506221, 9.28129967043186], [-75.3852857356555, 9.28381932083261], [-75.3807930768449, 9.28169985034558], [-75.3767947183661, 9.28421933258971], [-75.3772889590553, 9.28885809401636], [-75.3732907974825, 9.29137721674075], [-75.3737850702891, 9.29601554320147], [-75.3697871056349, 9.29853430632095], [-75.37028141055, 9.30317219772928], [-75.366283642827, 9.30569060115876], [-75.3667779798416, 9.31032805742836], [-75.3627804090627, 9.31284610108282], [-75.3632747781679, 9.31748312212738], [-75.3677666130187, 9.31960221544939], [-75.3717642435913, 9.31708436315163], [-75.3762562300658, 9.31920340387613], [-75.3802541172332, 9.3166853831146], [-75.3847462551438, 9.31880437119653], [-75.385240341163, 9.32344130448263], [-75.3897324656765, 9.32556016427555], [-75.3937306688076, 9.32304216637291], [-75.3982229444519, 9.32516097337829]]}}