{"type": "Feature", "properties": {"city": "Rudny", "country": "Kazakhstan", "real_area": 21.46}, "geometry": {"type": "MultiLineString", "coordinates": [[[63.1057918570873, 53.0322380514969], [63.1078847944991, 53.0272437505825], [63.1161557017339, 53.0258861194893], [63.1223351365011, 53.0295226247849], [63.1202435590492, 53.0345172054498], [63.1119711866806, 53.0358750011057], [63.1057918570873, 53.0322380514969]], [[63.1390522053598, 52.9895601850616], [63.1411398970464, 52.9845641571234], [63.1494029864599, 52.9832035550495], [63.1555798456659, 52.986838815863], [63.1534935126337, 52.9918351229654], [63.1452289615522, 52.9931958901272], [63.1390522053598, 52.9895601850616]], [[63.0465244844494, 52.9349856493632], [63.0486191037816, 52.9299905199354], [63.0568736784262, 52.9286356794445], [63.0630350941396, 52.9322758052747], [63.0609418271503, 52.9372712153493], [63.0526857919157, 52.9386262189837], [63.0465244844494, 52.9349856493632]], [[63.095739312768, 52.9827251754117], [63.0874757247068, 52.9840819852406], [63.0813053632538, 52.9804434420641], [63.0730420185846, 52.9817992629577], [63.0668732568811, 52.978160011243], [63.0689677324182, 52.9731653826764], [63.062800462805, 52.9695258667744], [63.0648949674785, 52.964531137635], [63.0731553870763, 52.9631756439535], [63.0752485664535, 52.9581805339745], [63.083507768202, 52.9568242156678], [63.0855996227341, 52.9518287251657], [63.0938576064434, 52.9504715825434], [63.1000251964562, 52.9541097665391], [63.1082834223139, 52.9527516358069], [63.1144526091252, 52.9563891114615], [63.1227110760788, 52.9550299924603], [63.128881859263, 52.9586667593784], [63.1371405662593, 52.9573066519495], [63.1392270299389, 52.9523099423152], [63.147484516198, 52.9509490112616], [63.1536569983154, 52.9545846249179], [63.1619147227279, 52.9532227054058], [63.1680887995198, 52.9568576094865], [63.1660050499453, 52.9618548772209], [63.1577458660248, 52.9632169619802], [63.1556607920951, 52.9682138503903], [63.1618362598983, 52.9718489329495], [63.1597512191703, 52.9768457207665], [63.1514893524406, 52.9782071470135], [63.145313987215, 52.974571620239], [63.1370523590382, 52.9759320573282], [63.1349646350391, 52.9809281861396], [63.1267017850156, 52.9822877989282], [63.1246127353023, 52.9872835474653], [63.1163486636203, 52.9886423356429], [63.1101751039444, 52.9850052107305], [63.1019112735454, 52.9863630096541], [63.095739312768, 52.9827251754117]]]}}