{"type": "FeatureCollection", "features": [{"type": "Feature", "properties": {"threshold": 70}, "geometry": {"type": "MultiPolygon", "coordinates": [[[[-9.389062359745465, 30.225875156385573], [-9.388488250707038, 30.231006425161436], [-9.379189266615445, 30.227185129540874], [-9.372447199520726, 30.229505848391504], [-9.360282954040905, 30.22864009187894], [-9.358330082358654, 30.221754874157373], [-9.351858807302934, 30.220436718036023], [-9.355507758218884, 30.207471053262996], [-9.363184480891366, 30.20551241280019], [-9.364388464506035, 30.200484474957424], [-9.367396735183577, 30.19948984557953], [-9.373930762134162, 30.206717161180766], [-9.38549280063335, 30.209707046746637], [-9.386003048925293, 30.220708157305612], [-9.389062359745465, 30.225875156385573]]], [[[-9.43251706412821, 30.36277169552575], [-9.433380528800406, 30.365126807261216], [-9.42500400034935, 30.369989619265535], [-9.423040351450187, 30.37399752833623], [-9.414664301999428, 30.374024374581413], [-9.398778271509217, 30.36882689908504], [-9.398886666867291, 30.36283309261641], [-9.403951224189841, 30.36197662519307], [-9.407456799600132, 30.357064020317168], [-9.415024112157193, 30.357058593495157], [-9.43251706412821, 30.36277169552575]]], [[[-9.665190637854467, 30.45747310672452], [-9.664764036856013, 30.462645253219176], [-9.655023649291572, 30.462195079618713], [-9.648727592082118, 30.468140695502978], [-9.639716668622661, 30.469648318161095], [-9.626056578145356, 30.455623433116763], [-9.62590027194105, 30.451951490905092], [-9.6406406181476, 30.454896036885792], [-9.645156176303303, 30.45191882095826], [-9.646252224122302, 30.44589251456186], [-9.63741475367185, 30.434452456644664], [-9.62515728299772, 30.42812583993222], [-9.60468960797984, 30.428922412184335], [-9.599223088186436, 30.434755845701634], [-9.59987321095307, 30.44007126630716], [-9.59581806399447, 30.444445860097247], [-9.581115929124527, 30.446114188053762], [-9.56811072131426, 30.44123764557375], [-9.562169894928862, 30.453761321150573], [-9.549736789737207, 30.45318252097978], [-9.54465086871944, 30.44804879790185], [-9.545884719841483, 30.440658867289155], [-9.54364694220989, 30.43550957796754], [-9.55080744525566, 30.42544448507571], [-9.547639829821513, 30.41766742459511], [-9.537541615558567, 30.4135901639382], [-9.535343410095917, 30.407953009216644], [-9.506459139081572, 30.40301950834723], [-9.499273303723207, 30.395210355530622], [-9.492757564428537, 30.393598560413484], [-9.490360863259891, 30.386201267004903], [-9.479944220632584, 30.38773594747687], [-9.461096569915647, 30.38285166266987], [-9.451673956819766, 30.392466952433075], [-9.42766099529082, 30.390016174745536], [-9.42740523277766, 30.38228628976065], [-9.432436225269425, 30.377114586587144], [-9.436827478041568, 30.37724174586312], [-9.439841356486902, 30.382399010427594], [-9.449721478211016, 30.37934091341531], [-9.460714697762329, 30.381883552212187], [-9.468100467697186, 30.37235038316377], [-9.477950093070142, 30.374551325970355], [-9.48492702552566, 30.369944091356974], [-9.497557390246767, 30.37061038850634], [-9.505708029618573, 30.365992382487402], [-9.51705093555293, 30.36821454121623], [-9.520614346780905, 30.363763877278487], [-9.515247534173293, 30.35396289306545], [-9.50130888849084, 30.353621736318974], [-9.495317135871243, 30.35980125900708], [-9.4887820491823, 30.357488973217542], [-9.482971690731219, 30.36606016118887], [-9.468607116528721, 30.364093265732013], [-9.459163798256867, 30.367361132611443], [-9.456283712663963, 30.371488826210356], [-9.452500381208706, 30.371311197131593], [-9.448736949587023, 30.36442303980839], [-9.45778953253645, 30.357765521327078], [-9.458857286969884, 30.353914571016407], [-9.47567481070509, 30.35607841722353], [-9.47916271622573, 30.359538105686575], [-9.481994060179224, 30.357574644933496], [-9.48242455083177, 30.352422833380697], [-9.479584758121995, 30.34302906835921], [-9.470859343636183, 30.331456444355673], [-9.47709944244483, 30.32543238775995], [-9.476875024565372, 30.32247491256017], [-9.471052918507128, 30.314967724655997], [-9.463760987194455, 30.310873561084275], [-9.462912057426937, 30.304629155982138], [-9.449429006154187, 30.296225902537067], [-9.446790655570663, 30.279790435454533], [-9.46131325589354, 30.286606286310676], [-9.475761957056589, 30.297480288424126], [-9.477148675447406, 30.30464949627754], [-9.484236416111052, 30.311604662614222], [-9.495042058957523, 30.312611230201426], [-9.500382645305947, 30.309941138977173], [-9.501430158297119, 30.306571316435136], [-9.50566242177291, 30.306439943426277], [-9.508972617163645, 30.310111376190452], [-9.518488811535486, 30.311146178582167], [-9.527576748627041, 30.31816770709686], [-9.53416128378596, 30.334232624886944], [-9.532737118643228, 30.336422077542473], [-9.522003659863115, 30.338558615222738], [-9.521806675891675, 30.34670372345297], [-9.525412944827384, 30.3507589408653], [-9.531019067333999, 30.350089775703022], [-9.53476669128177, 30.342725152170868], [-9.547900149099796, 30.3429535623111], [-9.552842985930559, 30.340274364487843], [-9.564301337257827, 30.34740940803857], [-9.564547641913762, 30.356757342442087], [-9.555389653460674, 30.36162969508202], [-9.5552341108998, 30.36652598757523], [-9.558036113826109, 30.367664300870487], [-9.564600006845343, 30.364971192985717], [-9.56708849363764, 30.3667360603436], [-9.567156855937148, 30.374482088181622], [-9.573450422225607, 30.37682044752087], [-9.57579109452048, 30.386096978754026], [-9.581019170097619, 30.389374232091143], [-9.5854010435577, 30.389402221596047], [-9.587882507379112, 30.38344013699747], [-9.600280714704382, 30.3875295556985], [-9.600620529423116, 30.398901658195587], [-9.606190815941535, 30.415405931690557], [-9.610436653812135, 30.42005516107498], [-9.632084737932866, 30.41805411861001], [-9.638663656542452, 30.41968425955353], [-9.644366147322533, 30.42521620363115], [-9.64952462913962, 30.42204713693279], [-9.652503743671268, 30.42884109461385], [-9.648222396003153, 30.435200965536726], [-9.662288313491544, 30.445305788560578], [-9.665190637854467, 30.45747310672452]], [[-9.553495744789739, 30.38358382390688], [-9.556158307411733, 30.381324771637473], [-9.553845827670894, 30.37895317028632], [-9.539110071028501, 30.379824311274938], [-9.536977313383996, 30.38189600468029], [-9.540089873145394, 30.385670801139494], [-9.553495744789739, 30.38358382390688]]], [[[-9.688912727173758, 30.512890117432804], [-9.6723335501384, 30.516753236707096], [-9.668328080890683, 30.51252145134275], [-9.668206162564893, 30.507021781962457], [-9.661339194636309, 30.507392477797005], [-9.655743161632941, 30.50098251021344], [-9.654851749439242, 30.495687574484673], [-9.658927751564415, 30.49219871171704], [-9.673880801244463, 30.489859527151133], [-9.677874833787117, 30.492544173168348], [-9.682877811232201, 30.507407029593146], [-9.6885181056172, 30.509255861979405], [-9.688912727173758, 30.512890117432804]]]]}}, {"type": "Feature", "properties": {"threshold": 80}, "geometry": {"type": "MultiPolygon", "coordinates": [[[[-9.398097579852319, 30.233695727921077], [-9.399106102043776, 30.23964069390926], [-9.39628286612661, 30.24025485552423], [-9.390475832740718, 30.238514201806268], [-9.385964107380829, 30.230172805749824], [-9.37973846068168, 30.22728530471785], [-9.372447199520726, 30.229505848391504], [-9.360436668732856, 30.228710896596528], [-9.358495122810988, 30.22193992566076], [-9.352105866195123, 30.22160428114999], [-9.348322928150369, 30.2138122141571], [-9.354763626225377, 30.211694278388816], [-9.355460440100774, 30.20676248292515], [-9.359192514072328, 30.205612038471227], [-9.362195835685037, 30.20018118211322], [-9.369993587097015, 30.19944365704979], [-9.37517372439741, 30.205475668429816], [-9.388637792145408, 30.204772421477475], [-9.385730526562272, 30.210896027948948], [-9.386055082186598, 30.220931373107863], [-9.398097579852319, 30.233695727921077]]], [[[-9.665190637854467, 30.45747310672452], [-9.6646853302823, 30.46267799282761], [-9.657045416113563, 30.463552607941153], [-9.64411221948085, 30.46976844696847], [-9.635251798197658, 30.469670139263002], [-9.634647713593356, 30.463209130223127], [-9.625158792044772, 30.454854205111552], [-9.625057156974968, 30.45181094805335], [-9.635875536999187, 30.452071230789265], [-9.640634798619141, 30.454805875076154], [-9.645156176303303, 30.45191882095826], [-9.646321870127869, 30.44611995934299], [-9.63741475367185, 30.434452456644664], [-9.62515728299772, 30.42812583993222], [-9.60468960797984, 30.428922412184335], [-9.599223088186436, 30.434755845701634], [-9.59987321095307, 30.44007126630716], [-9.59581806399447, 30.444445860097247], [-9.581115929124527, 30.446114188053762], [-9.56811072131426, 30.44123764557375], [-9.564732096844637, 30.445774805120227], [-9.566634099913479, 30.45374201064103], [-9.549736789737207, 30.45318252097978], [-9.539385558067778, 30.444407435695226], [-9.539204830635862, 30.439395707751856], [-9.548546642769596, 30.43142771230394], [-9.55080744525566, 30.42544448507571], [-9.547639829821513, 30.41766742459511], [-9.537541615558567, 30.4135901639382], [-9.535343410095917, 30.407953009216644], [-9.506459139081572, 30.40301950834723], [-9.500819864809463, 30.399756282941357], [-9.499273303723207, 30.395210355530622], [-9.492757564428537, 30.393598560413484], [-9.490360863259891, 30.386201267004903], [-9.479944220632584, 30.38773594747687], [-9.460577850710534, 30.38292024384811], [-9.455466579085035, 30.38657653420489], [-9.45233786612994, 30.394802916595776], [-9.44322212311495, 30.39479817718581], [-9.437740707899113, 30.391165173301193], [-9.426571546661856, 30.388996132964746], [-9.427434313185497, 30.382214978036174], [-9.432436225269425, 30.377114586587144], [-9.436827478041568, 30.37724174586312], [-9.43929977712724, 30.381998492778145], [-9.446426089731977, 30.380641838318596], [-9.448822229519914, 30.377796899470063], [-9.460714697762329, 30.381883552212187], [-9.468096782504242, 30.3715768437014], [-9.475192804206324, 30.37483368674887], [-9.48492702552566, 30.369944091356974], [-9.49782100820792, 30.370549759340633], [-9.505621805348667, 30.36600381454331], [-9.517567340447007, 30.368071642556515], [-9.52061073962972, 30.363082870870794], [-9.514536153439163, 30.353674520421148], [-9.500800619409185, 30.35373422303214], [-9.495232622684501, 30.35981995780883], [-9.489473006644507, 30.357165355781508], [-9.482971690731219, 30.36606016118887], [-9.468349752766494, 30.364138617809296], [-9.459163798256867, 30.367361132611443], [-9.45603846313032, 30.37156588212026], [-9.443365455046326, 30.366281964971012], [-9.429687511017018, 30.367221764017124], [-9.42410793727473, 30.371020384180433], [-9.422625738682108, 30.379202811719797], [-9.414089090906304, 30.38055810137996], [-9.414864629569935, 30.383496391199778], [-9.420980911974253, 30.38597044477047], [-9.42088115360951, 30.388491086848447], [-9.405353970304228, 30.39008729333932], [-9.401590906797509, 30.38068147799615], [-9.412463228010001, 30.38005092307785], [-9.41390210074241, 30.3759123253206], [-9.399023136567344, 30.369220792378993], [-9.3978505470359, 30.36318891330106], [-9.403951224189841, 30.36197662519307], [-9.407211546170743, 30.357140984905392], [-9.416716835547723, 30.355487715563736], [-9.419866883538031, 30.359213222496493], [-9.442760895291382, 30.363344280266958], [-9.447912222830539, 30.362655457059553], [-9.459177115550949, 30.3537983620495], [-9.47567481070509, 30.35607841722353], [-9.478397555309883, 30.359485276924467], [-9.482069221481263, 30.357356435307263], [-9.479686263315175, 30.343239100256945], [-9.469954449437738, 30.331384879037007], [-9.476954363895398, 30.3256227736877], [-9.476875024565372, 30.32247491256017], [-9.471052918507128, 30.314967724655997], [-9.463760987194455, 30.310873561084275], [-9.462912057426937, 30.304629155982138], [-9.45683872772832, 30.303374957320738], [-9.449432533616074, 30.296999452803448], [-9.442330793336785, 30.279032014453605], [-9.449352303629633, 30.274929337707434], [-9.462082069202655, 30.287042038990446], [-9.476528725628691, 30.285049715757168], [-9.476643412820852, 30.290525884951048], [-9.484925126196197, 30.29861486069163], [-9.482501332478387, 30.3065979356859], [-9.489063397899736, 30.312381701410025], [-9.49529290735, 30.312544171350137], [-9.500382645305947, 30.309941138977173], [-9.501430158297119, 30.306571316435136], [-9.50566242177291, 30.306439943426277], [-9.508972617163645, 30.310111376190452], [-9.518488811535486, 30.311146178582167], [-9.527576748627041, 30.31816770709686], [-9.53416128378596, 30.334232624886944], [-9.521899159384995, 30.33875976042513], [-9.521806675891675, 30.34670372345297], [-9.525631951489656, 30.35088458513923], [-9.531203870872142, 30.349927989714228], [-9.53476669128177, 30.342725152170868], [-9.547900149099796, 30.3429535623111], [-9.552842985930559, 30.340274364487843], [-9.564301337257827, 30.34740940803857], [-9.564547641913762, 30.356757342442087], [-9.555389653460674, 30.36162969508202], [-9.5552341108998, 30.36652598757523], [-9.558036113826109, 30.367664300870487], [-9.56483919999569, 30.364987767927506], [-9.569050130749357, 30.36942726504648], [-9.579599974784415, 30.370548906978808], [-9.579620093793574, 30.37395945616482], [-9.575007446685564, 30.373690003649997], [-9.573249380146189, 30.37599657823913], [-9.57579109452048, 30.386096978754026], [-9.581019170097619, 30.389374232091143], [-9.5854010435577, 30.389402221596047], [-9.587882507379112, 30.38344013699747], [-9.600280714704382, 30.3875295556985], [-9.600620529423116, 30.398901658195587], [-9.606190815941535, 30.415405931690557], [-9.610436653812135, 30.42005516107498], [-9.631993357130495, 30.417269925929116], [-9.63873404651113, 30.41972897188485], [-9.64357666722099, 30.42509356799308], [-9.64952462913962, 30.42204713693279], [-9.652503743671268, 30.42884109461385], [-9.648222396003153, 30.435200965536726], [-9.662288313491544, 30.445305788560578], [-9.665190637854467, 30.45747310672452]], [[-9.553495744789739, 30.38358382390688], [-9.556158307411733, 30.381324771637473], [-9.553845827670894, 30.37895317028632], [-9.539110071028501, 30.379824311274938], [-9.536977313383996, 30.38189600468029], [-9.540089873145394, 30.385670801139494], [-9.553495744789739, 30.38358382390688]]], [[[-9.688912727173758, 30.512890117432804], [-9.6723335501384, 30.516753236707096], [-9.668328080890683, 30.51252145134275], [-9.668206162564893, 30.507021781962457], [-9.6614042594545, 30.507442941329455], [-9.653963714632903, 30.496465558003838], [-9.662392199289227, 30.488339007387115], [-9.66912582384257, 30.491267517934403], [-9.673880801244463, 30.489859527151133], [-9.677874833787117, 30.492544173168348], [-9.682877811232201, 30.507407029593146], [-9.6885181056172, 30.509255861979405], [-9.688912727173758, 30.512890117432804]]]]}}, {"type": "Feature", "properties": {"threshold": 90}, "geometry": {"type": "MultiPolygon", "coordinates": [[[[-9.399776357607909, 30.23224893266852], [-9.398800408923067, 30.240087069877152], [-9.389241661795147, 30.24028706108217], [-9.386278010020801, 30.23055860348869], [-9.380000947375086, 30.227372357465306], [-9.372447199520726, 30.229505848391504], [-9.36035780859313, 30.228678773067916], [-9.357940017109664, 30.221432632027426], [-9.349977692346329, 30.222605600656674], [-9.347590638346327, 30.220786710714567], [-9.348193783031755, 30.21251646625483], [-9.34316063703453, 30.210797929309244], [-9.34031706284538, 30.206029086096713], [-9.345632965007255, 30.20406429923862], [-9.3533747456242, 30.207382085655706], [-9.35840130904997, 30.201061896519423], [-9.369485108628483, 30.198584211938527], [-9.372737195596471, 30.198701196421652], [-9.376808426603816, 30.20326466373557], [-9.387816935452612, 30.202486463033686], [-9.38919050344047, 30.20710558904972], [-9.385730526562272, 30.210896027948948], [-9.386132058637585, 30.22114908483868], [-9.399776357607909, 30.23224893266852]]], [[[-9.665190637854467, 30.45747310672452], [-9.6646853302823, 30.46267799282761], [-9.657045416113563, 30.463552607941153], [-9.64411221948085, 30.46976844696847], [-9.635251798197658, 30.469670139263002], [-9.634647713593356, 30.463209130223127], [-9.625158792044772, 30.454854205111552], [-9.625057156974968, 30.45181094805335], [-9.635875536999187, 30.452071230789265], [-9.640634798619141, 30.454805875076154], [-9.645156176303303, 30.45191882095826], [-9.646321870127869, 30.44611995934299], [-9.63741475367185, 30.434452456644664], [-9.62515728299772, 30.42812583993222], [-9.60468960797984, 30.428922412184335], [-9.599223088186436, 30.434755845701634], [-9.59987321095307, 30.44007126630716], [-9.59581806399447, 30.444445860097247], [-9.581115929124527, 30.446114188053762], [-9.56811072131426, 30.44123764557375], [-9.564732096844637, 30.445774805120227], [-9.566634099913479, 30.45374201064103], [-9.549736789737207, 30.45318252097978], [-9.539385558067778, 30.444407435695226], [-9.539204830635862, 30.439395707751856], [-9.548546642769596, 30.43142771230394], [-9.55080744525566, 30.42544448507571], [-9.547639829821513, 30.41766742459511], [-9.537541615558567, 30.4135901639382], [-9.535343410095917, 30.407953009216644], [-9.506459139081572, 30.40301950834723], [-9.500819864809463, 30.399756282941357], [-9.499273303723207, 30.395210355530622], [-9.492757564428537, 30.393598560413484], [-9.490360863259891, 30.386201267004903], [-9.479944220632584, 30.38773594747687], [-9.460577850710534, 30.38292024384811], [-9.455466579085035, 30.38657653420489], [-9.45233786612994, 30.394802916595776], [-9.441437480824646, 30.394804220248755], [-9.437495567825923, 30.391551226189407], [-9.426571546661856, 30.388996132964746], [-9.427434313185497, 30.382214978036174], [-9.432436225269425, 30.377114586587144], [-9.441500161958675, 30.380558116054665], [-9.453390857199018, 30.37779873617192], [-9.460714697762329, 30.381883552212187], [-9.468096782504242, 30.3715768437014], [-9.475192804206324, 30.37483368674887], [-9.48492702552566, 30.369944091356974], [-9.49782100820792, 30.370549759340633], [-9.505621805348667, 30.36600381454331], [-9.517567340447007, 30.368071642556515], [-9.52061073962972, 30.363082870870794], [-9.514536153439163, 30.353674520421148], [-9.500800619409185, 30.35373422303214], [-9.495232622684501, 30.35981995780883], [-9.489473006644507, 30.357165355781508], [-9.482971690731219, 30.36606016118887], [-9.468349752766494, 30.364138617809296], [-9.459163798256867, 30.367361132611443], [-9.45603846313032, 30.37156588212026], [-9.429687511017018, 30.367221764017124], [-9.42398060103082, 30.371237962120805], [-9.423514585395088, 30.378426379546504], [-9.415081244458666, 30.380762779973153], [-9.41556514667403, 30.38343390214471], [-9.421093334121904, 30.38617455264129], [-9.418562658071751, 30.390267679061992], [-9.40581005255118, 30.390296816450142], [-9.402608784818595, 30.387719075987153], [-9.401687211307902, 30.380555551536514], [-9.412463228010001, 30.38005092307785], [-9.41383735015733, 30.375691616192142], [-9.39737090406001, 30.36854812334292], [-9.394490294899477, 30.36472440639081], [-9.381909775942777, 30.372588187201135], [-9.372995432571297, 30.36909816352773], [-9.369587884680744, 30.371820580460824], [-9.362826974721147, 30.371839525524692], [-9.360435269868198, 30.367790601009244], [-9.371878266904258, 30.36102676875614], [-9.378355539183435, 30.36408358431258], [-9.3879377011405, 30.361753652065907], [-9.403053219690381, 30.362381143336474], [-9.40713689790792, 30.357180103252492], [-9.414672357759002, 30.35548311810736], [-9.419866883538031, 30.359213222496493], [-9.429813674348054, 30.360484655417725], [-9.452007023035705, 30.359172552956082], [-9.459416101914286, 30.35377991386869], [-9.481298766445757, 30.358630322753964], [-9.481490078336172, 30.347160907285378], [-9.469967600827093, 30.33145965169388], [-9.477470647201736, 30.324349129775555], [-9.47122028291768, 30.315143167584637], [-9.46381320437105, 30.310934129762327], [-9.462553311830153, 30.305423867658032], [-9.455499177742139, 30.304083972963323], [-9.4492962755497, 30.304805213838275], [-9.447088337235575, 30.311183132687628], [-9.439118317374362, 30.311210123553543], [-9.435105053929721, 30.30767327216303], [-9.43464609604241, 30.29929592311807], [-9.427922400402418, 30.296093513989003], [-9.430626955630355, 30.287761925698984], [-9.43599423312363, 30.28430131486344], [-9.435145748632303, 30.279885702490184], [-9.445999435552078, 30.27851699296237], [-9.448483284000151, 30.27287860862939], [-9.451208773647163, 30.272620636873185], [-9.459747746740385, 30.280635939596223], [-9.461831316397387, 30.286931695726814], [-9.476652347652491, 30.285156106786136], [-9.476643412820852, 30.290525884951048], [-9.484925126196197, 30.29861486069163], [-9.482501332478387, 30.3065979356859], [-9.488832689392721, 30.31225796909684], [-9.49529290735, 30.312544171350137], [-9.500382645305947, 30.309941138977173], [-9.501430158297119, 30.306571316435136], [-9.50566242177291, 30.306439943426277], [-9.508972617163645, 30.310111376190452], [-9.518488811535486, 30.311146178582167], [-9.52763559701343, 30.31822351418078], [-9.53416128378596, 30.334232624886944], [-9.532737118643228, 30.336422077542473], [-9.522003659863115, 30.338558615222738], [-9.521806675891675, 30.34670372345297], [-9.525412944827384, 30.3507589408653], [-9.531019067333999, 30.350089775703022], [-9.53476669128177, 30.342725152170868], [-9.547900149099796, 30.3429535623111], [-9.552842985930559, 30.340274364487843], [-9.565197656649296, 30.3481790861549], [-9.564510744928041, 30.356825877414867], [-9.555389653460674, 30.36162969508202], [-9.5552341108998, 30.36652598757523], [-9.558036113826109, 30.367664300870487], [-9.56483919999569, 30.364987767927506], [-9.569050130749357, 30.36942726504648], [-9.579599974784415, 30.370548906978808], [-9.579620093793574, 30.37395945616482], [-9.575007446685564, 30.373690003649997], [-9.573249380146189, 30.37599657823913], [-9.57579109452048, 30.386096978754026], [-9.581019170097619, 30.389374232091143], [-9.5854010435577, 30.389402221596047], [-9.587882507379112, 30.38344013699747], [-9.600280714704382, 30.3875295556985], [-9.600620529423116, 30.398901658195587], [-9.606190815941535, 30.415405931690557], [-9.610436653812135, 30.42005516107498], [-9.631993357130495, 30.417269925929116], [-9.63873404651113, 30.41972897188485], [-9.64357666722099, 30.42509356799308], [-9.64952462913962, 30.42204713693279], [-9.652503743671268, 30.42884109461385], [-9.648222396003153, 30.435200965536726], [-9.662288313491544, 30.445305788560578], [-9.665190637854467, 30.45747310672452]], [[-9.553495744789739, 30.38358382390688], [-9.556158307411733, 30.381324771637473], [-9.553845827670894, 30.37895317028632], [-9.539110071028501, 30.379824311274938], [-9.536977313383996, 30.38189600468029], [-9.540089873145394, 30.385670801139494], [-9.553495744789739, 30.38358382390688]]], [[[-9.539533064847387, 30.237586854244423], [-9.532673764804663, 30.24340095823077], [-9.53323446968549, 30.248975637961365], [-9.522842305821547, 30.249093727665496], [-9.520440354113143, 30.247163544690775], [-9.51851899999136, 30.23977019544675], [-9.523382018237173, 30.22909029958995], [-9.53588266232158, 30.230625796828306], [-9.539533064847387, 30.237586854244423]]], [[[-9.688912727173758, 30.512890117432804], [-9.6723335501384, 30.516753236707096], [-9.668328080890683, 30.51252145134275], [-9.668206162564893, 30.507021781962457], [-9.6614042594545, 30.507442941329455], [-9.653963714632903, 30.496465558003838], [-9.662392199289227, 30.488339007387115], [-9.66912582384257, 30.491267517934403], [-9.673880801244463, 30.489859527151133], [-9.677874833787117, 30.492544173168348], [-9.682877811232201, 30.507407029593146], [-9.6885181056172, 30.509255861979405], [-9.688912727173758, 30.512890117432804]]]]}}, {"type": "Feature", "properties": {"threshold": 95}, "geometry": {"type": "MultiPolygon", "coordinates": [[[[-9.372349853001896, 30.2569785848262], [-9.373336187203154, 30.262997172617055], [-9.369019709697799, 30.265873433335496], [-9.363980239128017, 30.264987779567978], [-9.361416981842286, 30.261304314546997], [-9.357515946381337, 30.261623842254465], [-9.355820106445623, 30.265106914028536], [-9.346563863806743, 30.26516121372296], [-9.334164132236852, 30.259860496903887], [-9.33828410244432, 30.256226916850917], [-9.338788460428171, 30.251548370179474], [-9.343283317349549, 30.249876532780796], [-9.34316237180243, 30.243088434592543], [-9.348261621201484, 30.241188988208744], [-9.355330106244336, 30.243055999604536], [-9.355654142858791, 30.25080660193059], [-9.367438568093869, 30.252021584494575], [-9.372349853001896, 30.2569785848262]]], [[[-9.399776357607909, 30.23224893266852], [-9.398800408923067, 30.240087069877152], [-9.389155445826686, 30.240276218476538], [-9.386278010020801, 30.23055860348869], [-9.380000947375086, 30.227372357465306], [-9.372447199520726, 30.229505848391504], [-9.36051877521626, 30.228736153258048], [-9.356447140754819, 30.220949314518457], [-9.351221243353667, 30.2248935234295], [-9.343418647537646, 30.224856377244745], [-9.343925293035811, 30.219170484784755], [-9.348535013289336, 30.217125964070583], [-9.34833328249391, 30.212968030773606], [-9.340480646398296, 30.208484183683428], [-9.34031706284538, 30.206029086096713], [-9.343422691936707, 30.203351489175333], [-9.349613652549362, 30.203031856210515], [-9.356121211586943, 30.19707402863456], [-9.361945176055347, 30.200125718246174], [-9.37233071887647, 30.19857616314558], [-9.377047258686874, 30.201951962553153], [-9.38692332218288, 30.201715526336805], [-9.390423409661677, 30.211988235466713], [-9.395466351655847, 30.21557755786728], [-9.388017909205264, 30.222478174084703], [-9.399776357607909, 30.23224893266852]]], [[[-9.665190637854467, 30.45747310672452], [-9.6646853302823, 30.46267799282761], [-9.657045416113563, 30.463552607941153], [-9.64411221948085, 30.46976844696847], [-9.635251798197658, 30.469670139263002], [-9.634647713593356, 30.463209130223127], [-9.625158792044772, 30.454854205111552], [-9.625057156974968, 30.45181094805335], [-9.635875536999187, 30.452071230789265], [-9.640634798619141, 30.454805875076154], [-9.645156176303303, 30.45191882095826], [-9.646321870127869, 30.44611995934299], [-9.63741475367185, 30.434452456644664], [-9.62515728299772, 30.42812583993222], [-9.60468960797984, 30.428922412184335], [-9.599223088186436, 30.434755845701634], [-9.59987321095307, 30.44007126630716], [-9.59581806399447, 30.444445860097247], [-9.581115929124527, 30.446114188053762], [-9.56811072131426, 30.44123764557375], [-9.564732096844637, 30.445774805120227], [-9.566634099913479, 30.45374201064103], [-9.549736789737207, 30.45318252097978], [-9.539385558067778, 30.444407435695226], [-9.539204830635862, 30.439395707751856], [-9.548546642769596, 30.43142771230394], [-9.55080744525566, 30.42544448507571], [-9.547639829821513, 30.41766742459511], [-9.537541615558567, 30.4135901639382], [-9.535343410095917, 30.407953009216644], [-9.506459139081572, 30.40301950834723], [-9.500819864809463, 30.399756282941357], [-9.499273303723207, 30.395210355530622], [-9.492757564428537, 30.393598560413484], [-9.490360863259891, 30.386201267004903], [-9.479944220632584, 30.38773594747687], [-9.460577850710534, 30.38292024384811], [-9.455466579085035, 30.38657653420489], [-9.45233786612994, 30.394802916595776], [-9.441437480824646, 30.394804220248755], [-9.437495567825923, 30.391551226189407], [-9.426571546661856, 30.388996132964746], [-9.427434313185497, 30.382214978036174], [-9.432436225269425, 30.377114586587144], [-9.445424775570723, 30.379553258956655], [-9.453390857199018, 30.37779873617192], [-9.460714697762329, 30.381883552212187], [-9.468096782504242, 30.3715768437014], [-9.475192804206324, 30.37483368674887], [-9.48492702552566, 30.369944091356974], [-9.49782100820792, 30.370549759340633], [-9.505621805348667, 30.36600381454331], [-9.517567340447007, 30.368071642556515], [-9.52061073962972, 30.363082870870794], [-9.514536153439163, 30.353674520421148], [-9.500800619409185, 30.35373422303214], [-9.495232622684501, 30.35981995780883], [-9.489473006644507, 30.357165355781508], [-9.482971690731219, 30.36606016118887], [-9.468349752766494, 30.364138617809296], [-9.459163798256867, 30.367361132611443], [-9.45603846313032, 30.37156588212026], [-9.448558298525196, 30.37236532391878], [-9.44560445598592, 30.36920745172753], [-9.429687511017018, 30.367221764017124], [-9.42398060103082, 30.371237962120805], [-9.423514585395088, 30.378426379546504], [-9.415081244458666, 30.380762779973153], [-9.41556514667403, 30.38343390214471], [-9.421093334121904, 30.38617455264129], [-9.418562658071751, 30.390267679061992], [-9.40581005255118, 30.390296816450142], [-9.402608784818595, 30.387719075987153], [-9.401687211307902, 30.380555551536514], [-9.412463228010001, 30.38005092307785], [-9.41383735015733, 30.375691616192142], [-9.39737403235452, 30.369321670578753], [-9.394490294899477, 30.36472440639081], [-9.381909775942777, 30.372588187201135], [-9.372995432571297, 30.36909816352773], [-9.369587884680744, 30.371820580460824], [-9.362826974721147, 30.371839525524692], [-9.360435269868198, 30.367790601009244], [-9.367247378040338, 30.361069338559165], [-9.378630965018715, 30.364095105824596], [-9.383013786613349, 30.363824853753112], [-9.385258587361037, 30.360988017750984], [-9.39254456626822, 30.363308160126465], [-9.402554465595326, 30.36246601385935], [-9.40713689790792, 30.357180103252492], [-9.414672357759002, 30.35548311810736], [-9.424880203531785, 30.360072343139308], [-9.435219237988676, 30.357730487326588], [-9.445759066647422, 30.36036450030833], [-9.45276980200196, 30.35892294979853], [-9.459416101914286, 30.35377991386869], [-9.481298766445757, 30.358630322753964], [-9.481490078336172, 30.347160907285378], [-9.469967600827093, 30.33145965169388], [-9.477470647201736, 30.324349129775555], [-9.47122028291768, 30.315143167584637], [-9.46381320437105, 30.310934129762327], [-9.462553311830153, 30.305423867658032], [-9.455499177742139, 30.304083972963323], [-9.4492962755497, 30.304805213838275], [-9.447088337235575, 30.311183132687628], [-9.439118317374362, 30.311210123553543], [-9.435105053929721, 30.30767327216303], [-9.43464609604241, 30.29929592311807], [-9.427922400402418, 30.296093513989003], [-9.430626955630355, 30.287761925698984], [-9.43599423312363, 30.28430131486344], [-9.43520402745117, 30.279829463656597], [-9.445762673971679, 30.278615171598442], [-9.448605888763412, 30.27277134734448], [-9.454773624174694, 30.272608304268527], [-9.45677974740424, 30.279269593939464], [-9.461613004056034, 30.280762631015715], [-9.461595299581209, 30.28679911368882], [-9.476704558980007, 30.285216670738375], [-9.476643412820852, 30.290525884951048], [-9.484925126196197, 30.29861486069163], [-9.482501332478387, 30.3065979356859], [-9.488832689392721, 30.31225796909684], [-9.49529290735, 30.312544171350137], [-9.500382645305947, 30.309941138977173], [-9.501430158297119, 30.306571316435136], [-9.50566242177291, 30.306439943426277], [-9.508972617163645, 30.310111376190452], [-9.518488811535486, 30.311146178582167], [-9.52763559701343, 30.31822351418078], [-9.53416128378596, 30.334232624886944], [-9.532737118643228, 30.336422077542473], [-9.522003659863115, 30.338558615222738], [-9.521806675891675, 30.34670372345297], [-9.525412944827384, 30.3507589408653], [-9.531019067333999, 30.350089775703022], [-9.53476669128177, 30.342725152170868], [-9.547900149099796, 30.3429535623111], [-9.552842985930559, 30.340274364487843], [-9.565256544106775, 30.34823487538531], [-9.564510744928041, 30.356825877414867], [-9.55555075510726, 30.36146313747036], [-9.55496151616051, 30.366136755717285], [-9.558036113826109, 30.367664300870487], [-9.56483919999569, 30.364987767927506], [-9.569050130749357, 30.36942726504648], [-9.579599974784415, 30.370548906978808], [-9.579620093793574, 30.37395945616482], [-9.575007446685564, 30.373690003649997], [-9.573249380146189, 30.37599657823913], [-9.57579109452048, 30.386096978754026], [-9.581019170097619, 30.389374232091143], [-9.5854010435577, 30.389402221596047], [-9.587882507379112, 30.38344013699747], [-9.600280714704382, 30.3875295556985], [-9.600620529423116, 30.398901658195587], [-9.609846172604739, 30.419643782166272], [-9.631993357130495, 30.417269925929116], [-9.63873404651113, 30.41972897188485], [-9.64357666722099, 30.42509356799308], [-9.647828365146227, 30.42184463062837], [-9.651319980662, 30.42358526210855], [-9.652491435211152, 30.428915973795064], [-9.648222396003153, 30.435200965536726], [-9.662288313491544, 30.445305788560578], [-9.665190637854467, 30.45747310672452]], [[-9.553495744789739, 30.38358382390688], [-9.556158307411733, 30.381324771637473], [-9.553845827670894, 30.37895317028632], [-9.539110071028501, 30.379824311274938], [-9.536977313383996, 30.38189600468029], [-9.540089873145394, 30.385670801139494], [-9.553495744789739, 30.38358382390688]]], [[[-9.531514245680793, 30.229122443761273], [-9.538666018322065, 30.23373463279218], [-9.539820238876306, 30.23928110901849], [-9.534996136060714, 30.242782645599945], [-9.533308986104258, 30.248936448190246], [-9.522675535178577, 30.24905053233492], [-9.518536036875972, 30.24301548425888], [-9.520338508177842, 30.23490217779413], [-9.523382018237173, 30.22909029958995], [-9.531514245680793, 30.229122443761273]]], [[[-9.68969519034551, 30.51205822009664], [-9.685508672866757, 30.51519537458787], [-9.6723335501384, 30.516753236707096], [-9.668328080890683, 30.51252145134275], [-9.668206162564893, 30.507021781962457], [-9.6614042594545, 30.507442941329455], [-9.653963714632903, 30.496465558003838], [-9.662392199289227, 30.488339007387115], [-9.66912582384257, 30.491267517934403], [-9.673880801244463, 30.489859527151133], [-9.677874833787117, 30.492544173168348], [-9.682877811232201, 30.507407029593146], [-9.688453025889352, 30.50920541226458], [-9.68969519034551, 30.51205822009664]]]]}}]}