{"type": "FeatureCollection", "features": [{"type": "Feature", "properties": {"threshold": 70}, "geometry": {"type": "MultiPolygon", "coordinates": [[[[30.819415030247093, -29.873441716025265], [30.820755905294682, -29.86678931076467], [30.814572258021123, -29.863041368970304], [30.809611129100826, -29.845035327457232], [30.799210490063743, -29.843200485924893], [30.799244180823038, -29.85071326019948], [30.796570221754077, -29.852892374687265], [30.78596878679178, -29.851790294035414], [30.785800384428818, -29.845985576168456], [30.790765235904225, -29.843139561929277], [30.79358802524514, -29.837085942347485], [30.80040392988841, -29.838024074342915], [30.80370162592298, -29.83327964292671], [30.810953047329726, -29.832531879653917], [30.817740354507542, -29.837916060727906], [30.817120173075974, -29.843667491196193], [30.82031647135118, -29.84685581676537], [30.81912210079733, -29.856466659868353], [30.823535513455464, -29.85831824164926], [30.830697257897427, -29.854395778245244], [30.832015071602143, -29.865916023226237], [30.840377014404215, -29.868465825909347], [30.84945279327047, -29.86313402971581], [30.846538115359515, -29.85864834840634], [30.846734067078884, -29.84610676662457], [30.835404048365064, -29.843070393770205], [30.833298014934297, -29.838247712790896], [30.83868544083481, -29.83294367601063], [30.846759122506764, -29.83766068344057], [30.8508020020431, -29.835977529497303], [30.85055797622833, -29.830616689672286], [30.846456001001947, -29.828785071380548], [30.844560852336212, -29.8233271018772], [30.85052835782776, -29.818150266081766], [30.85627022589555, -29.81705263696887], [30.85802284620862, -29.83238715152747], [30.854762806364995, -29.835384391813854], [30.855190898053383, -29.839210665596866], [30.863167861874697, -29.84769266360175], [30.86034162347039, -29.851928328371518], [30.862935530221005, -29.856605310457134], [30.855159106250394, -29.867029239456564], [30.856207732730525, -29.87877982509842], [30.87215243535862, -29.881866160431667], [30.87994084513188, -29.878121445950953], [30.88273107805613, -29.88136483186954], [30.902427621540443, -29.884577236406578], [30.90485378059425, -29.881093463766188], [30.902775598646322, -29.87814073793996], [30.884648539931256, -29.872203699588507], [30.88481629706377, -29.86894544580748], [30.892058487078867, -29.864793826767986], [30.896726379365663, -29.868263770525147], [30.90206040518784, -29.86734494901989], [30.90747107139702, -29.870672399302492], [30.915097599555732, -29.870821368061225], [30.916184468129188, -29.87562744143771], [30.92233655457259, -29.877335640694074], [30.92495854580769, -29.880872135414837], [30.93737519706631, -29.877231618625064], [30.945245553375084, -29.86884269558759], [30.93501251367881, -29.85847239303021], [30.93901475041487, -29.843766896190218], [30.95467706357246, -29.844286981293127], [30.958257990319446, -29.839514969155655], [30.961706389175685, -29.823401645080708], [30.953742960439442, -29.814131143523074], [30.948822313085554, -29.81525376923859], [30.949849125343118, -29.821881608803054], [30.94160384095615, -29.819282010674634], [30.94044244935178, -29.816111950970182], [30.94332426789439, -29.8120966358783], [30.9380726103913, -29.810429453380916], [30.937642903209586, -29.806177419626916], [30.933471411533034, -29.802945344323117], [30.93436595713698, -29.79367882237884], [30.928249995991933, -29.787396419807187], [30.933164112858694, -29.782962348882563], [30.92768405912632, -29.78079340452176], [30.926665154888813, -29.776222119792173], [30.929824793150043, -29.77065722660652], [30.937268833500912, -29.767753967690606], [30.936155696585853, -29.759522715052228], [30.942737997785784, -29.753804845828085], [30.939555668922363, -29.750286036566607], [30.935290205658692, -29.755007292089072], [30.924550031455322, -29.751199140865822], [30.921564122682938, -29.73093990282958], [30.915069018895036, -29.727265901166113], [30.912405178453824, -29.717398015091305], [30.91541796214547, -29.70817221767095], [30.920094083819798, -29.70545716308443], [30.925297527616976, -29.710219228081474], [30.935461576633763, -29.70590403754472], [30.936259486619658, -29.703070196224918], [30.932794518677323, -29.69921916343452], [30.935374106414706, -29.693789697038863], [30.95562999287988, -29.692476904896775], [30.95881382223652, -29.695471433352086], [30.962995890883956, -29.694661698204083], [30.96593514539025, -29.6917165881845], [30.965307449124644, -29.68406315306852], [30.97417493655031, -29.68589052671638], [30.98098791038666, -29.683912400954778], [30.984533378511845, -29.678791764867913], [31.006820066788983, -29.66652121027503], [31.006472726236925, -29.660517424007207], [30.998701753852096, -29.660441210599405], [30.99666182296382, -29.65444528713938], [30.991226506915996, -29.653709136536293], [30.992284334863687, -29.646916121870447], [30.985992600022943, -29.644946548113822], [30.986434321229613, -29.64053860910485], [30.99268279788534, -29.639871553580782], [30.994943927065147, -29.64642346029527], [31.011733145248737, -29.65353563557798], [31.014080932851037, -29.651257145341035], [31.012132335780585, -29.64728231778245], [31.01435798799555, -29.640336471024508], [31.02133030829588, -29.63782731841163], [31.026985599682334, -29.639313480585795], [31.030016451465976, -29.634157346778004], [31.037171135965234, -29.632508725766264], [31.044112282351314, -29.63872379916023], [31.044921093900868, -29.64396606965978], [31.04114725908148, -29.646964708691385], [31.044195370165223, -29.654478438137357], [31.051409127994713, -29.657885080916888], [31.060414748541145, -29.65431775484847], [31.06548632947235, -29.65845112389554], [31.07724007300323, -29.655574808197773], [31.078260657829286, -29.6581133728935], [31.066980393323593, -29.671594669559077], [31.05763789973846, -29.672565100456332], [31.05468270899422, -29.677209475835934], [31.051818581568465, -29.67693805639381], [31.04958345153176, -29.669568396378747], [31.04514803459875, -29.666299191369678], [31.040518249411136, -29.668336005717777], [31.038457218617413, -29.672961647186106], [31.03119536785738, -29.671360216838693], [31.02849930186613, -29.673167147381175], [31.034873643220294, -29.69439399793923], [31.03077022982636, -29.708677112038504], [31.041518941330665, -29.713886486885258], [31.041106344208124, -29.718303052564377], [31.04615210069441, -29.72262028086453], [31.039207231645168, -29.735696328135496], [31.030407525454518, -29.736058182246424], [31.02073289768695, -29.74500819855663], [31.010193837948272, -29.748379016404108], [31.011160747554346, -29.758457605156558], [31.02571167046121, -29.761657279473138], [31.031783410169407, -29.7582415065319], [31.034885770033604, -29.746572267484936], [31.0447116319419, -29.740050657368823], [31.05319133744232, -29.727357942785435], [31.057772856375095, -29.729418922407582], [31.061927939925567, -29.743982853371698], [31.06755222889536, -29.747349308240647], [31.060658082832568, -29.75342322911627], [31.06437086622341, -29.762926736780454], [31.054642976196394, -29.76493256534071], [31.051762171957915, -29.768425166620275], [31.05420669233699, -29.776083400875528], [31.049883932350788, -29.77943672045099], [31.046514060296037, -29.788168372413768], [31.041451537475627, -29.79030504414595], [31.038038324565097, -29.79752597302452], [31.04099653898161, -29.801022397466888], [31.03892207408364, -29.80627968518321], [31.025059672820436, -29.810172272208813], [31.01715744280197, -29.805635872954735], [31.00681171950675, -29.806885959904914], [30.99935796831148, -29.80347361867394], [30.99787515560313, -29.800060607472616], [30.99288256348903, -29.79922796049649], [30.994057228093567, -29.795013182391376], [31.000691744363426, -29.793356522896286], [31.002319920189624, -29.78570763793678], [31.007499165700533, -29.783800551553078], [31.003270305722992, -29.773581476434735], [31.00356232040268, -29.7697277536897], [31.008812007052118, -29.766421933788852], [31.006469701270902, -29.76322799180036], [30.993972018871045, -29.770554327034912], [30.992879364053028, -29.77475387905021], [30.979176380995064, -29.780884717282174], [30.98865514399544, -29.79559845465083], [30.98059074452242, -29.7964800957386], [30.977388899601632, -29.800123577756867], [30.97223812088291, -29.797667126663473], [30.967277147020138, -29.799300817169556], [30.971468449528313, -29.80263075669768], [30.972014312498562, -29.80821020830135], [30.983021299712515, -29.80831452433413], [30.98367571207107, -29.815083151740048], [30.988856898393653, -29.818117142881736], [30.99957881829794, -29.812423198517493], [31.008221900024655, -29.812572690045226], [31.016827421814465, -29.817080338074536], [31.02429806947149, -29.81300894794727], [31.027878717155126, -29.817370950603298], [31.028631652485593, -29.82723034740296], [31.020326617342644, -29.843395332218073], [31.02931664502755, -29.84763977672039], [31.031291106295676, -29.839473001885423], [31.036337737955805, -29.83942811447128], [31.036571112863957, -29.84817428827913], [31.04524212280958, -29.863894170039618], [31.044966940717494, -29.867650469413956], [31.040418668209025, -29.86865244821551], [31.036495810950644, -29.862516514489528], [31.023937580850305, -29.860395318939723], [31.019136708875834, -29.864314400114182], [31.01122827595749, -29.864700471650742], [31.00717161158902, -29.869699504424407], [30.99971743814362, -29.86905836218724], [30.99273969951472, -29.881909497329566], [30.98213615563914, -29.89095374720692], [30.977934607926773, -29.907593788318202], [30.989108699858143, -29.910131552133453], [30.99234095023125, -29.915302424473865], [30.978798737875593, -29.918838710227778], [30.97247092903101, -29.927883145033043], [30.963760991894638, -29.929843910665866], [30.95335406807334, -29.93641906199075], [30.954402309122962, -29.94666709648193], [30.96128102396423, -29.943035525539504], [30.96753844351279, -29.943198694982375], [30.989581741046432, -29.93013338711673], [30.98855984275608, -29.923897149361135], [30.994635277908714, -29.916917933717034], [31.012699608925942, -29.905634324559713], [31.017619832854635, -29.89788275030474], [31.03486439944954, -29.89086721065648], [31.03552171964112, -29.89617498347415], [31.040869113227103, -29.90133253552219], [31.03310442640049, -29.911258998963433], [31.02274195941812, -29.91680771908847], [31.01670167337742, -29.91364570282798], [31.01002625581189, -29.914468184594686], [31.00873541612083, -29.922403444185964], [31.014707070843876, -29.92429359496165], [31.014642111665573, -29.92987632497694], [30.999424138805633, -29.94189679237779], [30.99268957592702, -29.940421867637728], [30.986060816757643, -29.943772930862014], [30.979361503133205, -29.952601836421398], [30.98299081825276, -29.95484078524634], [30.988081762415653, -29.95298780099068], [30.988659309362053, -29.955499243115636], [30.98092387717013, -29.9645317058207], [30.97429683729657, -29.964528447447147], [30.97314345423632, -29.959639285195], [30.965374400183713, -29.958070734838135], [30.96320314665144, -29.9548264369896], [30.949645676091684, -29.954272483438324], [30.946580984517485, -29.95675089676853], [30.944463303887858, -29.967027655999935], [30.936318375064726, -29.970154482181343], [30.932366704886004, -29.977968369801502], [30.928100046722765, -29.980449678452338], [30.923422014565432, -30.00423490931231], [30.912113060432404, -30.00782056802931], [30.91033846756391, -30.011269029346433], [30.904424909189334, -30.010980789568], [30.894372340569557, -30.015874141931445], [30.892586017710013, -30.013164122454423], [30.900122294309032, -30.005058281755993], [30.89748820324062, -30.001468243979573], [30.892801995251837, -30.002484583370055], [30.891303540844508, -30.008329760661145], [30.87656522010727, -30.009098327752984], [30.87438050082601, -30.006755908744633], [30.876651441734175, -29.997526742097143], [30.8693261097795, -29.992001336918815], [30.8701581072909, -29.98552560543364], [30.865598979752345, -29.983668174580494], [30.860511427907348, -29.988241825661508], [30.85418199710081, -29.988065591743062], [30.851779951845007, -29.979369893740227], [30.843229047947577, -29.96989286594718], [30.84861349566095, -29.96585997553872], [30.84530134811818, -29.958487937695917], [30.85110572041778, -29.954228165783324], [30.85110829733527, -29.944197627755745], [30.85562881946739, -29.940418729275], [30.85130346215664, -29.935120817071972], [30.851925209819054, -29.92580617474775], [30.84880351371504, -29.922071705141285], [30.853457219530096, -29.915041146582915], [30.851845149472872, -29.90792855728639], [30.855083434438196, -29.90358218174102], [30.854739186914177, -29.894776828988846], [30.849710175129122, -29.892772961581326], [30.844699579844992, -29.896616814940632], [30.83677033010436, -29.89338538429969], [30.83324624874211, -29.897962611208673], [30.825115764584037, -29.896960573608197], [30.822885086459312, -29.892831576963182], [30.81756503159053, -29.89076684281102], [30.817735644480976, -29.88706179349346], [30.824496691697288, -29.879714034389384], [30.819415030247093, -29.873441716025265]], [[31.041619932700762, -29.76869841490753], [31.044435295902378, -29.77123941388707], [31.047095253659514, -29.76836293006619], [31.044219777679345, -29.76617160204297], [31.041619932700762, -29.76869841490753]], [[31.025144081974865, -29.764763088420562], [31.027443747614207, -29.772153937460644], [31.03249746799149, -29.77275135364088], [31.033996973569998, -29.763769138087884], [31.027663678788077, -29.76232227308739], [31.025144081974865, -29.764763088420562]], [[31.01076458650867, -29.84409078103075], [31.01043365053318, -29.847348699544387], [31.01393730325181, -29.848752454522927], [31.01967158746748, -29.843401463343042], [31.01437475377979, -29.84089656205594], [31.01076458650867, -29.84409078103075]], [[30.990761756375267, -29.73136529126821], [30.995270991065855, -29.730487294454615], [31.005096760076157, -29.735014003071843], [31.011606844794777, -29.73081203859163], [31.00520984593082, -29.71683099909165], [30.99519805575212, -29.71380368923194], [30.98588583514772, -29.720651989647312], [30.983544732826974, -29.73009933701759], [30.990761756375267, -29.73136529126821]], [[30.99554496133446, -29.932300460131952], [30.993229401188312, -29.929566233872723], [30.99008682630966, -29.93164144770956], [30.99241857381472, -29.93471392503548], [30.99554496133446, -29.932300460131952]], [[30.945522538802738, -29.878263938692957], [30.94479665205699, -29.882727192119752], [30.948472699718362, -29.88722395988703], [30.957939495822295, -29.88573065624955], [30.96502875023381, -29.878047412663737], [30.978761088856757, -29.869986663279942], [30.982602851171478, -29.87109955246782], [30.983924024459434, -29.868271145796964], [30.967838682810292, -29.8637002696347], [30.96541432309799, -29.867398965225654], [30.950342830414534, -29.872581538288145], [30.945522538802738, -29.878263938692957]], [[30.973212253526693, -29.817474935596444], [30.979035514099174, -29.821254784690428], [30.982335488186635, -29.81667928720919], [30.975210600787364, -29.813772555494126], [30.973212253526693, -29.817474935596444]], [[30.970916363069925, -29.70179526340068], [30.974229656074353, -29.705483482293854], [30.978533126874332, -29.702088587559906], [30.974798588675874, -29.698010590743667], [30.970916363069925, -29.70179526340068]], [[30.969053814436066, -29.694504898931285], [30.972441013607376, -29.697013843692204], [30.974920696718502, -29.693878232128338], [30.971013478947324, -29.69061030317846], [30.969053814436066, -29.694504898931285]], [[30.954682304992463, -29.792634057582593], [30.95189976256082, -29.795259342000133], [30.95423779134427, -29.7985967284947], [30.966356752110933, -29.796758933007734], [30.96840643591005, -29.788543801888668], [30.961898813801007, -29.78640414626352], [30.954682304992463, -29.792634057582593]], [[30.959347428149787, -29.726436119715583], [30.95848040512102, -29.731849971898942], [30.96448597089118, -29.73177096722812], [30.964963098696234, -29.727019835287894], [30.959347428149787, -29.726436119715583]], [[30.929341438594637, -29.910793463999752], [30.93623185851935, -29.91547992211937], [30.94739785840955, -29.907839282777882], [30.950124868802195, -29.90807961435893], [30.952870635324583, -29.913097424386912], [30.961705885732293, -29.908740467539193], [30.95791507419858, -29.902099938369666], [30.948185999262595, -29.89669749516859], [30.932137226194637, -29.904170767538513], [30.929341438594637, -29.910793463999752]], [[30.93627085814765, -29.707188813569964], [30.948641573497607, -29.712922075054774], [30.957098917353726, -29.713894002911726], [30.96056783726557, -29.71130502283041], [30.961344691862553, -29.703422691238217], [30.957928080186168, -29.70015294330749], [30.948854245975895, -29.6999692287605], [30.937292051543473, -29.704513503624224], [30.93627085814765, -29.707188813569964]], [[30.93717812343211, -29.780439375129], [30.934910906065195, -29.78421735907687], [30.938453803937783, -29.787411020474448], [30.942609216365852, -29.78733449762482], [30.943437284856024, -29.78301731569221], [30.93717812343211, -29.780439375129]], [[30.9178314423316, -29.93236912042647], [30.91893858916153, -29.93576879255152], [30.923280070190035, -29.934813819935826], [30.921959507353357, -29.931357385252323], [30.9178314423316, -29.93236912042647]], [[30.86368248817969, -29.934439869043857], [30.869138398862365, -29.93372689342755], [30.870748960160554, -29.939812345105135], [30.87831944805033, -29.944070750378057], [30.88841462724452, -29.939483923978507], [30.901300222478685, -29.939671711849787], [30.90841847636795, -29.9448617860703], [30.91728916904863, -29.936028432100898], [30.91052116254241, -29.93188088038384], [30.89667554110971, -29.933200968631308], [30.893149502721606, -29.928786128672435], [30.884341278482296, -29.9263027110015], [30.87975898908016, -29.929780164308443], [30.866693394395178, -29.926989985582917], [30.86236594858805, -29.931003526674786], [30.86368248817969, -29.934439869043857]], [[30.896549283439207, -29.89269074692805], [30.89376272691521, -29.8951093223395], [30.896458080783184, -29.89926314130314], [30.904280598728448, -29.896133636268214], [30.90270797812678, -29.89209945057426], [30.896549283439207, -29.89269074692805]], [[30.887290268766776, -29.914816266449467], [30.883691021781992, -29.911713713202204], [30.880539809873735, -29.91367231969434], [30.88295397731974, -29.9170756136206], [30.887290268766776, -29.914816266449467]], [[30.877627553819753, -29.893520334080787], [30.88088953885799, -29.89926135385669], [30.886043457784947, -29.899913949464988], [30.885839019173563, -29.890643780667556], [30.877627553819753, -29.893520334080787]]], [[[30.857750895866683, -29.814415794392072], [30.85597287708895, -29.801252769224426], [30.864131008769252, -29.79609640077836], [30.862590227361324, -29.789511776209782], [30.867261427779226, -29.781043026188968], [30.86574519470485, -29.769687526466768], [30.86881703334809, -29.76607455255551], [30.883333313283934, -29.760514432326527], [30.886755220850784, -29.76343940102409], [30.887385583343146, -29.768946309956668], [30.897868316668717, -29.774089322530326], [30.901444859958662, -29.773869922849524], [30.90465932269904, -29.76962960998045], [30.91284826032381, -29.769957044904046], [30.914750257245306, -29.775620469812775], [30.906341251785406, -29.782824754026752], [30.908677450885033, -29.785868731260717], [30.916240388892945, -29.78762109359466], [30.915974978258845, -29.79497730373991], [30.894943313892753, -29.806797358844545], [30.890641856568465, -29.802268495182513], [30.890405250992046, -29.797126874338822], [30.881137910987313, -29.796946801788327], [30.87939782403484, -29.791572890149485], [30.87609974560657, -29.790736570210584], [30.86652911087012, -29.8058337011568], [30.872675872354655, -29.821992589226408], [30.865090403704734, -29.82292370145663], [30.86417076854923, -29.815967107983607], [30.857750895866683, -29.814415794392072]]]]}}, {"type": "Feature", "properties": {"threshold": 80}, "geometry": {"type": "Polygon", "coordinates": [[[30.7672039223312, -29.862338464754707], [30.766492209325456, -29.85513330918411], [30.778512912456204, -29.84863955886415], [30.78374962724875, -29.86500213470796], [30.799166065897694, -29.863295262415807], [30.808980161701236, -29.87111549923495], [30.818304952446617, -29.871029668653943], [30.820755905294682, -29.86678931076467], [30.81459151893008, -29.863906946112436], [30.814287280912897, -29.855611819388095], [30.8102564655353, -29.851840004712148], [30.809122594535864, -29.844765111852862], [30.799210490063743, -29.843200485924893], [30.799149578032964, -29.85093054713923], [30.79025890227359, -29.85752645010203], [30.7874235383147, -29.857161015211616], [30.785120454929064, -29.851130913445022], [30.785800384428818, -29.845985576168456], [30.790765235904225, -29.843139561929277], [30.793515419604617, -29.837131034786946], [30.80040392988841, -29.838024074342915], [30.80370162592298, -29.83327964292671], [30.81145122973376, -29.832476965819673], [30.817740354507542, -29.837916060727906], [30.819474642197505, -29.8568189045872], [30.823286465881086, -29.85787759788128], [30.83078504913201, -29.85364853515039], [30.832606636622263, -29.865750239745914], [30.83636343916431, -29.868730475734758], [30.848382338005273, -29.863763039456455], [30.846344159084854, -29.845240663615677], [30.835479640277885, -29.843111596860428], [30.826992140814852, -29.835683685464634], [30.832202275052683, -29.82970248694806], [30.83691684893839, -29.832385641507738], [30.84217904454612, -29.830233862903956], [30.84261392584228, -29.82687903282016], [30.83819142162938, -29.82273706198201], [30.83950227736366, -29.81881166612547], [30.857435916169322, -29.816115565391605], [30.85325513483255, -29.7998508087891], [30.854357961094962, -29.793922912405915], [30.861476021493246, -29.79116989004316], [30.868196206096208, -29.77611725281835], [30.86684610591947, -29.76775282854982], [30.883333313283934, -29.760514432326527], [30.886755220850784, -29.76343940102409], [30.887385583343146, -29.768946309956668], [30.898109187347636, -29.774165128215905], [30.901668760604416, -29.773720860602285], [30.904574910375594, -29.76965446097471], [30.911953779942355, -29.769147898399112], [30.914781784039857, -29.775547773756188], [30.90638899835083, -29.78305528175192], [30.91817572369209, -29.78974028081707], [30.915974978258845, -29.79497730373991], [30.910845497486168, -29.796311735485443], [30.8980304137836, -29.806816218737428], [30.891635886871676, -29.804868792166058], [30.888725871451438, -29.796381696691967], [30.87203872790717, -29.800341646895514], [30.868036349114032, -29.804385469177006], [30.86647799219063, -29.809479886033614], [30.869339979942104, -29.816144840537504], [30.877877417977196, -29.818811269732617], [30.881967145399514, -29.81693847303234], [30.887453585375802, -29.8183797263764], [30.88634427668772, -29.824530407310974], [30.881536743628455, -29.82764234961772], [30.883643692982503, -29.832317472202536], [30.89058723995393, -29.834852466410126], [30.890726730353457, -29.8378198928581], [30.884976219170706, -29.84040388043601], [30.88268016199225, -29.845892810478023], [30.892954718159185, -29.852380490373402], [30.89289733160327, -29.857006523817173], [30.899794479563806, -29.86633794222527], [30.906737086310912, -29.870317723382914], [30.911242195318454, -29.868744138870202], [30.912533081805158, -29.865215730134803], [30.917611467432057, -29.86520625129519], [30.92275008104505, -29.869255962912625], [30.928575842417093, -29.86857030111726], [30.932628998606805, -29.871678074303297], [30.9420090804443, -29.87280823744001], [30.943720813796624, -29.865937990255023], [30.937010970848153, -29.862089316862605], [30.934133474876333, -29.856868597329097], [30.93786631148605, -29.848812175250792], [30.937159903895846, -29.84381111831582], [30.942704214336143, -29.84254423151398], [30.95385234734772, -29.84483124868731], [30.95817562670108, -29.839738141517703], [30.958679576848215, -29.833813099693295], [30.95641661123208, -29.8317687915137], [30.947285257436892, -29.833863581484614], [30.937937168809466, -29.831590659639343], [30.9324880735022, -29.834390745695657], [30.923853217546267, -29.829100517682487], [30.92465997532007, -29.822451476297623], [30.918602639566497, -29.81961521354273], [30.91360958879896, -29.821373511340767], [30.910330459332062, -29.818408532337386], [30.91610024222526, -29.81374567910801], [30.91891998193359, -29.80131563860196], [30.924007268202775, -29.798412937386807], [30.92552971353225, -29.78877239966516], [30.929668713739847, -29.78411716325123], [30.926734526940784, -29.775997710032634], [30.929824793150043, -29.77065722660652], [30.937268833500912, -29.767753967690606], [30.936155696585853, -29.759522715052228], [30.942754976202796, -29.75427257602831], [30.939555668922363, -29.750286036566607], [30.935290205658692, -29.755007292089072], [30.92459444355271, -29.751266516289043], [30.921564122682938, -29.73093990282958], [30.914988008047786, -29.72712767263613], [30.912493828233444, -29.713115188390816], [30.918658663192105, -29.70547968131155], [30.92503030782731, -29.71023798168303], [30.935665237209776, -29.70574205202636], [30.932799391082074, -29.699355435641767], [30.935208621992867, -29.693846543810306], [30.95562999287988, -29.692476904896775], [30.96090845348064, -29.695342566961813], [30.96579593016647, -29.692168005229966], [30.965477981390634, -29.683195775753145], [30.974442088814733, -29.685871670244925], [30.9792715115136, -29.681780493920716], [30.968796793203474, -29.677453153268758], [30.96470248124163, -29.68137662785494], [30.957496259509202, -29.680543071589874], [30.93743902938021, -29.673812521549753], [30.933545743328207, -29.66790956767488], [30.950960122286045, -29.665391391131006], [30.9580230005147, -29.673330079546638], [30.970781863193334, -29.67125038389195], [30.97839636561821, -29.675945110087184], [30.984458023981283, -29.6746507699788], [30.989817486094097, -29.677712757221883], [30.99283566363305, -29.67335245823002], [30.997989286033256, -29.6729378852129], [31.001137068346843, -29.667912584935202], [31.006627343311617, -29.66668382322496], [31.007427268102557, -29.663699962087776], [31.004627598835803, -29.660323598291537], [30.99855566640769, -29.660352727351206], [30.996830971419715, -29.65461988621325], [30.99147231766078, -29.653931423751263], [30.989623683861137, -29.650208515061674], [30.97776765647364, -29.645411646772775], [30.97067078403364, -29.647254132864195], [30.969650877951025, -29.642897093338007], [30.974793243642132, -29.639521146260286], [30.99253556071365, -29.639014838625492], [30.99579707741254, -29.646393885421833], [31.011733145248737, -29.65353563557798], [31.014080932851037, -29.651257145341035], [31.012132335780585, -29.64728231778245], [31.014297111656692, -29.640393161622654], [31.021242083486054, -29.637837408703852], [31.026251950851798, -29.638789117298025], [31.03417624806755, -29.632452949047057], [31.03938578772926, -29.632706090221976], [31.05440162596611, -29.646052778729945], [31.067381678512604, -29.64748067421141], [31.062026590098377, -29.652874656245064], [31.063749921619664, -29.65800992531578], [31.07819365913239, -29.65644131950678], [31.065777727556146, -29.67256827832982], [31.057874671217828, -29.67246583540602], [31.05225144871449, -29.677199940652073], [31.04943945035988, -29.669360430090627], [31.04438015291796, -29.666902450383635], [31.04032210030017, -29.66867916664147], [31.036821546250142, -29.677511713761543], [31.03157533520352, -29.679660587849916], [31.03477260442494, -29.699977021214487], [31.030860596382198, -29.708892477728618], [31.042565273211693, -29.709984259303578], [31.043803714039065, -29.71897075268143], [31.049777451457274, -29.72671302207684], [31.05555138764117, -29.72664265872216], [31.058623739694614, -29.73015979100809], [31.062239179289815, -29.742623975061203], [31.06659002501466, -29.74465427060901], [31.069252042978487, -29.75373464021361], [31.064325012924304, -29.76531124889688], [31.049913792053033, -29.780163420627208], [31.046506584687954, -29.79128603682563], [31.04044121877696, -29.793483335318836], [31.040791308270677, -29.80392226430283], [31.034897932762927, -29.808863566557854], [31.02505967282025, -29.810172272208423], [31.014984065366715, -29.806297861134485], [31.00681171950675, -29.806885959904914], [30.990552410187913, -29.79718309068326], [30.982271466745583, -29.79635507654306], [30.979107113696884, -29.800956311538066], [30.972504646161976, -29.797694158677768], [30.967618317868112, -29.79960571162221], [30.975602242338855, -29.80805438666305], [30.98317288079466, -29.807620316945787], [30.98449510312343, -29.81527304623797], [30.988496211566705, -29.817963922076945], [30.99966719843129, -29.812413130122717], [31.008221900024655, -29.812572690045226], [31.016827421814465, -29.817080338074536], [31.0213502695984, -29.813565031289073], [31.026793686125046, -29.814639412239448], [31.02861706457498, -29.82730702812953], [31.02101758617499, -29.843878803452917], [31.02923239441766, -29.847164881111716], [31.031345433301237, -29.839411371018645], [31.036337737955805, -29.83942811447128], [31.036501095047765, -29.847931097343256], [31.04277848979058, -29.86180589398068], [31.04579695667673, -29.867255730490903], [31.052398347253597, -29.871155405794763], [31.051860960546716, -29.874308890137385], [31.04653973180804, -29.873468403469253], [31.04167619765951, -29.870781850424258], [31.03671889597991, -29.862633111525334], [31.024473651146685, -29.860380402354146], [31.019136708875834, -29.864314400114182], [31.011717096239366, -29.864640520306132], [31.00717161158902, -29.869699504424407], [30.999478462831267, -29.869165075615193], [30.99179580026634, -29.88348519269683], [30.98198449307973, -29.891969647223156], [30.978155455332598, -29.908019841237763], [30.986403823631854, -29.908500213470912], [30.995815187087118, -29.916809712998333], [31.012699608925942, -29.905634324559713], [31.017547274287747, -29.897927968586576], [31.032773961513858, -29.890824640478815], [31.03543615958458, -29.891212568726775], [31.03552171964112, -29.89617498347415], [31.040776281312255, -29.90237079383641], [31.03310442640049, -29.911258998963433], [31.02266065637964, -29.916839737124835], [31.01906437325124, -29.91704693929379], [31.015975426512274, -29.91367491469805], [31.01002625581189, -29.914468184594686], [31.009963943258526, -29.92323422297907], [31.013345448752094, -29.923777604421513], [31.01745014824558, -29.91980482408622], [31.019314739019304, -29.924381404308846], [31.010718831927072, -29.93556909276728], [31.006156477556345, -29.936176871162807], [31.000470756024452, -29.94262143348469], [30.996258292420205, -29.94371297277243], [30.99407381830347, -29.95189224588175], [30.98078406659406, -29.964628075201237], [30.97437258074166, -29.964569577573954], [30.97314345423632, -29.959639285195], [30.962896278349387, -29.955372472109733], [30.950686615497066, -29.954062566418315], [30.947146623101986, -29.955961516153234], [30.944510561177555, -29.966961716827115], [30.93595070493704, -29.9704951483876], [30.9270658241447, -29.987984190722354], [30.923422014565432, -30.00423490931231], [30.912113060432404, -30.00782056802931], [30.91033846756391, -30.011269029346433], [30.904424909189334, -30.010980789568], [30.894372340569557, -30.015874141931445], [30.892586017710013, -30.013164122454423], [30.900122294309032, -30.005058281755993], [30.897241089553013, -30.001374786467114], [30.892976352697744, -30.002306451562546], [30.891303540844508, -30.008329760661145], [30.88829028083852, -30.009386427605044], [30.87370702553392, -30.008158669995776], [30.869317847389222, -29.98468523444796], [30.865324772622184, -29.9837263592727], [30.860592836076748, -29.988209913436833], [30.85433768388628, -29.98814132842276], [30.851468237552297, -29.978989280842224], [30.840404827894957, -29.973821489615528], [30.841606714009792, -29.969209241849445], [30.84861349566095, -29.96585997553872], [30.84530134811818, -29.958487937695917], [30.850525387248975, -29.954287188168607], [30.84918061333962, -29.948936096971522], [30.85562881946739, -29.940418729275], [30.85130346215664, -29.935120817071972], [30.851925209819054, -29.92580617474775], [30.84880351371504, -29.922071705141285], [30.853457219530096, -29.915041146582915], [30.851845149472872, -29.90792855728639], [30.855083434438196, -29.90358218174102], [30.85451890388586, -29.894350595443363], [30.84945732650724, -29.892821757578126], [30.844855682951177, -29.896626056832705], [30.836247573148704, -29.89349040981872], [30.832581088726247, -29.900164936647773], [30.828004698908646, -29.901082513732415], [30.823080621830584, -29.89299198252785], [30.81769449591458, -29.891054524811953], [30.817597745835233, -29.88314594033581], [30.81484690247069, -29.881396790610765], [30.81088142830496, -29.88267436616833], [30.809989562460295, -29.887124117668805], [30.80450970839297, -29.888016386635474], [30.801534712178803, -29.8949795689767], [30.794313719456895, -29.894137203083094], [30.793853228738826, -29.879768175799654], [30.776376561455223, -29.87309341349285], [30.7672039223312, -29.862338464754707]], [[31.009197063604418, -29.749835262566453], [31.011999670984803, -29.75932252484529], [31.027077280399418, -29.760865553442414], [31.03446466739396, -29.75216278409527], [31.03493285729547, -29.74650628613525], [31.04453801653825, -29.740229029944455], [31.046910739933665, -29.734973166783025], [31.042453998956745, -29.733554583132918], [31.03705518936259, -29.73660518112841], [31.03066144372136, -29.735952003466302], [31.02080533987391, -29.744962972689404], [31.012174918877744, -29.74680517492012], [31.009197063604418, -29.749835262566453]], [[31.02703807651273, -29.76898232358601], [31.027817713226973, -29.772506624347976], [31.031583866837575, -29.77282421782961], [31.033726708729592, -29.76539630283508], [31.02847178118806, -29.763779564418936], [31.02703807651273, -29.76898232358601]], [[31.01094858616426, -29.84596626384943], [31.01715404188223, -29.84755553273763], [31.019136771158703, -29.844305122658557], [31.014475566651626, -29.841268613390355], [31.01094858616426, -29.84596626384943]], [[30.990761756375267, -29.73136529126821], [31.004337814829896, -29.73256048743801], [31.008425958196877, -29.7269791601189], [31.00520984593082, -29.71683099909165], [30.99519805575212, -29.71380368923194], [30.98588583514772, -29.720651989647312], [30.983544732826974, -29.73009933701759], [30.990761756375267, -29.73136529126821]], [[30.9857351605681, -29.778391550067496], [30.99042128335277, -29.7859751872495], [30.999819800914654, -29.788611165450778], [31.006675120158988, -29.78229065825048], [31.003265340407587, -29.773445203554814], [31.00642896596229, -29.764743197905393], [31.002466570505124, -29.764367369905884], [30.993798261656853, -29.770732625571004], [30.99294641173342, -29.774702690453726], [30.9857351605681, -29.778391550067496]], [[30.995417169779078, -29.79059103120042], [30.99596404745804, -29.794623661043886], [31.000603836584514, -29.793433260670938], [30.999336689292733, -29.789630326616482], [30.995417169779078, -29.79059103120042]], [[30.98022095657537, -29.953855855546998], [30.98744548499495, -29.95244187701851], [30.98891537743749, -29.945327816823518], [30.984361626728987, -29.9459510830807], [30.97957466348662, -29.951005838511094], [30.98022095657537, -29.953855855546998]], [[30.9523965656784, -29.943547743323556], [30.956774492350846, -29.946837416700333], [30.961115132230525, -29.943092383905977], [30.967049216393058, -29.943391051257922], [30.971156805195037, -29.939312269499325], [30.977443503976005, -29.938038342549344], [30.98871146700157, -29.929143347066436], [30.98802230247492, -29.922108009942214], [30.978097040705784, -29.920717265017654], [30.97247092903101, -29.927883145033043], [30.96387051662523, -29.92989779232463], [30.953337794367034, -29.93721382488057], [30.9523965656784, -29.943547743323556]], [[30.977232387624145, -29.820911146273694], [30.981265843825465, -29.81959388950551], [30.979637836978462, -29.814584132549417], [30.974711472293468, -29.815956800686937], [30.977232387624145, -29.820911146273694]], [[30.954544420707, -29.883159705751627], [30.958878535931778, -29.885250577940532], [30.96502875023381, -29.878047412663737], [30.976050621671064, -29.872564601601038], [30.9774107024949, -29.86783094238325], [30.968366490533192, -29.863617180752794], [30.96541432309799, -29.867398965225654], [30.958557099777895, -29.86948375456241], [30.954544420707, -29.883159705751627]], [[30.970916363069925, -29.70179526340068], [30.974229656074353, -29.705483482293854], [30.978533126874332, -29.702088587559906], [30.974798588675874, -29.698010590743667], [30.970916363069925, -29.70179526340068]], [[30.969053814436066, -29.694504898931285], [30.972441013607376, -29.697013843692204], [30.974920696718502, -29.693878232128338], [30.971013478947324, -29.69061030317846], [30.969053814436066, -29.694504898931285]], [[30.954299346912563, -29.797712593220314], [30.96626310251839, -29.796249370187617], [30.96782504434988, -29.788621775367908], [30.96205948579418, -29.786854849619676], [30.952789189427598, -29.793766457250445], [30.954299346912563, -29.797712593220314]], [[30.959347428149787, -29.726436119715583], [30.95848040512102, -29.731849971898942], [30.96448597089118, -29.73177096722812], [30.964963098696234, -29.727019835287894], [30.959347428149787, -29.726436119715583]], [[30.929341438594637, -29.910793463999752], [30.93623185842911, -29.915479922121808], [30.948326397160162, -29.907058718208756], [30.952605767710647, -29.912728455809294], [30.961705885732293, -29.908740467539193], [30.948185999262595, -29.89669749516859], [30.93540023367993, -29.90343723378606], [30.929341438594637, -29.910793463999752]], [[30.93627085814765, -29.707188813569964], [30.948641573497607, -29.712922075054774], [30.957098917353726, -29.713894002911726], [30.96056783726557, -29.71130502283041], [30.961344691862553, -29.703422691238217], [30.957928080186168, -29.70015294330749], [30.948854245975895, -29.6999692287605], [30.937292051543473, -29.704513503624224], [30.93627085814765, -29.707188813569964]], [[30.951012102945594, -29.87765002580496], [30.947945504331713, -29.87559307386102], [30.945534388198183, -29.87835533470635], [30.948601017607015, -29.880412343796245], [30.951012102945594, -29.87765002580496]], [[30.931878625271764, -29.812815346985833], [30.93388775006746, -29.8199019312101], [30.939598229566244, -29.81948798006013], [30.941493022177482, -29.81137538116882], [30.931878625271764, -29.812815346985833]], [[30.9178314423316, -29.93236912042647], [30.91893858916153, -29.93576879255152], [30.923280070190035, -29.934813819935826], [30.921959507353357, -29.931357385252323], [30.9178314423316, -29.93236912042647]], [[30.86368248817969, -29.934439869043857], [30.869138398862365, -29.93372689342755], [30.870748960160554, -29.939812345105135], [30.87831944805033, -29.944070750378057], [30.88832767810738, -29.93950141849788], [30.901805236613168, -29.93899440924222], [30.90841847636795, -29.9448617860703], [30.91728916904863, -29.936028432100898], [30.910034545518364, -29.93215830776031], [30.902656679476944, -29.937199294871522], [30.893149502721606, -29.928786128672435], [30.883668806103472, -29.926533173917395], [30.87975898908016, -29.929780164308443], [30.866693394395178, -29.926989985582917], [30.86236594858805, -29.931003526674786], [30.86368248817969, -29.934439869043857]], [[30.85626619899989, -29.871480198899242], [30.855386940750634, -29.876875313517253], [30.85765662897392, -29.879227391537576], [30.872420117151357, -29.881847537067515], [30.87564074416705, -29.877433255681815], [30.879045735603995, -29.877312054520356], [30.886408038596365, -29.881757086185633], [30.89624214950912, -29.881147829110606], [30.900105150276165, -29.88469914233935], [30.90476583207444, -29.881556246945557], [30.902320613585275, -29.877893136680605], [30.886658649588618, -29.874064841227515], [30.88238594523808, -29.863933171768068], [30.87031469310833, -29.867389800806166], [30.87322569744613, -29.85916149245656], [30.880340502685893, -29.859779508860992], [30.882437809575258, -29.857149683951928], [30.88003719929808, -29.852764528481266], [30.87364471039664, -29.853305160337147], [30.86636213275976, -29.847234249565002], [30.860834309540397, -29.850956251717253], [30.862958798233173, -29.856530281193706], [30.85529910354016, -29.86657798636876], [30.85626619899989, -29.871480198899242]], [[30.90414398563693, -29.89429683662627], [30.90133827323663, -29.891869464948442], [30.897379669865447, -29.894449223367143], [30.901521775285282, -29.897193757744667], [30.90414398563693, -29.89429683662627]], [[30.88026882929255, -29.896021127589098], [30.883986032061937, -29.899948158525998], [30.886660530880253, -29.89400802743606], [30.881629315614415, -29.892642107906156], [30.88026882929255, -29.896021127589098]], [[30.87043054042324, -29.826980407531927], [30.867980168176516, -29.830408366344514], [30.87288885591528, -29.831768181908654], [30.874219880271454, -29.827996669348696], [30.87043054042324, -29.826980407531927]], [[30.81763218434263, -29.876813786211425], [30.817562082113646, -29.881203372244148], [30.822865663009704, -29.88118664547685], [30.821734261539483, -29.876466290375802], [30.81763218434263, -29.876813786211425]]]}}, {"type": "Feature", "properties": {"threshold": 90}, "geometry": {"type": "MultiPolygon", "coordinates": [[[[30.7672039223312, -29.862338464754707], [30.76644489667154, -29.85519918208978], [30.772666718360828, -29.853546422802903], [30.775021029280264, -29.848745320038066], [30.784160259862023, -29.851595433224603], [30.793515419604617, -29.837131034786946], [30.80040392988841, -29.838024074342915], [30.80370162592298, -29.83327964292671], [30.81145122973376, -29.832476965819673], [30.817711918547563, -29.8378423998963], [30.82044735277721, -29.854774359902546], [30.83084997221349, -29.853701805649262], [30.832606636622263, -29.865750239745914], [30.836615245747463, -29.86845081445023], [30.84616801943965, -29.865638568886176], [30.849069057105083, -29.861995549275523], [30.845502234997404, -29.845325823992987], [30.835479640277885, -29.843111596860428], [30.826992140814852, -29.835683685464634], [30.832989462595332, -29.82819861600905], [30.839950888985065, -29.82786462757937], [30.837323286943743, -29.820105678255352], [30.841309115946117, -29.81650841703164], [30.84896133192506, -29.817939641874293], [30.851613055352217, -29.816268755530732], [30.84931370089127, -29.80356638248797], [30.844167365135988, -29.800190257114977], [30.861429016987135, -29.790134688547788], [30.863773456894997, -29.77976531224953], [30.868196206096208, -29.77611725281835], [30.86684610591947, -29.76775282854982], [30.883177414459084, -29.760505246015597], [30.886755220850784, -29.76343940102409], [30.887385583343146, -29.768946309956668], [30.898109187347636, -29.774165128215905], [30.901668760604416, -29.773720860602285], [30.904574910375594, -29.76965446097471], [30.911953779942355, -29.769147898399112], [30.914781784039857, -29.775547773756188], [30.90638899835083, -29.78305528175192], [30.91817572369209, -29.78974028081707], [30.915974978258845, -29.79497730373991], [30.910845497486168, -29.796311735485443], [30.8980304137836, -29.806816218737428], [30.891759445280858, -29.804980567687867], [30.888023997323245, -29.798640677923096], [30.880350658872445, -29.79873837675326], [30.868036349114032, -29.804385469177006], [30.866581090915524, -29.80974918701567], [30.869396767399074, -29.81618823155882], [30.877879653021296, -29.81881159207653], [30.881983905194048, -29.816143731687934], [30.888364981554396, -29.81839430117757], [30.89071203595441, -29.83789655310962], [30.88268016199225, -29.845892810478023], [30.89346248353722, -29.852321232725746], [30.893020811454523, -29.857215231456497], [30.89996099361768, -29.866521519927872], [30.906737086310912, -29.870317723382914], [30.909945254813977, -29.869814228319377], [30.912533081805158, -29.865215730134803], [30.917611467432057, -29.86520625129519], [30.932628998606805, -29.871678074303297], [30.942131132376577, -29.872554187250632], [30.943720813796624, -29.865937990255023], [30.936115510728825, -29.861280295735543], [30.934121977027292, -29.85679152143025], [30.938084580104608, -29.84745107752328], [30.93626459653263, -29.843002103825437], [30.940735639125684, -29.83848418599378], [30.939335277544693, -29.83540660185764], [30.92551774191171, -29.832438149127466], [30.923337935148208, -29.845414391204233], [30.90844208576621, -29.84269776293719], [30.899024289830216, -29.834849042431504], [30.900597342360072, -29.829217607443635], [30.90939798046003, -29.832571671266482], [30.914221708107373, -29.827876717244667], [30.922674995088062, -29.82694574998381], [30.918765900011067, -29.821212063065094], [30.913526221831592, -29.82134600551668], [30.909545161292556, -29.81781123153737], [30.90869255208959, -29.808457915197902], [30.924033617735226, -29.798197756336947], [30.926703008531394, -29.776070409208664], [30.929824793150043, -29.77065722660652], [30.937268833500912, -29.767753967690606], [30.936155696585853, -29.759522715052228], [30.942754976202796, -29.75427257602831], [30.939555668922363, -29.750286036566607], [30.935290205658692, -29.755007292089072], [30.923861979181247, -29.752346486359215], [30.92225181869558, -29.757763322524475], [30.929665779316984, -29.761881760515788], [30.928303923963895, -29.769297086325203], [30.917906516920592, -29.76626688242662], [30.920470100486728, -29.756655852245267], [30.91680187020732, -29.75254944875279], [30.91013194228799, -29.751158820730367], [30.909109812497274, -29.745582439576104], [30.915733493465186, -29.744363858091745], [30.921977253761177, -29.74939838609276], [30.9249401001889, -29.74658380189902], [30.921473404881883, -29.730725336135762], [30.914959525590124, -29.72705402971359], [30.912493828233444, -29.713115188390816], [30.918658663192105, -29.70547968131155], [30.925381710639517, -29.709823376300523], [30.935665237209776, -29.70574205202636], [30.932799391082074, -29.699355435641767], [30.935208621992867, -29.693846543810306], [30.95562999287988, -29.692476904896775], [30.96090845348064, -29.695342566961813], [30.96579593016647, -29.692168005229966], [30.965477981390634, -29.683195775753145], [30.974442088814733, -29.685871670244925], [30.9792715115136, -29.681780493920716], [30.97447643565588, -29.678319329752377], [30.96754610840495, -29.678435789437735], [30.96470248124163, -29.68137662785494], [30.954781785937403, -29.67970614223078], [30.93736351407683, -29.673771379643696], [30.93265194104209, -29.667100584990774], [30.951886280554557, -29.664610667202147], [30.9594590344233, -29.666435883917384], [30.96428210002456, -29.671447364836723], [30.97095560765831, -29.67128334124321], [30.979088525774525, -29.675843144296472], [30.984559831467894, -29.67387615708286], [30.989864085325138, -29.677696290136666], [30.99283566363305, -29.67335245823002], [30.997989286033256, -29.6729378852129], [31.001137068346843, -29.667912584935202], [31.006627343311617, -29.66668382322496], [31.007427268102557, -29.663699962087776], [31.004713104988884, -29.660762618476348], [30.999385067914936, -29.661108100743462], [30.996270138324977, -29.654142425161243], [30.983405690805387, -29.651463732121606], [30.979592213909005, -29.646631694027196], [30.97336862661528, -29.648885512828834], [30.969450068130904, -29.64608487067098], [30.969682783332473, -29.64130748065904], [30.99253556071365, -29.639014838625492], [30.99508312731277, -29.642100204214838], [31.000986070581202, -29.64167341583151], [31.003953486276927, -29.644485715681856], [31.0031504071601, -29.6493428593057], [31.011733145248737, -29.65353563557798], [31.014080932851037, -29.651257145341035], [31.012147957993356, -29.646487491175975], [31.014297111656692, -29.640393161622654], [31.02684750246771, -29.63697444354501], [31.033297341169114, -29.63084977963722], [31.055750941142882, -29.63697464715163], [31.058050612896043, -29.64567482874001], [31.067573308790045, -29.64774047563027], [31.06394302311893, -29.655253876356273], [31.06574949696781, -29.658030635874425], [31.073696054965364, -29.65530653570498], [31.07819365913239, -29.65644131950678], [31.065777727556146, -29.67256827832982], [31.057874671217828, -29.67246583540602], [31.052337418402864, -29.67722009448458], [31.04958345153176, -29.669568396378747], [31.046193309417344, -29.668267466044906], [31.041338644449784, -29.670884771810393], [31.040380793433084, -29.675289031408504], [31.032129115465942, -29.678646575816526], [31.03477260442494, -29.699977021214487], [31.031056587189113, -29.707943415068435], [31.035964312210574, -29.71027979791647], [31.041397696989467, -29.704967292854622], [31.04522275067403, -29.71281644302401], [31.052280308393858, -29.71152159519724], [31.05922824796934, -29.719060169464623], [31.065536014470513, -29.7175656151963], [31.068002144258074, -29.706153273012752], [31.07086716011039, -29.706424380479252], [31.07406772138957, -29.71328535243284], [31.07982333892471, -29.707120325479693], [31.088697129669256, -29.708043807847965], [31.093717905357092, -29.712745814860824], [31.089717712182686, -29.72817532286853], [31.08319615756974, -29.734926791870613], [31.069212158801154, -29.72338541220004], [31.063896489839472, -29.725678509025315], [31.066928151434947, -29.732389262349912], [31.062827449576254, -29.739025317587245], [31.06899955482924, -29.743924342908656], [31.074678000651804, -29.742200308081348], [31.075577784744077, -29.751097654730298], [31.069736297270946, -29.754729969452363], [31.064325012924304, -29.76531124889688], [31.050046267782992, -29.779969570113284], [31.046506584687954, -29.79128603682563], [31.04057170684629, -29.793278840535685], [31.04195129187914, -29.79880668683674], [31.038806801012182, -29.806398017560234], [31.02505967282025, -29.810172272208423], [31.011904171737314, -29.809460408590763], [31.00968141083245, -29.811650828525476], [31.016298547187873, -29.817003790173683], [31.024298069474014, -29.813008947945395], [31.027800105799045, -29.815569531823265], [31.029590003246568, -29.824859511329517], [31.02592422737218, -29.836049309707576], [31.029850774408256, -29.839163143929362], [31.036448357634814, -29.839549802377523], [31.04277848979058, -29.86180589398068], [31.0541346691809, -29.87235686824214], [31.047436232243776, -29.87427671941858], [31.03898697563989, -29.86835677820165], [31.03580701385701, -29.8626195421841], [31.024473651146685, -29.860380402354146], [31.019136708875834, -29.864314400114182], [31.011717096239366, -29.864640520306132], [31.006325139966304, -29.87044851539509], [31.001689659902716, -29.868833368804363], [30.998648897799836, -29.87064106029122], [30.99177986627734, -29.884279980775048], [30.982921966993032, -29.891158131246424], [30.981529148583338, -29.900608948352104], [30.9780012635047, -29.90355260062476], [30.979735832513885, -29.907792472537224], [30.98739180402088, -29.908555264486722], [30.995815187087118, -29.916809712998333], [31.012699608925942, -29.905634324559713], [31.017547274287747, -29.897927968586576], [31.032773961513858, -29.890824640478815], [31.03543615958458, -29.891212568726775], [31.03552171964112, -29.89617498347415], [31.040776281312255, -29.90237079383641], [31.03310442640049, -29.911258998963433], [31.02266065637964, -29.916839737124835], [31.01906437325124, -29.91704693929379], [31.015975426512274, -29.91367491469805], [31.01002625581189, -29.914468184594686], [31.01020431572212, -29.922356328032606], [31.01745014824558, -29.91980482408622], [31.020227174475732, -29.924395113117498], [31.010718831927072, -29.93556909276728], [31.006156477556345, -29.936176871162807], [30.99627345663541, -29.943747718585367], [30.99407381830347, -29.95189224588175], [30.98078406659406, -29.964628075201237], [30.97437258074166, -29.964569577573954], [30.97314345423632, -29.959639285195], [30.962896278349387, -29.955372472109733], [30.947146623101986, -29.955961516153234], [30.944510561177555, -29.966961716827115], [30.937356862541073, -29.969909630016417], [30.9270658241447, -29.987984190722354], [30.923422014565432, -30.00423490931231], [30.912113060432404, -30.00782056802931], [30.910931127340774, -30.011837933248298], [30.90468360146451, -30.010916968137398], [30.894372340569557, -30.015874141931445], [30.892586017710013, -30.013164122454423], [30.899969306769197, -30.00546246892977], [30.897241089553013, -30.001374786467114], [30.892976352697744, -30.002306451562546], [30.891303540844508, -30.008329760661145], [30.88829028083852, -30.009386427605044], [30.87370702553392, -30.008158669995776], [30.869317847389222, -29.98468523444796], [30.865324772622184, -29.9837263592727], [30.860592836076748, -29.988209913436833], [30.85433768388628, -29.98814132842276], [30.85138190173019, -29.978942292934406], [30.840404827894957, -29.973821489615528], [30.841606714009792, -29.969209241849445], [30.848696322505393, -29.965637358187777], [30.845248949389966, -29.960309224648565], [30.847438499172508, -29.94644948803634], [30.85562881946739, -29.940418729275], [30.85130346215664, -29.935120817071972], [30.851925209819054, -29.92580617474775], [30.84880351371504, -29.922071705141285], [30.853473609206493, -29.91481018712979], [30.851845149472872, -29.90792855728639], [30.855083434438196, -29.90358218174102], [30.85451890388586, -29.894350595443363], [30.849210903339827, -29.892891160820007], [30.843107789011583, -29.898169364779303], [30.835654986918534, -29.89661477898661], [30.831848992538276, -29.901182769009925], [30.82769512978664, -29.900931721036773], [30.823080621830584, -29.89299198252785], [30.81611403225626, -29.890310772152695], [30.813102532042105, -29.89181654101801], [30.812991682115186, -29.898468287984706], [30.794313719456895, -29.894137203083094], [30.794378146847745, -29.880704633471588], [30.77442937443919, -29.8753991989204], [30.77402049046838, -29.86795417508748], [30.7672039223312, -29.862338464754707]], [[31.0100172802906, -29.750886927202743], [31.011999670984803, -29.75932252484529], [31.027077280399418, -29.760865553442414], [31.03436677426562, -29.75210542431033], [31.03493285729547, -29.74650628613525], [31.043130640472164, -29.741054220978512], [31.042852286013787, -29.736927592011813], [31.030407525454518, -29.736058182246424], [31.02073289768695, -29.74500819855663], [31.011500514771154, -29.747183908920146], [31.0100172802906, -29.750886927202743]], [[31.02703807651273, -29.76898232358601], [31.028137401239974, -29.77184341335316], [31.032088298239554, -29.772084104752352], [31.033131367615734, -29.76595287204863], [31.028531334000093, -29.764361814597017], [31.02703807651273, -29.76898232358601]], [[31.01189728904075, -29.8436911857603], [31.01286209839732, -29.847808430720026], [31.018031156941735, -29.84574601465702], [31.01581396217578, -29.841682924407714], [31.01189728904075, -29.8436911857603]], [[30.990836310519573, -29.78622444592049], [30.999084165874535, -29.787966754221067], [31.006352118621656, -29.782985100856624], [31.003265340407587, -29.773445203554814], [31.006974019113414, -29.76732259275968], [31.005814989670466, -29.76426340822926], [30.993645372337053, -29.770924923802955], [30.990448925048085, -29.776954466322003], [30.990836310519573, -29.78622444592049]], [[30.99081561755114, -29.717659166461836], [30.98539070684119, -29.721758958893563], [30.984129978590282, -29.730932309204956], [31.00393636146708, -29.73288651208947], [31.006993525831827, -29.724795963161323], [31.00558196074172, -29.717167230308], [30.996572444086524, -29.713748818279573], [30.99081561755114, -29.717659166461836]], [[30.983322268434094, -29.807789462142694], [30.98455280564091, -29.815035464093746], [30.9888466282299, -29.817987580063026], [31.00525528014448, -29.81033231385126], [31.003432240901237, -29.80483532101032], [30.99754111353326, -29.802833743678036], [30.991535795062546, -29.80431457258183], [30.98751264346358, -29.80153109668668], [30.980796364365858, -29.8037760186163], [30.983322268434094, -29.807789462142694]], [[30.98022095657537, -29.953855855546998], [30.98744548499495, -29.95244187701851], [30.98891537743749, -29.945327816823518], [30.984361626728987, -29.9459510830807], [30.97957466348662, -29.951005838511094], [30.98022095657537, -29.953855855546998]], [[30.9523965656784, -29.943547743323556], [30.956131468952567, -29.946776487270164], [30.962043914324425, -29.94231173692766], [30.967070899402387, -29.94327763193261], [30.971156805195037, -29.939312269499325], [30.977443503976005, -29.938038342549344], [30.988006580052595, -29.925934421489995], [30.9879348653573, -29.92245527254496], [30.977748898510015, -29.921323721380574], [30.973383370052638, -29.92789717961979], [30.964097519678603, -29.92978901827015], [30.95862211049965, -29.935619533324626], [30.953337794367034, -29.93721382488057], [30.9523965656784, -29.943547743323556]], [[30.962922419341094, -29.874807242470666], [30.967241257915855, -29.877574514739354], [30.977094319337212, -29.868897943955446], [30.972617179704425, -29.864611248942797], [30.967361000856833, -29.864649867215153], [30.96194772618638, -29.869116542136783], [30.962922419341094, -29.874807242470666]], [[30.970916363069925, -29.70179526340068], [30.974229656074353, -29.705483482293854], [30.978533126874332, -29.702088587559906], [30.974798588675874, -29.698010590743667], [30.970916363069925, -29.70179526340068]], [[30.970893089226156, -29.797654634381523], [30.96798270057466, -29.79987508646016], [30.970405904662023, -29.80240902037703], [30.97356426996434, -29.800141607249344], [30.970893089226156, -29.797654634381523]], [[30.969053814436066, -29.694504898931285], [30.972441013607376, -29.697013843692204], [30.974920876207737, -29.69387943081499], [30.971013478947324, -29.69061030317846], [30.969053814436066, -29.694504898931285]], [[30.955955263152944, -29.791759874449923], [30.954677143491313, -29.795590611981343], [30.96060542280394, -29.797714026154978], [30.966648728780523, -29.795924688658044], [30.968241977103954, -29.789609239977334], [30.963141243250163, -29.786456653436325], [30.955955263152944, -29.791759874449923]], [[30.959347428149787, -29.726436119715583], [30.95848040512102, -29.731849971898942], [30.96448597089118, -29.73177096722812], [30.964963098696234, -29.727019835287894], [30.959347428149787, -29.726436119715583]], [[30.95121727355372, -29.908986569709676], [30.9536773627677, -29.912014407039], [30.960438302865665, -29.90932865549592], [30.95551881444743, -29.904748402539774], [30.95197988077556, -29.905565472228286], [30.95121727355372, -29.908986569709676]], [[30.93627085814765, -29.707188813569964], [30.948641573497607, -29.712922075054774], [30.957098917353726, -29.713894002911726], [30.96056783726557, -29.71130502283041], [30.961344691862553, -29.703422691238217], [30.957928080186168, -29.70015294330749], [30.948854245975895, -29.6999692287605], [30.937292051543473, -29.704513503624224], [30.93627085814765, -29.707188813569964]], [[30.93485070654264, -29.914764284343743], [30.951362496794754, -29.905257849894046], [30.950527639574027, -29.89726210938633], [30.943802436139585, -29.89771135321113], [30.929874118018674, -29.907650983583196], [30.929690718429136, -29.91151606326903], [30.93485070654264, -29.914764284343743]], [[30.94967227034836, -29.880084616943908], [30.950670389168778, -29.876768512078947], [30.946874296157542, -29.875920787579233], [30.945876060667192, -29.879236860350517], [30.94967227034836, -29.880084616943908]], [[30.931893617822144, -29.812813847794178], [30.93132298399807, -29.81579830254217], [30.935899992834585, -29.818305786134353], [30.94232694852624, -29.81364472367963], [30.939880657029107, -29.81070333258466], [30.931893617822144, -29.812813847794178]], [[30.902155412144033, -29.94009732027961], [30.908677508050623, -29.944796897895525], [30.916925350859245, -29.93510452226884], [30.90965955223044, -29.93252247639504], [30.902155412144033, -29.94009732027961]], [[30.856310676514486, -29.869689412478984], [30.856709816375556, -29.876083672807916], [30.864158027486727, -29.880194650393857], [30.872448317198618, -29.881625667942295], [30.87564074416705, -29.877433255681815], [30.878889656725928, -29.87730285441889], [30.886408038596365, -29.881757086185633], [30.89624214950912, -29.881147829110606], [30.899838423961643, -29.884671954265393], [30.90476583207444, -29.881556246945557], [30.902320613585275, -29.877893136680605], [30.886658649588618, -29.874064841227515], [30.882223340658314, -29.86443531956392], [30.87029780650113, -29.868184529856606], [30.87322569744613, -29.85916149245656], [30.880468149371563, -29.859731143928386], [30.882424022696597, -29.85716837238845], [30.88003719929808, -29.852764528481266], [30.87364471039664, -29.853305160337147], [30.86636213275976, -29.847234249565002], [30.861480940288125, -29.85123581895316], [30.862958798233173, -29.856530281193706], [30.855406457401802, -29.86636349532883], [30.856310676514486, -29.869689412478984]], [[30.86368248817969, -29.934439869043857], [30.869138398862365, -29.93372689342755], [30.870408306720204, -29.939032241534868], [30.87831944805033, -29.944070750378057], [30.888344469687667, -29.938706688818826], [30.8990299214016, -29.939714555897396], [30.901788596715285, -29.93744970510898], [30.893149502721606, -29.928786128672435], [30.883467209401772, -29.927135304967347], [30.87867327801673, -29.93056437925397], [30.866693394395178, -29.926989985582917], [30.86236594858805, -29.931003526674786], [30.86368248817969, -29.934439869043857]], [[30.8208030126299, -29.88192100187966], [30.823456934273466, -29.878799393750636], [30.818726293738344, -29.876813388007346], [30.816887092546875, -29.880239853290636], [30.8208030126299, -29.88192100187966]], [[30.780911528509282, -29.85572314206359], [30.784468643306212, -29.86531344960028], [30.799166065897694, -29.863295262415807], [30.810080466787017, -29.871310416560046], [30.817589797613046, -29.871347768111214], [30.82076620389059, -29.868543541622937], [30.819994820827585, -29.865791168706963], [30.814554932728075, -29.863836069444368], [30.814287280912897, -29.855611819388095], [30.81029304488552, -29.85191088247938], [30.80840363606269, -29.84445393406558], [30.798999780177382, -29.843345451573647], [30.79918923178512, -29.850860937901754], [30.791336424605625, -29.857485065657148], [30.787598761205718, -29.85733618808989], [30.78432529813835, -29.85195544053439], [30.780911528509282, -29.85572314206359]]], [[[30.911866978126405, -30.01296966640556], [30.91957947075505, -30.01328456824826], [30.922430787226304, -30.020605074443022], [30.915812044905095, -30.023756746529287], [30.91201025057966, -30.031769405162578], [30.899507540902096, -30.040570708294972], [30.8894006635899, -30.039659516702987], [30.885219527527404, -30.033103610723227], [30.877156426657088, -30.03274147188698], [30.871551361936895, -30.043840565398263], [30.864371046657485, -30.04601448392246], [30.858246023693713, -30.04060254656734], [30.834061153020436, -30.038687754928777], [30.82908660937475, -30.03333400870264], [30.829870682581817, -30.025204257652476], [30.841235367006927, -30.022976056542294], [30.851374997643934, -30.02709881175555], [30.857336796247445, -30.022474650578886], [30.866645443242987, -30.024181170294767], [30.87400680405133, -30.02111819162573], [30.879125959235473, -30.022132190559688], [30.887596544317354, -30.031088164821824], [30.89838916718085, -30.03627140608437], [30.911157747881912, -30.02449546746814], [30.911866978126405, -30.01296966640556]]]]}}, {"type": "Feature", "properties": {"threshold": 95}, "geometry": {"type": "Polygon", "coordinates": [[[30.7672039223312, -29.862338464754707], [30.76644489667154, -29.85519918208978], [30.772666718360828, -29.853546422802903], [30.775021029280264, -29.848745320038066], [30.784160259862023, -29.851595433224603], [30.793515419604617, -29.837131034786946], [30.80040392988841, -29.838024074342915], [30.80370162592298, -29.83327964292671], [30.81145122973376, -29.832476965819673], [30.817675338550686, -29.837771524499583], [30.81946481210286, -29.845835611281473], [30.826037859277452, -29.84386594004514], [30.830230592856662, -29.847518391098657], [30.833138085826246, -29.86655714623689], [30.83886724441508, -29.868690674397204], [30.84616801943965, -29.865638568886176], [30.849069057105083, -29.861995549275523], [30.845502234997404, -29.845325823992987], [30.835479640277885, -29.843111596860428], [30.826992140814852, -29.835683685464634], [30.832989462595332, -29.82819861600905], [30.8397879705405, -29.828057549147463], [30.83739289234933, -29.81988132773221], [30.850151505132732, -29.809271220395694], [30.84885380482884, -29.80360053012361], [30.841137918096663, -29.801598097712365], [30.84162250574634, -29.799778379792095], [30.85258766621272, -29.796724556540006], [30.860336108382, -29.791438754471674], [30.86072441115381, -29.778597361504044], [30.86780778888066, -29.776781211648313], [30.86684610591947, -29.76775282854982], [30.883177414459084, -29.760505246015597], [30.886755220850784, -29.76343940102409], [30.887385583343146, -29.768946309956668], [30.898109187347636, -29.774165128215905], [30.901668760604416, -29.773720860602285], [30.904574910375594, -29.76965446097471], [30.911953779942355, -29.769147898399112], [30.914781784039857, -29.775547773756188], [30.90638899835083, -29.78305528175192], [30.91817572369209, -29.78974028081707], [30.915974978258845, -29.79497730373991], [30.910845497486168, -29.796311735485443], [30.898114859538833, -29.80679137355133], [30.891742770721066, -29.805775315296696], [30.886869634599734, -29.799047354618377], [30.88091423575148, -29.798642831110193], [30.876017016071884, -29.801980252725496], [30.875546916059076, -29.807105883920077], [30.866841577729264, -29.808381096301186], [30.870867029291034, -29.81652432752294], [30.878417589251953, -29.8188420167317], [30.88307329165053, -29.816161196113956], [30.888336497469016, -29.81832065337138], [30.89071203595441, -29.83789655310962], [30.88268016199225, -29.845892810478023], [30.893462483544045, -29.852321232726954], [30.893020811454523, -29.857215231456497], [30.89996099361768, -29.866521519927872], [30.906737086310912, -29.870317723382914], [30.909945254813977, -29.869814228319377], [30.912533081805158, -29.865215730134803], [30.917611467432057, -29.86520625129519], [30.932628998606805, -29.871678074303297], [30.942131132376577, -29.872554187250632], [30.943720813796624, -29.865937990255023], [30.936115510728825, -29.861280295735543], [30.934121977027292, -29.85679152143025], [30.938084580104608, -29.84745107752328], [30.93626459653263, -29.843002103825437], [30.940735639125684, -29.83848418599378], [30.939335277544693, -29.83540660185764], [30.92551774191171, -29.832438149127466], [30.923337935148208, -29.845414391204233], [30.90844208576621, -29.84269776293719], [30.899024289830216, -29.834849042431504], [30.90051607748493, -29.829249552192202], [30.910224482819924, -29.832441212428698], [30.914999886838668, -29.82718026170159], [30.920871115565657, -29.825617811544777], [30.918765900011067, -29.821212063065094], [30.913526221831592, -29.82134600551668], [30.909545161292556, -29.81781123153737], [30.90869255208959, -29.808457915197902], [30.92408285851244, -29.795813461190868], [30.926734526940784, -29.775997710032634], [30.929824793150043, -29.77065722660652], [30.937268833500912, -29.767753967690606], [30.935212203738466, -29.761098045792878], [30.942754976202796, -29.75427257602831], [30.939555668922363, -29.750286036566607], [30.935290205658692, -29.755007292089072], [30.923861979181247, -29.752346486359215], [30.922631739542872, -29.757908073218292], [30.929665779316984, -29.761881760515788], [30.928303923963895, -29.769297086325203], [30.917906516920592, -29.76626688242662], [30.920412192735405, -29.75671494330702], [30.916888648411312, -29.752669852869964], [30.91013194228799, -29.751158820730367], [30.909109812497274, -29.745582439576104], [30.91392846897416, -29.74354037865549], [30.921977253761177, -29.74939838609276], [30.9249401001889, -29.74658380189902], [30.921473404881883, -29.730725336135762], [30.914959525590124, -29.72705402971359], [30.912493828233444, -29.713115188390816], [30.918658663192105, -29.70547968131155], [30.925381710639517, -29.709823376300523], [30.935665237209776, -29.70574205202636], [30.932799391082074, -29.699355435641767], [30.935208621992867, -29.693846543810306], [30.95562999287988, -29.692476904896775], [30.96090845348064, -29.695342566961813], [30.96579593016647, -29.692168005229966], [30.965477981390634, -29.683195775753145], [30.974442088814733, -29.685871670244925], [30.9792715115136, -29.681780493920716], [30.97447643565588, -29.678319329752377], [30.96754610840495, -29.678435789437735], [30.96470248124163, -29.68137662785494], [30.954781785937403, -29.67970614223078], [30.93736351407683, -29.673771379643696], [30.93265194104209, -29.667100584990774], [30.940379914741605, -29.65978033955399], [30.945612921884898, -29.659743290876676], [30.947808260612632, -29.664730502630785], [30.959303742962938, -29.666360287644068], [30.97868107863549, -29.675474213205426], [30.984575687362764, -29.673081347101775], [30.989864085325138, -29.677696290136666], [30.99283566363305, -29.67335245823002], [30.997989286033256, -29.6729378852129], [31.001137068346843, -29.667912584935202], [31.006627343311617, -29.66668382322496], [31.007427268102557, -29.663699962087776], [31.004713104988884, -29.660762618476348], [30.999385067914936, -29.661108100743462], [30.996270138324977, -29.654142425161243], [30.983405690805387, -29.651463732121606], [30.979592213909005, -29.646631694027196], [30.974956739687357, -29.64902807059498], [30.967925122547523, -29.648007116918667], [30.967879062423627, -29.640484792133734], [30.99253556071365, -29.639014838625492], [31.003699982977086, -29.64250937265396], [31.003005417376492, -29.64914605274332], [31.011733145248737, -29.65353563557798], [31.014080932851037, -29.651257145341035], [31.011238043879775, -29.646473841702104], [31.014297111656692, -29.640393161622654], [31.022096333911982, -29.636278917070346], [31.026940825925685, -29.636674500111752], [31.033297341169114, -29.63084977963722], [31.05561545684851, -29.636874140536474], [31.05865490402254, -29.63973262640941], [31.05831286428843, -29.64558235220934], [31.06753660904143, -29.647669661746505], [31.06717090409798, -29.65485969907561], [31.07819365913239, -29.65644131950678], [31.065777727556146, -29.67256827832982], [31.057874671217828, -29.67246583540602], [31.052337418402864, -29.67722009448458], [31.04958345153176, -29.669568396378747], [31.046193309417344, -29.668267466044906], [31.03945517902944, -29.676070400441546], [31.032129115465942, -29.678646575816526], [31.03577582530185, -29.695221539646152], [31.031056587189113, -29.707943415068435], [31.035706474743176, -29.7103439193398], [31.038724213302224, -29.705000920068787], [31.045866676645165, -29.705007141019433], [31.04821856147907, -29.710055983656], [31.060293452134026, -29.71741154547977], [31.06792102836542, -29.70618532820985], [31.07086716011039, -29.706424380479252], [31.071228233729776, -29.71140445223712], [31.074603011193965, -29.713270196264784], [31.079665102402473, -29.70719123698078], [31.08484736267851, -29.707743428850865], [31.08688511759237, -29.703418924694947], [31.0906084034931, -29.70330094580264], [31.08973313062323, -29.709867800421932], [31.093657473693494, -29.7125194328867], [31.093635068825144, -29.717534157129098], [31.089749098222654, -29.728102578054184], [31.084544195781355, -29.73488982657108], [31.07366140874013, -29.72952737081914], [31.063160617598903, -29.736680897764263], [31.068498228476912, -29.74375950120758], [31.074678000651804, -29.742200308081348], [31.076589862528973, -29.749378769827107], [31.05459326629689, -29.773972110250046], [31.05396572128318, -29.78265046451622], [31.049080064353127, -29.785259551111178], [31.046391338611343, -29.791404377016537], [31.04057170684629, -29.793278840535685], [31.04195129187914, -29.79880668683674], [31.038867770457752, -29.80634132077812], [31.02505967282025, -29.810172272208423], [31.019819661999293, -29.808792945632046], [31.013126836734223, -29.812305986330237], [31.016298547187873, -29.817003790173683], [31.024298069474014, -29.813008947945395], [31.027800105799045, -29.815569531823265], [31.029574405856827, -29.82565432488723], [31.02592422737218, -29.836049309707576], [31.029850774408256, -29.839163143929362], [31.036448357634814, -29.839549802377523], [31.04277848979058, -29.86180589398068], [31.054166131815297, -29.872284136263815], [31.047849908813294, -29.87434601765892], [31.04018692924702, -29.871784103957587], [31.035941556586874, -29.863508052443247], [31.023068784365456, -29.86060649101922], [31.013831817584368, -29.865155989067944], [31.012160475132767, -29.87100639441749], [31.001712949316573, -29.88375584173146], [30.991673008033604, -29.88457049985975], [30.977965508061022, -29.904019045670207], [30.979945215291753, -29.907927097939385], [30.991063751116155, -29.911042659266872], [30.995024664967985, -29.916934241103014], [31.007089158970377, -29.910461500794728], [31.017547274287747, -29.897927968586576], [31.03251413661347, -29.890877250317132], [31.03543615958458, -29.891212568726775], [31.03566604693616, -29.895896999680026], [31.040776281312255, -29.90237079383641], [31.03310442640049, -29.911258998963433], [31.02266065637964, -29.916839737124835], [31.01823857123386, -29.917513010426045], [31.01559230138506, -29.913659581273286], [31.01002625581189, -29.914468184594686], [31.010869748706153, -29.920440347607197], [31.017377666093466, -29.91934721018725], [31.020227174475732, -29.924395113117498], [31.010718831927072, -29.93556909276728], [31.006156477556345, -29.936176871162807], [30.99627345663541, -29.943747718585367], [30.99407381830347, -29.95189224588175], [30.98078406659406, -29.964628075201237], [30.97437258074166, -29.964569577573954], [30.97314345423632, -29.959639285195], [30.962896278349387, -29.955372472109733], [30.947146623101986, -29.955961516153234], [30.944510561177555, -29.966961716827115], [30.933934250749257, -29.976227848749538], [30.9270658241447, -29.987984190722354], [30.92365219214653, -30.003999625946438], [30.91098649783813, -30.009093408239178], [30.91194505566729, -30.012537418913578], [30.91926941215913, -30.01313396985028], [30.92239317104186, -30.01582383366015], [30.922430787226304, -30.020605074443022], [30.915812044905095, -30.023756746529287], [30.91201025057966, -30.031769405162578], [30.899734310591803, -30.041269934721683], [30.89522967365123, -30.038970030038175], [30.88944826277101, -30.039851572927333], [30.884987117796967, -30.032996803747654], [30.87710069462345, -30.033010447035984], [30.871551361936895, -30.043840565398263], [30.864371046657485, -30.04601448392246], [30.858216160451093, -30.04075261688132], [30.8378671342174, -30.03959044424799], [30.830057568948817, -30.03594508792178], [30.829323947447875, -30.025579833519483], [30.83643797763894, -30.025220282474706], [30.842212890895805, -30.019010514491367], [30.851947480876884, -30.024223740838245], [30.878886679735853, -30.02202894534031], [30.887596544317354, -30.031088164821824], [30.898647929215027, -30.03620760022261], [30.911301918187547, -30.02059173412543], [30.909760850616465, -30.013069961619827], [30.904948235662733, -30.010875521213148], [30.89273138698527, -30.015619675375778], [30.89991202670187, -30.005691108772663], [30.89672128790336, -30.00125330210148], [30.892976352697744, -30.002306451562546], [30.891303540844508, -30.008329760661145], [30.88837490341741, -30.009361597720048], [30.87384279444605, -30.0082593731451], [30.869317847389222, -29.98468523444796], [30.865324772622184, -29.9837263592727], [30.860592836076748, -29.988209913436833], [30.85433768388628, -29.98814132842276], [30.85138190173019, -29.978942292934406], [30.84045336816444, -29.97397087936108], [30.841606714009792, -29.969209241849445], [30.848793117023714, -29.96507290175593], [30.845280442085706, -29.96046203681136], [30.846021640126253, -29.954977454872758], [30.84183587689285, -29.95086581322791], [30.841997616811277, -29.944770497550316], [30.850687779678974, -29.944212696868878], [30.85562881946739, -29.940418729275], [30.85130346215664, -29.935120817071972], [30.851708025201123, -29.92540513947157], [30.84880351371504, -29.922071705141285], [30.853473609206493, -29.91481018712979], [30.851845149472872, -29.90792855728639], [30.855083434438196, -29.90358218174102], [30.854207422887246, -29.893969997024048], [30.849210903339827, -29.892891160820007], [30.845184771068944, -29.898125010621424], [30.831848992538276, -29.901182769009925], [30.827630179578758, -29.900878447924082], [30.821693886505624, -29.89231637158453], [30.81526327760216, -29.89210983070036], [30.812903214839423, -29.898478226546676], [30.794313719456895, -29.894137203083094], [30.794378146847745, -29.880704633471588], [30.787533936987952, -29.87740471084691], [30.776200150812684, -29.877813988213845], [30.773894344078816, -29.867728868360807], [30.7672039223312, -29.862338464754707]], [[31.0100172802906, -29.750886927202743], [31.012218846652516, -29.759447985419524], [31.02739873157587, -29.760492427950254], [31.029373248116716, -29.755171139474978], [31.02750576356711, -29.75123274852138], [31.04209786988021, -29.742069947535178], [31.042975092184907, -29.73801140228622], [31.03066144372136, -29.735952003466302], [31.02073289768695, -29.74500819855663], [31.011500514771154, -29.747183908920146], [31.0100172802906, -29.750886927202743]], [[31.02776171762233, -29.768021208102713], [31.028137401239974, -29.77184341335316], [31.032892683590774, -29.771434887453317], [31.032428718283338, -29.765252859462567], [31.029198493049563, -29.765149308448766], [31.02776171762233, -29.768021208102713]], [[30.998569541696536, -29.774611273000513], [30.998496131425895, -29.778575326248248], [30.991734082035357, -29.7845385137009], [30.99901592659017, -29.78765208498296], [31.006757844460722, -29.78128631044675], [31.00305975106556, -29.773595475321184], [30.998569541696536, -29.774611273000513]], [[30.99860783920426, -29.770606926539607], [31.00170744456257, -29.771478696342], [31.006129039426867, -29.768573054154928], [31.00642896596229, -29.764743197905393], [31.00185806755836, -29.76478382925304], [30.99860783920426, -29.770606926539607]], [[30.99081561755114, -29.717659166461836], [30.98539070684119, -29.721758958893563], [30.984129978590282, -29.730932309204956], [31.00393636146708, -29.73288651208947], [31.006993525831827, -29.724795963161323], [31.00558196074172, -29.717167230308], [30.99657244198045, -29.71374881833797], [30.99081561755114, -29.717659166461836]], [[30.984271264884743, -29.811269336435654], [30.984696858653088, -29.81524350018127], [30.989761798417067, -29.817703989453147], [30.99475345304508, -29.81322339372851], [31.004087448324253, -29.812029753158814], [31.005264014857374, -29.80759757194857], [30.998387252794885, -29.802964337030588], [30.99160782807382, -29.805122113439147], [30.98827828329722, -29.801745453548644], [30.983492390179112, -29.801883147956186], [30.980434836258965, -29.805119347257836], [30.984239231151996, -29.80782331201652], [30.984271264884743, -29.811269336435654]], [[30.98022095657537, -29.953855855546998], [30.98744548499495, -29.95244187701851], [30.98891537743749, -29.945327816823518], [30.984361626728987, -29.9459510830807], [30.97957466348662, -29.951005838511094], [30.98022095657537, -29.953855855546998]], [[30.9523965656784, -29.943547743323556], [30.956131468952567, -29.946776487270164], [30.961131347964045, -29.9422976178626], [30.967248196496307, -29.94269639182565], [30.977420834641347, -29.938035340179756], [30.98795981992885, -29.92300300744718], [30.979024398959925, -29.92238751756736], [30.973278550991868, -29.929531918713078], [30.96770108916159, -29.928963226305395], [30.96500176121741, -29.932584446555744], [30.953758703003253, -29.936923750907336], [30.9523965656784, -29.943547743323556]], [[30.962922419341094, -29.874807242470666], [30.967241257915855, -29.877574514739354], [30.977094319337212, -29.868897943955446], [30.972638213342417, -29.864690327009125], [30.967361000856833, -29.864649867215153], [30.96194772618638, -29.869116542136783], [30.962922419341094, -29.874807242470666]], [[30.970916363069925, -29.70179526340068], [30.974229656074353, -29.705483482293854], [30.978533126874332, -29.702088587559906], [30.974798588675874, -29.698010590743667], [30.970916363069925, -29.70179526340068]], [[30.969053814436066, -29.694504898931285], [30.972441013607376, -29.697013843692204], [30.974920876207737, -29.69387943081499], [30.971013478947324, -29.69061030317846], [30.969053814436066, -29.694504898931285]], [[30.955955263152944, -29.791759874449923], [30.954677143491313, -29.795590611981343], [30.96060542280394, -29.797714026154978], [30.966648728780523, -29.795924688658044], [30.968241977103954, -29.789609239977334], [30.963141243250163, -29.786456653436325], [30.955955263152944, -29.791759874449923]], [[30.959347428149787, -29.726436119715583], [30.95848040512102, -29.731849971898942], [30.96448597089118, -29.73177096722812], [30.964963098696234, -29.727019835287894], [30.959347428149787, -29.726436119715583]], [[30.93627085814765, -29.707188813569964], [30.948641573497607, -29.712922075054774], [30.957098917353726, -29.713894002911726], [30.96056783726557, -29.71130502283041], [30.961344691862553, -29.703422691238217], [30.957928080186168, -29.70015294330749], [30.948854245975895, -29.6999692287605], [30.937292051543473, -29.704513503624224], [30.93627085814765, -29.707188813569964]], [[30.93351680418405, -29.914133886417883], [30.938135190999752, -29.91461150273202], [30.951198013485566, -29.905436092724273], [30.950527639574027, -29.89726210938633], [30.943802436139585, -29.89771135321113], [30.929874118018674, -29.907650983583196], [30.929690718429136, -29.91151606326903], [30.93351680418405, -29.914133886417883]], [[30.94967227034836, -29.880084616943908], [30.950670389168778, -29.876768512078947], [30.946874296157542, -29.875920787579233], [30.945876060667192, -29.879236860350517], [30.94967227034836, -29.880084616943908]], [[30.934010945505182, -29.81512457806749], [30.94004566582497, -29.816052285683647], [30.942078469137712, -29.81211867177192], [30.936301156354308, -29.81080229538328], [30.934010945505182, -29.81512457806749]], [[30.90494955576415, -29.94281631637443], [30.90815337399928, -29.944904179906356], [30.913301068023756, -29.941713346863278], [30.916357656968824, -29.93428639752919], [30.911820434430055, -29.933438167665482], [30.908235510663165, -29.937300579385], [30.902816529168362, -29.937256509575594], [30.90494955576415, -29.94281631637443]], [[30.856310676514486, -29.869689412478984], [30.85661579224126, -29.87584614597997], [30.864158027486727, -29.880194650393857], [30.872448317198618, -29.881625667942295], [30.87564074416705, -29.877433255681815], [30.878889656725928, -29.87730285441889], [30.886408038596365, -29.881757086185633], [30.89624214950912, -29.881147829110606], [30.899838423961643, -29.884671954265393], [30.90476583207444, -29.881556246945557], [30.902320613585275, -29.877893136680605], [30.886729292179613, -29.874112280073895], [30.881946865859167, -29.86833373646615], [30.86938596893057, -29.868169808584916], [30.87322569744613, -29.85916149245656], [30.880468149371563, -29.859731143928386], [30.882424022696597, -29.85716837238845], [30.88003719929808, -29.852764528481266], [30.87364471039664, -29.853305160337147], [30.86636213275976, -29.847234249565002], [30.861480940288125, -29.85123581895316], [30.862958798233173, -29.856530281193706], [30.855406457401802, -29.86636349532883], [30.856310676514486, -29.869689412478984]], [[30.86368248817969, -29.934439869043857], [30.869138398862365, -29.93372689342755], [30.870408306720204, -29.939032241534868], [30.87831944805033, -29.944070750378057], [30.888344469687667, -29.938706688818826], [30.8990299214016, -29.939714555897396], [30.901788596715285, -29.93744970510898], [30.8929646273443, -29.928747979503108], [30.883467209401772, -29.927135304967347], [30.87867327801673, -29.93056437925397], [30.86660200012011, -29.92729514940186], [30.86236594858805, -29.931003526674786], [30.86368248817969, -29.934439869043857]], [[30.816852503160906, -29.878891218357627], [30.818922815255217, -29.88184647184228], [30.82354358104537, -29.87997940995001], [30.8200517844469, -29.876721697511567], [30.816852503160906, -29.878891218357627]], [[30.780911528509282, -29.85572314206359], [30.784468643306212, -29.86531344960028], [30.799166065897694, -29.863295262415807], [30.810080466787017, -29.871310416560046], [30.817589797613046, -29.871347768111214], [30.82076620389059, -29.868543541622937], [30.819545897802247, -29.865506715030648], [30.81181964134232, -29.863790737568227], [30.814334642677323, -29.85584215608575], [30.80840363606269, -29.84445393406558], [30.798999780177382, -29.843345451573647], [30.79918923178512, -29.850860937901754], [30.791336424605625, -29.857485065657148], [30.787598761205718, -29.85733618808989], [30.78432529813835, -29.85195544053439], [30.780911528509282, -29.85572314206359]]]}}]}