{"type": "Feature", "geometry": {"type": "MultiPolygon", "coordinates": [[[[-6.026473168379783, 33.973182868064434], [-6.025117484777635, 33.976347396218024], [-6.021077620113558, 33.978738348231815], [-6.014348794693401, 33.97965725000876], [-6.010587175306451, 33.978453356154745], [-6.009279530288611, 33.974875392799675], [-6.013033411738703, 33.96120428515457], [-6.016338326715715, 33.95996442401436], [-6.02077718487007, 33.961933101862456], [-6.024321632242913, 33.96551168879001], [-6.026473168379783, 33.973182868064434]]], [[[-6.0984981295193466, 33.81986154845632], [-6.09713367194512, 33.82290431877524], [-6.098465783215869, 33.830085691178745], [-6.096371595881224, 33.83920714901252], [-6.093011257222063, 33.84582234260196], [-6.085666732058608, 33.84660752286918], [-6.076167521921233, 33.850106014517635], [-6.064685480575509, 33.8504690875371], [-6.06194313100162, 33.84921365500694], [-6.059299129538263, 33.844644247224764], [-6.050615541809135, 33.84052642154956], [-6.0524092193391725, 33.82542045764484], [-6.046277570917231, 33.82030318563369], [-6.045180596478909, 33.81718370451421], [-6.048280393586269, 33.81111997123246], [-6.0560566800490525, 33.80962917264829], [-6.067096689786498, 33.796951934605495], [-6.070848927975857, 33.79548080792369], [-6.07986667442592, 33.79627020409178], [-6.084949117040979, 33.79991492996257], [-6.093842085895788, 33.80205498692516], [-6.099639104701705, 33.81292622258856], [-6.099923963984209, 33.817375400596525], [-6.0984981295193466, 33.81986154845632]]], [[[-6.169731152556851, 33.960551672776035], [-6.17539287903302, 33.96716103922635], [-6.1744127055740154, 33.97131619650807], [-6.171629453543609, 33.97317417655105], [-6.158056503903626, 33.96811944038438], [-6.155410302961256, 33.9612308154549], [-6.156740027155328, 33.95808157772344], [-6.160349481765565, 33.956952664036805], [-6.167452172028656, 33.95813367966287], [-6.169731152556851, 33.960551672776035]]], [[[-6.272196390841477, 33.71122950425772], [-6.27272727320755, 33.71712489911933], [-6.271393504909598, 33.72030829596003], [-6.268094944249829, 33.72214671528193], [-6.265002303773566, 33.7215501472751], [-6.259688823358106, 33.715344523522944], [-6.259273412452541, 33.70269954438634], [-6.26415308300784, 33.69991475719267], [-6.270137043367132, 33.70075552782967], [-6.27199965305344, 33.70353107294987], [-6.272196390841477, 33.71122950425772]]], [[[-6.351863700176014, 33.89738792181281], [-6.351455645687379, 33.902858193436124], [-6.346823181461326, 33.90835347029762], [-6.335507151072712, 33.911806770756684], [-6.3089196060060075, 33.9046785759664], [-6.303073581379281, 33.90506048974331], [-6.296162758550838, 33.89921746802327], [-6.295117416396913, 33.89643224336924], [-6.300558012460126, 33.886792439800644], [-6.308192792057175, 33.88099935014572], [-6.324652336202593, 33.87567174703082], [-6.338171646890069, 33.88203047789963], [-6.341993391030324, 33.8878960950043], [-6.351448348837341, 33.89048874109389], [-6.352911686369749, 33.89322155957053], [-6.351863700176014, 33.89738792181281]]], [[[-6.304139187545491, 34.09983539403584], [-6.307162540700102, 34.09708714237697], [-6.317344011832507, 34.097374179047854], [-6.320010028225003, 34.09879861933269], [-6.320916318874809, 34.1016822473926], [-6.318389735225443, 34.105075580136784], [-6.308738093005802, 34.10663973862017], [-6.304922665664246, 34.10469025926698], [-6.304139187545491, 34.09983539403584]]], [[[-6.388127730835899, 33.91311029937932], [-6.388213638761087, 33.921088128634246], [-6.384414402824225, 33.92638194987173], [-6.381840921182512, 33.92778538583418], [-6.375736124897129, 33.92746176675627], [-6.369673364962791, 33.91485858927328], [-6.368067463583567, 33.90806886805627], [-6.362335135954935, 33.901035787353976], [-6.362531385180583, 33.89748760918168], [-6.36700679027429, 33.89558874373073], [-6.383184406317969, 33.90005232697786], [-6.3897484658566635, 33.903933392186424], [-6.39165756423204, 33.90812082484259], [-6.388127730835899, 33.91311029937932]]], [[[-6.468177634459658, 33.93547739119309], [-6.471651874936614, 33.94393128773454], [-6.4702873401478715, 33.946287686351596], [-6.465971916775737, 33.94842137984193], [-6.456249819383072, 33.94731939145765], [-6.4493240246182495, 33.943403028871295], [-6.446515376832447, 33.93962116100291], [-6.447897437632811, 33.93574984845673], [-6.460095326114802, 33.92774481993997], [-6.466027428543013, 33.93020170333197], [-6.468177634459658, 33.93547739119309]]]]}, "properties": {}}