{"type": "Feature", "properties": {"city": "Fez", "country": "Morocco", "real_area": 128.2}, "geometry": {"type": "MultiLineString", "coordinates": [[[-5.03497202677633, 33.954301119154], [-5.03565447982661, 33.9493051552532], [-5.0310117418127, 33.9463446900812], [-5.02568661352223, 33.9483798687321], [-5.02500360932284, 33.9533755530433], [-5.01967814732491, 33.9554102721901], [-5.01899474644449, 33.9604058169693], [-5.02363735866789, 33.9633669222721], [-5.02295411218408, 33.9683626070337], [-5.02759749309784, 33.971323811886], [-5.03292418343191, 33.969289011953], [-5.0336068785931, 33.964293047582], [-5.03893323491124, 33.9622577879121], [-5.03961553331998, 33.9572616839338], [-5.03497202677633, 33.954301119154]], [[-4.99906070676195, 33.9585509647688], [-4.99974520943972, 33.9535559796706], [-4.99510502903862, 33.9505945341986], [-4.99578968567409, 33.9455996893792], [-4.99115027337214, 33.9426383442666], [-4.98582626813568, 33.9446715239643], [-4.98514106102546, 33.9496660887123], [-4.98978040958076, 33.9526277538446], [-4.98909535625729, 33.9576224589216], [-4.98377040385592, 33.9596552187355], [-4.98308495376827, 33.9646497838544], [-4.98772500668412, 33.9676118692613], [-4.98703971040606, 33.9726065743679], [-4.99168053176885, 33.9755687598591], [-4.99700671319403, 33.973535920318], [-5.00164836685035, 33.9764978857906], [-5.00697482951829, 33.9744645461725], [-5.00765902398987, 33.9694692811045], [-5.00301730682687, 33.9665076355644], [-5.00370165545005, 33.9615125103833], [-4.99906070676195, 33.9585509647688]], [[-6.58432109268995, 34.2509020234075], [-6.57954198513617, 34.2479741435757], [-6.57416609870722, 34.2500839991938], [-6.57356871491513, 34.2551217957847], [-6.57834779631804, 34.2580499968885], [-6.5777505943703, 34.2630879214234], [-6.58253046275317, 34.2660161892601], [-6.58790755918116, 34.2639062113085], [-6.59268824068685, 34.2668342244407], [-6.59806557100605, 34.2647237317156], [-6.59866161482431, 34.2596852871908], [-6.60403857385121, 34.2575743410781], [-6.60463422073548, 34.2525357645286], [-6.59985348776526, 34.2496083939332], [-6.59447713352485, 34.2517192786121], [-6.58969721318371, 34.2487916532958], [-6.58432109268995, 34.2509020234075]], [[-4.94580760346817, 33.9788691623017], [-4.95113298925353, 33.9768387826627], [-4.95182033389535, 33.9718450589295], [-4.94718284294255, 33.9688819954165], [-4.94185807211931, 33.9709123358484], [-4.94117017733255, 33.9759057789899], [-4.94580760346817, 33.9788691623017]], [[-4.87913510843814, 34.0231763117484], [-4.87380825348781, 34.0252019636086], [-4.87311608077817, 34.0301937115472], [-4.87775131279125, 34.033160089025], [-4.88307878405739, 34.0311343991652], [-4.88377040694861, 34.0261423698376], [-4.8890975470265, 34.0241162180816], [-4.88978877238579, 34.0191240463629], [-4.88515340753028, 34.0161583077093], [-4.87982688361453, 34.0181844213492], [-4.87913510843814, 34.0231763117484]], [[-7.5903265983313, 33.5933118275316], [-7.59567563580305, 33.5911368934787], [-7.5962093773415, 33.5860763293854], [-7.59139466501546, 33.5831909462331], [-7.5860462123849, 33.5853658021043], [-7.58551188727921, 33.5904261192953], [-7.5903265983313, 33.5933118275316]], [[-6.85378132204558, 34.0050869739847], [-6.85914576947844, 34.0029577771104], [-6.85972486713255, 33.997913567612], [-6.85494009656358, 33.9949988115923], [-6.84957624760522, 33.9971279423605], [-6.84899657078358, 34.0021718952412], [-6.85378132204558, 34.0050869739847]], [[-5.56311169515358, 33.8602619165834], [-5.56844240135841, 33.8581969657801], [-5.5731216860575, 33.8611419829085], [-5.57247021454759, 33.8661522723944], [-5.57715027075326, 33.8690973815302], [-5.58248184832649, 33.8670318795892], [-5.58716272595222, 33.8699767589628], [-5.59249456631796, 33.8679107543234], [-5.59314492087973, 33.8628999191174], [-5.58846399367658, 33.8599553613371], [-5.58313276144459, 33.8620213171811], [-5.5784526554258, 33.8590765296248], [-5.57910373193156, 33.8540661078591], [-5.57442439733396, 33.8511214123401], [-5.56909403608456, 33.8531868169887], [-5.56441552270627, 33.8502418920876], [-5.55908542469132, 33.8523067943939], [-5.55843323190932, 33.8573166700869], [-5.56311169515358, 33.8602619165834]], [[-5.08926110078974, 34.0377652727971], [-5.09459354608121, 34.0357286444688], [-5.09527334210741, 34.0307307308131], [-5.09062124608701, 34.0277697243168], [-5.08528941554174, 34.0298063116565], [-5.08460906631635, 34.0348039464703], [-5.08926110078974, 34.0377652727971]], [[-5.54123977911135, 33.9115414373539], [-5.54657342722593, 33.9094786624861], [-5.54722671197777, 33.9044688978984], [-5.5525600151817, 33.9024056680836], [-5.5532129044648, 33.8973957699813], [-5.55854586268617, 33.8953320853933], [-5.56322654049953, 33.8982782507029], [-5.56855976242903, 33.8962140631837], [-5.56921169773803, 33.8912037586981], [-5.57454457438411, 33.8891391166377], [-5.57519611438835, 33.8841286791452], [-5.57051533636819, 33.8811831567161], [-5.57116703971651, 33.8761728593768], [-5.56648703347418, 33.8732274287052], [-5.56115537395257, 33.8752919738924], [-5.56050311219871, 33.8803019981652], [-5.56518306832741, 33.8832477503288], [-5.56453096974607, 33.8882579148069], [-5.5591983565791, 33.8903220539942], [-5.55451845071436, 33.8873759803825], [-5.54918610132641, 33.8894396167768], [-5.54450701772386, 33.8864933136488], [-5.53917493241467, 33.8885564473303], [-5.53852132184849, 33.893565932184], [-5.53318889194287, 33.8956286111503], [-5.5285106816229, 33.892681757334], [-5.52317851632461, 33.8947439336098], [-5.52252395225917, 33.8997530114919], [-5.52720211154309, 33.9027001866404], [-5.52654771009144, 33.9077094043947], [-5.53122664129257, 33.9106566715617], [-5.53656002494098, 33.9085943996607], [-5.54123977911135, 33.9115414373539]], [[-4.98203213629376, 33.8987941001973], [-4.98735302097848, 33.896760162091], [-4.98803765354212, 33.8917657442188], [-4.98340195108366, 33.8888055446238], [-4.97808167985832, 33.8908394426538], [-4.97739649767768, 33.8958335803446], [-4.98203213629376, 33.8987941001973]], [[-5.54113529909503, 33.8735280067845], [-5.54646643107503, 33.8714644667109], [-5.55114479360057, 33.8744103562669], [-5.55647618950117, 33.8723463136766], [-5.55712861432784, 33.8673364298068], [-5.5524502013678, 33.8643908617587], [-5.54711941397104, 33.8664548560838], [-5.5424418228362, 33.8635090588856], [-5.53711129943069, 33.865572550832], [-5.53645775863014, 33.8705818880925], [-5.54113529909503, 33.8735280067845]], [[-4.98187304837177, 33.9367155351559], [-4.98719643947779, 33.9346823953855], [-4.98788140373798, 33.9296878317109], [-4.983243527071, 33.9267266879677], [-4.97792075000443, 33.9287597878319], [-4.97723523561111, 33.9337540713349], [-4.98187304837177, 33.9367155351559]], [[-4.95955331799509, 34.0256812869518], [-4.9648821129134, 34.0236511721555], [-4.96952415156134, 34.0266151557517], [-4.96883733084587, 34.0316095737114], [-4.97348013890508, 34.0345736565951], [-4.97279347201607, 34.039568213031], [-4.97743704967505, 34.0425323949849], [-4.97675053670959, 34.047527089701], [-4.97141989452274, 34.0495573222147], [-4.9667763811949, 34.0465928207413], [-4.96144602167184, 34.0486225523971], [-4.95680334258713, 34.0456578304627], [-4.95147326602096, 34.0476870613462], [-4.94683142130289, 34.0447221191567], [-4.94150162798656, 34.0467508493537], [-4.94081306330689, 34.0517445605979], [-4.945454843077, 34.0547098222251], [-4.94476643182921, 34.0597036715594], [-4.93943568958409, 34.0617319786379], [-4.93874688051242, 34.0667256852775], [-4.94338936499262, 34.0696913654377], [-4.94872072361107, 34.067663019586], [-4.95336404303129, 34.0706284793382], [-4.95869568500471, 34.0685996324721], [-4.96333983924151, 34.0715648716102], [-4.96265228684247, 34.0765592769544], [-4.96729721129628, 34.0795246146405], [-4.97262975267099, 34.0774952276039], [-4.97331675320639, 34.0725005419621], [-4.97864896100997, 34.07047069281], [-4.9832947845087, 34.0734354901019], [-4.98862727478709, 34.0714051396783], [-4.99327393273079, 34.0743697157382], [-4.99860670519032, 34.0723388639574], [-5.0032541974547, 34.0753032185791], [-5.00858725180152, 34.0732718653557], [-5.01323557826204, 34.0762359983332], [-5.01856891420217, 34.0742041435818], [-5.01925330770395, 34.0692081956021], [-5.0245863090749, 34.0671758791138], [-5.02923553276649, 34.0701394707394], [-5.03456881520605, 34.0681066526903], [-5.03525225819473, 34.0631102830193], [-5.04058520575897, 34.0610770034552], [-5.04523532593827, 34.0640400534419], [-5.05056855404631, 34.0620062722846], [-5.05125104643455, 34.0570094813987], [-5.05658393936128, 34.0549752389486], [-5.05726603410126, 34.0499783064978], [-5.06259859177122, 34.0479436029242], [-5.06724966993105, 34.0509057913103], [-5.07258250738951, 34.0488705861645], [-5.07326365152175, 34.0438732332614], [-5.06861251127753, 34.0409113645965], [-5.06929381095134, 34.0359141496633], [-5.06464344119774, 34.0329523784013], [-5.06532489631551, 34.0279553016344], [-5.06067529686421, 34.0249936279931], [-5.06135690732841, 34.019996689589], [-5.06668756459928, 34.0179611456807], [-5.0673687777935, 34.0129640666501], [-5.07269909989133, 34.0109280623596], [-5.07337991589235, 34.0059308429183], [-5.06873096235726, 34.0029699068722], [-5.06941193375501, 33.9979728262812], [-5.06476374998425, 33.9950119883498], [-5.06544487668125, 33.9900150468053], [-5.06079746248685, 33.9870543072064], [-5.05546898373432, 33.9890901892029], [-5.05082240119355, 33.9861292281651], [-5.04549420215387, 33.9881646095232], [-5.04084845139189, 33.9852034272519], [-5.03552053235873, 33.9872383080561], [-5.03087561350052, 33.9842769047566], [-5.03155855089973, 33.9792809406184], [-5.02691440110773, 33.9763196364338], [-5.02158737683309, 33.9783539764604], [-5.01694405896196, 33.9753924516412], [-5.01161731534413, 33.9774262914211], [-5.01093327512119, 33.9824216961803], [-5.00560619786796, 33.9844550758314], [-5.00096377546869, 33.9814930106796], [-4.99563697939504, 33.983525890116], [-4.99099538939728, 33.9805636047575], [-4.98566887479615, 33.9825959840642], [-4.98102811732382, 33.9796334787043], [-4.97570188448791, 33.9816653579664], [-4.97106195966471, 33.9787026328105], [-4.96573600888661, 33.980734012113], [-4.96504936804916, 33.9857281560644], [-4.95972308463028, 33.9877590748585], [-4.95903604672385, 33.9927530779897], [-4.95370943074002, 33.9947835361063], [-4.95302199568845, 33.9997773982019], [-4.94769504721553, 34.0018073954723], [-4.94700721494264, 34.0068011163167], [-4.94167993405658, 34.0088306525722], [-4.94099170448623, 34.0138242319502], [-4.94563130641782, 34.016788555664], [-4.95095920284821, 34.014758980371], [-4.95559963858819, 34.0177230843764], [-4.95491211314086, 34.0227170832535], [-4.95955331799509, 34.0256812869518]], [[-5.05274178429304, 34.0090768361948], [-5.05342370515749, 34.004080175105], [-5.05875313313147, 34.0020447125147], [-5.06340125479844, 34.0050058703766], [-5.06271988628138, 34.0100028107026], [-5.05738984370428, 34.0120383139411], [-5.05274178429304, 34.0090768361948]]]}}