{"type": "FeatureCollection", "features": [{"type": "Feature", "properties": {"threshold": 70}, "geometry": {"type": "MultiPolygon", "coordinates": [[[[-106.22361378358062, 23.190814245377457], [-106.21989143436244, 23.194227336848126], [-106.21208314716975, 23.194968695042803], [-106.20913684769927, 23.191246312021406], [-106.21097083944447, 23.181029296742942], [-106.21795519572417, 23.18071782712404], [-106.22349153909992, 23.184829273411374], [-106.22361378358062, 23.190814245377457]]], [[[-106.40449426582073, 23.243001320093462], [-106.39828334724017, 23.249613039007368], [-106.39205986279308, 23.249528726315276], [-106.38830360107603, 23.245869759981247], [-106.38978535703914, 23.23620403563345], [-106.38589110867547, 23.232334344621368], [-106.38041384119984, 23.231740367483194], [-106.3796261967022, 23.221259503682642], [-106.38490142380844, 23.221040012544535], [-106.39217009753183, 23.22595765802192], [-106.39572745282948, 23.23217764621573], [-106.40367709036838, 23.237998129178546], [-106.40449426582073, 23.243001320093462]]], [[[-106.42222645972085, 23.19310472775457], [-106.41400665752684, 23.206793393163363], [-106.41576774098004, 23.219039445580574], [-106.41373859837766, 23.221336923911938], [-106.41084488815433, 23.221310293531758], [-106.40788054029447, 23.216085608267175], [-106.40197981359952, 23.2192152877012], [-106.39167815418841, 23.218217248466463], [-106.39360210774967, 23.211379136922503], [-106.40655202231557, 23.210424671115334], [-106.4194267124011, 23.186269602222893], [-106.42230197224772, 23.187477271586946], [-106.42222645972085, 23.19310472775457]]], [[[-106.44166813718448, 23.24921549840995], [-106.43874889273782, 23.25174232565709], [-106.42385339953762, 23.251645225757176], [-106.42578506326579, 23.264768710379865], [-106.42250187497221, 23.266856721240053], [-106.42228044614289, 23.270708784913772], [-106.41498976787928, 23.27834903732473], [-106.40876686522854, 23.276570968745354], [-106.40767918748982, 23.272712552766798], [-106.41095465083706, 23.26827420866851], [-106.41021938935253, 23.262121111350982], [-106.41432213673745, 23.25861651563711], [-106.41449016486465, 23.252394463683512], [-106.42327008261991, 23.248482113681913], [-106.41860636327155, 23.24079030826956], [-106.42054335593845, 23.230459855744957], [-106.42902839099308, 23.227011217678157], [-106.43210688446906, 23.231326170200564], [-106.43908008721789, 23.233549609587588], [-106.44166813718448, 23.24921549840995]]], [[[-106.43638481139482, 23.282131278749613], [-106.43684688996693, 23.286932745446425], [-106.42613964841647, 23.28750408194363], [-106.42816668188168, 23.281596299788333], [-106.43638481139482, 23.282131278749613]]], [[[-106.45697035738662, 23.269604877455933], [-106.45691832210058, 23.273726964415413], [-106.45339992011554, 23.274017156645947], [-106.44928263675364, 23.26744920585723], [-106.45555024419332, 23.266057420196958], [-106.45697035738662, 23.269604877455933]]]]}}, {"type": "Feature", "properties": {"threshold": 80}, "geometry": {"type": "MultiPolygon", "coordinates": [[[[-106.21060334121707, 23.2472587648986], [-106.20143424165914, 23.248837790261135], [-106.20102672974353, 23.24295116905251], [-106.21084451398798, 23.240143474183448], [-106.21060334121707, 23.2472587648986]]], [[[-106.22361378358062, 23.190814245377457], [-106.21801035982185, 23.1958903509504], [-106.20860800113145, 23.194193926588856], [-106.21097083944447, 23.181029296742942], [-106.22086169753234, 23.181643697958815], [-106.22376636442831, 23.18441114249107], [-106.22361378358062, 23.190814245377457]]], [[[-106.40449426582073, 23.243001320093462], [-106.39828334724017, 23.249613039007368], [-106.39205986279308, 23.249528726315276], [-106.38830360107603, 23.245869759981247], [-106.38978535703914, 23.23620403563345], [-106.38589110867547, 23.232334344621368], [-106.38041384119984, 23.231740367483194], [-106.3796261967022, 23.221259503682642], [-106.38490142380844, 23.221040012544535], [-106.39217009753183, 23.22595765802192], [-106.39572745282948, 23.23217764621573], [-106.40367709036838, 23.237998129178546], [-106.40449426582073, 23.243001320093462]]], [[[-106.38061933051783, 23.216240820511942], [-106.37276735471926, 23.216136500656052], [-106.37335196503086, 23.2118179069794], [-106.38061722094994, 23.21153396492114], [-106.38061933051783, 23.216240820511942]]], [[[-106.42222645972085, 23.19310472775457], [-106.41400665752684, 23.206793393163363], [-106.41576774098004, 23.219039445580574], [-106.41373859837766, 23.221336923911938], [-106.40679570839649, 23.21707486943212], [-106.38995230222685, 23.21903397438088], [-106.38921123770216, 23.213061195240012], [-106.4058207703218, 23.20994410314775], [-106.41754445106032, 23.1863603613736], [-106.42222069527497, 23.18733994627545], [-106.42222645972085, 23.19310472775457]]], [[[-106.44166813718448, 23.24921549840995], [-106.43874889273782, 23.25174232565709], [-106.42385339953762, 23.251645225757176], [-106.42578506326579, 23.264768710379865], [-106.42250187497221, 23.266856721240053], [-106.42229746391688, 23.272311521515903], [-106.41491018506773, 23.2783761556618], [-106.40876686522854, 23.276570968745354], [-106.40767918748982, 23.272712552766798], [-106.41095465083706, 23.26827420866851], [-106.41021938935253, 23.262121111350982], [-106.41432213673745, 23.25861651563711], [-106.41449016486465, 23.252394463683512], [-106.42327008261991, 23.248482113681913], [-106.41860636327155, 23.24079030826956], [-106.42054335593845, 23.230459855744957], [-106.42902839099308, 23.227011217678157], [-106.43482953243107, 23.233086186371956], [-106.43908008721789, 23.233549609587588], [-106.44166813718448, 23.24921549840995]]], [[[-106.43638481139482, 23.282131278749613], [-106.4371982122928, 23.286601706137805], [-106.43253511525619, 23.289376506793523], [-106.42613964841647, 23.28750408194363], [-106.42816668188168, 23.281596299788333], [-106.43638481139482, 23.282131278749613]]], [[[-106.45693590255874, 23.267213712286647], [-106.45679972328983, 23.273838756536136], [-106.45036033691757, 23.272184836258283], [-106.449557221687, 23.26706119448173], [-106.45693590255874, 23.267213712286647]]]]}}, {"type": "Feature", "properties": {"threshold": 90}, "geometry": {"type": "MultiPolygon", "coordinates": [[[[-106.21287498069391, 23.244550578180007], [-106.20737664675288, 23.24882573031883], [-106.19671726800313, 23.250078105664816], [-106.20145491499741, 23.24258654352399], [-106.21147231108343, 23.240059682190946], [-106.21287498069391, 23.244550578180007]]], [[[-106.22380488775848, 23.18454841284156], [-106.22466069229435, 23.190552102512513], [-106.21832068082406, 23.195768705065404], [-106.20843619723308, 23.194021598089574], [-106.20910225423825, 23.183722970639117], [-106.21374346088952, 23.179247556527653], [-106.21723078193958, 23.17918034031755], [-106.22380488775848, 23.18454841284156]]], [[[-106.25114556150905, 23.141241251520807], [-106.24873842943185, 23.143552335248803], [-106.24122903902766, 23.143532699529317], [-106.24167956419909, 23.136837900861877], [-106.25064445898028, 23.13643919199647], [-106.25114556150905, 23.141241251520807]]], [[[-106.34368584931035, 23.19808857039252], [-106.33424363248344, 23.19787689691214], [-106.33513959737915, 23.18873064784263], [-106.34069886616686, 23.189595553428823], [-106.34436816906884, 23.193846401769303], [-106.34368584931035, 23.19808857039252]]], [[[-106.40449426582073, 23.243001320093462], [-106.39828334724017, 23.249613039007368], [-106.39205986279308, 23.249528726315276], [-106.38830360107603, 23.245869759981247], [-106.38978535703914, 23.23620403563345], [-106.38589110867547, 23.232334344621368], [-106.38041384119984, 23.231740367483194], [-106.3796261967022, 23.221259503682642], [-106.38490142380844, 23.221040012544535], [-106.39217009753183, 23.22595765802192], [-106.39572745282948, 23.23217764621573], [-106.40367709036838, 23.237998129178546], [-106.40449426582073, 23.243001320093462]]], [[[-106.38061933051783, 23.216240820511942], [-106.37276735471926, 23.216136500656052], [-106.37335196503086, 23.2118179069794], [-106.38148425464378, 23.211526350347906], [-106.38061933051783, 23.216240820511942]]], [[[-106.42222645972085, 23.19310472775457], [-106.41400665752684, 23.206793393163363], [-106.41576774098004, 23.219039445580574], [-106.41373859837766, 23.221336923911938], [-106.40679570839649, 23.21707486943212], [-106.38995230222685, 23.21903397438088], [-106.38921123770216, 23.213061195240012], [-106.40656719384108, 23.208676034617522], [-106.41754445106032, 23.1863603613736], [-106.42222069527497, 23.18733994627545], [-106.42222645972085, 23.19310472775457]]], [[[-106.44166813718448, 23.24921549840995], [-106.43874889273782, 23.25174232565709], [-106.42385339953762, 23.251645225757176], [-106.42578506326579, 23.264768710379865], [-106.42250187497221, 23.266856721240053], [-106.42229746391688, 23.272311521515903], [-106.41491018506773, 23.2783761556618], [-106.40876686522854, 23.276570968745354], [-106.40767918748982, 23.272712552766798], [-106.41095465083706, 23.26827420866851], [-106.41021938935253, 23.262121111350982], [-106.41432213673745, 23.25861651563711], [-106.41449016486465, 23.252394463683512], [-106.42327008261991, 23.248482113681913], [-106.41860636327155, 23.24079030826956], [-106.42054335593845, 23.230459855744957], [-106.42902839099308, 23.227011217678157], [-106.43482953243107, 23.233086186371956], [-106.43908008721789, 23.233549609587588], [-106.44166813718448, 23.24921549840995]]], [[[-106.43638481139482, 23.282131278749613], [-106.4371982122928, 23.286601706137805], [-106.43253511525619, 23.289376506793523], [-106.42613964841647, 23.28750408194363], [-106.42816668188168, 23.281596299788333], [-106.43638481139482, 23.282131278749613]]], [[[-106.45693590255874, 23.267213712286647], [-106.45679972328983, 23.273838756536136], [-106.45036033691757, 23.272184836258283], [-106.449557221687, 23.26706119448173], [-106.45693590255874, 23.267213712286647]]]]}}, {"type": "Feature", "properties": {"threshold": 95}, "geometry": {"type": "MultiPolygon", "coordinates": [[[[-106.21287498069391, 23.244550578180007], [-106.2117751930652, 23.24715535969498], [-106.20037987103301, 23.251310252008423], [-106.19582069292231, 23.250011145424256], [-106.2015345257066, 23.242559532346647], [-106.21147231108343, 23.240059682190946], [-106.21287498069391, 23.244550578180007]]], [[[-106.22380488775848, 23.18454841284156], [-106.22466069229435, 23.190552102512513], [-106.21832068082406, 23.195768705065404], [-106.20843619723308, 23.194021598089574], [-106.20910225423825, 23.183722970639117], [-106.21374346088952, 23.179247556527653], [-106.21723078193958, 23.17918034031755], [-106.22380488775848, 23.18454841284156]]], [[[-106.25178198233974, 23.13822316520645], [-106.24897628984411, 23.1434714980837], [-106.24087152941597, 23.143207669932547], [-106.24201625411355, 23.134904405502912], [-106.25056011472708, 23.13560485592867], [-106.25178198233974, 23.13822316520645]]], [[[-106.34389542668528, 23.19803401690647], [-106.33759499380764, 23.199746246220933], [-106.33337666980222, 23.19788424689007], [-106.33513959737915, 23.18873064784263], [-106.34069886616686, 23.189595553428823], [-106.34436816906884, 23.193846401769303], [-106.34389542668528, 23.19803401690647]]], [[[-106.40449426582073, 23.243001320093462], [-106.39828334724017, 23.249613039007368], [-106.39205986279308, 23.249528726315276], [-106.38830360107603, 23.245869759981247], [-106.38978535703914, 23.23620403563345], [-106.38589110867547, 23.232334344621368], [-106.38041384119984, 23.231740367483194], [-106.3796261967022, 23.221259503682642], [-106.38490142380844, 23.221040012544535], [-106.39217009753183, 23.22595765802192], [-106.39572745282948, 23.23217764621573], [-106.40367709036838, 23.237998129178546], [-106.40449426582073, 23.243001320093462]]], [[[-106.38061933051783, 23.216240820511942], [-106.37276735471926, 23.216136500656052], [-106.37335196503086, 23.2118179069794], [-106.38148425464378, 23.211526350347906], [-106.38061933051783, 23.216240820511942]]], [[[-106.42222645972085, 23.19310472775457], [-106.41400665752684, 23.206793393163363], [-106.41576774098004, 23.219039445580574], [-106.41373859837766, 23.221336923911938], [-106.40679570839649, 23.21707486943212], [-106.38995230222685, 23.21903397438088], [-106.38921123770216, 23.213061195240012], [-106.40656719384108, 23.208676034617522], [-106.41754445106032, 23.1863603613736], [-106.42222069527497, 23.18733994627545], [-106.42222645972085, 23.19310472775457]]], [[[-106.44166813718448, 23.24921549840995], [-106.43874889273782, 23.25174232565709], [-106.42385339953762, 23.251645225757176], [-106.42578506326579, 23.264768710379865], [-106.42250187497221, 23.266856721240053], [-106.42229746391688, 23.272311521515903], [-106.41491018506773, 23.2783761556618], [-106.40876686522854, 23.276570968745354], [-106.40767918748982, 23.272712552766798], [-106.41095465083706, 23.26827420866851], [-106.41021938935253, 23.262121111350982], [-106.41432213673745, 23.25861651563711], [-106.41449016486465, 23.252394463683512], [-106.42327008261991, 23.248482113681913], [-106.41860636327155, 23.24079030826956], [-106.42054335593845, 23.230459855744957], [-106.42902839099308, 23.227011217678157], [-106.43482953243107, 23.233086186371956], [-106.43908008721789, 23.233549609587588], [-106.44166813718448, 23.24921549840995]]], [[[-106.43638481139482, 23.282131278749613], [-106.4371982122928, 23.286601706137805], [-106.43253511525619, 23.289376506793523], [-106.42613964841647, 23.28750408194363], [-106.42816668188168, 23.281596299788333], [-106.43638481139482, 23.282131278749613]]], [[[-106.45693590255874, 23.267213712286647], [-106.45679972328983, 23.273838756536136], [-106.45036033691757, 23.272184836258283], [-106.449557221687, 23.26706119448173], [-106.45693590255874, 23.267213712286647]]]]}}]}