{"type": "FeatureCollection", "features": [{"type": "Feature", "properties": {"threshold": 70}, "geometry": {"type": "MultiPolygon", "coordinates": [[[[73.44370204410907, 34.34228883274495], [73.45829536304045, 34.350466201793886], [73.45258880649962, 34.359709262996915], [73.45936976433727, 34.36667783215233], [73.45677881263754, 34.37938726369346], [73.45961199564165, 34.38523934014044], [73.46591921171265, 34.3870887256827], [73.4696820621356, 34.38356876477885], [73.48007003280071, 34.38182539915554], [73.48519849809571, 34.36842020093547], [73.48181922730932, 34.36159543244564], [73.48203198345254, 34.35225288179614], [73.4979386373837, 34.345858812266805], [73.49818232711732, 34.34324970469336], [73.48903454308424, 34.342894550406825], [73.48359727493646, 34.34845100411193], [73.47942347675303, 34.348357857584155], [73.47426648062934, 34.336385333230446], [73.47763854729968, 34.33229751966075], [73.47676699429587, 34.3273232315734], [73.46953117915233, 34.32525635636808], [73.46337723482354, 34.33440475540504], [73.45770227102138, 34.33265609035145], [73.44427986071777, 34.33492415380045], [73.44370204410907, 34.34228883274495]]], [[[73.39435716210491, 33.921211155619815], [73.4002937694832, 33.92270926200821], [73.40165882078044, 33.91793485196658], [73.39593203982876, 33.9167967605115], [73.39435716210491, 33.921211155619815]]], [[[73.23677510744184, 34.15961698158894], [73.24041384598956, 34.16330250799891], [73.23820603852506, 34.17078710790552], [73.24141017086939, 34.17346265075168], [73.24574742583069, 34.17271352045429], [73.24628568448495, 34.166486507667436], [73.24157972437804, 34.16322115685769], [73.24469895486693, 34.15852248521841], [73.24260988024419, 34.152509902426914], [73.23679730601563, 34.15338883014258], [73.23677510744184, 34.15961698158894]]], [[[73.2316940800239, 34.22667666665601], [73.23374458287522, 34.23220198667177], [73.24492918318757, 34.23195561006257], [73.24418928376477, 34.223821430581374], [73.24012137294935, 34.22109169668807], [73.23285561229874, 34.22034585621251], [73.2316940800239, 34.22667666665601]]], [[[73.22676649803748, 34.20400597300488], [73.23108109552683, 34.20655412031735], [73.2392385855303, 34.20283015823375], [73.2325141953526, 34.197615084410536], [73.22746016356666, 34.197456963093856], [73.22676649803748, 34.20400597300488]]], [[[73.22788559873345, 34.181517208834265], [73.22798450389284, 34.18661330568238], [73.23467219348471, 34.18832358597334], [73.23496114522858, 34.18047606700714], [73.23047480601387, 34.179396123322974], [73.22788559873345, 34.181517208834265]]], [[[73.22107489503081, 34.17222199894405], [73.22746210739233, 34.17474666432582], [73.2298824833363, 34.16927017149505], [73.22238615420147, 34.1672451716232], [73.22107489503081, 34.17222199894405]]], [[[73.20788035229025, 34.139712598003086], [73.20693815337988, 34.14460421190717], [73.21326446501992, 34.15243379482644], [73.220576545688, 34.159481471115015], [73.22528452285127, 34.159505686038145], [73.22749031828744, 34.15338478079169], [73.22082275732953, 34.15030532330946], [73.2176274771411, 34.140975782717895], [73.21344048418966, 34.13837916005492], [73.20788035229025, 34.139712598003086]]], [[[73.16957659310917, 34.36745289943573], [73.1696249434679, 34.37078188117866], [73.17543665224507, 34.37151920991524], [73.17455493825958, 34.36440946081777], [73.16957659310917, 34.36745289943573]]], [[[73.14949127390477, 34.04901747861538], [73.1560418455162, 34.05221448271136], [73.1625721698933, 34.05096659202929], [73.16060809056503, 34.046484667689214], [73.15385390630628, 34.04391315560647], [73.1492612699899, 34.045673481956], [73.14949127390477, 34.04901747861538]]], [[[73.11342570805517, 34.02866870183727], [73.11824942518392, 34.03501809006675], [73.12850955284789, 34.03325853091095], [73.12817241451718, 34.03080538713502], [73.12120518050874, 34.02911181346009], [73.11989492783417, 34.02530109706687], [73.11550419635309, 34.025328230731525], [73.11342570805517, 34.02866870183727]]], [[[73.13303266180652, 34.03496555131722], [73.13378577334288, 34.04463549352957], [73.13856617076411, 34.04586980884051], [73.13836972174497, 34.03192254331069], [73.13530912764985, 34.0316686571446], [73.13303266180652, 34.03496555131722]]]]}}, {"type": "Feature", "properties": {"threshold": 80}, "geometry": {"type": "MultiPolygon", "coordinates": [[[[73.44370204410907, 34.34228883274495], [73.45829536304045, 34.350466201793886], [73.45258880649962, 34.359709262996915], [73.45936976433727, 34.36667783215233], [73.45677881263754, 34.37938726369346], [73.45961199564165, 34.38523934014044], [73.46591921171265, 34.3870887256827], [73.4696820621356, 34.38356876477885], [73.48007003280071, 34.38182539915554], [73.48519849809571, 34.36842020093547], [73.48181922730932, 34.36159543244564], [73.48203198345254, 34.35225288179614], [73.4979386373837, 34.345858812266805], [73.49818232711732, 34.34324970469336], [73.48903454308424, 34.342894550406825], [73.48359727493646, 34.34845100411193], [73.47942347675303, 34.348357857584155], [73.47426648062934, 34.336385333230446], [73.47763854729968, 34.33229751966075], [73.47676699429587, 34.3273232315734], [73.46953117915233, 34.32525635636808], [73.46337723482354, 34.33440475540504], [73.45770227102138, 34.33265609035145], [73.44427986071777, 34.33492415380045], [73.44370204410907, 34.34228883274495]]], [[[73.39435716210491, 33.921211155619815], [73.4002937694832, 33.92270926200821], [73.40165882078044, 33.91793485196658], [73.39593203982876, 33.9167967605115], [73.39435716210491, 33.921211155619815]]], [[[73.23677510744184, 34.15961698158894], [73.24041384598956, 34.16330250799891], [73.23820603852506, 34.17078710790552], [73.24141017086939, 34.17346265075168], [73.24574742583069, 34.17271352045429], [73.24628568448495, 34.166486507667436], [73.24157972437804, 34.16322115685769], [73.24469895486693, 34.15852248521841], [73.24260988024419, 34.152509902426914], [73.23679730601563, 34.15338883014258], [73.23677510744184, 34.15961698158894]]], [[[73.2316940800239, 34.22667666665601], [73.23374458287522, 34.23220198667177], [73.24492918318757, 34.23195561006257], [73.24418928376477, 34.223821430581374], [73.24012137294935, 34.22109169668807], [73.23285561229874, 34.22034585621251], [73.2316940800239, 34.22667666665601]]], [[[73.22676649803748, 34.20400597300488], [73.22908727003255, 34.2065253435729], [73.23795888849831, 34.204976449466415], [73.23824766265696, 34.19712893539028], [73.22697133707874, 34.19761698732761], [73.22676649803748, 34.20400597300488]]], [[[73.22788559873345, 34.181517208834265], [73.22798450389284, 34.18661330568238], [73.23467219348471, 34.18832358597334], [73.23496114522858, 34.18047606700714], [73.23047480601387, 34.179396123322974], [73.22788559873345, 34.181517208834265]]], [[[73.22107489503081, 34.17222199894405], [73.22746210739233, 34.17474666432582], [73.2298824833363, 34.16927017149505], [73.22238615420147, 34.1672451716232], [73.22107489503081, 34.17222199894405]]], [[[73.20788035229025, 34.139712598003086], [73.20693815337988, 34.14460421190717], [73.21326446501992, 34.15243379482644], [73.220576545688, 34.159481471115015], [73.22528452285127, 34.159505686038145], [73.22749031828744, 34.15338478079169], [73.22082275732953, 34.15030532330946], [73.2176274771411, 34.140975782717895], [73.21344048418966, 34.13837916005492], [73.20788035229025, 34.139712598003086]]], [[[73.16957659310917, 34.36745289943573], [73.1696249434679, 34.37078188117866], [73.17543665224507, 34.37151920991524], [73.17455493825958, 34.36440946081777], [73.16957659310917, 34.36745289943573]]], [[[73.14949127390477, 34.04901747861538], [73.1560418455162, 34.05221448271136], [73.1625721698933, 34.05096659202929], [73.16060809056503, 34.046484667689214], [73.15385390630628, 34.04391315560647], [73.1492612699899, 34.045673481956], [73.14949127390477, 34.04901747861538]]], [[[73.10688654091298, 34.028188106539], [73.10975376150522, 34.033190246723855], [73.12593767638022, 34.042433850960876], [73.13130891724045, 34.048709377512516], [73.13802161028588, 34.04784896888771], [73.14009683843426, 34.04298934215011], [73.1381251104407, 34.03171134210534], [73.12479462447396, 34.030538655584465], [73.12103963790199, 34.0289464880569], [73.12005721781573, 34.02535999849688], [73.11069321174521, 34.023621662941686], [73.10688654091298, 34.028188106539]]], [[[73.09048289067309, 34.031577023757], [73.08913059454719, 34.036053579290886], [73.0985101656353, 34.03428243377857], [73.09720448575237, 34.030260422304046], [73.09048289067309, 34.031577023757]]]]}}, {"type": "Feature", "properties": {"threshold": 90}, "geometry": {"type": "MultiPolygon", "coordinates": [[[[73.44370204410907, 34.34228883274495], [73.45829536304045, 34.350466201793886], [73.45258880649962, 34.359709262996915], [73.45936976433727, 34.36667783215233], [73.45677881263754, 34.37938726369346], [73.45961199564165, 34.38523934014044], [73.46591921171265, 34.3870887256827], [73.4696820621356, 34.38356876477885], [73.48007003280071, 34.38182539915554], [73.48519849809571, 34.36842020093547], [73.48181922730932, 34.36159543244564], [73.48203198345254, 34.35225288179614], [73.4979386373837, 34.345858812266805], [73.49818232711732, 34.34324970469336], [73.48903454308424, 34.342894550406825], [73.48359727493646, 34.34845100411193], [73.47942347675303, 34.348357857584155], [73.47426648062934, 34.336385333230446], [73.47763854729968, 34.33229751966075], [73.47676699429587, 34.3273232315734], [73.46953117915233, 34.32525635636808], [73.46337723482354, 34.33440475540504], [73.45770227102138, 34.33265609035145], [73.44427986071777, 34.33492415380045], [73.44370204410907, 34.34228883274495]]], [[[73.39435716210491, 33.921211155619815], [73.4002937694832, 33.92270926200821], [73.40165882078044, 33.91793485196658], [73.39593203982876, 33.9167967605115], [73.39435716210491, 33.921211155619815]]], [[[73.23677510744184, 34.15961698158894], [73.24041384598956, 34.16330250799891], [73.23820603852506, 34.17078710790552], [73.24141017086939, 34.17346265075168], [73.24574742583069, 34.17271352045429], [73.24628568448495, 34.166486507667436], [73.24157972437804, 34.16322115685769], [73.24469895486693, 34.15852248521841], [73.24260988024419, 34.152509902426914], [73.23679730601563, 34.15338883014258], [73.23677510744184, 34.15961698158894]]], [[[73.2316940800239, 34.22667666665601], [73.23374458287522, 34.23220198667177], [73.24492918318757, 34.23195561006257], [73.24418928376477, 34.223821430581374], [73.24012137294935, 34.22109169668807], [73.23285561229874, 34.22034585621251], [73.2316940800239, 34.22667666665601]]], [[[73.22676649803748, 34.20400597300488], [73.22908727003255, 34.2065253435729], [73.23795888849831, 34.204976449466415], [73.23824766265696, 34.19712893539028], [73.22697133707874, 34.19761698732761], [73.22676649803748, 34.20400597300488]]], [[[73.22788559873345, 34.181517208834265], [73.22798450389284, 34.18661330568238], [73.23467219348471, 34.18832358597334], [73.23496114522858, 34.18047606700714], [73.23047480601387, 34.179396123322974], [73.22788559873345, 34.181517208834265]]], [[[73.22107489503081, 34.17222199894405], [73.22746210739233, 34.17474666432582], [73.2298824833363, 34.16927017149505], [73.22238615420147, 34.1672451716232], [73.22107489503081, 34.17222199894405]]], [[[73.20788035229025, 34.139712598003086], [73.20693815337988, 34.14460421190717], [73.21326446501992, 34.15243379482644], [73.220576545688, 34.159481471115015], [73.22528452285127, 34.159505686038145], [73.22749031828744, 34.15338478079169], [73.22082275732953, 34.15030532330946], [73.2176274771411, 34.140975782717895], [73.21344048418966, 34.13837916005492], [73.20788035229025, 34.139712598003086]]], [[[73.16957659310917, 34.36745289943573], [73.1696249434679, 34.37078188117866], [73.17543665224507, 34.37151920991524], [73.17455493825958, 34.36440946081777], [73.16957659310917, 34.36745289943573]]], [[[73.14949127390477, 34.04901747861538], [73.1560418455162, 34.05221448271136], [73.1625721698933, 34.05096659202929], [73.16060809056503, 34.046484667689214], [73.15385390630628, 34.04391315560647], [73.1492612699899, 34.045673481956], [73.14949127390477, 34.04901747861538]]], [[[73.09048289067309, 34.031577023757], [73.08929903912227, 34.036098994580364], [73.10119693408691, 34.03301170872935], [73.1065192693197, 34.03636547873088], [73.11286905221614, 34.03527863068294], [73.1315464527803, 34.048807351876086], [73.1368448998627, 34.0487934316973], [73.14001815976316, 34.04466048227366], [73.13825990836588, 34.03180691360607], [73.12076868787585, 34.02858041787053], [73.12418867847703, 34.023895687287975], [73.12277978471424, 34.017797167224614], [73.1121567049124, 34.01618132679345], [73.11107800340616, 34.02140841538929], [73.10290113575667, 34.0213603950539], [73.09967199689345, 34.02885940551475], [73.09048289067309, 34.031577023757]]], [[[73.07400160519778, 34.003802713946634], [73.07297093504896, 34.00904322868709], [73.07878212515074, 34.01249364386156], [73.08550886246654, 34.00766277334805], [73.08063119249105, 34.00132053523407], [73.07541058973263, 34.00123894055017], [73.07400160519778, 34.003802713946634]]], [[[72.97596593054926, 33.98665460862732], [72.9776568653054, 33.992725641750006], [72.99062547077024, 33.994139045373245], [72.9907132294718, 33.990412319648094], [72.98603416687331, 33.98910765898859], [72.98504002994865, 33.98472729303097], [72.97622043753341, 33.98377129272492], [72.97596593054926, 33.98665460862732]]]]}}, {"type": "Feature", "properties": {"threshold": 95}, "geometry": {"type": "MultiPolygon", "coordinates": [[[[73.44370204410907, 34.34228883274495], [73.45829536304045, 34.350466201793886], [73.45258880649962, 34.359709262996915], [73.45936976433727, 34.36667783215233], [73.45677881263754, 34.37938726369346], [73.45961199564165, 34.38523934014044], [73.46591921171265, 34.3870887256827], [73.4696820621356, 34.38356876477885], [73.48007003280071, 34.38182539915554], [73.48519849809571, 34.36842020093547], [73.48181922730932, 34.36159543244564], [73.48203198345254, 34.35225288179614], [73.4979386373837, 34.345858812266805], [73.49818232711732, 34.34324970469336], [73.48903454308424, 34.342894550406825], [73.48359727493646, 34.34845100411193], [73.47942347675303, 34.348357857584155], [73.47426648062934, 34.336385333230446], [73.47763854729968, 34.33229751966075], [73.47676699429587, 34.3273232315734], [73.46953117915233, 34.32525635636808], [73.46337723482354, 34.33440475540504], [73.45770227102138, 34.33265609035145], [73.44427986071777, 34.33492415380045], [73.44370204410907, 34.34228883274495]]], [[[73.39435716210491, 33.921211155619815], [73.4002937694832, 33.92270926200821], [73.40165882078044, 33.91793485196658], [73.39593203982876, 33.9167967605115], [73.39435716210491, 33.921211155619815]]], [[[73.23677510744184, 34.15961698158894], [73.24041384598956, 34.16330250799891], [73.23820603852506, 34.17078710790552], [73.24141017086939, 34.17346265075168], [73.24574742583069, 34.17271352045429], [73.24628568448495, 34.166486507667436], [73.24157972437804, 34.16322115685769], [73.24469895486693, 34.15852248521841], [73.24260988024419, 34.152509902426914], [73.23679730601563, 34.15338883014258], [73.23677510744184, 34.15961698158894]]], [[[73.2316940800239, 34.22667666665601], [73.23374458287522, 34.23220198667177], [73.24492918318757, 34.23195561006257], [73.24418928376477, 34.223821430581374], [73.24012137294935, 34.22109169668807], [73.23285561229874, 34.22034585621251], [73.2316940800239, 34.22667666665601]]], [[[73.22676649803748, 34.20400597300488], [73.22908727003255, 34.2065253435729], [73.23795888849831, 34.204976449466415], [73.23824766265696, 34.19712893539028], [73.22697133707874, 34.19761698732761], [73.22676649803748, 34.20400597300488]]], [[[73.22788559873345, 34.181517208834265], [73.22798450389284, 34.18661330568238], [73.23467219348471, 34.18832358597334], [73.23496114522858, 34.18047606700714], [73.23047480601387, 34.179396123322974], [73.22788559873345, 34.181517208834265]]], [[[73.22107489503081, 34.17222199894405], [73.22746210739233, 34.17474666432582], [73.2298824833363, 34.16927017149505], [73.22238615420147, 34.1672451716232], [73.22107489503081, 34.17222199894405]]], [[[73.20788035229025, 34.139712598003086], [73.20693815337988, 34.14460421190717], [73.21326446501992, 34.15243379482644], [73.220576545688, 34.159481471115015], [73.22528452285127, 34.159505686038145], [73.22749031828744, 34.15338478079169], [73.22082275732953, 34.15030532330946], [73.2176274771411, 34.140975782717895], [73.21344048418966, 34.13837916005492], [73.20788035229025, 34.139712598003086]]], [[[73.16957659310917, 34.36745289943573], [73.1696249434679, 34.37078188117866], [73.17543665224507, 34.37151920991524], [73.17455493825958, 34.36440946081777], [73.16957659310917, 34.36745289943573]]], [[[73.14949127390477, 34.04901747861538], [73.1560418455162, 34.05221448271136], [73.1625721698933, 34.05096659202929], [73.16060809056503, 34.046484667689214], [73.15385390630628, 34.04391315560647], [73.1492612699899, 34.045673481956], [73.14949127390477, 34.04901747861538]]], [[[73.09048289067309, 34.031577023757], [73.08929903912227, 34.036098994580364], [73.10119693408691, 34.03301170872935], [73.1065192693197, 34.03636547873088], [73.11286905221614, 34.03527863068294], [73.1315464527803, 34.048807351876086], [73.1368448998627, 34.0487934316973], [73.14001815976316, 34.04466048227366], [73.13825990836588, 34.03180691360607], [73.12076868787585, 34.02858041787053], [73.12418867847703, 34.023895687287975], [73.12277978471424, 34.017797167224614], [73.1121567049124, 34.01618132679345], [73.11107800340616, 34.02140841538929], [73.10290113575667, 34.0213603950539], [73.10050370743511, 34.02703068486226], [73.09378128718748, 34.02721975605848], [73.09048289067309, 34.031577023757]]], [[[73.07400160519778, 34.003802713946634], [73.07297093504896, 34.00904322868709], [73.07878212515074, 34.01249364386156], [73.08550886246654, 34.00766277334805], [73.08550902611893, 34.00393795814453], [73.0797422300114, 34.000551860024885], [73.07617592516678, 34.000565618198976], [73.07400160519778, 34.003802713946634]]], [[[72.97575585755395, 33.981090827237054], [72.9774472466086, 33.992590725460126], [72.99046351928496, 33.99431366522049], [72.99066918653648, 33.990348297250584], [72.98555276007157, 33.98832059392337], [72.9862265672857, 33.98185906420454], [72.97575585755395, 33.981090827237054]]], [[[72.95118342313945, 33.98096858854981], [72.95028314488577, 33.983594470825366], [72.95683887856244, 33.98848760077944], [72.95744360327551, 33.99296021325634], [72.96501589430879, 33.994699548739774], [72.9638189600996, 33.98757167854809], [72.96637769432793, 33.98083240147193], [72.95673295615609, 33.97888532422811], [72.95118342313945, 33.98096858854981]]]]}}]}