{"type": "Feature", "properties": {"city": "Shakhtinsk", "country": "Kazakhstan", "real_area": 8.84}, "geometry": {"type": "LineString", "coordinates": [[72.597339453777, 49.7137646416732], [72.5963173095327, 49.7189640491079], [72.5888284033998, 49.7209959844503], [72.5823626344453, 49.7178281919863], [72.574873311675, 49.7198592357036], [72.5684085208717, 49.716690651082], [72.569433453478, 49.7114914424611], [72.5769217828981, 49.7094607188636], [72.5779457070391, 49.7042613585441], [72.5714826953764, 49.7010928214293], [72.5725070047935, 49.695893409197], [72.579992932692, 49.6938624345529], [72.5810162343289, 49.6886628710597], [72.5885007541084, 49.6866313257124], [72.5949629642015, 49.6897990236513], [72.6024470674496, 49.6877665876054], [72.6089102534901, 49.6909334939425], [72.6078897380239, 49.6961332557497], [72.6143543017098, 49.6992997896487], [72.6133341727607, 49.7044994994594], [72.6198001145291, 49.7076656605941], [72.6187803724198, 49.7128653181719], [72.6112932942241, 49.7148987158628], [72.6048269499751, 49.7117321352889], [72.597339453777, 49.7137646416732]]}}