{"type": "FeatureCollection", "features": [{"type": "Feature", "properties": {"threshold": 70}, "geometry": {"type": "MultiPolygon", "coordinates": [[[[104.13039502520313, 1.1160084170478568], [104.13830025918611, 1.1212621595101067], [104.14924478668448, 1.1206106491584085], [104.13696802042456, 1.0987186843212793], [104.13354856899505, 1.1000524323611205], [104.13441347770865, 1.106671884161962], [104.13039502520313, 1.1160084170478568]]], [[[104.1261852535654, 1.1494114556720982], [104.1290694700287, 1.1613837240783313], [104.14007518763155, 1.1541408663784152], [104.13454012381092, 1.1464091417573639], [104.12658155861455, 1.1455703729607074], [104.1261852535654, 1.1494114556720982]]], [[[104.11364200079178, 1.0907386772786642], [104.11461895612325, 1.0951006318331888], [104.11860899317101, 1.0953418733841638], [104.12089866270809, 1.0913588974968007], [104.13364661318177, 1.091152595297028], [104.13583606409749, 1.088289874979679], [104.13525627997598, 1.0672133292244823], [104.13929244051124, 1.0553732236857882], [104.13811068482693, 1.0511720891235883], [104.13297088869226, 1.052055710319617], [104.12950162663157, 1.0615516532443645], [104.12389342264682, 1.0628768176168293], [104.11618510373827, 1.0697951938827535], [104.11355532030929, 1.0753570743657048], [104.11812835900588, 1.0831330853705945], [104.11364607470632, 1.0857549461047107], [104.11364200079178, 1.0907386772786642]]], [[[103.996465935539, 1.1576060792646725], [103.99638384393147, 1.1657224369399095], [104.00050510000139, 1.1744132660875723], [103.99804054947742, 1.1799402249220563], [104.00070389269894, 1.1836524763316698], [104.00941053530002, 1.1889422432543795], [104.02310635245794, 1.1898033362758353], [104.02708150811286, 1.186641102233779], [104.02533638650888, 1.1751832389262362], [104.02822917230414, 1.1730438978636635], [104.03261517129981, 1.1745799163619344], [104.03697607622252, 1.1701485239776388], [104.03988269922779, 1.1611645956398011], [104.04591426990235, 1.1603671191693672], [104.0511071312992, 1.1525906743508558], [104.04857637193493, 1.1415854381731956], [104.04990006763965, 1.136832552084123], [104.05622301779191, 1.1313920744468642], [104.07267606061009, 1.1292508897953393], [104.06790574587579, 1.1194691010895295], [104.0689046217863, 1.116692477801273], [104.08282586911652, 1.1117454981263672], [104.09472714404279, 1.1302754090218818], [104.10181727982301, 1.1338080878655112], [104.10684585042443, 1.1315495915617468], [104.10512469452654, 1.1225510256859534], [104.09742469920249, 1.1146227761267016], [104.0993745681648, 1.1093188812879122], [104.09398969153614, 1.10129724948064], [104.07789483272352, 1.0978525966615622], [104.07058743363591, 1.099471091605525], [104.06626303002925, 1.0961763175450927], [104.04257657173504, 1.0979211914785494], [104.03590128792591, 1.0904488473311669], [104.02989438477758, 1.09018650610633], [104.02904497434851, 1.0739861253098857], [104.04042874237649, 1.0611174337440468], [104.0403726570133, 1.0515173676392595], [104.03486415016128, 1.047691873980474], [104.02811940475874, 1.0480242323364353], [104.02668092976269, 1.0607358969775746], [104.01388593430187, 1.0641307069704864], [104.0139467726613, 1.068110664542051], [104.01806065992291, 1.0705559883390576], [104.01806422232977, 1.0747285575416756], [104.02446746079356, 1.0850923376243995], [104.02224679666585, 1.0948753238749898], [104.02927367349285, 1.0954298450161777], [104.03089869005349, 1.098160792971125], [104.02938519902422, 1.1015610718448443], [104.02067170803011, 1.1056617308907462], [104.01611766950788, 1.1166981944641718], [104.00939525021072, 1.120109233561564], [104.00568313383758, 1.1162400761570834], [104.0006364664267, 1.1183354310566085], [103.99980248852125, 1.1274838193181242], [104.00760363137239, 1.1324564644692712], [104.00577218159752, 1.1356810610965624], [104.00000461283116, 1.1356463180025176], [103.99722350554993, 1.1406335746997192], [104.00812434335194, 1.1490568136228911], [103.99673970568598, 1.1548314898453778], [103.996465935539, 1.1576060792646725]], [[104.03164972918323, 1.15625247362618], [104.03158768306213, 1.1605338196353439], [104.02797697176196, 1.1607829901740978], [104.02642714598937, 1.154836292093594], [104.02945644994233, 1.1538085661312008], [104.03164972918323, 1.15625247362618]]], [[[104.0429457385517, 1.0318790714576214], [104.04899501705846, 1.0440649484422375], [104.05661724216554, 1.0450492526645259], [104.06277654707743, 1.033342552975888], [104.06859271793147, 1.0330022280428544], [104.06942791294713, 1.0179993377994923], [104.05448370146014, 1.0243137357284677], [104.04753431046923, 1.0243413662642094], [104.0429457385517, 1.0318790714576214]]], [[[103.88921141337946, 1.0902226227503884], [103.88755551010726, 1.0945169481400499], [103.88972334815483, 1.096878460686996], [103.89582194598485, 1.0952700360763037], [103.91452373125918, 1.0993615072967486], [103.91322851565802, 1.0873593093518723], [103.91905774358196, 1.08473032486024], [103.91732192102543, 1.078093900725176], [103.91345278893762, 1.078092513439945], [103.91119994498682, 1.0874778813470758], [103.90319604405713, 1.0829936966499005], [103.90361491101102, 1.0764616391703452], [103.90896691516298, 1.0732284683520348], [103.91340453185084, 1.0639078561609399], [103.92095410328555, 1.0643222420992995], [103.92631626201984, 1.0615918852682604], [103.93167457866512, 1.0643379971600833], [103.94050363027395, 1.0602179162512984], [103.94579824226729, 1.0660154737493832], [103.9554326569209, 1.0582742527001419], [103.96114871798663, 1.0585228972717784], [103.96358871349395, 1.061478974113436], [103.96243343527135, 1.0697661875788844], [103.96755792682983, 1.07017251751083], [103.97029926626786, 1.0629819083981027], [103.97669946129285, 1.063485196189006], [103.97921347258062, 1.059367634279786], [103.99277321235358, 1.0549742048047381], [103.99335072618457, 1.0471549755276393], [104.00779216677822, 1.0440521322293879], [104.00762073406534, 1.0382443026265917], [104.01371499903718, 1.0313830808077082], [104.01375779915386, 1.0280184074295806], [104.00871287585423, 1.0250834428480666], [104.00320403181695, 1.0292445680353925], [103.98833111489616, 1.0333697571711804], [103.9800344324044, 1.027603152166814], [103.97243332685356, 1.0283282572447217], [103.96931083545304, 1.0251183396948504], [103.9582552218634, 1.0225393961845526], [103.94366044372468, 1.0314868707050453], [103.93786111881086, 1.0309969901533382], [103.93249407931964, 1.041179257031144], [103.92629933554406, 1.0418298581399517], [103.9218205716989, 1.0462509656916243], [103.92099849337941, 1.0513544380359614], [103.91475498406687, 1.0545302888555466], [103.90686280271584, 1.0546085732048067], [103.90559826322888, 1.0645722200810854], [103.8935122360894, 1.0797578408860742], [103.88921141337946, 1.0902226227503884]]], [[[103.91930067021349, 1.1357264668743492], [103.91929420854345, 1.1409712351907204], [103.92364772637144, 1.1411791331267598], [103.93216928287656, 1.1266953279538658], [103.94034063437097, 1.1244175213342957], [103.9423608245087, 1.1195816810165886], [103.95781886105324, 1.1166020192631911], [103.97030503726326, 1.126177913794798], [103.98340074726106, 1.128691446628527], [103.98966616354319, 1.1248974628655402], [103.98936633110938, 1.1150884667557448], [103.99299419457486, 1.11151774789978], [103.99299582359646, 1.1066984614080133], [103.98740918314205, 1.101180343169552], [103.97411601398494, 1.102615257830058], [103.96414748845417, 1.094481921700218], [103.96013704973056, 1.095489953519284], [103.9563763958117, 1.1013400585105744], [103.94236814028508, 1.0986016924804776], [103.93975077001623, 1.0889736234051486], [103.93625322503878, 1.0886654842343215], [103.92826508901949, 1.0985499584518403], [103.93259515236291, 1.1138167832376504], [103.93187733554102, 1.1203853542486513], [103.92345411720083, 1.1256987153294993], [103.91930067021349, 1.1357264668743492]]]]}}, {"type": "Feature", "properties": {"threshold": 80}, "geometry": {"type": "MultiPolygon", "coordinates": [[[[104.11233356238776, 1.087724637807177], [104.11496397499104, 1.0953089227831025], [104.11898783393876, 1.0952055601590311], [104.12112900627042, 1.0912760154626837], [104.12820156410206, 1.0919710030405014], [104.1235184515607, 1.1012863929680243], [104.13328398777423, 1.1032720380168102], [104.13016272535428, 1.1111610456092451], [104.131290390572, 1.11774158200305], [104.13830025918611, 1.1212621595101067], [104.14907266472501, 1.1209766769363232], [104.14916382042878, 1.117546206062487], [104.13435940878705, 1.0950997030625913], [104.13811068482693, 1.0511720891235883], [104.13054328214878, 1.0528426536273259], [104.12847070465371, 1.0580388296368004], [104.1153573193858, 1.0589226051587646], [104.11233356238776, 1.087724637807177]]], [[[104.118513241935, 1.1537939784207571], [104.11771718035618, 1.1566429779479], [104.12054128556741, 1.1596038400626603], [104.1259587549458, 1.1584376431071082], [104.12922863956845, 1.1614156429270643], [104.13232779725853, 1.1612314617479922], [104.1350805221639, 1.1564569799142794], [104.14093705647483, 1.1564899284282362], [104.14080268357246, 1.1525998853475499], [104.13482496598769, 1.1465624994845791], [104.12773394949927, 1.1455388567853673], [104.12444803377562, 1.1507405590661983], [104.118513241935, 1.1537939784207571]]], [[[103.996465935539, 1.1576060792646725], [103.99638384393147, 1.1657224369399095], [104.00050510000139, 1.1744132660875723], [103.99804054947742, 1.1799402249220563], [104.00070389269894, 1.1836524763316698], [104.00941053530002, 1.1889422432543795], [104.02310635245794, 1.1898033362758353], [104.02708150811286, 1.186641102233779], [104.02471374087771, 1.1769832138099596], [104.02667728197632, 1.1736902705652814], [104.0326753886836, 1.1745250205779258], [104.04066408905086, 1.1605817068068867], [104.05355579714912, 1.1593521916450729], [104.05451245053538, 1.1528727543563853], [104.04971480692569, 1.1475479321216402], [104.0489792760817, 1.1382362832975317], [104.05599993534007, 1.131469240128343], [104.07174190834436, 1.1302131888636016], [104.07447534295801, 1.1230159157001638], [104.07242756811995, 1.1171107081424785], [104.07389097828643, 1.113348764791004], [104.08569648805745, 1.1153118021072943], [104.08535036294752, 1.1215839194062591], [104.09147083299472, 1.1268659701251436], [104.09319975094414, 1.1320383432569967], [104.10266813019035, 1.133815391845069], [104.10764935382802, 1.1316268369152682], [104.10508294749948, 1.1224808705297413], [104.0978718559642, 1.1156350980116976], [104.0993745681648, 1.1093188812879122], [104.09398969153614, 1.10129724948064], [104.07789483272352, 1.0978525966615622], [104.07058743363591, 1.099471091605525], [104.06626303002925, 1.0961763175450927], [104.0423424561243, 1.0978770813695278], [104.03602723824642, 1.0888798870422076], [104.03137144219389, 1.0876728580416752], [104.02974984604462, 1.073131906775042], [104.03603344890237, 1.069150447981813], [104.04116574325053, 1.0614287976866497], [104.04047913377747, 1.0569294619516396], [104.04452676527275, 1.0521564243354318], [104.0440798266054, 1.0485585847859664], [104.03817694919938, 1.0501116696741786], [104.03229303421948, 1.0468348911214418], [104.02841757486726, 1.0477523810243703], [104.02572943256634, 1.0585845313481033], [104.01308247156128, 1.064053453887267], [104.01311591495597, 1.0681103961064367], [104.02446746079356, 1.0850923376243995], [104.02224679666585, 1.0948753238749898], [104.02807077260601, 1.0955058684417918], [104.0295873626753, 1.0982515182529797], [104.02311726490592, 1.1015466625937567], [104.01611766950788, 1.1166981944641718], [104.00939525021072, 1.120109233561564], [104.00568313383758, 1.1162400761570834], [103.99980559828447, 1.1183351462083728], [103.99980248852125, 1.1274838193181242], [104.00760363137239, 1.1324564644692712], [104.00577218159752, 1.1356810610965624], [104.00000461283116, 1.1356463180025176], [103.99724321854302, 1.1407129051296856], [104.0017279823843, 1.1461832735796933], [104.00649937225371, 1.1463258474278417], [104.00814840442158, 1.1488117933906667], [103.99667443324182, 1.1548801794759247], [103.996465935539, 1.1576060792646725]], [[104.03164972918323, 1.15625247362618], [104.03158768306213, 1.1605338196353439], [104.02797697176196, 1.1607829901740978], [104.02642714598937, 1.154836292093594], [104.02945644994233, 1.1538085661312008], [104.03164972918323, 1.15625247362618]]], [[[104.0429457385517, 1.0318790714576214], [104.04982512305722, 1.0465741586504989], [104.05654378984755, 1.0450841940907292], [104.06277654707743, 1.033342552975888], [104.06855093080472, 1.0330723573252736], [104.07527887772716, 1.0172386313880075], [104.0701198106805, 1.0159222875391154], [104.06219672849207, 1.0217356768781591], [104.0476077619791, 1.0243064247061031], [104.0429457385517, 1.0318790714576214]]], [[[103.88921141337946, 1.0902226227503884], [103.88755551010726, 1.0945169481400499], [103.88972334815483, 1.096878460686996], [103.89582194598485, 1.0952700360763037], [103.91437377798292, 1.099423962639213], [103.91335733169069, 1.086870786894874], [103.9189327749961, 1.0849400194739587], [103.91890200846811, 1.07997115109832], [103.92410570410621, 1.0736232114172641], [103.9177405532532, 1.0706942989107862], [103.91878670606071, 1.0646367569965334], [103.93499763449229, 1.0651754434266074], [103.94078260260358, 1.0622791237964309], [103.94579824226729, 1.0660154737493832], [103.9552663133316, 1.059007133006859], [103.96147070346966, 1.0593329073582598], [103.9635884682643, 1.0622152357184764], [103.95994174518654, 1.0672564501000241], [103.9620157521408, 1.0701430861943098], [103.96747911446828, 1.07019236013985], [103.97029926626786, 1.0629819083981027], [103.97669946129285, 1.063485196189006], [103.97921347258062, 1.059367634279786], [103.99277321235358, 1.0549742048047381], [103.99356648677498, 1.0470389811229566], [104.00279949976718, 1.0468513894251104], [104.00676456144586, 1.0492153263135306], [104.00762073406534, 1.0382443026265917], [104.01383870128905, 1.031082737019922], [104.0112678206706, 1.0196545351072717], [104.00325110075896, 1.0195162246829423], [104.00392331626233, 1.0287872210554172], [103.98805129838222, 1.032457200005825], [103.98286801952585, 1.0309727021405493], [103.9809425471704, 1.0251220869571993], [103.97358564921774, 1.0276411359587796], [103.96931136985894, 1.0234457421327472], [103.95827544289028, 1.021710144981644], [103.94403833698786, 1.0269057054173247], [103.94089619989289, 1.0253220399910281], [103.94086196057604, 1.020109262554875], [103.94988281703066, 1.0099105700089677], [103.9428531885113, 1.0092550755592309], [103.93167477176071, 1.0188665721930903], [103.93149069827923, 1.0249548807518551], [103.9377885177574, 1.0241220946258183], [103.94025534012061, 1.0265516369180006], [103.93291957928068, 1.032006366245089], [103.93236728654863, 1.0379320835931003], [103.92700447595176, 1.0360678694176328], [103.93112874948721, 1.0308071756392727], [103.93133718723037, 1.0251263475045154], [103.92555062762649, 1.0250763127129474], [103.91762370644349, 1.0295894952308569], [103.91933199856216, 1.0347630535805026], [103.92506392387735, 1.0379418776134959], [103.9248323834967, 1.0411470727074974], [103.91657430636353, 1.0513070957511368], [103.90681438614456, 1.0546742358707535], [103.90559826322888, 1.0645722200810854], [103.8935122360894, 1.0797578408860742], [103.88921141337946, 1.0902226227503884]]], [[[103.91930067021349, 1.1357264668743492], [103.91985288773037, 1.1412720791653126], [103.92364772637144, 1.1411791331267598], [103.92813381184139, 1.1369593092595518], [103.93611210126885, 1.1370023537022724], [103.94135343467033, 1.1202586733343678], [103.95526286973855, 1.1170286980450146], [103.95876905226571, 1.1173902325084806], [103.9620155505074, 1.1222025777828117], [103.9615203191531, 1.12815570975351], [103.96448693273625, 1.1320299184205176], [103.97176716249695, 1.132868824934239], [103.97450020636494, 1.1283810814360622], [103.98423132379344, 1.1295280409657709], [103.98966616354319, 1.1248974628655402], [103.98936633110938, 1.1150884667557448], [103.99299419457486, 1.11151774789978], [103.99299582359646, 1.1066984614080133], [103.98740918314205, 1.101180343169552], [103.97411601398494, 1.102615257830058], [103.96497891374453, 1.0928096159128087], [103.96096847696042, 1.0938176512489228], [103.95754274426692, 1.0994349128030485], [103.94236814028508, 1.0986016924804776], [103.93975077001623, 1.0889736234051486], [103.93459183272293, 1.0878286046170735], [103.92826508901949, 1.0985499584518403], [103.93259515236291, 1.1138167832376504], [103.93187733554102, 1.1203853542486513], [103.92345411720083, 1.1256987153294993], [103.91930067021349, 1.1357264668743492]]], [[[103.88794694609928, 1.1511952636534182], [103.89570499052842, 1.1569172983567764], [103.89536983158972, 1.1662146419827966], [103.90316663454712, 1.1618064161227097], [103.90321098108215, 1.1550967477911498], [103.89610331254383, 1.1545335584683556], [103.89463563257124, 1.146430594674303], [103.89039239575582, 1.1464289427394676], [103.88794694609928, 1.1511952636534182]]]]}}, {"type": "Feature", "properties": {"threshold": 90}, "geometry": {"type": "MultiPolygon", "coordinates": [[[[104.10992817965906, 1.066852991910206], [104.11353604666195, 1.0720558432352112], [104.11445564391693, 1.0823615301729264], [104.11105255855715, 1.0860854056330322], [104.11368539184272, 1.0941377435335788], [104.11868936203032, 1.0953298979775847], [104.12089866270809, 1.0913588974968007], [104.12754861958338, 1.0912454452038205], [104.128409873138, 1.0941062143590745], [104.12351150074792, 1.1011431194963341], [104.12863557371182, 1.1142142461296718], [104.13572899495504, 1.1204051875772936], [104.14889259903718, 1.1211408510808714], [104.14916382042878, 1.117546206062487], [104.13435940878705, 1.0950997030625913], [104.13833903238397, 1.0514020633255734], [104.13054328214878, 1.0528426536273259], [104.12847070465371, 1.0580388296368004], [104.11648660748695, 1.0578146432957338], [104.10992817965906, 1.066852991910206]]], [[[104.11288746581108, 1.1600464690013363], [104.11344083787667, 1.1630833700774053], [104.12523078100845, 1.1583652473832984], [104.13204286108113, 1.161384644647665], [104.13486333998767, 1.1566615212429807], [104.1406984022873, 1.1569974185343959], [104.14090649514725, 1.1528209829651619], [104.13469004807743, 1.1464717017026758], [104.12658155861455, 1.1455703729607074], [104.11288746581108, 1.1600464690013363]]], [[[104.11372398136236, 1.14188058764652], [104.11570333121998, 1.1454616494188947], [104.12076039693386, 1.1444462414716252], [104.12173996518538, 1.1392627294730115], [104.12925151074971, 1.1358151307376017], [104.12741226021404, 1.129052080299027], [104.12024141367247, 1.1271301382073315], [104.11710153703244, 1.1290489472811625], [104.1176363582307, 1.1373749619216769], [104.11372398136236, 1.14188058764652]]], [[[103.91930067021349, 1.1357264668743492], [103.91985288773037, 1.1412720791653126], [103.92364772637144, 1.1411791331267598], [103.92813381184139, 1.1369593092595518], [103.93611210126885, 1.1370023537022724], [103.94119818853561, 1.1204489390655068], [103.95038402745973, 1.1187105767593246], [103.9590297019798, 1.123108802092122], [103.9644132064128, 1.1328312262875602], [103.9767517686266, 1.1345432014454242], [103.9790838918277, 1.1296206213884568], [103.98423132379344, 1.1295280409657709], [103.98963140248989, 1.1249713735923936], [103.98936633110938, 1.1150884667557448], [103.99299419457486, 1.11151774789978], [103.99299582359646, 1.1066984614080133], [103.98740918314205, 1.101180343169552], [103.97390032756458, 1.1024991196293827], [103.96497948583693, 1.0911370213792269], [103.96085397131202, 1.093096820671433], [103.95777684411428, 1.0993635239491188], [103.942142186474, 1.098507391797665], [103.9399626304234, 1.0887153690744966], [103.94468826172204, 1.0866217559852125], [103.94567308408062, 1.0816701377461944], [103.93708698577377, 1.0803028811441235], [103.93679427820294, 1.086349172877087], [103.92826508901949, 1.0985499584518403], [103.93259515236291, 1.1138167832376504], [103.93187733554102, 1.1203853542486513], [103.92345411720083, 1.1256987153294993], [103.91930067021349, 1.1357264668743492]]], [[[103.99771031369892, 1.1082740707065708], [104.0012409492288, 1.115433235653317], [103.99976777800019, 1.1274098842722426], [104.00762564068742, 1.1322053682806543], [104.00577218159752, 1.1356810610965624], [104.00000461283116, 1.1356463180025176], [103.99724321854302, 1.1407129051296856], [104.0017279823843, 1.1461832735796933], [104.00814848933881, 1.1485655791885898], [103.99640726460389, 1.1552823300026354], [103.99638384393147, 1.1657224369399095], [104.00050510000139, 1.1744132660875723], [103.99802865742119, 1.1798593315149921], [104.00948933815948, 1.1889621412843288], [104.02589781158608, 1.188843594415122], [104.02471382640539, 1.1767369984547604], [104.02650424983716, 1.1738643106220732], [104.0326753886836, 1.1745250205779258], [104.04066408905086, 1.1605817068068867], [104.05350737774539, 1.1594178581265502], [104.05451245053538, 1.1528727543563853], [104.04971480692569, 1.1475479321216402], [104.0489792760817, 1.1382362832975317], [104.05599993534007, 1.131469240128343], [104.07174190834436, 1.1302131888636016], [104.07447534295801, 1.1230159157001638], [104.07414126707472, 1.1131944922769155], [104.08569648805745, 1.1153118021072943], [104.08621544727362, 1.1233307712813745], [104.09131080041283, 1.1266726285920048], [104.0948610214895, 1.1337115245447427], [104.10114841970868, 1.1346442098132516], [104.10752438647377, 1.1318365496652023], [104.10512469452654, 1.1225510256859534], [104.09742469920249, 1.1146227761267016], [104.0993745681648, 1.1093188812879122], [104.09412460572405, 1.101388046524959], [104.07789483272352, 1.0978525966615622], [104.07058743363591, 1.099471091605525], [104.06626303002925, 1.0961763175450927], [104.04189206928405, 1.0977225963219595], [104.03082032511871, 1.0739888782624711], [104.03696730666675, 1.0690244690441826], [104.04864768682822, 1.0475557475046937], [104.05681241961979, 1.0449036396181448], [104.06315435573879, 1.0330306428532747], [104.06850251590382, 1.0331380261492524], [104.0750393181772, 1.0169133029184132], [104.06928895292971, 1.0159220467555024], [104.06219672849207, 1.0217356768781591], [104.04739934720804, 1.024432080492874], [104.04211333266056, 1.0318468535039118], [104.04851156990505, 1.046703908445215], [104.03842155913615, 1.0501117454149733], [104.03229303421948, 1.0468348911214418], [104.02841757486726, 1.0477523810243703], [104.02225510123195, 1.0614429156168863], [104.01228610773965, 1.0648155837586208], [104.01398691354657, 1.0731986789794932], [104.02364476142871, 1.0824061532871394], [104.02224679666585, 1.0948753238749898], [104.02960471715909, 1.0975268753287823], [104.02311726490592, 1.1015466625937567], [104.0166262526115, 1.1162059845420063], [104.00818796055928, 1.1199861823379014], [104.00473441503745, 1.1147547346809779], [104.00533312784846, 1.1090018295150632], [103.999790073061, 1.106190389847557], [103.99771031369892, 1.1082740707065708]], [[104.03164972918323, 1.15625247362618], [104.03158768306213, 1.1605338196353439], [104.02797697176196, 1.1607829901740978], [104.02642714598937, 1.154836292093594], [104.02945644994233, 1.1538085661312008], [104.03164972918323, 1.15625247362618]]], [[[103.88921141337946, 1.0902226227503884], [103.88755551010726, 1.0945169481400499], [103.88972334815483, 1.096878460686996], [103.89557853018714, 1.0952458134524805], [103.90806105193667, 1.0973878587286536], [103.9085231886993, 1.1011218759372812], [103.90173494805914, 1.1047947681710717], [103.91270906121784, 1.107786183754101], [103.9112773163262, 1.10131558080424], [103.91496462052257, 1.0985652117262548], [103.9132806703493, 1.0871117746048462], [103.9189811926198, 1.084874356872395], [103.91880832250614, 1.080198583471976], [103.92318041095697, 1.0756065783164965], [103.9252912167993, 1.0672299939104848], [103.94057191719313, 1.0623790114330276], [103.9459574186652, 1.0659836608120308], [103.95662044893871, 1.058873092562995], [103.96084716678227, 1.0610568474267743], [103.96008555334478, 1.0699617978139597], [103.96747911446828, 1.07019236013985], [103.97029926626786, 1.0629819083981027], [103.97669946129285, 1.063485196189006], [103.97921347258062, 1.059367634279786], [103.99277321235358, 1.0549742048047381], [103.99356648677498, 1.0470389811229566], [104.00600208401309, 1.053354583344256], [104.00762073406534, 1.0382443026265917], [104.01468175175944, 1.0301657996230464], [104.01104322458637, 1.024747884767755], [104.01302470403294, 1.014948347894402], [104.00956769283692, 1.0087118472028727], [104.00622570944303, 1.007520188753641], [104.00229811880351, 1.0105262904281611], [104.00056751455698, 1.0199824248111877], [104.0027290139256, 1.0275994089810894], [103.98780786373203, 1.0324812550874285], [103.98360993786493, 1.03087429308417], [103.97942502579019, 1.0218533973125175], [103.96713420433653, 1.0212911579520885], [103.96269920595863, 1.0167026857843], [103.96237136707688, 1.0137838712955591], [103.96565602397081, 1.0118324952006237], [103.96516278054142, 1.0058821434203158], [103.95589798294937, 1.0052840976622284], [103.96120863330192, 1.0147437220796234], [103.95298453558112, 1.0204059431223806], [103.94847088745564, 1.017945494839825], [103.94944942453685, 1.009257226888708], [103.94391304027681, 1.008336749906639], [103.93862856338846, 1.011804602352038], [103.92838369081824, 1.023640350819351], [103.91778691055002, 1.029408366940401], [103.90848153259746, 1.038785462953257], [103.90843745788314, 1.0454951500983276], [103.91419036130404, 1.0469328904958122], [103.91494423969793, 1.0501366039844693], [103.90681438614456, 1.0546742358707535], [103.90559826322888, 1.0645722200810854], [103.8935122360894, 1.0797578408860742], [103.88921141337946, 1.0902226227503884]], [[103.93381561132148, 1.0257049260943991], [103.93693939981009, 1.0242163966393418], [103.93916994377734, 1.026372096741503], [103.93459121820115, 1.0312464542910245], [103.93176069567865, 1.029131915055813], [103.93381561132148, 1.0257049260943991]]], [[[103.87133136087384, 1.1478436084019286], [103.88396970958588, 1.1447592184504642], [103.8859630265183, 1.1592206782132766], [103.89477812617801, 1.1583443174542374], [103.89558940692335, 1.1663192774850242], [103.90050988112702, 1.1644953976451906], [103.9057647611789, 1.1574049754093956], [103.90272135188124, 1.154691976240033], [103.89646523286554, 1.1548639843964235], [103.8947008668862, 1.1464793312243917], [103.88769177483807, 1.1429583675309734], [103.88310092506848, 1.1438790593204773], [103.8794634304413, 1.1396299229442197], [103.87115847970985, 1.1440161870195324], [103.87133136087384, 1.1478436084019286]]]]}}, {"type": "Feature", "properties": {"threshold": 95}, "geometry": {"type": "MultiPolygon", "coordinates": [[[[104.2481733993747, 1.0049589526930691], [104.24770899304917, 1.0116046278778787], [104.26071331191054, 1.012580431405266], [104.2646863660513, 1.0104721159481942], [104.2656128236413, 1.0024705176370312], [104.25556847564332, 1.000047862528841], [104.2481733993747, 1.0049589526930691]]], [[[104.21492034379844, 1.0640467242748812], [104.21344817639613, 1.0691407609844303], [104.22323962868128, 1.0717736547513657], [104.23031236202941, 1.0835694358114887], [104.24389757658028, 1.0790489672937658], [104.24053525950718, 1.0664832651530798], [104.23593399196956, 1.0611294836733347], [104.22860325028354, 1.0629795956634824], [104.22694562448396, 1.0544988858611875], [104.22187520084076, 1.0562610876315501], [104.21492034379844, 1.0640467242748812]]], [[[104.10949461472804, 1.0664837851381495], [104.10953802293989, 1.0698828478610067], [104.11350131951913, 1.0722768959746312], [104.11445564391693, 1.0823615301729264], [104.11105255855715, 1.0860854056330322], [104.11368539184272, 1.0941377435335788], [104.11868936203032, 1.0953298979775847], [104.12089866270809, 1.0913588974968007], [104.12754861958338, 1.0912454452038205], [104.128409873138, 1.0941062143590745], [104.12351150074792, 1.1011431194963341], [104.12863557371182, 1.1142142461296718], [104.13572899495504, 1.1204051875772936], [104.14889259903718, 1.1211408510808714], [104.14916382042878, 1.117546206062487], [104.13435940878705, 1.0950997030625913], [104.13833903238397, 1.0514020633255734], [104.13054328214878, 1.0528426536273259], [104.12847070465371, 1.0580388296368004], [104.11648660748695, 1.0578146432957338], [104.10949461472804, 1.0664837851381495]]], [[[104.11288746581108, 1.1600464690013363], [104.11344083787667, 1.1630833700774053], [104.12523078100845, 1.1583652473832984], [104.13204286108113, 1.161384644647665], [104.13486333998767, 1.1566615212429807], [104.1406984022873, 1.1569974185343959], [104.14090649514725, 1.1528209829651619], [104.13469004807743, 1.1464717017026758], [104.12658155861455, 1.1455703729607074], [104.11288746581108, 1.1600464690013363]]], [[[104.11356248300262, 1.1449178038563812], [104.1139673181967, 1.1479351467750911], [104.11807172884608, 1.1471000891427328], [104.12191341682752, 1.1390883601310533], [104.12912654378808, 1.1360248455237587], [104.12652142553836, 1.1281605561361348], [104.11704695753733, 1.1291095234133948], [104.1178538399108, 1.136520563939323], [104.11362984528684, 1.1401166416344861], [104.11356248300262, 1.1449178038563812]]], [[[103.91930067021349, 1.1357264668743492], [103.91985288773037, 1.1412720791653126], [103.92364772637144, 1.1411791331267598], [103.92813381184139, 1.1369593092595518], [103.93611210126885, 1.1370023537022724], [103.94119818853561, 1.1204489390655068], [103.95038402745973, 1.1187105767593246], [103.9590297019798, 1.123108802092122], [103.9644132064128, 1.1328312262875602], [103.9767517686266, 1.1345432014454242], [103.9790838918277, 1.1296206213884568], [103.98423132379344, 1.1295280409657709], [103.98963140248989, 1.1249713735923936], [103.98936633110938, 1.1150884667557448], [103.99299419457486, 1.11151774789978], [103.99299582359646, 1.1066984614080133], [103.98740918314205, 1.101180343169552], [103.97390032756458, 1.1024991196293827], [103.96497948583693, 1.0911370213792269], [103.96085397131202, 1.093096820671433], [103.95777684411428, 1.0993635239491188], [103.942142186474, 1.098507391797665], [103.9399626304234, 1.0887153690744966], [103.94468826172204, 1.0866217559852125], [103.94567308408062, 1.0816701377461944], [103.93708698577377, 1.0803028811441235], [103.93679427820294, 1.086349172877087], [103.92826508901949, 1.0985499584518403], [103.93259515236291, 1.1138167832376504], [103.93187733554102, 1.1203853542486513], [103.92345411720083, 1.1256987153294993], [103.91930067021349, 1.1357264668743492]]], [[[103.99771031369892, 1.1082740707065708], [104.0012409492288, 1.115433235653317], [103.99976777800019, 1.1274098842722426], [104.00762564068742, 1.1322053682806543], [104.00577218159752, 1.1356810610965624], [104.00000461283116, 1.1356463180025176], [103.99724321854302, 1.1407129051296856], [104.0017279823843, 1.1461832735796933], [104.00814848933881, 1.1485655791885898], [103.99640726460389, 1.1552823300026354], [103.99638384393147, 1.1657224369399095], [104.00050510000139, 1.1744132660875723], [103.99802865742119, 1.1798593315149921], [104.00948933815948, 1.1889621412843288], [104.02589781158608, 1.188843594415122], [104.02471382640539, 1.1767369984547604], [104.02650424983716, 1.1738643106220732], [104.0326753886836, 1.1745250205779258], [104.04066408905086, 1.1605817068068867], [104.05350737774539, 1.1594178581265502], [104.05451245053538, 1.1528727543563853], [104.04971480692569, 1.1475479321216402], [104.0489792760817, 1.1382362832975317], [104.05599993534007, 1.131469240128343], [104.07174190834436, 1.1302131888636016], [104.07447534295801, 1.1230159157001638], [104.07414126707472, 1.1131944922769155], [104.08569648805745, 1.1153118021072943], [104.08621544727362, 1.1233307712813745], [104.09130861229202, 1.1266841174070048], [104.0948610214895, 1.1337115245447427], [104.10114841970868, 1.1346442098132516], [104.10752438647377, 1.1318365496652023], [104.10512469452654, 1.1225510256859534], [104.09742469920249, 1.1146227761267016], [104.0993745681648, 1.1093188812879122], [104.09412460572405, 1.101388046524959], [104.07789483272352, 1.0978525966615622], [104.07058743363591, 1.099471091605525], [104.06626303002925, 1.0961763175450927], [104.04189206928405, 1.0977225963219595], [104.03082032511871, 1.0739888782624711], [104.03696730666675, 1.0690244690441826], [104.04848336143836, 1.0477381322913268], [104.05681241961979, 1.0449036396181448], [104.06315435573879, 1.0330306428532747], [104.06724821059673, 1.0338360585873172], [104.07155422288982, 1.0425027177885506], [104.07597761130512, 1.042339803821335], [104.07440874128665, 1.0330546345341853], [104.06952518107148, 1.0301007169164618], [104.0750393181772, 1.0169133029184132], [104.06928895292971, 1.0159220467555024], [104.06219672849207, 1.0217356768781591], [104.04739934720804, 1.024432080492874], [104.04211333266056, 1.0318468535039118], [104.04851156990505, 1.046703908445215], [104.03842155913615, 1.0501117454149733], [104.03229303421948, 1.0468348911214418], [104.02841757486726, 1.0477523810243703], [104.02225510123195, 1.0614429156168863], [104.01228610773965, 1.0648155837586208], [104.01398691354657, 1.0731986789794932], [104.02364476142871, 1.0824061532871394], [104.02224679666585, 1.0948753238749898], [104.02960471715909, 1.0975268753287823], [104.02311726490592, 1.1015466625937567], [104.0166262526115, 1.1162059845420063], [104.00818796055928, 1.1199861823379014], [104.00473441503745, 1.1147547346809779], [104.00533312784846, 1.1090018295150632], [103.999790073061, 1.106190389847557], [103.99771031369892, 1.1082740707065708]], [[104.03164972918323, 1.15625247362618], [104.03158768306213, 1.1605338196353439], [104.02797697176196, 1.1607829901740978], [104.02642714598937, 1.154836292093594], [104.02945644994233, 1.1538085661312008], [104.03164972918323, 1.15625247362618]]], [[[103.88921141337946, 1.0902226227503884], [103.88755551010726, 1.0945169481400499], [103.88958025627892, 1.0968014066034952], [103.89582194598485, 1.0952700360763037], [103.90082012269387, 1.098227708739707], [103.90031125783366, 1.1093008776070574], [103.91270906121784, 1.107786183754101], [103.9112773163262, 1.10131558080424], [103.91496462052257, 1.0985652117262548], [103.9132806703493, 1.0871117746048462], [103.9189811926198, 1.084874356872395], [103.91880832250614, 1.080198583471976], [103.92318041095697, 1.0756065783164965], [103.9252912167993, 1.0672299939104848], [103.94057191719313, 1.0623790114330276], [103.94587860681116, 1.0660035028580743], [103.95739618736395, 1.0592093744636004], [103.96091147822655, 1.0612892922288764], [103.96008555334478, 1.0699617978139597], [103.96747911446828, 1.07019236013985], [103.97029926626786, 1.0629819083981027], [103.97669946129285, 1.063485196189006], [103.97921347258062, 1.059367634279786], [103.99277321235358, 1.0549742048047381], [103.99356648677498, 1.0470389811229566], [103.99933118487169, 1.0482670707593067], [104.00182822924452, 1.054231588097356], [104.00600208401309, 1.053354583344256], [104.00762073406534, 1.0382443026265917], [104.01468175175944, 1.0301657996230464], [104.01104322458637, 1.024747884767755], [104.01302470403294, 1.014948347894402], [104.00956769283692, 1.0087118472028727], [104.00336895915599, 1.0093650610236657], [103.99980380439766, 1.016379666339589], [104.0027290139256, 1.0275994089810894], [103.99367836286959, 1.0267712026933895], [103.98780786373203, 1.0324812550874285], [103.98360993786493, 1.03087429308417], [103.9793553576605, 1.0218113349044358], [103.96629557111008, 1.020511183061446], [103.96346870704558, 1.0149393247987348], [103.96516278054142, 1.0058821434203158], [103.95886923388501, 1.004160118214407], [103.95359079514914, 1.0082018422529104], [103.94391304027681, 1.008336749906639], [103.93862856338846, 1.011804602352038], [103.92838369081824, 1.023640350819351], [103.91778691055002, 1.029408366940401], [103.90848153259746, 1.038785462953257], [103.90840274960539, 1.0454212170079091], [103.91259121669776, 1.046674914484539], [103.91314340995352, 1.0503231952039416], [103.90681438614456, 1.0546742358707535], [103.90559826322888, 1.0645722200810854], [103.8935122360894, 1.0797578408860742], [103.88921141337946, 1.0902226227503884]], [[103.95076868715145, 1.0150079542013468], [103.9556025668703, 1.0155643837907347], [103.95602230701108, 1.0190431132517093], [103.94963015709718, 1.0195607653565648], [103.95076868715145, 1.0150079542013468]], [[103.93373574628525, 1.0257381934436196], [103.93754570895365, 1.0243961215391109], [103.93890667403005, 1.0277522593532225], [103.93338584323574, 1.031126544492902], [103.93173688406762, 1.028640675668038], [103.93373574628525, 1.0257381934436196]], [[103.90655730721309, 1.1019766970428218], [103.90373754024411, 1.099803860166732], [103.90595731368606, 1.0969635944941736], [103.9091415886429, 1.099274405451955], [103.90655730721309, 1.1019766970428218]]], [[[103.87133136087384, 1.1478436084019286], [103.87915805289403, 1.1496261787183846], [103.88396873841856, 1.1472680422679842], [103.8860047651441, 1.1592908322539965], [103.89477812617801, 1.1583443174542374], [103.89558940692335, 1.1663192774850242], [103.90050988112702, 1.1644953976451906], [103.9057647611789, 1.1574049754093956], [103.90272135188124, 1.154691976240033], [103.89646523286554, 1.1548639843964235], [103.8947008668862, 1.1464793312243917], [103.88769177483807, 1.1429583675309734], [103.88310092506848, 1.1438790593204773], [103.8794634304413, 1.1396299229442197], [103.87115847970985, 1.1440161870195324], [103.87133136087384, 1.1478436084019286]]]]}}]}