{"type": "Feature", "properties": {"city": "Multan", "country": "Pakistan", "real_area": 144.16}, "geometry": {"type": "MultiLineString", "coordinates": [[[71.3986493121185, 30.1916389795066], [71.3994738079697, 30.1868173371276], [71.4049072529402, 30.1849983120948], [71.4095167413329, 30.1880006331869], [71.4086929620625, 30.192822396029], [71.4032589777863, 30.1946417173472], [71.3986493121185, 30.1916389795066]], [[71.566745895383, 30.2580768656337], [71.5659327100634, 30.2629029536205], [71.5604972879279, 30.264730025211], [71.5558755885919, 30.2617307102848], [71.5504399844387, 30.2635573455042], [71.5458188225603, 30.2605577120068], [71.546633446382, 30.2557318595264], [71.5520685129136, 30.2539055226683], [71.5528825989785, 30.2490799484805], [71.5482623375451, 30.2460808290281], [71.5490766049377, 30.2412556511216], [71.5545104148915, 30.2394294748435], [71.5591304947605, 30.2424281781269], [71.5645641228659, 30.240601565912], [71.5691847396174, 30.2435999509141], [71.5683719101343, 30.2484253642249], [71.5729932456327, 30.2514238468687], [71.5721805978751, 30.2562496563307], [71.566745895383, 30.2580768656337]], [[71.6683183398094, 29.4076262046391], [71.6691137268606, 29.4028412223408], [71.6744759639946, 29.4010257477403], [71.6790433357221, 29.4039949566264], [71.6782486504969, 29.4087800541395], [71.672885891688, 29.4105958275826], [71.6683183398094, 29.4076262046391]], [[71.4172540273626, 30.1127015106713], [71.418076187573, 30.1078835297344], [71.4235026513211, 30.106065155999], [71.4281074924954, 30.1090644667915], [71.4272860473019, 30.1138825678148], [71.421859045885, 30.1157012379903], [71.4172540273626, 30.1127015106713]], [[71.3659202759481, 30.143515484825], [71.3667465536914, 30.1386963535414], [71.3721769390516, 30.1368795396741], [71.3767815857782, 30.139881561339], [71.3759560233218, 30.1447008136491], [71.3705250988197, 30.1465179232989], [71.3659202759481, 30.143515484825]], [[71.41873697566, 30.1940050616247], [71.4195600382465, 30.1891831784996], [71.4249931300077, 30.1873632824161], [71.4258156544569, 30.1825416769819], [71.4212058037651, 30.1795400877667], [71.4157732509112, 30.1813596873506], [71.4111639399251, 30.1783577829676], [71.4119873592986, 30.1735366957016], [71.4174193733007, 30.1717173925565], [71.422028506749, 30.1747188802699], [71.4274603439641, 30.1728991419065], [71.4282825090739, 30.1680782123763], [71.4236735532948, 30.1650771412929], [71.4182422547046, 30.1668965831409], [71.4136338383298, 30.1638951971339], [71.4082023631239, 30.1657142039011], [71.4073787655288, 30.1705348930219], [71.4019465750896, 30.1723537609274], [71.3973385212453, 30.1693516434404], [71.3919061547191, 30.171170076085], [71.3872986410471, 30.1681676439498], [71.3881236707157, 30.1633471959589], [71.3935554981033, 30.1615290594171], [71.3943799896954, 30.1567088891241], [71.3897733697188, 30.1537069760607], [71.384342081414, 30.1555248165606], [71.3797360015549, 30.1525225892519], [71.3805613865297, 30.1477029382381], [71.3859921358074, 30.1458853937191], [71.3905980391051, 30.1488872042642], [71.3960286128088, 30.1470692248971], [71.40063505595, 30.1500707212391], [71.4060654537299, 30.148252307045], [71.410672436468, 30.1512534890253], [71.4098491985677, 30.1560735018474], [71.4144568980391, 30.1590747859433], [71.4198876580598, 30.1572556405497], [71.4244958969085, 30.1602566099235], [71.4299264801349, 30.1584370296079], [71.4307482861378, 30.1536167764806], [71.4261402249464, 30.1506162237003], [71.4207101800627, 30.1524355074849], [71.4161026579746, 30.1494346400253], [71.4169253582523, 30.1446149054087], [71.4223548648485, 30.1427959180941], [71.4269622094223, 30.1457963689571], [71.4323915392172, 30.1439769470167], [71.4369994226203, 30.1469770832431], [71.4424285752643, 30.1451572266981], [71.4470369972498, 30.1481570481293], [71.4524659723935, 30.1463367570015], [71.4570749327142, 30.1493362634788], [71.4562550962592, 30.1541564775211], [71.4608647732778, 30.1571560853114], [71.4662941081734, 30.1553350626031], [71.4709043233064, 30.1583343550797], [71.4763334798309, 30.1565128976947], [71.4771518837605, 30.1516924450206], [71.482580324306, 30.1498708502742], [71.4833981913672, 30.1450506766973], [71.4888259159828, 30.1432289448249], [71.4896432463549, 30.1384090505405], [71.4950702550897, 30.1365871817771], [71.4996804702254, 30.1395849098837], [71.4988638560767, 30.1444049229819], [71.5034747877025, 30.1474027518038], [71.5026583533824, 30.1522231630597], [71.5072700016679, 30.1552210923922], [71.5064537472914, 30.1600419016621], [71.5010251279782, 30.1618646629457], [71.5002083368427, 30.1666857514651], [71.5048208818063, 30.1696841973527], [71.5102500380882, 30.1678611384402], [71.511066112406, 30.1630399313004], [71.5164945519495, 30.1612167354281], [71.5173100896048, 30.1563958076537], [71.5227378124594, 30.1545724750568], [71.5273505341965, 30.1575697724239], [71.5265357133639, 30.1623908185225], [71.5311491519817, 30.1653882157923], [71.530334511604, 30.1702096596319], [71.5349486672719, 30.1732071565994], [71.5341342074642, 30.1780289980358], [71.528704874738, 30.1798532243412], [71.5240905385293, 30.1768553112149], [71.5186610253387, 30.1786791026798], [71.5178453114834, 30.1835011051278], [71.5224598281026, 30.186499434453], [71.5216442946513, 30.1913218343388], [71.5262595287781, 30.1943202631493], [71.5316901158335, 30.1924958758473], [71.5363058869389, 30.1954939877461], [71.5417362931845, 30.1936691653297], [71.5463526010199, 30.1966669601586], [71.5455386836144, 30.2014899935205], [71.5401077405276, 30.2033151140839], [71.5392932861411, 30.2081384265294], [71.5338616250035, 30.2099634099125], [71.533046633456, 30.2147870012459], [71.5376640211237, 30.2177857272797], [71.5430962193839, 30.2159604457645], [71.5477141441071, 30.2189588542811], [71.5531461610387, 30.2171331372404], [71.5577646225683, 30.2201312280816], [71.5631964578209, 30.218305075538], [71.5678154559077, 30.2213028485458], [71.5670028004538, 30.2261271901588], [71.5716225168033, 30.2291250612241], [71.5708100429263, 30.2339497993581], [71.5653771339585, 30.2357765488975], [71.5607572357842, 30.2327782617432], [71.5553241447909, 30.2346045755056], [71.5507047834737, 30.231605970272], [71.5452715108054, 30.2334318482347], [71.5406526865947, 30.2304329250799], [71.5414673162959, 30.2256085401705], [71.5368492104416, 30.2226097154734], [71.5314162938535, 30.2244348594966], [71.5306009457471, 30.2292591263026], [71.5352192326022, 30.2322583672202], [71.5344040653936, 30.2370830306621], [71.5390230707495, 30.2400823700335], [71.5382080845542, 30.2449074299664], [71.5327733742702, 30.2467330324047], [71.5281541878996, 30.2437332767768], [71.5227192966468, 30.2455584430732], [71.5219030538826, 30.2503836629921], [71.516467443925, 30.2522086910126], [71.5156506631124, 30.2570341888758], [71.5102143344003, 30.2588590783844], [71.509397015359, 30.2636848539956], [71.5140167439901, 30.2666858586324], [71.5131996056289, 30.2715120304144], [71.5178200535084, 30.2745131332839], [71.5170030959427, 30.2793397010916], [71.5115649711773, 30.2811650475068], [71.5069443426615, 30.2781635282252], [71.5015060374664, 30.279988437722], [71.5006878219393, 30.2848151642504], [71.5053086309605, 30.2878170999839], [71.5107474750355, 30.2859918927058], [71.5153688231146, 30.2889935100102], [71.5145515078006, 30.2938207510093], [71.5091121247908, 30.2956462561298], [71.5082942706364, 30.3004737742432], [71.5028541680394, 30.3022991399136], [71.4982324587917, 30.2992966896735], [71.4990510326277, 30.294469290282], [71.4944300432322, 30.291466938057], [71.4889902997253, 30.2932915687236], [71.48817100631, 30.2981188492119], [71.4827305435731, 30.2999433401088], [71.4781099137927, 30.2969402529954], [71.4789299266846, 30.2921130915912], [71.4743100167037, 30.2891101028979], [71.4751302097418, 30.2842833374079], [71.4805695935156, 30.2824594414311], [71.4813892475062, 30.2776329527868], [71.486827912506, 30.2758089171937], [71.4876470276298, 30.2709827055918], [71.4830281967671, 30.2679806486492], [71.4775900709383, 30.2698043867971], [71.4729717795794, 30.2668020121477], [71.4737917936834, 30.2619763159278], [71.4792293803963, 30.2601528751641], [71.4800488558009, 30.2553274561472], [71.4754314631077, 30.2523255970892], [71.4699944154556, 30.2541487405297], [71.4653775622133, 30.2511465641694], [71.4599403357041, 30.2529692710377], [71.4553240221612, 30.2499667775339], [71.4561451141985, 30.2451419937896], [71.4615818015294, 30.2433195840461], [71.4624023549383, 30.2384950775489], [71.4577869391307, 30.2354931003004], [71.4523507909228, 30.2373152129802], [71.4477359147613, 30.2343129189924], [71.4485573655914, 30.2294889289596], [71.4439432078651, 30.2264867350379], [71.4385074207357, 30.2283081145337], [71.4338938028768, 30.2253056042337], [71.4284578381091, 30.2271265475267], [71.4238447603656, 30.2241237210072], [71.4246678254802, 30.2193003679188], [71.4301032508916, 30.2174797212924], [71.4309257774373, 30.2126566454589], [71.4263135958838, 30.2096543363109], [71.4208787097733, 30.2114746863315], [71.4162670682812, 30.2084720613679], [71.4170904907032, 30.2036495031144], [71.4225248375683, 30.2018294496386], [71.4233477215893, 30.1970071688], [71.41873697566, 30.1940050616247]]]}}