{"type": "FeatureCollection", "features": [{"type": "Feature", "properties": {"threshold": 70}, "geometry": {"type": "Polygon", "coordinates": [[[-54.852212951455265, -22.220027438955764], [-54.852023308894424, -22.216363379015064], [-54.84458295858554, -22.2154469870603], [-54.83967463560232, -22.207165401198214], [-54.81950841777688, -22.212117400689955], [-54.813847144487795, -22.207621894421898], [-54.79995635425752, -22.20954363759149], [-54.77521370149956, -22.20148830119891], [-54.767027993611435, -22.202998073968867], [-54.763615945485896, -22.208889311469214], [-54.75438524699759, -22.211158741515284], [-54.75459318170786, -22.224193182393982], [-54.73492683220353, -22.24374655234313], [-54.73473103341627, -22.249227653757448], [-54.74196907619571, -22.254568976695648], [-54.744708881735725, -22.24416516633633], [-54.755101957114505, -22.245087402997864], [-54.75581024861289, -22.23380380611126], [-54.76132337474262, -22.23161939690365], [-54.77432346421274, -22.235444462114298], [-54.78210262167346, -22.24195217796345], [-54.78087456124905, -22.258716118362564], [-54.769413235992104, -22.25999130292814], [-54.769268543425774, -22.264563141790852], [-54.77862975572534, -22.267970932474267], [-54.78255355443932, -22.258093916490648], [-54.7990489701663, -22.25458565749513], [-54.81390755871033, -22.264468989689185], [-54.829277942040875, -22.249861570489635], [-54.82943811696501, -22.243645404938746], [-54.8269498573196, -22.24098858874118], [-54.828452369190074, -22.237098548478315], [-54.835254214108595, -22.234782239390377], [-54.84476846494329, -22.24083818275317], [-54.850860836913874, -22.23985984157992], [-54.84868409107801, -22.233195621359116], [-54.85206389224739, -22.22910610808813], [-54.852212951455265, -22.220027438955764]], [[-54.796483060411106, -22.22641521759262], [-54.79740498041813, -22.229218985838667], [-54.79320241376941, -22.23368335692722], [-54.78800694432232, -22.2323957113635], [-54.78835995907037, -22.22626721559559], [-54.796483060411106, -22.22641521759262]]]}}, {"type": "Feature", "properties": {"threshold": 80}, "geometry": {"type": "Polygon", "coordinates": [[[-54.852212951455265, -22.220027438955764], [-54.85196176131097, -22.216309938824505], [-54.8430941589677, -22.212471017856313], [-54.84319016978241, -22.202403350042538], [-54.82951382923024, -22.210056604337442], [-54.81792069174469, -22.211665518482228], [-54.814676148242526, -22.205729168602254], [-54.81719726468722, -22.20020388202991], [-54.814065001893674, -22.198828057826876], [-54.810516983178054, -22.199100878409386], [-54.80850061351651, -22.206149120019216], [-54.80021162853647, -22.208763025879687], [-54.77394947655253, -22.200688633479942], [-54.76673065507177, -22.203140865391568], [-54.763391099052456, -22.209016517407065], [-54.75352476155933, -22.211146862009727], [-54.75459318170786, -22.224193182393982], [-54.73492683220353, -22.24374655234313], [-54.73473103341627, -22.249227653757448], [-54.7393661879541, -22.254573059503194], [-54.743771756753226, -22.25374594009873], [-54.74464961963024, -22.24451797285922], [-54.755101957114505, -22.245087402997864], [-54.757189044975064, -22.2420357104028], [-54.75581024861289, -22.23380380611126], [-54.760760590278885, -22.231721209181043], [-54.77432346421274, -22.235444462114298], [-54.78209523387866, -22.242312312431324], [-54.78195401764625, -22.25197953728381], [-54.77814217282414, -22.258742869296466], [-54.768411266277646, -22.26006450532546], [-54.76839501296918, -22.265352553254555], [-54.77862975572534, -22.267970932474267], [-54.78371626512026, -22.260170513720585], [-54.79082007136089, -22.25932160426095], [-54.79602573511524, -22.25521657495656], [-54.80206423099756, -22.26424921633197], [-54.806737960162174, -22.26226537832896], [-54.814768405031565, -22.264480576246523], [-54.829315019643396, -22.249791224766305], [-54.82812468066574, -22.237536866242273], [-54.833608590382774, -22.238257627855997], [-54.83334835622237, -22.243156517476265], [-54.83694817692414, -22.245542944171632], [-54.84909045991118, -22.243042210098775], [-54.85107251836674, -22.238476327744003], [-54.84871251171021, -22.232961182655906], [-54.85206389224739, -22.22910610808813], [-54.852212951455265, -22.220027438955764]], [[-54.79477169066515, -22.22577909610544], [-54.79692123790179, -22.229460692537717], [-54.79298912771334, -22.23381168073006], [-54.789323178885425, -22.233430880406548], [-54.78784202875997, -22.226808509278882], [-54.79477169066515, -22.22577909610544]]]}}, {"type": "Feature", "properties": {"threshold": 90}, "geometry": {"type": "Polygon", "coordinates": [[[-54.85637053378198, -22.222991996988355], [-54.85737158110193, -22.218369671440094], [-54.852895524143705, -22.211513562765944], [-54.84416364119879, -22.212549713094056], [-54.84327149595421, -22.20242346918162], [-54.83656959457747, -22.203997314757217], [-54.83261595064744, -22.208147681320394], [-54.825571995847945, -22.20697755920737], [-54.81783719636976, -22.210165159629796], [-54.81539586994717, -22.207232130435912], [-54.81893744600404, -22.200303227273448], [-54.815716974574755, -22.19802975629676], [-54.80466554057571, -22.198848427339534], [-54.80404426377584, -22.205537104697708], [-54.80037077502455, -22.208428214628004], [-54.77403138864075, -22.200670713134382], [-54.76673065507177, -22.203140865391568], [-54.763391099052456, -22.209016517407065], [-54.75266427666661, -22.211134977960775], [-54.75366170523929, -22.22340200610185], [-54.74294248574122, -22.227028549698563], [-54.7454586407202, -22.234766808904027], [-54.73492683220353, -22.24374655234313], [-54.73471180687938, -22.24915137249163], [-54.7393661879541, -22.254573059503194], [-54.74370340788289, -22.25379167081005], [-54.744685288769126, -22.244933035617482], [-54.75683610792935, -22.244309940102838], [-54.758106548588614, -22.238022063102857], [-54.755714687469734, -22.234032061057718], [-54.761008360821236, -22.23177065158938], [-54.77432346421274, -22.235444462114298], [-54.78122266306621, -22.241854771590692], [-54.78076319295822, -22.253531611628098], [-54.77724841056907, -22.258093035488958], [-54.76834806701231, -22.260116262040132], [-54.76753418841341, -22.265340720654173], [-54.77896900589581, -22.269623849155924], [-54.7897956340639, -22.26972615615366], [-54.7910922836644, -22.259456846661106], [-54.79602573511524, -22.25521657495656], [-54.80206423099756, -22.26424921633197], [-54.806426791117076, -22.262851669429818], [-54.81381316057452, -22.26528819126096], [-54.829277942040875, -22.249861570489635], [-54.828742692707024, -22.23778286086455], [-54.833608590382774, -22.238257627855997], [-54.8328385825316, -22.242943098811462], [-54.83608743364677, -22.245531484371032], [-54.849893788837306, -22.243110905377467], [-54.84910550003899, -22.23321268142886], [-54.85637053378198, -22.222991996988355]]]}}, {"type": "Feature", "properties": {"threshold": 95}, "geometry": {"type": "Polygon", "coordinates": [[[-54.856358350157684, -22.22379328718782], [-54.85730945123405, -22.218224225579], [-54.851980306128716, -22.21065334880561], [-54.845800140426874, -22.21065357359579], [-54.84327149595421, -22.20242346918162], [-54.83136570544998, -22.20824554729992], [-54.820290034300456, -22.20565041884259], [-54.818446044760435, -22.198913235876763], [-54.801627951754675, -22.19703864899975], [-54.80330326870449, -22.205750366009678], [-54.800117439763724, -22.208424789678805], [-54.79417471863145, -22.20497115279239], [-54.78440087956302, -22.204742514190777], [-54.77403138864075, -22.200670713134382], [-54.76673065507177, -22.203140865391568], [-54.763391099052456, -22.209016517407065], [-54.75266427666661, -22.211134977960775], [-54.75366170523929, -22.22340200610185], [-54.74294248574122, -22.227028549698563], [-54.7454586407202, -22.234766808904027], [-54.73492683220353, -22.24374655234313], [-54.73471180687938, -22.24915137249163], [-54.7393661879541, -22.254573059503194], [-54.74370340788289, -22.25379167081005], [-54.744685288769126, -22.244933035617482], [-54.75683610792935, -22.244309940102838], [-54.758106548588614, -22.238022063102857], [-54.755714687469734, -22.234032061057718], [-54.761008360821236, -22.23177065158938], [-54.77454516832041, -22.235558720025587], [-54.77965700003828, -22.242050475379127], [-54.77912233838307, -22.255719535347637], [-54.76834806701231, -22.260116262040132], [-54.76753418841341, -22.265340720654173], [-54.77896900589581, -22.269623849155924], [-54.7897956340639, -22.26972615615366], [-54.7910922836644, -22.259456846661106], [-54.79602573511524, -22.25521657495656], [-54.80206423099756, -22.26424921633197], [-54.81381316057452, -22.26528819126096], [-54.829277942040875, -22.249861570489635], [-54.83082535197381, -22.24339239436032], [-54.82836119554133, -22.23809409230873], [-54.83377615394705, -22.23844203459603], [-54.832488393447555, -22.243150082293777], [-54.83529572231121, -22.246341422071932], [-54.84968950792226, -22.24324780013665], [-54.84910550003899, -22.23321268142886], [-54.856358350157684, -22.22379328718782]]]}}]}