{"type": "Feature", "geometry": {"type": "MultiPolygon", "coordinates": [[[[-0.5132989112773407, 35.711650580524314], [-0.5127229049417504, 35.71620066483207], [-0.5051262404959451, 35.72055217478835], [-0.5011872884388174, 35.72033378751444], [-0.49646798735724856, 35.71623270050343], [-0.4934274341532846, 35.71572556422263], [-0.48619751097820946, 35.72102368030942], [-0.48146351129853115, 35.72179256318339], [-0.4647055195054943, 35.730749240395944], [-0.45916473333173513, 35.726063248950375], [-0.4517853478107225, 35.726127164178216], [-0.4458261956705116, 35.720349063008115], [-0.4328919406502281, 35.72007940121601], [-0.4312308890647195, 35.71708059119102], [-0.4326673131909042, 35.703043454230205], [-0.4315334750852797, 35.700222316298586], [-0.42796761492553353, 35.69907431420674], [-0.4186139270599099, 35.702376924596344], [-0.4073563730676956, 35.69551021399718], [-0.40565973920276865, 35.69086539833507], [-0.40957861454179983, 35.68723620100652], [-0.4144486899887744, 35.687440582040054], [-0.42146069238241934, 35.68508836101381], [-0.42903745201137455, 35.688095416460534], [-0.4316356118919777, 35.69549259964775], [-0.43388810034197195, 35.69751604773593], [-0.43691299005652146, 35.69738155387831], [-0.4416914870018453, 35.6927719830469], [-0.4480346255774588, 35.6905630279158], [-0.4507671137746905, 35.69198757348708], [-0.4539125058355671, 35.69765945137505], [-0.4623809309983663, 35.70087159931395], [-0.470374964331161, 35.694926075315344], [-0.47994187253662535, 35.695054961651984], [-0.4843069154198555, 35.688508746718306], [-0.49550457724845415, 35.684426514512566], [-0.5019011783358793, 35.68416682354743], [-0.5080563448982885, 35.686426503192955], [-0.5109100116362374, 35.690386557089596], [-0.5076441624334835, 35.702637861194546], [-0.5132989112773407, 35.711650580524314]], [[-0.46821593537737305, 35.71639831113949], [-0.46920195171999834, 35.713396718765026], [-0.4677783391853778, 35.71064434624813], [-0.4644460031767563, 35.709680476276894], [-0.4617219809994682, 35.711164625510726], [-0.4608780619227, 35.71414972121481], [-0.4624014071389683, 35.71706448951565], [-0.4653202126009363, 35.71801205256264], [-0.46821593537737305, 35.71639831113949]]], [[[-0.4499173939808587, 35.78193929622899], [-0.44640517882129654, 35.78534206291093], [-0.4410151516248562, 35.78704268244109], [-0.4342531903447857, 35.77952881313636], [-0.4241812480232451, 35.779686467943044], [-0.4220472974497107, 35.77457925896221], [-0.42997861478588806, 35.76778919875283], [-0.43386348088765025, 35.76790943814507], [-0.4392662162246895, 35.77101446678619], [-0.45130945225675995, 35.76633256922259], [-0.4537078558556794, 35.76797180900981], [-0.4581747679186464, 35.77609956470761], [-0.45662603349850295, 35.778833074335985], [-0.4499173939808587, 35.78193929622899]]], [[[-0.4647357100821032, 35.548214091450866], [-0.47221502258009246, 35.55297660248294], [-0.47259570330721146, 35.555927629442664], [-0.47075315574882165, 35.55917956703166], [-0.4626786801827731, 35.55950614319462], [-0.455045795072002, 35.56473821580181], [-0.43677114926495125, 35.56250918118695], [-0.4343183529201678, 35.56532320726652], [-0.4363565379095626, 35.571919804775256], [-0.4336843261626543, 35.578161896682985], [-0.4277446859899345, 35.581189149317815], [-0.4230996286037264, 35.578533564586216], [-0.4222990026880266, 35.575753316514714], [-0.42370177233699646, 35.571670254870824], [-0.43200671158506143, 35.563995977364485], [-0.43172941194972214, 35.56098697964463], [-0.4280857589095231, 35.557753789257404], [-0.4273317260667165, 35.55471376567517], [-0.4314171781377902, 35.547347643376206], [-0.4379173722118024, 35.54211228514979], [-0.4362717087763863, 35.53421857470392], [-0.43805811910113285, 35.530706455957045], [-0.4453129901559104, 35.5285831675411], [-0.4481942702665701, 35.52921236406307], [-0.45664568405366673, 35.53581763561008], [-0.4583386972064861, 35.54036632059299], [-0.4647357100821032, 35.548214091450866]]], [[[-0.473739651907804, 35.58426892941667], [-0.4793680245167353, 35.58998110816797], [-0.4786005965067716, 35.59321488341973], [-0.47551572620546323, 35.595137169165376], [-0.46698003377762787, 35.594900938369925], [-0.4599676697272137, 35.587246111762525], [-0.46072847954724866, 35.58397063070382], [-0.4650985603814896, 35.580199865829165], [-0.473739651907804, 35.58426892941667]]], [[[-0.49512496046267, 35.742978967214135], [-0.4955915548167876, 35.74639452040063], [-0.49292651518895797, 35.74982655910052], [-0.48658458709685876, 35.75104078844214], [-0.47704959385767676, 35.74447941319488], [-0.4754366727853726, 35.740032123709526], [-0.4778542451836703, 35.73456547800191], [-0.48247438443374646, 35.7326309960539], [-0.49512496046267, 35.742978967214135]]], [[[-0.5340171521157995, 35.57655172522946], [-0.5240488389038304, 35.57837993817981], [-0.5160168594563491, 35.57462849670308], [-0.5093210326604473, 35.577327736574055], [-0.5041371902329616, 35.57522311758968], [-0.5029697422083583, 35.57160172456551], [-0.5058106394103836, 35.56356702134993], [-0.5089680543190911, 35.56168621512273], [-0.5424030190384673, 35.56944265693072], [-0.5433247064762837, 35.57279021513575], [-0.5415696675156823, 35.5756893683298], [-0.5340171521157995, 35.57655172522946]]], [[[-0.7289616935950882, 35.658975479387536], [-0.7186751260604656, 35.66024258516764], [-0.7169763137477564, 35.66758235456413], [-0.7148228961472837, 35.66984921811727], [-0.7083704958883565, 35.67177587092562], [-0.703916122890457, 35.67119058389782], [-0.6935814180454336, 35.67460279197166], [-0.6830966843381419, 35.69035216254062], [-0.6669533024617809, 35.70037564327394], [-0.6626899881369371, 35.69882849488808], [-0.6579186686805777, 35.693208085802674], [-0.6781538230488169, 35.673653576141724], [-0.678571544472798, 35.66486931185246], [-0.671351210835346, 35.65839504510357], [-0.656774829745359, 35.66251914774791], [-0.6499901837421886, 35.65985624206675], [-0.6462895556377934, 35.66032831603689], [-0.6444456513175841, 35.662763057152816], [-0.64326508177603, 35.671913810468496], [-0.6518277614303245, 35.67854254221865], [-0.6509001225592121, 35.68577369694367], [-0.6557542984566991, 35.69308774617482], [-0.6516866833035452, 35.697153127167915], [-0.651127167649717, 35.70026179081756], [-0.6526039181238847, 35.7031148233897], [-0.6605703179669921, 35.7077508258217], [-0.6597339268742447, 35.715828605317206], [-0.6565333802796826, 35.71743176346346], [-0.6480424971654672, 35.71679927896407], [-0.6397066635196784, 35.71847423581578], [-0.6273079283482378, 35.724147861183525], [-0.6238183488679229, 35.7224158705342], [-0.6212794709197175, 35.71598603783904], [-0.6172393459070112, 35.71524390170283], [-0.613520035025086, 35.721549814815894], [-0.6078011607883554, 35.72480973041528], [-0.6009887081607671, 35.7324106660814], [-0.5958105862960396, 35.734701245536485], [-0.5852052594873929, 35.74341895414351], [-0.5782182368957807, 35.74454676659602], [-0.5700754056264982, 35.75816090260734], [-0.5528337711918682, 35.758803988782745], [-0.5409940737795567, 35.75486189176996], [-0.5352081691282304, 35.75550959375762], [-0.5277660192789699, 35.75122017651333], [-0.5260332403125593, 35.7490609791205], [-0.5250086161554823, 35.7423396827429], [-0.5270797535290992, 35.73914666186232], [-0.5326258901352287, 35.73691536541732], [-0.536683371097425, 35.73813604825622], [-0.5437260284891785, 35.745089502873306], [-0.5529532488331709, 35.74507261863411], [-0.5612893793786053, 35.73993011119314], [-0.5618759963727195, 35.73488465199942], [-0.5529312659705093, 35.73191551883789], [-0.5470902885077052, 35.71853135978188], [-0.5497979179047249, 35.71495412211015], [-0.5611494966094634, 35.71364327040009], [-0.5631201912713792, 35.70461190323477], [-0.5607038664494198, 35.70210242307317], [-0.5540232835825442, 35.70143069737935], [-0.5468203343682628, 35.69220005440079], [-0.5363158875925503, 35.6907568498135], [-0.5320393558124596, 35.68283280981675], [-0.5339348669208586, 35.676713825086715], [-0.5319371400497421, 35.67247899538169], [-0.5235734654891713, 35.67231659256179], [-0.5149917267643552, 35.666629699721504], [-0.511984924196251, 35.657698699488876], [-0.5163511751084116, 35.64903280552893], [-0.5202835347200829, 35.648096257765715], [-0.5347816760843611, 35.653511346017986], [-0.5378398482819475, 35.6519952606431], [-0.5389441994281245, 35.64800096467731], [-0.5329059207213696, 35.640764443485175], [-0.5143670248133809, 35.63840234068168], [-0.5097562139436673, 35.63412651198245], [-0.5081464394421938, 35.629414523812805], [-0.511556404159765, 35.62306370685559], [-0.5173861649309056, 35.62086985730075], [-0.5253158021727782, 35.6244724509032], [-0.5304523736352185, 35.629725336375294], [-0.5348496662170451, 35.63105731423645], [-0.5389888431709586, 35.63582260445253], [-0.5522019152565965, 35.631104779961525], [-0.5588385902966044, 35.63696274125247], [-0.5662933399900019, 35.63859844412994], [-0.5703035535426928, 35.64309374969004], [-0.5810054931786065, 35.64114976217976], [-0.582786437487737, 35.638622473771754], [-0.5826067736326852, 35.63248738612248], [-0.5731098795531664, 35.62742851476107], [-0.5714291764262506, 35.624782903061195], [-0.5720608283103759, 35.62189724841122], [-0.576671749352688, 35.61655331934008], [-0.576754487557476, 35.61343316181881], [-0.5731481447168909, 35.60757093379614], [-0.5684474319280174, 35.60542412194155], [-0.5668659587715033, 35.60248844471996], [-0.5691394761330588, 35.58822700036078], [-0.5771029496050225, 35.585556693807305], [-0.5802078180738814, 35.58796106246683], [-0.5829840335967853, 35.595716241308295], [-0.5831491644710306, 35.60143772720183], [-0.5904184641567825, 35.60587729781196], [-0.5909545127956963, 35.616739364341385], [-0.603059299163581, 35.62627150231634], [-0.6040719702904145, 35.63229582858055], [-0.6083603600229562, 35.63817834792182], [-0.6141977979437169, 35.639675847951295], [-0.6213581866925876, 35.63620425581309], [-0.6246785590290388, 35.63810254850823], [-0.6258285523411145, 35.6417020861107], [-0.624591898942034, 35.646525932510436], [-0.6194608627938046, 35.6523962357161], [-0.6228738479630458, 35.65737266295584], [-0.6408648029686996, 35.66081751772592], [-0.6434286308980515, 35.65759201793496], [-0.6425940362159098, 35.64997781953677], [-0.650704190740011, 35.64597646616092], [-0.6559426802586712, 35.647606154831955], [-0.6644277532751324, 35.64589992875117], [-0.6701871402118916, 35.65517335368778], [-0.6749964971109725, 35.6554846231428], [-0.6817650331871778, 35.647796920303215], [-0.6848918049507828, 35.64110687265505], [-0.684714460617949, 35.6381040601893], [-0.6752315542928824, 35.632920230615774], [-0.6645325703709851, 35.63379003999426], [-0.6620094996722816, 35.63085327127518], [-0.6620598629826374, 35.62774616765082], [-0.6703533375684428, 35.62234027145156], [-0.6809542680576639, 35.622582021335106], [-0.6922191626691317, 35.61596885131641], [-0.7026189793785702, 35.6235611391229], [-0.708677144160427, 35.63155294193589], [-0.7088192457284218, 35.64195328678824], [-0.7101562657415804, 35.64435195484647], [-0.7131248798313559, 35.64530762584526], [-0.719629329114015, 35.64394839585886], [-0.7265703397592836, 35.65015376535552], [-0.7333936949606967, 35.64952563362435], [-0.7374288322982683, 35.652095119264956], [-0.7383124039570332, 35.655069179151695], [-0.736802000122728, 35.65777923659448], [-0.7289616935950882, 35.658975479387536]], [[-0.5864271143247314, 35.71971246988126], [-0.5822566476858939, 35.716672588401345], [-0.5650660561264981, 35.7206728331639], [-0.5619308742418223, 35.72455707258364], [-0.5619723785354829, 35.72877384645176], [-0.5652302134679253, 35.73138312733859], [-0.5706647220744331, 35.72956650401697], [-0.5778274622555737, 35.73044874130636], [-0.5858687932507657, 35.72400677565239], [-0.5864271143247314, 35.71971246988126]], [[-0.6022034740257886, 35.66732694694133], [-0.595353544764969, 35.669851035307616], [-0.5893270482066547, 35.660050572401424], [-0.5815254746267365, 35.66071557653696], [-0.5793191621626435, 35.664178421544], [-0.5827309244663258, 35.670222105334126], [-0.5812621032168477, 35.67490210220442], [-0.5751333398191156, 35.679518546798], [-0.5684122853283782, 35.67760413681437], [-0.5654080882132685, 35.67830009785339], [-0.5637496793239768, 35.68131962094437], [-0.5650161464923704, 35.68544468184148], [-0.5672837797162349, 35.68737616591513], [-0.5718817261098198, 35.68731642639058], [-0.5800251147111883, 35.69010402633303], [-0.5881091951986709, 35.68217692107864], [-0.5983544286994011, 35.684292026502824], [-0.6031415017220303, 35.6808720627616], [-0.6106794160493755, 35.67981625166032], [-0.6147616490425286, 35.67035329692573], [-0.6128143487176589, 35.66517088781614], [-0.6089581242438343, 35.663548103401986], [-0.6022034740257886, 35.66732694694133]]], [[[-0.6260129704378198, 35.48841136405243], [-0.6138958517553278, 35.50730849777455], [-0.6001541405241845, 35.5067562711656], [-0.593641180176997, 35.50531373684685], [-0.5913631961166506, 35.50319896693292], [-0.5911617940420589, 35.50046947098606], [-0.5953872847527587, 35.49027895327314], [-0.5936261710465924, 35.48524999134269], [-0.5945541945366958, 35.481358774188834], [-0.6025804732845825, 35.47831403436649], [-0.6147930172552021, 35.4644176195166], [-0.6195657325017488, 35.46463909454399], [-0.6373193975452117, 35.47501957816885], [-0.636743928876486, 35.479298338837914], [-0.629433403935971, 35.48378852886984], [-0.6260129704378198, 35.48841136405243]]], [[[-0.7208183206156762, 35.59665295116442], [-0.718324230323629, 35.599900789093624], [-0.7103868982989503, 35.60195250302081], [-0.7041615619708936, 35.606685828927226], [-0.6969358728453361, 35.6059153255709], [-0.6927019248908441, 35.60369844501055], [-0.6911801276911206, 35.60082689990242], [-0.6933073524532938, 35.595708796586884], [-0.6988666761509389, 35.592227169182195], [-0.7159423487673886, 35.588752103110195], [-0.7212882407475175, 35.590871880830406], [-0.7220808587061189, 35.59404372871719], [-0.7208183206156762, 35.59665295116442]]], [[[-0.8197830303314335, 35.58700850252693], [-0.8195587636540496, 35.591129532307086], [-0.8175010668290664, 35.59339547738794], [-0.8054034785231315, 35.59848104628623], [-0.8004735575588185, 35.59610281232791], [-0.8000148891754759, 35.589309445011], [-0.8066665980878862, 35.583971731886365], [-0.8163451550133218, 35.58161375544896], [-0.8187495179369749, 35.58338090130554], [-0.8197830303314335, 35.58700850252693]]]]}, "properties": {}}