{"type": "FeatureCollection", "features": [{"type": "Feature", "properties": {"threshold": 70}, "geometry": {"type": "MultiPolygon", "coordinates": [[[[-63.26073882972163, -17.849267608945], [-63.25530884491222, -17.846910109710112], [-63.25663983185375, -17.840423282939266], [-63.24453289759999, -17.83634753144857], [-63.24388601620487, -17.829878182046933], [-63.23563045015699, -17.826580495308914], [-63.23107696020763, -17.81960920164572], [-63.23550578681504, -17.809322361123847], [-63.234354310939395, -17.80608476760083], [-63.227597233530815, -17.805126049088713], [-63.223376691079395, -17.81127440697419], [-63.217260326545684, -17.811632056808683], [-63.217832068183334, -17.80462024328364], [-63.22336734243921, -17.802441877971777], [-63.22775393748382, -17.78761985082897], [-63.21852762934629, -17.781145916001], [-63.2183237153915, -17.776120692114848], [-63.20767262827045, -17.763335631002178], [-63.198634683538025, -17.745844858985013], [-63.193900601065565, -17.743454790052663], [-63.19516311224564, -17.735163412258988], [-63.1838687831084, -17.73411739794481], [-63.17985092213516, -17.71890252886211], [-63.17251790390429, -17.717031356629903], [-63.173707505416516, -17.70974421920318], [-63.16417876468901, -17.710858950394638], [-63.162982527455505, -17.697184229809565], [-63.16972011565708, -17.688976500133094], [-63.16827930427244, -17.686723593119645], [-63.16286359005278, -17.68683403322909], [-63.15935588664526, -17.678070881188052], [-63.1556910821205, -17.676174176303046], [-63.15604337533762, -17.685868349981245], [-63.151882499782076, -17.69136455316273], [-63.15184848857862, -17.69807661206887], [-63.15722512667668, -17.701479666865815], [-63.157719850812754, -17.71518335842973], [-63.15084006837004, -17.72122054765214], [-63.1437218273175, -17.718707695215567], [-63.14250044146964, -17.724367128103843], [-63.14948080591876, -17.72671450746718], [-63.152219865832365, -17.721713673267544], [-63.15857824983821, -17.72192959695849], [-63.16265305962643, -17.730842121463006], [-63.15905159453637, -17.734665338468915], [-63.152193976958536, -17.73590558030655], [-63.14975378579185, -17.74088206737693], [-63.14258421756382, -17.734097971881994], [-63.13599449191585, -17.734283504457714], [-63.13660128858064, -17.741127914750464], [-63.13029565737775, -17.743072919953267], [-63.125136995888646, -17.74213727272948], [-63.121587056863554, -17.732570331053765], [-63.11692663489332, -17.73661917998975], [-63.12709291991915, -17.754513541074303], [-63.12122786131649, -17.764992020342113], [-63.12306664164098, -17.77458873385713], [-63.14378601298669, -17.783341703270192], [-63.1439162210867, -17.787209967651428], [-63.13917516213331, -17.791862974983484], [-63.13945371474092, -17.79763020071152], [-63.15422427073904, -17.793680170167296], [-63.1563946006216, -17.799955492580416], [-63.16246477378765, -17.803461948776928], [-63.16135779377893, -17.80742495064187], [-63.153844990236195, -17.810362387880375], [-63.148642598632094, -17.81943632370924], [-63.158410706325654, -17.81923433186918], [-63.15768444620208, -17.81273114353579], [-63.160644914883925, -17.81058408431989], [-63.16546674598891, -17.818173239977483], [-63.159931142354566, -17.821163670273926], [-63.15752974419605, -17.829567256275034], [-63.16250373557555, -17.828324796239777], [-63.171353439461015, -17.814991561984463], [-63.17725066934825, -17.8153569231154], [-63.17858963731445, -17.82117789150415], [-63.1837599413174, -17.823069610069947], [-63.18685507568376, -17.82096526748495], [-63.18687834513648, -17.816332556129304], [-63.17896735387138, -17.814046226742107], [-63.178727412496954, -17.806834955343707], [-63.18792755239772, -17.80756251058244], [-63.196176063622005, -17.80359366095482], [-63.204127209501145, -17.82027175042083], [-63.2119338294106, -17.823975169854396], [-63.21461088427007, -17.831922746103956], [-63.22407376572612, -17.830472187867525], [-63.23179348795003, -17.837165191599556], [-63.23332453478586, -17.8432913171884], [-63.23961783808261, -17.84303931329144], [-63.245343175004024, -17.849859939156573], [-63.251828436314675, -17.851017501777193], [-63.25659075202821, -17.85727342853534], [-63.2610775974066, -17.856899149029623], [-63.26073882972163, -17.849267608945]], [[-63.165538450137355, -17.75493955008912], [-63.16389484599296, -17.757230724190023], [-63.159595201958, -17.75685534198404], [-63.157189078419584, -17.752683516770563], [-63.15954817121316, -17.749102149789824], [-63.16408086523408, -17.748816385309123], [-63.165538450137355, -17.75493955008912]], [[-63.16033386980384, -17.78146235123121], [-63.157777101815704, -17.778880578151007], [-63.160505300510515, -17.774927155730683], [-63.16348386143304, -17.779166135868028], [-63.16033386980384, -17.78146235123121]], [[-63.16039800253554, -17.768980783148127], [-63.162501348679086, -17.765959103798135], [-63.16809635483069, -17.768143924011614], [-63.16316234637473, -17.77276291670881], [-63.16039800253554, -17.768980783148127]], [[-63.180984463471944, -17.800781045202125], [-63.17748294714282, -17.80217417655211], [-63.17572323603285, -17.798431658310047], [-63.17994814810707, -17.797166153038006], [-63.180984463471944, -17.800781045202125]], [[-63.18965372821251, -17.792581097130572], [-63.189314277638964, -17.796447696567093], [-63.184121161021835, -17.79634348848105], [-63.185569916878165, -17.791188662846814], [-63.18965372821251, -17.792581097130572]], [[-63.19057455575847, -17.754421596543107], [-63.19339123204294, -17.75553629352383], [-63.19438155098918, -17.75995750370775], [-63.18590783628564, -17.761436393907857], [-63.18454710734011, -17.755666231460886], [-63.19057455575847, -17.754421596543107]], [[-63.194430951673304, -17.78142851421844], [-63.19203386112227, -17.77855814357483], [-63.195536154133976, -17.776580396877765], [-63.197520512640295, -17.779610033474793], [-63.194430951673304, -17.78142851421844]]], [[[-63.11755106809718, -17.77092665700708], [-63.1123001668355, -17.763662326835732], [-63.10089192692274, -17.760125768876442], [-63.100049163311276, -17.750475678810194], [-63.08925087488336, -17.748927399278465], [-63.083028404213444, -17.753216548941836], [-63.076887868424265, -17.763380464082477], [-63.082592843069875, -17.768400843430538], [-63.090974136935706, -17.766801173437493], [-63.093710534089816, -17.768671171238346], [-63.09035702007362, -17.786390433148075], [-63.09629570369612, -17.78528864900775], [-63.09641717103765, -17.77953160352719], [-63.100085112310246, -17.774777783142337], [-63.116265613800024, -17.776572987622178], [-63.11755106809718, -17.77092665700708]], [[-63.09989776960779, -17.770761478381328], [-63.102894820240564, -17.768466328191383], [-63.104957371002115, -17.77182272659958], [-63.10179422383328, -17.7737223758547], [-63.09989776960779, -17.770761478381328]]], [[[-63.16581795343268, -17.831493536337543], [-63.16480100211584, -17.837249408899876], [-63.16841536399411, -17.84084423360058], [-63.16061229744066, -17.85133842041612], [-63.15626084183962, -17.863083522933238], [-63.16072696935898, -17.8759306771148], [-63.16448314403486, -17.876040380425277], [-63.18111685805633, -17.859582052018492], [-63.186618229611085, -17.86399053041491], [-63.18448651886573, -17.874070800768287], [-63.19248756164418, -17.882598090866658], [-63.20970580465422, -17.878447886799915], [-63.20725320391638, -17.869135157938942], [-63.198823872630626, -17.8675182637473], [-63.19700706543562, -17.861793034596847], [-63.18920225738779, -17.85351819836748], [-63.1851461974717, -17.85261650185649], [-63.176756028370505, -17.841517659665485], [-63.17730435861585, -17.83839792400348], [-63.18257059488877, -17.836564060163433], [-63.182472951610734, -17.831579143394116], [-63.16581795343268, -17.831493536337543]]], [[[-63.12113782096623, -17.82192664075181], [-63.1208615054095, -17.815127000451373], [-63.11125087626235, -17.810128697180055], [-63.10603381417871, -17.81127529930923], [-63.105057732786555, -17.817605731630422], [-63.10968955440019, -17.827107971665686], [-63.11475187875768, -17.827180287846836], [-63.117065351295246, -17.822898305868893], [-63.12113782096623, -17.82192664075181]]], [[[-63.16359693849645, -17.61438149906605], [-63.16184629278369, -17.603722617404575], [-63.15090282305746, -17.601097625758552], [-63.146119440044394, -17.589546130518205], [-63.14060555440608, -17.595452922328253], [-63.12031194776516, -17.597357047358717], [-63.12333935281756, -17.61557568108278], [-63.13040198321418, -17.613467545764056], [-63.14768509860217, -17.615605294373584], [-63.14887420115771, -17.61157349940405], [-63.15292718104955, -17.61000185807748], [-63.16359693849645, -17.61438149906605]]], [[[-63.16449249607281, -17.54544498203025], [-63.164882219453176, -17.53074166298488], [-63.158972814856874, -17.530746489373982], [-63.15545321578805, -17.53586382193868], [-63.14676331624801, -17.529041421125605], [-63.13989196103526, -17.53354605990152], [-63.141250886555, -17.54042683198194], [-63.150259730973836, -17.540420205852378], [-63.15385899393842, -17.536924317338265], [-63.15663779288448, -17.53842129729768], [-63.15588565020676, -17.564858327438717], [-63.148711847017914, -17.56674350253556], [-63.148334093871405, -17.569811462676743], [-63.156691766175605, -17.57638257073625], [-63.161944477684685, -17.5716537669144], [-63.15917957577761, -17.55863494196217], [-63.16449249607281, -17.54544498203025]]], [[[-63.33612312886907, -17.89450510429006], [-63.333028415722914, -17.889333124548163], [-63.33305419733611, -17.881750321508534], [-63.32972795648729, -17.8819787540797], [-63.325379539248885, -17.888898324275452], [-63.313297680752875, -17.889775321794694], [-63.318240947805734, -17.894809294955273], [-63.33456099331647, -17.897251424930392], [-63.33612312886907, -17.89450510429006]]]]}}, {"type": "Feature", "properties": {"threshold": 80}, "geometry": {"type": "MultiPolygon", "coordinates": [[[[-63.26182391482927, -17.85131985922928], [-63.25667066398066, -17.846153503318373], [-63.255785635596354, -17.83960743288431], [-63.244737260735754, -17.836496950503495], [-63.24388601620487, -17.829878182046933], [-63.23499608281948, -17.82584202826995], [-63.23132521669071, -17.818745669527996], [-63.2355122211189, -17.814224199656802], [-63.23441617159595, -17.806138340272046], [-63.227597233530815, -17.805126049088713], [-63.22173706259058, -17.81215346783438], [-63.217260326545684, -17.811632056808683], [-63.2252096928045, -17.7988665117358], [-63.22775393748382, -17.78761985082897], [-63.21852762934629, -17.781145916001], [-63.2183237153915, -17.776120692114848], [-63.20425547124352, -17.75762036137256], [-63.20290404665176, -17.751559357240666], [-63.19388758100229, -17.743433269643052], [-63.19516311224564, -17.735163412258988], [-63.18372913678842, -17.733917539717844], [-63.18326407221432, -17.72216731097521], [-63.17954400836508, -17.717820165902996], [-63.172433139531115, -17.716804965887214], [-63.17553017613941, -17.70985543798053], [-63.16585951768966, -17.708372353861943], [-63.16435964933352, -17.704302980734003], [-63.16802565326624, -17.699916403891276], [-63.16633538775902, -17.694562281408338], [-63.169701003837176, -17.690188614299544], [-63.16868949081792, -17.686985805249464], [-63.16030304678842, -17.682751196488894], [-63.15935588664526, -17.678070881188052], [-63.15600806686511, -17.676081725022787], [-63.139784234688705, -17.684791464216357], [-63.135171559742844, -17.684400296725208], [-63.132976923353155, -17.689649329805814], [-63.12573393590604, -17.69099005150083], [-63.12727889446237, -17.70187442094333], [-63.134035829804546, -17.703044777609573], [-63.13728139237208, -17.693640479050284], [-63.14279429221043, -17.693993704878352], [-63.146055287059184, -17.688002658563047], [-63.152590096030934, -17.687309753358946], [-63.15186807499401, -17.69829557376662], [-63.15712896441158, -17.701256945892467], [-63.15685434408513, -17.708671155991713], [-63.15229899226608, -17.7150184838809], [-63.14438711078341, -17.71559969032915], [-63.14251273472475, -17.724446139058244], [-63.14948080591876, -17.72671450746718], [-63.152312764907855, -17.72170552885988], [-63.157498682664496, -17.721875203759605], [-63.16298777935281, -17.72922217309694], [-63.159272848607635, -17.73455177637876], [-63.15213225545597, -17.735959275553736], [-63.14975378579185, -17.74088206737693], [-63.14297299000829, -17.73423095775914], [-63.13730374033247, -17.733496765793998], [-63.13234844466315, -17.72675227520327], [-63.12719084775941, -17.728146478445154], [-63.13313527622921, -17.735331769806532], [-63.12827357503554, -17.741642604212064], [-63.12476425637997, -17.740802656631878], [-63.12243958162256, -17.732569801231044], [-63.11694589940576, -17.736400191539623], [-63.12709291991915, -17.754513541074303], [-63.12122786131649, -17.764992020342113], [-63.12306664164098, -17.77458873385713], [-63.14378601298669, -17.783341703270192], [-63.1439162210867, -17.787209967651428], [-63.13917516213331, -17.791862974983484], [-63.13945371474092, -17.79763020071152], [-63.15422427073904, -17.793680170167296], [-63.1563946006216, -17.799955492580416], [-63.16246477378765, -17.803461948776928], [-63.16135779377893, -17.80742495064187], [-63.153844990236195, -17.810362387880375], [-63.14873526645962, -17.81956893583116], [-63.158410706325654, -17.81923433186918], [-63.15768444620208, -17.81273114353579], [-63.160644914883925, -17.81058408431989], [-63.16546674598891, -17.818173239977483], [-63.159931142354566, -17.821163670273926], [-63.15752974419605, -17.829567256275034], [-63.16250373557555, -17.828324796239777], [-63.171353439461015, -17.814991561984463], [-63.17725066934825, -17.8153569231154], [-63.17858963731445, -17.82117789150415], [-63.1837599413174, -17.823069610069947], [-63.18685507568376, -17.82096526748495], [-63.18687834513648, -17.816332556129304], [-63.17896735387138, -17.814046226742107], [-63.178727412496954, -17.806834955343707], [-63.18792755239772, -17.80756251058244], [-63.196176063622005, -17.80359366095482], [-63.204127209501145, -17.82027175042083], [-63.2119338294106, -17.823975169854396], [-63.21454383511306, -17.831875232932493], [-63.2233695275969, -17.831381453669053], [-63.23417864799429, -17.84410726638253], [-63.23985244114778, -17.84378954146553], [-63.245343175004024, -17.849859939156573], [-63.251828436314675, -17.851017501777193], [-63.25659075202821, -17.85727342853534], [-63.260985214520026, -17.85703195388799], [-63.26182391482927, -17.85131985922928]], [[-63.16168898464034, -17.757056009486895], [-63.157189078419584, -17.752683516770563], [-63.15954817121316, -17.749102149789824], [-63.16408086523408, -17.748816385309123], [-63.16542371026297, -17.755667548397113], [-63.16168898464034, -17.757056009486895]], [[-63.16312172737837, -17.777786140830813], [-63.16202438540592, -17.78126271027496], [-63.15800055569482, -17.780020981068517], [-63.159274297668986, -17.77519698263137], [-63.16312172737837, -17.777786140830813]], [[-63.16554856441302, -17.765935384478794], [-63.167788683197514, -17.770391980661522], [-63.16174208642512, -17.772454377303742], [-63.16068362462722, -17.767124981842244], [-63.16554856441302, -17.765935384478794]], [[-63.180984463471944, -17.800781045202125], [-63.17748294714282, -17.80217417655211], [-63.17572323603285, -17.798431658310047], [-63.17994814810707, -17.797166153038006], [-63.180984463471944, -17.800781045202125]], [[-63.18965372821251, -17.792581097130572], [-63.189314277638964, -17.796447696567093], [-63.184121161021835, -17.79634348848105], [-63.185569916878165, -17.791188662846814], [-63.18965372821251, -17.792581097130572]], [[-63.19378651057481, -17.757317276976984], [-63.192095665126466, -17.760959924036282], [-63.18660164686927, -17.761710981810385], [-63.18435722461582, -17.759372416082744], [-63.18611841324136, -17.754547290908338], [-63.191941137931224, -17.754496595703223], [-63.19378651057481, -17.757317276976984]], [[-63.194430951673304, -17.78142851421844], [-63.19203386112227, -17.77855814357483], [-63.195536154133976, -17.776580396877765], [-63.197520512640295, -17.779610033474793], [-63.194430951673304, -17.78142851421844]]], [[[-63.11755106809718, -17.77092665700708], [-63.1123001668355, -17.763662326835732], [-63.10298428076387, -17.76107426802173], [-63.103740286844584, -17.758390051407527], [-63.11001456902342, -17.75573737708593], [-63.10950875247879, -17.75049003555229], [-63.10302461328954, -17.752229394191904], [-63.086846894556544, -17.748867410847144], [-63.08382987295068, -17.750012434546175], [-63.08131896128702, -17.75701360629719], [-63.07690599883785, -17.75840106425006], [-63.07697244351121, -17.764739953143724], [-63.08236740738753, -17.768298801902368], [-63.09123737082227, -17.766814061683377], [-63.09382905892623, -17.76888368688518], [-63.09254097906866, -17.774017715908688], [-63.08883132044456, -17.775630156425212], [-63.09027612434095, -17.78637106012357], [-63.09624017510012, -17.786164848351373], [-63.096602408875846, -17.779679502599155], [-63.10157079226284, -17.77547101381354], [-63.116500325212655, -17.776492370175145], [-63.11755106809718, -17.77092665700708]]], [[[-63.16581795343268, -17.831493536337543], [-63.16480100211584, -17.837249408899876], [-63.16841536399411, -17.84084423360058], [-63.16061229744066, -17.85133842041612], [-63.15626084183962, -17.863083522933238], [-63.16072696935898, -17.8759306771148], [-63.16448314403486, -17.876040380425277], [-63.18111685805633, -17.859582052018492], [-63.185183780850004, -17.863248514771072], [-63.18187226350516, -17.86788413795079], [-63.18278013006692, -17.874072408081183], [-63.1893224486496, -17.876992798985437], [-63.19248844162403, -17.88341506020214], [-63.19576826884461, -17.884330897862004], [-63.20970676338302, -17.8792648557027], [-63.2072522569776, -17.868318188060247], [-63.198823872630626, -17.8675182637473], [-63.19615213843444, -17.86015995187391], [-63.1851461974717, -17.85261650185649], [-63.176756028370505, -17.841517659665485], [-63.17730435861585, -17.83839792400348], [-63.18257059488877, -17.836564060163433], [-63.182472951610734, -17.831579143394116], [-63.16581795343268, -17.831493536337543]]], [[[-63.12209625514166, -17.816680213550207], [-63.11116996761402, -17.8101093328838], [-63.10712055335559, -17.810233139367256], [-63.105055632823166, -17.8140202024169], [-63.106787792023695, -17.824218109309015], [-63.10999599599809, -17.827229345465796], [-63.11482725282916, -17.827146088794674], [-63.117065351295246, -17.822898305868893], [-63.12099498904997, -17.822098199140164], [-63.12209625514166, -17.816680213550207]]], [[[-63.16359693849645, -17.61438149906605], [-63.16188917887005, -17.60379110267809], [-63.15247868573062, -17.601396493577585], [-63.152572979328724, -17.593325010624646], [-63.147744030743766, -17.588701014052077], [-63.14434210166518, -17.588906901774433], [-63.14060555440608, -17.595452922328253], [-63.11837456697448, -17.596871338348947], [-63.116877432331876, -17.599068317790618], [-63.1177370473371, -17.61097835511834], [-63.122565834219934, -17.615603075632073], [-63.13040198321418, -17.613467545764056], [-63.134576101228795, -17.618065648098078], [-63.14003705171636, -17.615642253336244], [-63.14683378698891, -17.616422923372475], [-63.14887420115771, -17.61157349940405], [-63.15292718104955, -17.61000185807748], [-63.16359693849645, -17.61438149906605]]], [[[-63.165149284484414, -17.549726117713753], [-63.16502060113409, -17.53083020608436], [-63.1590480582021, -17.530712272937677], [-63.15518302367638, -17.534734631450316], [-63.14676265893611, -17.528224420204175], [-63.13913081386789, -17.530962905248096], [-63.13946922007344, -17.540401181004825], [-63.15017897065266, -17.540439677942157], [-63.15410311417874, -17.53689757079842], [-63.1567191690983, -17.538643717013294], [-63.155026535504255, -17.564881993981952], [-63.14833924923821, -17.567340843535852], [-63.15397715002455, -17.57633837880156], [-63.15896092492497, -17.57630028089047], [-63.16189631844774, -17.571806514818547], [-63.159407650739105, -17.556550812226778], [-63.16515849095931, -17.55321776907262], [-63.165149284484414, -17.549726117713753]]], [[[-63.285199030379125, -17.8760917543239], [-63.28090962221763, -17.872017141988692], [-63.27370369071309, -17.874524201395904], [-63.26299285547959, -17.872042132807632], [-63.256946674040556, -17.873597468511125], [-63.257872831527095, -17.88215721912899], [-63.262846615734134, -17.88591702477323], [-63.26609048861707, -17.88567812289077], [-63.27419698763679, -17.875839979046813], [-63.28457982469934, -17.881743621669365], [-63.285199030379125, -17.8760917543239]]], [[[-63.33612312886907, -17.89450510429006], [-63.33305419733611, -17.881750321508534], [-63.32978967395227, -17.881925003411062], [-63.325378050841074, -17.888081363923583], [-63.313297680752875, -17.889775321794694], [-63.314334527683464, -17.893716710406242], [-63.317387663185414, -17.89481068740962], [-63.33456099331647, -17.897251424930392], [-63.33612312886907, -17.89450510429006]]], [[[-63.39696962629391, -18.01261718657765], [-63.38746073154971, -17.99329318939931], [-63.39017681866197, -17.984995222186356], [-63.38554947143144, -17.980585559579694], [-63.38047908115823, -17.980595572491204], [-63.37578407101213, -17.989571903660366], [-63.38325883469943, -17.999618931059253], [-63.38360353098121, -18.00783340552224], [-63.3902500627349, -18.008809679217492], [-63.39429126144388, -18.015532789351113], [-63.396981673856395, -18.015291652588665], [-63.39696962629391, -18.01261718657765]]]]}}, {"type": "Feature", "properties": {"threshold": 90}, "geometry": {"type": "MultiPolygon", "coordinates": [[[[-63.26211358681794, -17.84262843099746], [-63.244737260735754, -17.836496950503495], [-63.24388601620487, -17.829878182046933], [-63.23499608281948, -17.82584202826995], [-63.23242200180416, -17.819714550427584], [-63.2355122211189, -17.814224199656802], [-63.23456497668617, -17.806330034384562], [-63.223218847143904, -17.803692536671782], [-63.22775393748382, -17.78761985082897], [-63.21852762934629, -17.781145916001], [-63.21835945258948, -17.77619286697745], [-63.2118778923586, -17.76874976517064], [-63.2114455087887, -17.764622013473343], [-63.20425547124352, -17.75762036137256], [-63.19858495175309, -17.745780745326915], [-63.19388758100229, -17.743433269643052], [-63.19516311224564, -17.735163412258988], [-63.18372913678842, -17.733917539717844], [-63.18330904218156, -17.725451839733132], [-63.18592576073779, -17.71992980707191], [-63.18202268489486, -17.71451579115289], [-63.17760458157425, -17.717241053724468], [-63.174321041206746, -17.71515893937594], [-63.17565692344508, -17.708426253183603], [-63.1676620300906, -17.697577533448506], [-63.169589204121735, -17.684598233395956], [-63.16094009145342, -17.683174548607823], [-63.15741544850534, -17.67621387424697], [-63.1453317215509, -17.66961202638768], [-63.14027393446388, -17.669690919099644], [-63.13567659576698, -17.675853611661413], [-63.1376957709065, -17.68196695040219], [-63.1344917248485, -17.68786696077625], [-63.12567165363218, -17.69022675042364], [-63.1220568057616, -17.700027805885917], [-63.124329790185044, -17.70302002368581], [-63.13427755406679, -17.702986567934598], [-63.13728139237208, -17.693640479050284], [-63.14279429221043, -17.693993704878352], [-63.146055287059184, -17.688002658563047], [-63.15221842570307, -17.68698737529049], [-63.15186807499401, -17.69829557376662], [-63.15712896441158, -17.701256945892467], [-63.156919198641376, -17.708430518266482], [-63.152018471329825, -17.71346035222261], [-63.1449575620473, -17.712037631007608], [-63.14268093167929, -17.71396696479276], [-63.14251273472475, -17.724446139058244], [-63.14948080591876, -17.72671450746718], [-63.152312764907855, -17.72170552885988], [-63.157749773234265, -17.721937361930326], [-63.162867029037, -17.73040760373307], [-63.159272848607635, -17.73455177637876], [-63.152193976958536, -17.73590558030655], [-63.14898781007763, -17.74089541290047], [-63.14303998406343, -17.734278496571108], [-63.13773015276059, -17.733782959926746], [-63.13280418258002, -17.726932823900423], [-63.12954199375274, -17.726765868352526], [-63.11979528872684, -17.732660089323673], [-63.11693435259354, -17.737455781650734], [-63.12709291991915, -17.754513541074303], [-63.12122786131649, -17.764992020342113], [-63.12306664164098, -17.77458873385713], [-63.14378601298669, -17.783341703270192], [-63.1439162210867, -17.787209967651428], [-63.13917516213331, -17.791862974983484], [-63.13945371474092, -17.79763020071152], [-63.15422427073904, -17.793680170167296], [-63.1563946006216, -17.799955492580416], [-63.16246477378765, -17.803461948776928], [-63.16135779377893, -17.80742495064187], [-63.153844990236195, -17.810362387880375], [-63.14868553170804, -17.819504810004315], [-63.158410706325654, -17.81923433186918], [-63.15768444620208, -17.81273114353579], [-63.160644914883925, -17.81058408431989], [-63.16546674598891, -17.818173239977483], [-63.159931142354566, -17.821163670273926], [-63.15752974419605, -17.829567256275034], [-63.16250373557555, -17.828324796239777], [-63.171353439461015, -17.814991561984463], [-63.17725066934825, -17.8153569231154], [-63.17858963731445, -17.82117789150415], [-63.1837599413174, -17.823069610069947], [-63.18685507568376, -17.82096526748495], [-63.18687834513648, -17.816332556129304], [-63.17896735387138, -17.814046226742107], [-63.178727412496954, -17.806834955343707], [-63.18792755239772, -17.80756251058244], [-63.1959324379902, -17.803535462819806], [-63.204127209501145, -17.82027175042083], [-63.2119338294106, -17.823975169854396], [-63.21448197134503, -17.83182165414587], [-63.2233695275969, -17.831381453669053], [-63.23417864799429, -17.84410726638253], [-63.25078895090828, -17.850287240568843], [-63.25659075202821, -17.85727342853534], [-63.26111315741506, -17.85682688770949], [-63.26211358681794, -17.84262843099746]], [[-63.1315720226312, -17.735400083437945], [-63.12867609661165, -17.74135612462654], [-63.12506320490814, -17.74118838398038], [-63.125133927533476, -17.735262913397293], [-63.12918105481804, -17.733548317369845], [-63.1315720226312, -17.735400083437945]], [[-63.16168898464034, -17.757056009486895], [-63.157189078419584, -17.752683516770563], [-63.15954817121316, -17.749102149789824], [-63.16408086523408, -17.748816385309123], [-63.16542371026297, -17.755667548397113], [-63.16168898464034, -17.757056009486895]], [[-63.16312172737837, -17.777786140830813], [-63.16202438540592, -17.78126271027496], [-63.15800055569482, -17.780020981068517], [-63.159274297668986, -17.77519698263137], [-63.16312172737837, -17.777786140830813]], [[-63.16554856441302, -17.765935384478794], [-63.167788683197514, -17.770391980661522], [-63.16174208642512, -17.772454377303742], [-63.16068362462722, -17.767124981842244], [-63.16554856441302, -17.765935384478794]], [[-63.180984463471944, -17.800781045202125], [-63.17748294714282, -17.80217417655211], [-63.17572323603285, -17.798431658310047], [-63.17994814810707, -17.797166153038006], [-63.180984463471944, -17.800781045202125]], [[-63.18965372821251, -17.792581097130572], [-63.189314277638964, -17.796447696567093], [-63.184121161021835, -17.79634348848105], [-63.185569916878165, -17.791188662846814], [-63.18965372821251, -17.792581097130572]], [[-63.19378651057481, -17.757317276976984], [-63.192095665126466, -17.760959924036282], [-63.18660164686927, -17.761710981810385], [-63.18435722461582, -17.759372416082744], [-63.18611841324136, -17.754547290908338], [-63.191941137931224, -17.754496595703223], [-63.19378651057481, -17.757317276976984]], [[-63.194430951673304, -17.78142851421844], [-63.19203386112227, -17.77855814357483], [-63.195536154133976, -17.776580396877765], [-63.197520512640295, -17.779610033474793], [-63.194430951673304, -17.78142851421844]], [[-63.22213959028996, -17.811866798015927], [-63.21697217566471, -17.810967875567794], [-63.22078716568588, -17.806112499342333], [-63.223893007252755, -17.8078909170516], [-63.22213959028996, -17.811866798015927]]], [[[-63.11755106809718, -17.77092665700708], [-63.1123001668355, -17.763662326835732], [-63.10298428076387, -17.76107426802173], [-63.103740286844584, -17.758390051407527], [-63.11001456902342, -17.75573737708593], [-63.10950875247879, -17.75049003555229], [-63.10302461328954, -17.752229394191904], [-63.086846894556544, -17.748867410847144], [-63.08382987295068, -17.750012434546175], [-63.08131896128702, -17.75701360629719], [-63.07690599883785, -17.75840106425006], [-63.07706503031518, -17.76487260050688], [-63.08870510518158, -17.77090309731699], [-63.08876427921373, -17.77871809777209], [-63.08461864272514, -17.781198190409352], [-63.085159442152595, -17.786373352579176], [-63.096039969712926, -17.78630725008657], [-63.10090890009635, -17.77581041126963], [-63.11634648305534, -17.776553529163014], [-63.11755106809718, -17.77092665700708]]], [[[-63.16581795343268, -17.831493536337543], [-63.16480100211584, -17.837249408899876], [-63.16841536399411, -17.84084423360058], [-63.16061229744066, -17.85133842041612], [-63.15626084183962, -17.863083522933238], [-63.160634262860924, -17.87579807134888], [-63.16448314403486, -17.876040380425277], [-63.18185364590572, -17.8597216849629], [-63.18520864780048, -17.86348785458803], [-63.18187226350516, -17.86788413795079], [-63.182858832396214, -17.874213066848004], [-63.18949146472041, -17.877186663464528], [-63.195780514853936, -17.890663275994296], [-63.20104806656987, -17.88998324254637], [-63.20998338892558, -17.881322522060493], [-63.207344993590006, -17.868450771082244], [-63.198823872630626, -17.8675182637473], [-63.19615213843444, -17.86015995187391], [-63.1851461974717, -17.85261650185649], [-63.176756028370505, -17.841517659665485], [-63.17730435861585, -17.83839792400348], [-63.182606182955254, -17.836491812377616], [-63.18156306018563, -17.830703825982134], [-63.16581795343268, -17.831493536337543]]], [[[-63.12209625514166, -17.816680213550207], [-63.11116996761402, -17.8101093328838], [-63.10712055335559, -17.810233139367256], [-63.105055632823166, -17.8140202024169], [-63.106787792023695, -17.824218109309015], [-63.10999599599809, -17.827229345465796], [-63.11482725282916, -17.827146088794674], [-63.117065351295246, -17.822898305868893], [-63.12099498904997, -17.822098199140164], [-63.12209625514166, -17.816680213550207]]], [[[-63.16359693849645, -17.61438149906605], [-63.16179661349343, -17.60365849306096], [-63.15206150583747, -17.600798764971746], [-63.1520032627165, -17.588697785069716], [-63.143618793284034, -17.58880619198929], [-63.14060555440608, -17.595452922328253], [-63.11837456697448, -17.596871338348947], [-63.116877432331876, -17.599068317790618], [-63.1177370473371, -17.61097835511834], [-63.122565834219934, -17.615603075632073], [-63.13040198321418, -17.613467545764056], [-63.134576101228795, -17.618065648098078], [-63.14003705171636, -17.615642253336244], [-63.14683378698891, -17.616422923372475], [-63.14887420115771, -17.61157349940405], [-63.15292718104955, -17.61000185807748], [-63.16359693849645, -17.61438149906605]]], [[[-63.16510201560156, -17.54721695876247], [-63.16495367719248, -17.53078267339213], [-63.1590480582021, -17.530712272937677], [-63.15518302367638, -17.534734631450316], [-63.14676265893611, -17.528224420204175], [-63.13908126039477, -17.53102710558022], [-63.13946922007344, -17.540401181004825], [-63.15017897065266, -17.540439677942157], [-63.15410311417874, -17.53689757079842], [-63.1567191690983, -17.538643717013294], [-63.155026535504255, -17.564881993981952], [-63.14833924923821, -17.567340843535852], [-63.15397715002455, -17.57633837880156], [-63.15896092492497, -17.57630028089047], [-63.16189631844774, -17.571806514818547], [-63.159407650739105, -17.556550812226778], [-63.16525079215298, -17.553085005965176], [-63.16510201560156, -17.54721695876247]]], [[[-63.28499806823006, -17.88139508783259], [-63.28591182286251, -17.875851533203498], [-63.28192629522343, -17.872046805921315], [-63.27363914314447, -17.874421422460777], [-63.26896511432791, -17.872033985468697], [-63.25527258621174, -17.873443159549232], [-63.25716281138311, -17.877311588351425], [-63.255313145167726, -17.882160589470825], [-63.26097661922868, -17.885888407087474], [-63.265961808942485, -17.88577953158445], [-63.27484832397737, -17.87699436835795], [-63.281370768888564, -17.88256524756427], [-63.28499806823006, -17.88139508783259]]], [[[-63.33612312886907, -17.89450510429006], [-63.33628762279989, -17.88483521726003], [-63.33305419733611, -17.881750321508534], [-63.32147562589858, -17.88426697815494], [-63.31901796265316, -17.887949749502145], [-63.313297680752875, -17.889775321794694], [-63.31483933675518, -17.901350525617154], [-63.32366232148676, -17.898916779041645], [-63.33061014450728, -17.90048801264888], [-63.33612312886907, -17.89450510429006]]], [[[-63.39696962629391, -18.01261718657765], [-63.39712948311226, -18.00236194367818], [-63.39445112729379, -17.99921414843489], [-63.39710937031246, -17.993375551914443], [-63.39008388503838, -17.98486273054518], [-63.38539528484518, -17.98052480085523], [-63.37696880836354, -17.982090165964372], [-63.372735546948796, -17.97652584884058], [-63.3649657890339, -17.97662927527546], [-63.37084474476201, -17.986750217229712], [-63.379782135016626, -17.994673785275083], [-63.38369647180951, -18.007965899220597], [-63.3902500627349, -18.008809679217492], [-63.39429126144388, -18.015532789351113], [-63.396981673856395, -18.015291652588665], [-63.39696962629391, -18.01261718657765]]]]}}, {"type": "Feature", "properties": {"threshold": 95}, "geometry": {"type": "MultiPolygon", "coordinates": [[[[-63.26125461095853, -17.85722602976774], [-63.26130055421236, -17.85219178493283], [-63.26456165613716, -17.84849984395744], [-63.26357476020565, -17.843805280271233], [-63.244737260735754, -17.836496950503495], [-63.24388601620487, -17.829878182046933], [-63.23512545339027, -17.8260481751258], [-63.23242200180416, -17.819714550427584], [-63.2355122211189, -17.814224199656802], [-63.23456497668617, -17.806330034384562], [-63.223218847143904, -17.803692536671782], [-63.22771819411674, -17.78754767772125], [-63.21852762934629, -17.781145916001], [-63.21839134983131, -17.775982334351774], [-63.21199855586371, -17.768950838581656], [-63.2114455087887, -17.764622013473343], [-63.20425547124352, -17.75762036137256], [-63.19858495175309, -17.745780745326915], [-63.19388758100229, -17.743433269643052], [-63.19516311224564, -17.735163412258988], [-63.18361060505694, -17.73370552676324], [-63.18592576073779, -17.71992980707191], [-63.18202268489486, -17.71451579115289], [-63.17760458157425, -17.717241053724468], [-63.174321041206746, -17.71515893937594], [-63.17565692344508, -17.708426253183603], [-63.1676620300906, -17.697577533448506], [-63.169589204121735, -17.684598233395956], [-63.16094009145342, -17.683174548607823], [-63.15741544850534, -17.67621387424697], [-63.1453317215509, -17.66961202638768], [-63.14027393446388, -17.669690919099644], [-63.13567659576698, -17.675853611661413], [-63.1376957709065, -17.68196695040219], [-63.1344917248485, -17.68786696077625], [-63.12567165363218, -17.69022675042364], [-63.1220568057616, -17.700027805885917], [-63.124329790185044, -17.70302002368581], [-63.13427755406679, -17.702986567934598], [-63.13728139237208, -17.693640479050284], [-63.14279429221043, -17.693993704878352], [-63.146055287059184, -17.688002658563047], [-63.15221842570307, -17.68698737529049], [-63.15186807499401, -17.69829557376662], [-63.15712896441158, -17.701256945892467], [-63.156919198641376, -17.708430518266482], [-63.152018471329825, -17.71346035222261], [-63.1449575620473, -17.712037631007608], [-63.14268093167929, -17.71396696479276], [-63.14251273472475, -17.724446139058244], [-63.14948080591876, -17.72671450746718], [-63.152312764907855, -17.72170552885988], [-63.157749773234265, -17.721937361930326], [-63.162867029037, -17.73040760373307], [-63.159272848607635, -17.73455177637876], [-63.152193976958536, -17.73590558030655], [-63.14898781007763, -17.74089541290047], [-63.14303998406343, -17.734278496571108], [-63.13773015276059, -17.733782959926746], [-63.13280418258002, -17.726932823900423], [-63.12954199375274, -17.726765868352526], [-63.11979528872684, -17.732660089323673], [-63.11693435259354, -17.737455781650734], [-63.12709291991915, -17.754513541074303], [-63.12122786131649, -17.764992020342113], [-63.12306664164098, -17.77458873385713], [-63.14378601298669, -17.783341703270192], [-63.1439162210867, -17.787209967651428], [-63.13917516213331, -17.791862974983484], [-63.13945371474092, -17.79763020071152], [-63.15422427073904, -17.793680170167296], [-63.1563946006216, -17.799955492580416], [-63.16246477378765, -17.803461948776928], [-63.16135779377893, -17.80742495064187], [-63.153844990236195, -17.810362387880375], [-63.14868553170804, -17.819504810004315], [-63.158410706325654, -17.81923433186918], [-63.15768444620208, -17.81273114353579], [-63.160644914883925, -17.81058408431989], [-63.16546674598891, -17.818173239977483], [-63.159931142354566, -17.821163670273926], [-63.15752974419605, -17.829567256275034], [-63.16250373557555, -17.828324796239777], [-63.171353439461015, -17.814991561984463], [-63.17725066934825, -17.8153569231154], [-63.17858963731445, -17.82117789150415], [-63.1837599413174, -17.823069610069947], [-63.18685507568376, -17.82096526748495], [-63.18687834513648, -17.816332556129304], [-63.17896735387138, -17.814046226742107], [-63.178727412496954, -17.806834955343707], [-63.18792755239772, -17.80756251058244], [-63.196176063622005, -17.80359366095482], [-63.204127209501145, -17.82027175042083], [-63.2119338294106, -17.823975169854396], [-63.21454383511306, -17.831875232932493], [-63.22316093213539, -17.83125636800884], [-63.23424570689506, -17.84415477264373], [-63.25078895090828, -17.850287240568843], [-63.25651529427139, -17.857239372969655], [-63.26125461095853, -17.85722602976774]], [[-63.1315720226312, -17.735400083437945], [-63.12867609661165, -17.74135612462654], [-63.12506320490814, -17.74118838398038], [-63.125133927533476, -17.735262913397293], [-63.12918105481804, -17.733548317369845], [-63.1315720226312, -17.735400083437945]], [[-63.16168898464034, -17.757056009486895], [-63.157189078419584, -17.752683516770563], [-63.15954817121316, -17.749102149789824], [-63.16408086523408, -17.748816385309123], [-63.16542371026297, -17.755667548397113], [-63.16168898464034, -17.757056009486895]], [[-63.16312172737837, -17.777786140830813], [-63.16202438540592, -17.78126271027496], [-63.15800055569482, -17.780020981068517], [-63.159274297668986, -17.77519698263137], [-63.16312172737837, -17.777786140830813]], [[-63.16554856441302, -17.765935384478794], [-63.167788683197514, -17.770391980661522], [-63.16174208642512, -17.772454377303742], [-63.16068362462722, -17.767124981842244], [-63.16554856441302, -17.765935384478794]], [[-63.180984463471944, -17.800781045202125], [-63.17748294714282, -17.80217417655211], [-63.17572323603285, -17.798431658310047], [-63.17994814810707, -17.797166153038006], [-63.180984463471944, -17.800781045202125]], [[-63.18965372821251, -17.792581097130572], [-63.189314277638964, -17.796447696567093], [-63.184121161021835, -17.79634348848105], [-63.185569916878165, -17.791188662846814], [-63.18965372821251, -17.792581097130572]], [[-63.19378651057481, -17.757317276976984], [-63.192095665126466, -17.760959924036282], [-63.18660164686927, -17.761710981810385], [-63.18435722461582, -17.759372416082744], [-63.18611841324136, -17.754547290908338], [-63.191941137931224, -17.754496595703223], [-63.19378651057481, -17.757317276976984]], [[-63.194430951673304, -17.78142851421844], [-63.19203386112227, -17.77855814357483], [-63.195536154133976, -17.776580396877765], [-63.197520512640295, -17.779610033474793], [-63.194430951673304, -17.78142851421844]], [[-63.22213959028996, -17.811866798015927], [-63.21697217566471, -17.810967875567794], [-63.22078716568588, -17.806112499342333], [-63.223893007252755, -17.8078909170516], [-63.22213959028996, -17.811866798015927]]], [[[-63.11755106809718, -17.77092665700708], [-63.1123001668355, -17.763662326835732], [-63.10298428076387, -17.76107426802173], [-63.103740286844584, -17.758390051407527], [-63.11001456902342, -17.75573737708593], [-63.10950875247879, -17.75049003555229], [-63.10302461328954, -17.752229394191904], [-63.086846894556544, -17.748867410847144], [-63.08382987295068, -17.750012434546175], [-63.08131896128702, -17.75701360629719], [-63.07690599883785, -17.75840106425006], [-63.07706503031518, -17.76487260050688], [-63.08870510518158, -17.77090309731699], [-63.08876427921373, -17.77871809777209], [-63.08461864272514, -17.781198190409352], [-63.085159442152595, -17.786373352579176], [-63.096039969712926, -17.78630725008657], [-63.10090890009635, -17.77581041126963], [-63.11634648305534, -17.776553529163014], [-63.11755106809718, -17.77092665700708]]], [[[-63.16581795343268, -17.831493536337543], [-63.16480100211584, -17.837249408899876], [-63.16841536399411, -17.84084423360058], [-63.16061229744066, -17.85133842041612], [-63.15626084183962, -17.863083522933238], [-63.160634262860924, -17.87579807134888], [-63.16448314403486, -17.876040380425277], [-63.18185364590572, -17.8597216849629], [-63.18520864780048, -17.86348785458803], [-63.18187226350516, -17.86788413795079], [-63.182858832396214, -17.874213066848004], [-63.18949146472041, -17.877186663464528], [-63.195780514853936, -17.890663275994296], [-63.20104806656987, -17.88998324254637], [-63.20998338892558, -17.881322522060493], [-63.207344993590006, -17.868450771082244], [-63.198823872630626, -17.8675182637473], [-63.19615213843444, -17.86015995187391], [-63.1851461974717, -17.85261650185649], [-63.176756028370505, -17.841517659665485], [-63.17730435861585, -17.83839792400348], [-63.182606182955254, -17.836491812377616], [-63.18156306018563, -17.830703825982134], [-63.16581795343268, -17.831493536337543]]], [[[-63.12209625514166, -17.816680213550207], [-63.11116996761402, -17.8101093328838], [-63.10712055335559, -17.810233139367256], [-63.105055632823166, -17.8140202024169], [-63.106787792023695, -17.824218109309015], [-63.10999599599809, -17.827229345465796], [-63.11482725282916, -17.827146088794674], [-63.117065351295246, -17.822898305868893], [-63.12099498904997, -17.822098199140164], [-63.12209625514166, -17.816680213550207]]], [[[-63.16359693849645, -17.61438149906605], [-63.16179661349343, -17.60365849306096], [-63.15206150583747, -17.600798764971746], [-63.1520032627165, -17.588697785069716], [-63.143618793284034, -17.58880619198929], [-63.14060555440608, -17.595452922328253], [-63.11837456697448, -17.596871338348947], [-63.116877432331876, -17.599068317790618], [-63.1177370473371, -17.61097835511834], [-63.122565834219934, -17.615603075632073], [-63.13040198321418, -17.613467545764056], [-63.134576101228795, -17.618065648098078], [-63.14003705171636, -17.615642253336244], [-63.14683378698891, -17.616422923372475], [-63.14887420115771, -17.61157349940405], [-63.15292718104955, -17.61000185807748], [-63.16359693849645, -17.61438149906605]]], [[[-63.16510201560156, -17.54721695876247], [-63.16495367719248, -17.53078267339213], [-63.1590480582021, -17.530712272937677], [-63.15518302367638, -17.534734631450316], [-63.14676265893611, -17.528224420204175], [-63.13908126039477, -17.53102710558022], [-63.13946922007344, -17.540401181004825], [-63.15017897065266, -17.540439677942157], [-63.15410311417874, -17.53689757079842], [-63.1567191690983, -17.538643717013294], [-63.155026535504255, -17.564881993981952], [-63.14833924923821, -17.567340843535852], [-63.15397715002455, -17.57633837880156], [-63.15896092492497, -17.57630028089047], [-63.16189631844774, -17.571806514818547], [-63.159407650739105, -17.556550812226778], [-63.16525079215298, -17.553085005965176], [-63.16510201560156, -17.54721695876247]]], [[[-63.28499806823006, -17.88139508783259], [-63.28591182286251, -17.875851533203498], [-63.28192629522343, -17.872046805921315], [-63.27363914314447, -17.874421422460777], [-63.26896511432791, -17.872033985468697], [-63.25527258621174, -17.873443159549232], [-63.255313145167726, -17.882160589470825], [-63.26097661922868, -17.885888407087474], [-63.26589030931383, -17.88582069735387], [-63.27235816458773, -17.880316558969984], [-63.27905445527547, -17.88344358757085], [-63.28499806823006, -17.88139508783259]]], [[[-63.33620725428216, -17.889501882621975], [-63.336238957087645, -17.884682599254155], [-63.33321376294292, -17.88179637039419], [-63.32132878200088, -17.884342442742263], [-63.31901796265316, -17.887949749502145], [-63.31331781720609, -17.889697800314682], [-63.314301975929006, -17.903456153251813], [-63.32340177106464, -17.898956104699568], [-63.33339391140547, -17.899564170517593], [-63.33620725428216, -17.889501882621975]]], [[[-63.39875283896715, -18.004574210109368], [-63.39873593569492, -17.994781198645327], [-63.38568830867367, -17.980673936221415], [-63.376314922140786, -17.97986915056903], [-63.374205977720756, -17.975625590868482], [-63.36399444194893, -17.976743934398844], [-63.36395339761557, -17.98098044843077], [-63.37641818292091, -17.994730639446487], [-63.37680214303572, -18.001379676530558], [-63.38295733136119, -18.002461304442843], [-63.38381464217761, -18.008078498612413], [-63.390047844338234, -18.008666812250624], [-63.39224914078279, -18.01448435026858], [-63.396490629567495, -18.015574618924376], [-63.39875283896715, -18.004574210109368]]]]}}]}