{"type": "Feature", "geometry": {"type": "MultiPolygon", "coordinates": [[[[-70.79286720838365, -17.066407265662235], [-70.78774305147623, -17.062409388392677], [-70.774744359673, -17.05852436535279], [-70.76826054540047, -17.05271043762054], [-70.75335705916811, -17.054152003631454], [-70.75136673825057, -17.050217324254078], [-70.75430892240924, -17.043934692805554], [-70.75205834758171, -17.0407326784084], [-70.74464022225685, -17.040333846664534], [-70.74165311377406, -17.042487807304248], [-70.74166060857472, -17.04716686202054], [-70.74754741152566, -17.052075072860234], [-70.7438354665052, -17.05877403032988], [-70.74460010652759, -17.06267952254416], [-70.76110169242432, -17.072014027742892], [-70.77365188664147, -17.07620046305134], [-70.78133088482608, -17.07400813676728], [-70.79351427741325, -17.076114418198117], [-70.79637455784763, -17.074369975403926], [-70.79736026704134, -17.071482618275134], [-70.79286720838365, -17.066407265662235]]], [[[-70.76749108665054, -17.186090505056427], [-70.76472559933146, -17.182889574442296], [-70.75927760906093, -17.18277053151869], [-70.75641029767668, -17.18536565627312], [-70.75619295577404, -17.18906616642251], [-70.75858167203742, -17.191845762734562], [-70.76594427907138, -17.194346070580853], [-70.7689367460548, -17.19092966202038], [-70.76749108665054, -17.186090505056427]]], [[[-70.76580775477443, -17.119506106164277], [-70.76233661708405, -17.117588739532646], [-70.75931081667352, -17.118181240856156], [-70.75715176146151, -17.121355557431627], [-70.75766280268252, -17.124608762909496], [-70.76029893047253, -17.12635179779607], [-70.76546595045622, -17.126091602684472], [-70.76724265139214, -17.12298464816634], [-70.76580775477443, -17.119506106164277]]], [[[-70.80379922602044, -17.209805527726306], [-70.80841830951367, -17.209777989535638], [-70.81367366390656, -17.207225624369773], [-70.81502223809989, -17.20158698023449], [-70.80568914941622, -17.192347952773954], [-70.79854598012442, -17.191750559155075], [-70.79475410540694, -17.195394500745675], [-70.79344701307797, -17.20150295889942], [-70.7983542224727, -17.208218619183675], [-70.80379922602044, -17.209805527726306]]], [[[-70.81267117114648, -17.115802482643485], [-70.80947121312953, -17.114592586156746], [-70.80552554296365, -17.116127976662558], [-70.80468181750761, -17.119381354571207], [-70.80660417962814, -17.122740583576725], [-70.80953644407198, -17.1237248069029], [-70.81375366149017, -17.122250442305837], [-70.81469747093092, -17.118699056182162], [-70.81267117114648, -17.115802482643485]]], [[[-70.81316766602231, -17.076786464467528], [-70.81203671580805, -17.084292613533183], [-70.81758193324268, -17.08936866944077], [-70.82089567439048, -17.089699255297884], [-70.82819516721393, -17.085719459669164], [-70.8286835761431, -17.08006563504087], [-70.82124246911708, -17.073110230409227], [-70.81558294971607, -17.073463305883223], [-70.81316766602231, -17.076786464467528]]], [[[-70.84355126912364, -17.132308216962272], [-70.84249661162393, -17.12837899159523], [-70.83795913370871, -17.125469564125666], [-70.83396270197329, -17.125148240306686], [-70.83093249079072, -17.12823836950725], [-70.83154951135772, -17.131965621669018], [-70.83803212086067, -17.137577881155455], [-70.84249266698366, -17.13633359151818], [-70.84355126912364, -17.132308216962272]]], [[[-70.87113911520022, -17.09480805758996], [-70.8704564984694, -17.091850019132256], [-70.86538352213474, -17.087211586901233], [-70.85717748357959, -17.085009886011367], [-70.85494959622447, -17.080192259259803], [-70.84698047532802, -17.072539015777867], [-70.84204749696114, -17.070450732993304], [-70.83816714497411, -17.072839679261794], [-70.83886007264813, -17.084486172460917], [-70.85635523749937, -17.08861101073847], [-70.85874543133649, -17.094870266201642], [-70.85921723510451, -17.101951622142927], [-70.86100740750946, -17.104383511175318], [-70.86420140130619, -17.104904806316732], [-70.87013081502431, -17.10211817583271], [-70.87113911520022, -17.09480805758996]]], [[[-70.91346512904774, -17.167029229949126], [-70.90473443613396, -17.158695991364603], [-70.90106331262432, -17.157968450811243], [-70.89849628588807, -17.159662578833927], [-70.89630085730346, -17.16499731156384], [-70.89160757386497, -17.16798390240347], [-70.8908452468268, -17.171228366462767], [-70.89202834750475, -17.175079618677987], [-70.89427504592801, -17.176792176952716], [-70.90164394245586, -17.17512260892752], [-70.90808745662635, -17.17673140281842], [-70.9145564964516, -17.17240075090113], [-70.91346512904774, -17.167029229949126]]], [[[-70.96631372839758, -17.20089303453433], [-70.96478768130997, -17.198160472307155], [-70.9593455044936, -17.19550304012355], [-70.95195952696936, -17.18527929470846], [-70.94894875999248, -17.184567602719454], [-70.9439177620804, -17.18617559855773], [-70.93614764069574, -17.182567791071172], [-70.92952007705985, -17.187370216483263], [-70.92083193372137, -17.185771708894812], [-70.90780046570792, -17.196585405724903], [-70.906571407939, -17.19939594386505], [-70.90804567053763, -17.202657871858584], [-70.91269047091738, -17.204998595244938], [-70.92044821100426, -17.213389624877834], [-70.92716701671856, -17.21517417431833], [-70.93217027593064, -17.218779165604797], [-70.93829126306578, -17.217565198905785], [-70.94283963919179, -17.21919177762339], [-70.95214879161104, -17.217544242801562], [-70.96159546034401, -17.213112380966407], [-70.96631372839758, -17.20089303453433]]], [[[-70.99233386198715, -17.33182959414128], [-70.98865426431097, -17.330744390678436], [-70.98580624711306, -17.332760592811187], [-70.98543536895693, -17.338042443531887], [-70.98744726310998, -17.340823961567573], [-70.99194770804102, -17.341084092278994], [-70.99509941920704, -17.33828827671002], [-70.99524119498616, -17.33478031244175], [-70.99233386198715, -17.33182959414128]]]]}, "properties": {}}