{"type": "Feature", "geometry": {"type": "MultiPolygon", "coordinates": [[[[-90.18966986236127, 15.096718914464036], [-90.19701067139451, 15.096087878780178], [-90.20112826008268, 15.10176345197624], [-90.20023288132548, 15.110442010755644], [-90.19343918736179, 15.114157207159206], [-90.19009383863215, 15.113336863405225], [-90.18480728385413, 15.107076629526295], [-90.18463126015835, 15.100791265029446], [-90.18669073383974, 15.097629903330914], [-90.18966986236127, 15.096718914464036]]], [[[-90.28717568227418, 15.093807173725123], [-90.28823670404954, 15.100106644647736], [-90.28703625070881, 15.10443056354208], [-90.28266775913383, 15.107854402220333], [-90.27891954745616, 15.113667365784952], [-90.27353355227658, 15.11418701864649], [-90.26706945794437, 15.111459846670346], [-90.24859936033401, 15.11717400850071], [-90.2387334042307, 15.112707817062434], [-90.23731437681845, 15.110302204407615], [-90.23768630377312, 15.106074125607384], [-90.24422906068926, 15.102674279073337], [-90.25155906213263, 15.1040344362142], [-90.25950437321171, 15.102276821955556], [-90.26868524859921, 15.105589915970821], [-90.27174592720276, 15.10495266044449], [-90.2769147370073, 15.097906506688332], [-90.27446322059076, 15.09214452070511], [-90.27529938105202, 15.085154522647436], [-90.27222731904263, 15.08303991247978], [-90.26346866491247, 15.083897820172957], [-90.25737836460533, 15.082192577859221], [-90.25564753708834, 15.079116679077641], [-90.2568241532229, 15.072841232533886], [-90.25393787568987, 15.069940048909512], [-90.23708088532818, 15.072792074287351], [-90.22743266012914, 15.066602152985432], [-90.22522970051048, 15.062752048254657], [-90.22443477489145, 15.05641381843079], [-90.21659889712079, 15.05426425513199], [-90.21400049473006, 15.051998491853272], [-90.21458375562182, 15.044019645443592], [-90.2110879948328, 15.037150804840962], [-90.21030899850834, 15.029683895407311], [-90.2021547644484, 15.024161893802827], [-90.19466908555027, 15.026493257648005], [-90.19175275607671, 15.02587722321647], [-90.18863396319543, 15.022148686226423], [-90.18930184931409, 15.015437321204331], [-90.19741303174212, 15.012346578436672], [-90.20327651551676, 15.014956410266107], [-90.20802321808783, 15.013664576319899], [-90.21139168613692, 15.014523354393036], [-90.21483229981649, 15.021194313648458], [-90.21442770748416, 15.0285762477056], [-90.22694142707918, 15.036147617319136], [-90.23042160253574, 15.049767085770402], [-90.23656622171606, 15.052120663864947], [-90.24756417360275, 15.052396907215163], [-90.25250642196313, 15.042964307052573], [-90.25153538344763, 15.038648230815566], [-90.24517468580737, 15.037074029061205], [-90.24315835689224, 15.034282371063226], [-90.2438572407585, 15.029380342444743], [-90.24882911601694, 15.021915652355933], [-90.26299822729527, 15.016801345839559], [-90.27408582550264, 15.022249328822333], [-90.2761745527056, 15.027823357504943], [-90.27191887468815, 15.0393999884407], [-90.27616403105252, 15.046960681077945], [-90.27347556200954, 15.056715166403231], [-90.27056683938835, 15.06103432514992], [-90.27164242280226, 15.073389912139389], [-90.27401874813194, 15.077453374222886], [-90.27454487890103, 15.083534078838465], [-90.28538634508625, 15.08600606950763], [-90.28717568227418, 15.093807173725123]]], [[[-90.26364363897578, 14.98429454805307], [-90.26647337745933, 14.985141339154952], [-90.26958733085972, 14.988773146562552], [-90.26767336438657, 14.99456089336269], [-90.25304762023927, 15.00004295925091], [-90.24814947168392, 14.999676440368225], [-90.24514697189653, 14.997452563918257], [-90.24375899870152, 14.990098979389437], [-90.25043689315339, 14.978685315780611], [-90.25508477592435, 14.978153485554287], [-90.25979016022875, 14.983391994175665], [-90.26364363897578, 14.98429454805307]]], [[[-90.40972451866205, 15.162098899327786], [-90.41093272031884, 15.167163850993859], [-90.4050252574683, 15.17081079386907], [-90.39720994924843, 15.164292372727054], [-90.38312849525488, 15.163573176419918], [-90.37804330652398, 15.160781262971176], [-90.37026215634074, 15.164776036592206], [-90.35990412065044, 15.16479412256091], [-90.3488446431216, 15.162126391478628], [-90.33907826779952, 15.151409487132604], [-90.33394945217069, 15.149576631980223], [-90.3306185469379, 15.150609806145477], [-90.32648629938416, 15.156729239369565], [-90.32100203342293, 15.157651911846438], [-90.31471513791314, 15.15642427817416], [-90.30842684971431, 15.153575046377107], [-90.30671356206639, 15.148848349081552], [-90.30849219049185, 15.142558452077788], [-90.31964567065299, 15.140717689563273], [-90.32726780278101, 15.142184430796984], [-90.33109905727117, 15.13753667421032], [-90.33608619372815, 15.135382077309297], [-90.33846630264193, 15.130520598857375], [-90.34192823861754, 15.129634276107423], [-90.34681168381266, 15.133120733527521], [-90.34943998413415, 15.146452498573801], [-90.35350018440471, 15.149460519169898], [-90.37211604253345, 15.15029395983797], [-90.37479792300032, 15.148091738225482], [-90.37683503029335, 15.14121236137627], [-90.38574106257607, 15.141409702665303], [-90.39245564730969, 15.14952983896809], [-90.40478345224857, 15.15144242003601], [-90.40972451866205, 15.162098899327786]]], [[[-90.30401920700116, 15.137977318201411], [-90.29553309731511, 15.138635424168841], [-90.29260487699375, 15.134450990086345], [-90.29403906473367, 15.124258166618658], [-90.29981982084048, 15.118655422116268], [-90.29827807671558, 15.113365296915509], [-90.29962204825628, 15.098804991455044], [-90.3066328821731, 15.086121549258701], [-90.31051677541289, 15.082225867270475], [-90.31089571685236, 15.07955241545495], [-90.30600531687725, 15.074389788039031], [-90.2959170193831, 15.072375609054689], [-90.28841176602799, 15.066270303855795], [-90.28608156668425, 15.060502359996294], [-90.2881095569017, 15.057765916009552], [-90.29401654313301, 15.056193499240946], [-90.29957998410359, 15.059727809569699], [-90.30263601259684, 15.05955511725786], [-90.30467518728425, 15.057272377811403], [-90.30509790646178, 15.050035430745275], [-90.30754927428619, 15.046241193345976], [-90.3112542398091, 15.044823569565057], [-90.32126483614391, 15.04685595983478], [-90.32721057242013, 15.043039455551982], [-90.32826645296109, 15.040194969882425], [-90.32666328405071, 15.029446687803887], [-90.3223927841402, 15.0282084814087], [-90.31768357818284, 15.030766225300441], [-90.3136509906396, 15.03082148116072], [-90.30922794274937, 15.026973194512578], [-90.30766841954612, 15.022548145370232], [-90.30931208200859, 15.017811226641665], [-90.31865517017361, 15.011035936302255], [-90.32680036096635, 15.011644883760003], [-90.33270706827311, 15.009612572113696], [-90.33832381483921, 15.013672869027573], [-90.33833480709912, 15.01733662288052], [-90.3346864220979, 15.020937001420092], [-90.33417584704539, 15.023621398286332], [-90.33959845360799, 15.029178300805036], [-90.3414377253854, 15.037347196115718], [-90.33362744350478, 15.043281775781614], [-90.3304092504066, 15.059486325266295], [-90.32409251462205, 15.062335400385576], [-90.31665102924615, 15.06861880315254], [-90.31172776105588, 15.079895596201402], [-90.31367960948162, 15.083051142218675], [-90.32091839284979, 15.085335302208604], [-90.32916492062806, 15.09497837560541], [-90.33594022512693, 15.098133332804581], [-90.3372846610234, 15.101979779557901], [-90.3350242134081, 15.1063422417835], [-90.32445994066171, 15.113332643916866], [-90.31748584392892, 15.116116949591317], [-90.30781119617146, 15.116025145768596], [-90.30358307706221, 15.117949143550966], [-90.30258475502498, 15.12166028603812], [-90.30585808913561, 15.127163988564657], [-90.30401920700116, 15.137977318201411]]], [[[-90.30360696481905, 14.950992674226018], [-90.30349863519234, 14.95814506250847], [-90.2960611947401, 14.960173115548685], [-90.293349333523, 14.957123660146694], [-90.2920498704828, 14.950901054680052], [-90.28753019296143, 14.94715244462932], [-90.28744306686613, 14.943697888716706], [-90.2952986463938, 14.93563086638189], [-90.30327396134273, 14.935761536230745], [-90.305652, 14.939464366808245], [-90.30310781483405, 14.9464429282734], [-90.30360696481905, 14.950992674226018]]], [[[-90.3408701706255, 14.974353132626517], [-90.34000256535589, 14.981316559786293], [-90.33758330368583, 14.983728787610321], [-90.33267867869216, 14.984102164698934], [-90.32201077696601, 14.979602621753365], [-90.3125320333162, 14.988485750632705], [-90.3085084297583, 14.989081517044172], [-90.30584747549042, 14.986496276738238], [-90.30501993630556, 14.978373951045308], [-90.30710417810761, 14.967943259329571], [-90.30964652669833, 14.965427699014072], [-90.31434573592398, 14.965291471149515], [-90.31762785981792, 14.969009406432685], [-90.32373940670115, 14.97216960710998], [-90.33084009510793, 14.967679784460062], [-90.33833154617244, 14.967191518211381], [-90.34153574660178, 14.97041123859934], [-90.3408701706255, 14.974353132626517]]], [[[-90.33040850518731, 15.26840879869182], [-90.33197336364212, 15.27205008395974], [-90.3293413011769, 15.277003634479215], [-90.3172390562018, 15.279507814979203], [-90.31272732796265, 15.27705811271424], [-90.3146897412076, 15.266573926759898], [-90.31112964943263, 15.257391117132878], [-90.30664683064323, 15.251839355717555], [-90.30929884713622, 15.244206288910874], [-90.31270628863439, 15.239758998131347], [-90.31047655219197, 15.231019827545557], [-90.31454173689673, 15.2270181879778], [-90.31839956721286, 15.22752685321136], [-90.32867984412897, 15.237032813094466], [-90.32771550878779, 15.243032766474622], [-90.32020461240899, 15.24554114190132], [-90.31850706472122, 15.249512561789713], [-90.31943495563227, 15.2566855742081], [-90.32438315910909, 15.264831492847136], [-90.33040850518731, 15.26840879869182]]], [[[-90.36364714890084, 15.276076718575885], [-90.3599244226258, 15.281491070856466], [-90.35014994320657, 15.279616612576078], [-90.34863819712963, 15.27143566578061], [-90.34188500143043, 15.268720648169152], [-90.33965220441318, 15.264562040507338], [-90.33903197631668, 15.25737581302921], [-90.34217586724681, 15.248841177552425], [-90.34705427454821, 15.248262633111311], [-90.35116267051349, 15.251270349997045], [-90.35423836393099, 15.257876612100828], [-90.3529284599948, 15.266583213875794], [-90.35530940179271, 15.26850327526185], [-90.36231368164097, 15.268949897738354], [-90.36421288840958, 15.27232181988947], [-90.36364714890084, 15.276076718575885]]], [[[-90.3746612530668, 14.94570158301488], [-90.37270992732532, 14.950839074731373], [-90.36724837287883, 14.951640976346447], [-90.35860948978143, 14.956858021244008], [-90.3619074458282, 14.968581277960993], [-90.36074878100031, 14.972640655249922], [-90.35673864163431, 14.97388710019471], [-90.35099176915709, 14.97065445910349], [-90.34964565893303, 14.967284465868815], [-90.35165903787015, 14.961901143042043], [-90.35761575115632, 14.956796888940971], [-90.35491147379682, 14.948957595511082], [-90.35956447768591, 14.939820966387838], [-90.36394775568768, 14.936440859568409], [-90.36818767404705, 14.936728897582672], [-90.37283657256462, 14.940897374324468], [-90.3746612530668, 14.94570158301488]]], [[[-90.37944483689957, 14.83617362458186], [-90.37527549473711, 14.837558610386594], [-90.37034600308255, 14.834568329706116], [-90.37117622251212, 14.828938267077367], [-90.37521504556982, 14.825207666409352], [-90.37988512145098, 14.825887539595486], [-90.38208481626138, 14.828104061371915], [-90.3820770359809, 14.833562697491343], [-90.37944483689957, 14.83617362458186]]], [[[-90.40419292887053, 15.091201875384426], [-90.4031289596978, 15.099333899156095], [-90.39960255432864, 15.102926016611917], [-90.39179854206299, 15.106098614512534], [-90.38556950422935, 15.104045668348878], [-90.38409064604119, 15.09834472129263], [-90.3852073909173, 15.091025733526493], [-90.38761985784684, 15.08748434262185], [-90.39956536111389, 15.084287170206242], [-90.40379660454848, 15.087738885470229], [-90.40419292887053, 15.091201875384426]]], [[[-90.42107329181292, 15.236935898385806], [-90.41319214781473, 15.238004336244863], [-90.41121810034683, 15.235667443339349], [-90.41131622441617, 15.23228496533962], [-90.41797515128074, 15.227500668016251], [-90.42181501867313, 15.227408629384431], [-90.42532157338681, 15.232957513035036], [-90.42395124692065, 15.23582044652738], [-90.42107329181292, 15.236935898385806]]], [[[-90.409947173005, 15.244820796451215], [-90.4148889417603, 15.250135765150148], [-90.42123128001761, 15.253843305883457], [-90.42198073796511, 15.258153861927056], [-90.4198886712193, 15.261140012057451], [-90.40872924712565, 15.259906452762657], [-90.40245123917495, 15.252365361468511], [-90.40304086735554, 15.247477664408095], [-90.40664632623803, 15.244851940048639], [-90.409947173005, 15.244820796451215]]], [[[-90.43144408561824, 14.848780431322172], [-90.42970091544551, 14.85197382628605], [-90.42568427526514, 14.853337701129606], [-90.42010909131653, 14.850670371569462], [-90.41883628027793, 14.8472204741585], [-90.42161939992906, 14.842675335199644], [-90.42726651944315, 14.842549048389026], [-90.43133670575929, 14.844482207972273], [-90.43144408561824, 14.848780431322172]]], [[[-90.50971293020231, 15.09487743251319], [-90.50946969517733, 15.09990611770307], [-90.50342212619611, 15.102445627355255], [-90.49021437946217, 15.09504888444286], [-90.48242088112706, 15.094487278497615], [-90.47557882657958, 15.083849204730255], [-90.47542241484246, 15.076412451416429], [-90.480589023782, 15.072346907778972], [-90.49363041998193, 15.073404483827687], [-90.50488866643687, 15.082314367649223], [-90.50544057361385, 15.08948822990085], [-90.50971293020231, 15.09487743251319]]], [[[-90.49566615327407, 14.960890388417434], [-90.49569899344957, 14.96435359624797], [-90.4908553878649, 14.971247233366332], [-90.48579201347769, 14.973574747787907], [-90.48073148668418, 14.971126162236702], [-90.48057844005828, 14.965736786596473], [-90.47746344371832, 14.958735065835466], [-90.48038606470384, 14.954094789901667], [-90.48968188503221, 14.952371305844848], [-90.49369265742602, 14.954310029942059], [-90.49566615327407, 14.960890388417434]]], [[[-90.50151422107413, 15.199774634105342], [-90.49995553593689, 15.203558916758528], [-90.49454166310306, 15.20499705741145], [-90.4903003565891, 15.202652602868586], [-90.48899424606506, 15.199770821102032], [-90.49089369548685, 15.193437041874743], [-90.49631781116248, 15.191827851291379], [-90.49971626650257, 15.193654320467889], [-90.50151422107413, 15.199774634105342]]], [[[-90.52362324872121, 14.908032644034463], [-90.52751092836206, 14.908277632020377], [-90.52979045521776, 14.910099426898775], [-90.52909019589518, 14.918207325032457], [-90.52603544926569, 14.923406968035774], [-90.51839037951835, 14.92462510499063], [-90.51519368366338, 14.920948493663674], [-90.51666522040269, 14.912753928481344], [-90.52362324872121, 14.908032644034463]]], [[[-90.53452771366439, 14.863266738662256], [-90.53061735205918, 14.866553560217838], [-90.52560463847134, 14.86499651614441], [-90.52389535881778, 14.857272392442612], [-90.52553719720794, 14.853953533732785], [-90.53064775575515, 14.852701503478068], [-90.53365118270925, 14.853966369042576], [-90.53533173200779, 14.857039098778687], [-90.53452771366439, 14.863266738662256]]], [[[-90.58641784205597, 15.160915982221708], [-90.58213595814225, 15.165048799716645], [-90.57422863966967, 15.162386621820517], [-90.5676306869632, 15.165573764687284], [-90.55312913976805, 15.161312071838813], [-90.54682626027962, 15.164939448277774], [-90.54013684510477, 15.165129549438811], [-90.53742267015313, 15.163735640040356], [-90.53591451856296, 15.160180477434693], [-90.53805136402903, 15.155625016643379], [-90.54278609617256, 15.153042789101006], [-90.55134314536801, 15.153795167377556], [-90.56318151174986, 15.14667655014419], [-90.57058691479219, 15.148803992077216], [-90.57680753600759, 15.14417464411041], [-90.58054747866107, 15.14546642513912], [-90.58709606569411, 15.152225794214313], [-90.58898808669204, 15.157157795078577], [-90.58641784205597, 15.160915982221708]]], [[[-90.57711083719592, 14.848347581933275], [-90.57434678480134, 14.850740033467474], [-90.55628059729142, 14.853512925064827], [-90.54825806626857, 14.850158800822499], [-90.5466821552276, 14.846667028401985], [-90.54868982383725, 14.838086057369015], [-90.55920422176443, 14.831106643273484], [-90.56370113561039, 14.833371929391564], [-90.56734668895452, 14.839645168485632], [-90.57618664915026, 14.842475037018586], [-90.57711083719592, 14.848347581933275]]], [[[-90.58262997427363, 15.21590449058156], [-90.58304330971782, 15.221173750489848], [-90.57913854068077, 15.224780319892057], [-90.56973388194167, 15.224969116023395], [-90.56605782138304, 15.218692613984167], [-90.56711677895402, 15.21349808988315], [-90.57068232771347, 15.211395237746949], [-90.57925548758418, 15.212286341521153], [-90.58262997427363, 15.21590449058156]]], [[[-90.66550122542115, 15.120481351982122], [-90.66763920093851, 15.124065981200872], [-90.6651505469734, 15.128692504768686], [-90.6561952105482, 15.128592389421257], [-90.65138391746565, 15.13201408383004], [-90.6389557779011, 15.133949874240717], [-90.63305421745063, 15.131260507541468], [-90.62960444526658, 15.123819736328421], [-90.6212009680197, 15.121874640573203], [-90.61113530814697, 15.124140929972647], [-90.60678208016205, 15.121473552357962], [-90.60560567881748, 15.118448045484378], [-90.60744099811373, 15.114224766050478], [-90.61565082774769, 15.111793423242771], [-90.6181847669896, 15.100503824441136], [-90.62183071788242, 15.095975998987672], [-90.63058119892418, 15.092224353775148], [-90.63985998758088, 15.099574095423415], [-90.6381112513537, 15.114157296092287], [-90.63972328408407, 15.117857990884442], [-90.64268791339275, 15.1186031588488], [-90.65268539055182, 15.11580050448851], [-90.66103116494288, 15.117214477161088], [-90.66550122542115, 15.120481351982122]]]]}, "properties": {}}