{"type": "FeatureCollection", "features": [{"type": "Feature", "properties": {"threshold": 70}, "geometry": {"type": "MultiPolygon", "coordinates": [[[[3.078479805032168, 36.60587785547505], [3.080446077919732, 36.61431985030212], [3.0941796951881138, 36.615012604220546], [3.0969110737603143, 36.62091913712229], [3.105557940147158, 36.62331604475608], [3.1090857384739046, 36.623220353050186], [3.1118779303565285, 36.6180181086715], [3.1177047139777874, 36.616152985591405], [3.1116596364328646, 36.60786340057397], [3.1043748869254237, 36.61101428659418], [3.099804850829796, 36.60948378265605], [3.098339044239262, 36.60080860611874], [3.091369514878865, 36.597496074015574], [3.081346517747955, 36.59763895521096], [3.078479805032168, 36.60587785547505]]], [[[3.1067707605633115, 36.55934178447727], [3.106934895169001, 36.56688927486909], [3.1155656511366603, 36.56614120054089], [3.1155530768305093, 36.55769823500336], [3.1067707605633115, 36.55934178447727]]], [[[3.038125577164581, 36.666786640818906], [3.0437624969763797, 36.67575993038329], [3.052557513495436, 36.676124063229736], [3.0573430931793117, 36.685096528804365], [3.0558093441219274, 36.68848690982483], [3.050516167937997, 36.68780183901401], [3.0427257633480647, 36.69174274246303], [3.04292914531618, 36.69948353879303], [3.0481013777040626, 36.7010885101403], [3.0572423105263797, 36.698737670142364], [3.0933280886632226, 36.69954721220149], [3.0967185175374063, 36.69003113623898], [3.094998161882991, 36.682655757205026], [3.101955803303763, 36.68085578477111], [3.103508534882716, 36.674781054923066], [3.108572653835316, 36.6717306402908], [3.114997415386533, 36.64754810808087], [3.10819705392571, 36.6427958873465], [3.106682523492689, 36.63342749065888], [3.1022516878892357, 36.63149973104089], [3.099418014625425, 36.63364366846742], [3.1007492633467333, 36.643542430424645], [3.094081467242241, 36.646956396934456], [3.0851440976581284, 36.64717415249426], [3.0815906996953837, 36.65354611829322], [3.077617104599593, 36.6527604663188], [3.0760582719924887, 36.64644028882298], [3.071134591682372, 36.6441132008177], [3.0657183358649323, 36.64505811615109], [3.0655231771542955, 36.64882180804508], [3.0720975590176307, 36.657143719766665], [3.0788114409141287, 36.65476752400759], [3.08391213225094, 36.66340644046273], [3.0837370552605248, 36.67086078783393], [3.0765566606937944, 36.68126996240761], [3.068579560661389, 36.67597707165552], [3.0630557990252583, 36.67768746020336], [3.0539047241268555, 36.67288040766428], [3.060860954317702, 36.66193457178152], [3.0566197893699014, 36.65304307567834], [3.0527075318015586, 36.65337850123836], [3.0524904474611274, 36.6617511343067], [3.0480747291848704, 36.66569602396656], [3.0387355050249223, 36.66409780707466], [3.038125577164581, 36.666786640818906]], [[3.0659789052491853, 36.68627983596729], [3.0687040709181894, 36.688843644254376], [3.065223445902499, 36.69103174479615], [3.062899100346271, 36.688511261477736], [3.0659789052491853, 36.68627983596729]]], [[[3.074076587813026, 36.54113744211266], [3.0820468070028073, 36.54479685908676], [3.086289099791704, 36.56065312490498], [3.0997414755103927, 36.55592408255325], [3.1020399222799067, 36.554675683996656], [3.1007261907903896, 36.547618724271146], [3.104163815968109, 36.541436586442885], [3.111164244747711, 36.53623712681346], [3.1092493933887693, 36.527536992940405], [3.1006012545150075, 36.52801912770483], [3.1004443670953155, 36.53256149840153], [3.096805245591698, 36.5344752494091], [3.0777628558530523, 36.53613928452732], [3.0737220178154145, 36.538664624679335], [3.074076587813026, 36.54113744211266]]], [[[3.0851607773668714, 36.563976608711556], [3.0773517735549882, 36.56882486083532], [3.087629353997814, 36.584611893563704], [3.093190710555048, 36.585585521582985], [3.0947103971774244, 36.57948455887929], [3.090488404527836, 36.57778832740413], [3.0919849955862744, 36.57296828033761], [3.0891889601499822, 36.56542842967513], [3.0851607773668714, 36.563976608711556]]], [[[2.9713258499906123, 36.63957945291736], [2.982847105575832, 36.643053596666824], [2.982500584597621, 36.646999172971825], [2.978225886325355, 36.64989184823522], [2.9807808358931247, 36.65297933310221], [2.989860288220996, 36.64539817054945], [3.003867834127528, 36.64511957108011], [3.008512025069942, 36.65437985636548], [3.0044884818711295, 36.66107895233393], [3.011697097270995, 36.66000912351545], [3.017045378065221, 36.66258221312889], [3.0185042570247655, 36.658086585377305], [3.024053222603312, 36.656977517393614], [3.0127645117863975, 36.64354694297852], [3.003192948834679, 36.6426819631459], [3.0024326802678822, 36.63825627567512], [2.97169117701095, 36.63746034879045], [2.9713258499906123, 36.63957945291736]]], [[[3.002346804340296, 36.57952374089664], [3.0021238166193416, 36.58513037753023], [3.0046556703497305, 36.58637945953614], [3.0107707985168073, 36.58630616737288], [3.0118817563989957, 36.58276735644947], [3.01568720061032, 36.581624873976445], [3.0117626117172285, 36.56802225506266], [3.004072948520703, 36.569706240772], [3.002346804340296, 36.57952374089664]]], [[[2.9970411132746735, 36.533760162199755], [3.006597376833304, 36.53533468626558], [3.014917710924138, 36.53316835938466], [3.0054792565112507, 36.53010647171908], [3.008476939031811, 36.524830354219944], [3.0030637971604373, 36.52127433187868], [2.9994016723634727, 36.52469233266137], [2.9970411132746735, 36.533760162199755]]], [[[2.933980501551774, 36.689977233401855], [2.939951517626443, 36.69066420787794], [2.944024059921961, 36.685050096901136], [2.9509157577633625, 36.68460897181115], [2.9554309838332045, 36.69415759012398], [2.965270794003494, 36.70055080204258], [2.966580246310829, 36.70462351565542], [2.9700079483451285, 36.704788243637566], [2.969952873988311, 36.69457209154647], [2.9760515196878616, 36.69247707606407], [2.982376416778173, 36.695789948213665], [2.9864204662580174, 36.69095141354928], [2.986456309557514, 36.68622507386648], [2.9828791656654348, 36.6833430852935], [2.959908830338598, 36.68356742484663], [2.9537903786344137, 36.67516383441866], [2.957989311920269, 36.67069604996815], [2.9543165035562984, 36.667179956127136], [2.954209274568327, 36.66078146216087], [2.9477191837690517, 36.65978408888351], [2.941376049286672, 36.65520956160036], [2.9406166639864977, 36.65992518250762], [2.946902710406628, 36.66477331804268], [2.9451345973643246, 36.67303761599064], [2.947972495676573, 36.67773726449279], [2.9398799077865996, 36.681321527318794], [2.933980501551774, 36.689977233401855]], [[2.952607745883498, 36.67889128907925], [2.955211872171627, 36.681609781573066], [2.951847303994058, 36.68379115643093], [2.949223029619674, 36.680747922324095], [2.952607745883498, 36.67889128907925]]], [[[2.939192652530664, 36.63216725919078], [2.943691153495379, 36.63377624326418], [2.9444440155485765, 36.63865230373896], [2.9522499604543317, 36.64193158233205], [2.9535681447533317, 36.64673822076378], [2.958581138130366, 36.649860440111], [2.962553051678946, 36.643157659606175], [2.9594334439579044, 36.638317530962915], [2.952020655868622, 36.63727001356819], [2.948561969314136, 36.62508479199136], [2.9426778707450345, 36.62508210652351], [2.939192652530664, 36.63216725919078]]], [[[2.92692618976076, 36.61486859910555], [2.926045460155309, 36.617863804262726], [2.9313047309772498, 36.61967112602227], [2.938699188996976, 36.615455335256705], [2.930755748268131, 36.60417113504548], [2.926860465346521, 36.605400376073625], [2.9292673532767304, 36.6123367852241], [2.92692618976076, 36.61486859910555]]], [[[2.9113188618359125, 36.513938724619486], [2.908586222368925, 36.516655330357636], [2.9087692223752746, 36.522447278909866], [2.9192243321268245, 36.52181699984923], [2.9195491770362305, 36.51370311781152], [2.915570176037794, 36.50957409798228], [2.9113188618359125, 36.513938724619486]]], [[[2.8956417924891404, 36.58478365436063], [2.8953680864424967, 36.5885361017551], [2.9064810553430087, 36.58927148594937], [2.914809657388556, 36.59301989036976], [2.919332263937346, 36.59121885535264], [2.914118990872325, 36.571303988528385], [2.9167433543606167, 36.56550291076599], [2.91360636283557, 36.5620713621773], [2.9085624796414553, 36.562834999517804], [2.90491294804179, 36.55971773819064], [2.8985782382934864, 36.562262958551266], [2.8965843979886277, 36.56940335467729], [2.9005481560138873, 36.57479716943582], [2.896639203349637, 36.57718918350228], [2.8956417924891404, 36.58478365436063]]], [[[2.7941107561738483, 36.476155535499366], [2.794123363332936, 36.48437747592117], [2.7991058010588654, 36.48734474668349], [2.8025440330975577, 36.49425130815821], [2.8195986976760703, 36.494260863394246], [2.8218439899122907, 36.50025051299608], [2.830260373586478, 36.50196125495851], [2.829780203090832, 36.50878649982477], [2.8335187165832987, 36.511116673153495], [2.8354907615355356, 36.51724215383235], [2.842934094753088, 36.517408868798704], [2.8568886149501074, 36.52271011668889], [2.8568461240546816, 36.53223004980114], [2.8669613682409683, 36.53091192531594], [2.876957821808921, 36.53366440559037], [2.879210135870589, 36.527927947552286], [2.8768613876974456, 36.5241961240038], [2.882486919052162, 36.51507038668678], [2.885899525267171, 36.51274575878356], [2.8965794155891786, 36.512631381321505], [2.891443735930626, 36.50841749644857], [2.892009791141499, 36.502442619325635], [2.8862535914749796, 36.496969256656925], [2.8707686363677674, 36.493894127064394], [2.8661145454724797, 36.48214774921439], [2.8606041036184675, 36.48203019552679], [2.8548944890533483, 36.48561919942286], [2.8504682278689004, 36.479865969717736], [2.839494167489687, 36.476965117376295], [2.8389456101969044, 36.46840950740497], [2.8347637103380783, 36.46497647437687], [2.820966953534584, 36.465625532994736], [2.816362595645959, 36.46196507035106], [2.805754934523849, 36.461948278290066], [2.8019488400218995, 36.47132864763908], [2.794417313525572, 36.47316539496143], [2.7941107561738483, 36.476155535499366]], [[2.873672369892619, 36.50862701166397], [2.8774314254345343, 36.51141976702606], [2.8719296555692093, 36.5130444770079], [2.870188844334237, 36.51019889954358], [2.873672369892619, 36.50862701166397]]], [[[2.8759823647027503, 36.542576012641575], [2.8804328599677156, 36.54842531798031], [2.8853878850717147, 36.54832797420639], [2.8833355599371573, 36.543600201180325], [2.885275863776088, 36.5384098360692], [2.8760085193591975, 36.54054032885728], [2.8759823647027503, 36.542576012641575]]], [[[2.8645098878363684, 36.61185391862876], [2.863578137983433, 36.616266568530975], [2.866894141910718, 36.617781065394595], [2.871002891850052, 36.62749523026587], [2.8748953055438475, 36.62768189224383], [2.885389185476944, 36.61480951267531], [2.884475571925246, 36.61189342763332], [2.8781002355244563, 36.60779456220808], [2.8744397228175416, 36.61090514214992], [2.8645098878363684, 36.61185391862876]]], [[[2.8662118882389396, 36.691402995534204], [2.8728683997425812, 36.694311506440265], [2.8740721152696698, 36.688523193251505], [2.8796688298445368, 36.68744507777915], [2.882639424584049, 36.680392499689034], [2.8804783858511556, 36.67604808035652], [2.871835507079831, 36.67910132737612], [2.8732971782850014, 36.68485499139609], [2.8644688301668375, 36.68871325198594], [2.8662118882389396, 36.691402995534204]]], [[[2.8338192355135146, 36.53142434863674], [2.842251238248828, 36.53593613933256], [2.847061375547348, 36.53471082367905], [2.846128331471197, 36.52755318662579], [2.8409732698544743, 36.52342286893667], [2.833524929843673, 36.5259287325623], [2.8338192355135146, 36.53142434863674]]], [[[2.780790163353348, 36.67833023066712], [2.7819121392892674, 36.68444834766776], [2.7882266679560512, 36.68425684870665], [2.7914937474647936, 36.68757872939705], [2.8012423308453966, 36.687134377117886], [2.810593795336151, 36.697188744471894], [2.829248596911214, 36.7002357783748], [2.8329265468619242, 36.69682313866909], [2.832441142266471, 36.69215906926163], [2.8157976164737217, 36.69314941716377], [2.8129512777451557, 36.6914355380473], [2.81239832622681, 36.68627727355626], [2.8033300434083763, 36.68617735101657], [2.7999694050224773, 36.681421153604056], [2.8017431530759795, 36.67327080373153], [2.7952385790343066, 36.67008246991347], [2.7990612636033374, 36.66481223086864], [2.796682822851923, 36.662503127391744], [2.792996123055636, 36.66260801736919], [2.7901822545351584, 36.66754145650811], [2.7845816279283366, 36.670095377413766], [2.784155440377831, 36.676566740354055], [2.780790163353348, 36.67833023066712]]], [[[2.8188801427658476, 36.539904324228864], [2.819841566687637, 36.544600462140636], [2.82641932706162, 36.5454791399067], [2.8286505511569278, 36.535604218642845], [2.821914271808827, 36.53455162685312], [2.8188801427658476, 36.539904324228864]]], [[[2.8076013102649684, 36.613629332722894], [2.805703656847083, 36.61760087328888], [2.811481008639672, 36.619273694666816], [2.8140818132220544, 36.62667999498694], [2.819959539273007, 36.626791228675366], [2.8212029988504828, 36.62311923354559], [2.816901598949295, 36.61912204640915], [2.8164427157353464, 36.61464792924301], [2.8076013102649684, 36.613629332722894]]], [[[2.7980010832865374, 36.5128227758237], [2.7997959304288176, 36.5194562581745], [2.805804799568232, 36.52111629170925], [2.8084165151245064, 36.51936820609775], [2.8094838891531473, 36.51417981671557], [2.8037289133550396, 36.51018254483199], [2.7990522007350744, 36.51009445329862], [2.7980010832865374, 36.5128227758237]]], [[[2.736624021125822, 36.66375217447867], [2.7444326159596715, 36.671874017681624], [2.7555476305353928, 36.67255705444171], [2.7536613698046275, 36.65623059708887], [2.760206401253417, 36.65276576140911], [2.7727321542911825, 36.65718654770338], [2.7786560351188374, 36.65098331292079], [2.7914445765655267, 36.6467250330946], [2.7945506057811147, 36.641774900672786], [2.788073373962355, 36.63787724013867], [2.7906959241090914, 36.63088577413588], [2.7850485155555935, 36.63066227104999], [2.7779557120839122, 36.63455647366464], [2.771894239140466, 36.62987342410178], [2.761348499863217, 36.63057519732717], [2.759288164320681, 36.635638086806246], [2.747650725003772, 36.63497642200787], [2.737049262643412, 36.63807735341247], [2.740037998491084, 36.644821396795386], [2.7385529625267138, 36.64922479912133], [2.7427657829962535, 36.65487355523747], [2.736624021125822, 36.66375217447867]]], [[[2.751507115629315, 36.46393871339652], [2.7644427925467685, 36.467220716762284], [2.7674212267818454, 36.472199528436434], [2.7734389544985776, 36.472127588950215], [2.776883269833785, 36.468535246639554], [2.7861938176194387, 36.46922193213883], [2.7876789550032006, 36.465655501177], [2.7863714440309977, 36.46200767522029], [2.7804940387165513, 36.4615981747917], [2.7803124333529614, 36.45566729300441], [2.7768137958089323, 36.4544691371932], [2.7672098201533086, 36.45598343765806], [2.7601424859983306, 36.46011086474148], [2.753470952834499, 36.45521581928473], [2.751507115629315, 36.46393871339652]]], [[[2.7445037273296125, 36.25866008515179], [2.7435064778822587, 36.26145825414804], [2.748573134615285, 36.26933677782776], [2.770643484340805, 36.26941644101473], [2.7736511172696874, 36.273886012344406], [2.7777458938789596, 36.27376674380635], [2.7808344042511033, 36.26974123597773], [2.7804312013182138, 36.26658783255968], [2.772370815942858, 36.26573763759731], [2.77082205756288, 36.255837071109475], [2.7657684580314186, 36.25320803979096], [2.753284642830337, 36.250938390508175], [2.7445037273296125, 36.25866008515179]]], [[[2.7531896948421726, 36.2863954108389], [2.7559038503191964, 36.29009788268765], [2.76526857487074, 36.2896250566464], [2.7610324618809257, 36.280556391966094], [2.75280432670712, 36.28294405291591], [2.7531896948421726, 36.2863954108389]]], [[[2.7434356674271645, 36.61376767883622], [2.743950414942731, 36.61644515621481], [2.7563304225688356, 36.61571351978463], [2.7569569964987384, 36.61035509294358], [2.7475591981313707, 36.60910399206702], [2.7434356674271645, 36.61376767883622]]], [[[2.73019051085029, 36.46351219700456], [2.7305311995269945, 36.46614910812231], [2.739703359062365, 36.46679825221151], [2.7398605620538254, 36.45762048568853], [2.7362319711272285, 36.45661707561995], [2.7321584811928323, 36.45898130590377], [2.73019051085029, 36.46351219700456]]], [[[2.716120649275286, 36.27413726821121], [2.7153405292688175, 36.27946322536943], [2.7223368741771767, 36.280975044231816], [2.723759973947522, 36.285532307060095], [2.7299379976690776, 36.285601736341484], [2.7397406550325982, 36.26916264141042], [2.7203315152901877, 36.267887198619086], [2.716120649275286, 36.27413726821121]]], [[[2.6820707365511685, 36.6406386961785], [2.686823452106057, 36.64737155214777], [2.699290190586267, 36.648143683603244], [2.6998913205496216, 36.64402969205232], [2.70332880847851, 36.64298275784987], [2.711027830358814, 36.64894717065622], [2.7147500778508435, 36.644134924097564], [2.7229255534553203, 36.641520849192794], [2.703932641077861, 36.634903999617215], [2.6951895698777957, 36.63474880433365], [2.6898504716670097, 36.62891366439069], [2.684510073106593, 36.63151210787504], [2.6820707365511685, 36.6406386961785]]], [[[2.6678976620179005, 36.47322702472475], [2.672292822303219, 36.47567637144521], [2.6781054668227116, 36.46982084104555], [2.6876999622261324, 36.47349759697609], [2.697468580617887, 36.471181954552364], [2.699611159472018, 36.45610403470873], [2.693273399274578, 36.45428370068964], [2.6864309830661877, 36.45734676556441], [2.676769714089449, 36.46816222455145], [2.669755582613501, 36.46849395259513], [2.6678976620179005, 36.47322702472475]]], [[[2.6853267409918544, 36.4294577664151], [2.685608489502089, 36.4341496862663], [2.694201519761021, 36.43396856874358], [2.6930729295488676, 36.42406250353255], [2.6855681962548483, 36.426306189013246], [2.6853267409918544, 36.4294577664151]]], [[[2.665283189882838, 36.56816866263909], [2.66449303272824, 36.57355798925534], [2.6685122614437353, 36.57766835334253], [2.6771973214905174, 36.580779194733616], [2.6826262483808554, 36.57750333341369], [2.6833289457316702, 36.568342291705605], [2.665283189882838, 36.56816866263909]]], [[[2.62764160776858, 36.45012377847027], [2.6297043814844576, 36.45844763450048], [2.644685921659918, 36.45745044013271], [2.642517569610356, 36.44904577920011], [2.6300974523437497, 36.44744435984441], [2.62764160776858, 36.45012377847027]]], [[[2.6046525395260467, 36.46760422033223], [2.60516532472839, 36.469542314636165], [2.615261813288001, 36.469211589255686], [2.618876131076984, 36.476247141330525], [2.6312348659523566, 36.47552836118007], [2.6364632308724367, 36.4720225380044], [2.6342669304370143, 36.46681871738055], [2.625493484296307, 36.469021933087966], [2.6207230624978153, 36.466756767718], [2.6192973399982664, 36.462961661127785], [2.6086957862924454, 36.46222930466602], [2.6046525395260467, 36.46760422033223]]], [[[2.558577724904737, 36.47670918087144], [2.5577542225232084, 36.47936081585589], [2.563844051061564, 36.48567903049762], [2.5741174368997033, 36.47921660217131], [2.5738874107995047, 36.475590441090276], [2.567931524405968, 36.47388717606489], [2.558577724904737, 36.47670918087144]]], [[[2.549240215720003, 36.51719621611337], [2.5480500607505903, 36.5226213741791], [2.560756966385703, 36.51733549783451], [2.561068568225176, 36.514332566385114], [2.5525981559198256, 36.513809543574745], [2.549240215720003, 36.51719621611337]]]]}}, {"type": "Feature", "properties": {"threshold": 80}, "geometry": {"type": "MultiPolygon", "coordinates": [[[[3.078479805032168, 36.60587785547505], [3.080446077919732, 36.61431985030212], [3.094195963008249, 36.61505544889494], [3.0969776465512693, 36.62096767609813], [3.105557940147158, 36.62331604475608], [3.109157780481102, 36.62317718292882], [3.1118779303565285, 36.6180181086715], [3.1186215585133112, 36.61541206157274], [3.1184488888465602, 36.61251038830601], [3.1116596364328646, 36.60786340057397], [3.1045917282640985, 36.61049386627836], [3.100012968681476, 36.608881804718415], [3.098292828646645, 36.600746579799114], [3.091369514878865, 36.597496074015574], [3.081346517747955, 36.59763895521096], [3.078479805032168, 36.60587785547505]]], [[[3.1067707605633115, 36.55934178447727], [3.106934895169001, 36.56688927486909], [3.1155656511366603, 36.56614120054089], [3.1155530768305093, 36.55769823500336], [3.1067707605633115, 36.55934178447727]]], [[[3.033392755723751, 36.689993464211945], [3.0326798063311644, 36.69495506615862], [3.0410612178127363, 36.69537939750998], [3.0427903403510577, 36.69939189228825], [3.047855049967145, 36.701071764510516], [3.053843975865109, 36.698878307577125], [3.0838057574509885, 36.70032872675145], [3.0955456287157728, 36.69788123468338], [3.094998161882991, 36.682655757205026], [3.101955803303763, 36.68085578477111], [3.1035625502885185, 36.67504920904424], [3.107617762929529, 36.673276933574336], [3.1150394398081525, 36.65227443893801], [3.1149670624625623, 36.64748000847437], [3.108044333386614, 36.6426030686609], [3.1067128635860533, 36.63349559255832], [3.103726360345912, 36.630970853490716], [3.0994518698284446, 36.63276186202049], [3.0989783859701014, 36.644685717497275], [3.0851440976581284, 36.64717415249426], [3.0815906996953837, 36.65354611829322], [3.0777099493918487, 36.65286626157292], [3.0760582719924887, 36.64644028882298], [3.071045760958696, 36.64410263662762], [3.0655201918131976, 36.64529743320921], [3.0655622534293263, 36.64962720865859], [3.0708610873849254, 36.654324403809426], [3.0702639898232644, 36.660844864086854], [3.0770623043700547, 36.65934676692272], [3.083893366891103, 36.66346008324565], [3.0837370552605248, 36.67086078783393], [3.0776697550013226, 36.680669868934274], [3.0742109271794567, 36.6810853750441], [3.0684949607085823, 36.675952743716536], [3.0638633697193174, 36.67775254843865], [3.0585041956046677, 36.67647002904513], [3.054055108797277, 36.67306148584929], [3.063613968174748, 36.65882855213823], [3.0567009927412525, 36.65307397412556], [3.0504934392947303, 36.65302145331713], [3.052013916743789, 36.66249767780209], [3.0469494771312946, 36.664996337847896], [3.0384749974466256, 36.664150467141916], [3.037929093096388, 36.66719572113796], [3.0437624969763797, 36.67575993038329], [3.052959491396242, 36.6778719304948], [3.057011814093382, 36.6873849459624], [3.042918672463025, 36.690973438403574], [3.033392755723751, 36.689993464211945]], [[3.0659789052491853, 36.68627983596729], [3.0687040709181894, 36.688843644254376], [3.065223445902499, 36.69103174479615], [3.062899100346271, 36.688511261477736], [3.0659789052491853, 36.68627983596729]]], [[[3.074076587813026, 36.54113744211266], [3.0820468070028073, 36.54479685908676], [3.0859469117589358, 36.56079585852508], [3.092406873437867, 36.558890081322275], [3.1019880961966373, 36.55481404885878], [3.1008585853803705, 36.54719527404929], [3.1111859318224386, 36.53616691505121], [3.1092493933887693, 36.527536992940405], [3.10067810848124, 36.52798186257516], [3.0947923960862824, 36.533802202185484], [3.0777628558530523, 36.53613928452732], [3.0737220178154145, 36.538664624679335], [3.074076587813026, 36.54113744211266]]], [[[3.0846694882799475, 36.562978588508784], [3.078293684444596, 36.56314788787895], [3.077360630493019, 36.57770509975761], [3.0879053220383783, 36.58479420300014], [3.0941083271860204, 36.58558480066057], [3.0956279416772, 36.57948382636274], [3.090488404527836, 36.57778832740413], [3.0919849955862744, 36.57296828033761], [3.0891889601499822, 36.56542842967513], [3.0846694882799475, 36.562978588508784]]], [[[3.0353572179106303, 36.63919743562445], [3.039086759844891, 36.644632555914065], [3.0468116685103395, 36.649069838647314], [3.0489074274278494, 36.64181524752565], [3.0458847784654846, 36.634707235065065], [3.0383791291575073, 36.6345809925428], [3.0353572179106303, 36.63919743562445]]], [[[2.9391920704144474, 36.6329072715157], [2.951095783698434, 36.64257261258774], [2.9567315991675067, 36.650711034310184], [2.9625218443671804, 36.645133876084785], [2.961909729039013, 36.6398746832493], [2.9659371209262497, 36.638942036166824], [2.980657543008348, 36.64323468157822], [2.9787723481813657, 36.65293703364503], [2.9842951731431295, 36.65282664902224], [2.989860191218833, 36.64613818204001], [2.9976695490942338, 36.64780078384478], [3.002433379751141, 36.64460858580191], [3.008194467787001, 36.65419315671073], [3.0042581132009194, 36.6609677200248], [3.01104392446566, 36.660791698504], [3.015121342054024, 36.66334006392794], [3.0187047578032113, 36.65868025585427], [3.024053452745104, 36.657717527527524], [3.0196369016142683, 36.65164835698745], [3.0193198737316114, 36.645128290844724], [3.0061702518429296, 36.6424179661446], [3.0025138229099966, 36.63754719876432], [2.99293450668948, 36.63928896387909], [2.9778068259486736, 36.638183902278605], [2.9645991166405854, 36.63339268624697], [2.963624648480282, 36.62991953197833], [2.966704985820491, 36.62689964024561], [2.974539467377321, 36.62556005155613], [2.9647935060674238, 36.619010743359304], [2.9525289513874604, 36.6210238811831], [2.9610468085847743, 36.62716263445878], [2.9595376056323994, 36.637816481932006], [2.952020655868622, 36.63727001356819], [2.9481807992623685, 36.62490041565994], [2.9426175444464766, 36.62513569206592], [2.9387738205998666, 36.62908757170532], [2.9391920704144474, 36.6329072715157]]], [[[3.0021195376154592, 36.581416831239316], [3.0024907990424974, 36.585529408702236], [3.011046539994974, 36.58612362936038], [3.0118817563989957, 36.58276735644947], [3.015823658420034, 36.581359058808886], [3.015504460305134, 36.56880495291133], [3.0032089235844963, 36.568908126407415], [3.0021195376154592, 36.581416831239316]]], [[[2.9970411132746735, 36.533760162199755], [3.0020122769550865, 36.53607487696385], [3.014917710924138, 36.53316835938466], [3.007603804193823, 36.52902294737805], [3.0073700486879016, 36.52302645488142], [3.002146939190999, 36.52127435190492], [2.9966205777179167, 36.529200574560704], [2.9970411132746735, 36.533760162199755]]], [[[2.9340943928601715, 36.68693286291377], [2.933579381402074, 36.69059268743011], [2.9406986007355616, 36.69070654059034], [2.944860643887666, 36.68521659751791], [2.9513790859415945, 36.684832899479794], [2.9553774933756745, 36.69409945173359], [2.965270794003494, 36.70055080204258], [2.967071339110826, 36.70478746762665], [2.970499174513527, 36.70462455138231], [2.9717363677100685, 36.70197872208491], [2.9703159180165644, 36.694249721051015], [2.9760515196878616, 36.69247707606407], [2.9821334993811424, 36.695882425170055], [2.98645550557845, 36.690809653181276], [2.986391067587612, 36.68601517385843], [2.9830551720929956, 36.68337130930091], [2.974430950526793, 36.68260156407373], [2.9668380182865493, 36.68481348428928], [2.9595269154046195, 36.68325956270003], [2.9548802597997326, 36.67547965089523], [2.957989654925887, 36.67006503839904], [2.9543165035562984, 36.667179956127136], [2.9542476355614484, 36.6608468881677], [2.9463007305285434, 36.65886211219525], [2.9415587991927152, 36.650769588094924], [2.9387562500214064, 36.651287926702786], [2.9387288697560474, 36.658305888227886], [2.9451337007310308, 36.663954458449666], [2.9472631676153513, 36.67699209063343], [2.9340943928601715, 36.68693286291377]]], [[[2.8993978537028213, 36.6067083681062], [2.901672451815785, 36.615897708711316], [2.908956540555302, 36.61583535920024], [2.913899648957409, 36.6090515378034], [2.92045257950967, 36.61301046814473], [2.926246899147703, 36.60906512026434], [2.9288814772748446, 36.61246572992923], [2.925115789044678, 36.615349239048136], [2.927075712607056, 36.6194562022945], [2.9386665514503463, 36.61848350773278], [2.930842869133601, 36.60123549564912], [2.9263128739971647, 36.602040935199476], [2.922676465405414, 36.60598238887771], [2.8993978537028213, 36.6067083681062]]], [[[2.906752082378474, 36.679128372527096], [2.910027465622518, 36.68328725334586], [2.921211807387993, 36.6819758560701], [2.916823224904113, 36.67666582027322], [2.9081106280343456, 36.67667699784105], [2.906752082378474, 36.679128372527096]]], [[[2.909600496808141, 36.515693859330796], [2.908895736920208, 36.52254958502742], [2.9193510711652126, 36.52171487651443], [2.919527468442313, 36.51363291133905], [2.915570176037794, 36.50957409798228], [2.909600496808141, 36.515693859330796]]], [[[2.894935299051557, 36.58587691330976], [2.8952836366156083, 36.58851165059284], [2.9064810553430087, 36.58927148594937], [2.91463388234278, 36.59299156557223], [2.9194168927991293, 36.591091436059486], [2.914118990872325, 36.571303988528385], [2.9167224282522053, 36.56469268352559], [2.9088643350426904, 36.5597796282786], [2.899825959612583, 36.56128335852055], [2.896654980124811, 36.56534886943165], [2.9005694573459655, 36.57458434948221], [2.896639203349637, 36.57718918350228], [2.894935299051557, 36.58587691330976]]], [[[2.792444594781023, 36.480125398857496], [2.793384595028552, 36.49201571106826], [2.8021813085260803, 36.4952031509848], [2.8195986976760703, 36.494260863394246], [2.821777692506879, 36.50020181961562], [2.8303602863438853, 36.50227433470765], [2.829780203090832, 36.50878649982477], [2.8335187165832987, 36.511116673153495], [2.8354907615355356, 36.51724215383235], [2.842934094753088, 36.517408868798704], [2.8568886149501074, 36.52271011668889], [2.8568461240546816, 36.53223004980114], [2.8669613682409683, 36.53091192531594], [2.876957821808921, 36.53366440559037], [2.879210135870589, 36.527927947552286], [2.8768613876974456, 36.5241961240038], [2.882486919052162, 36.51507038668678], [2.885899525267171, 36.51274575878356], [2.8965794155891786, 36.512631381321505], [2.8920882108554906, 36.50737586187708], [2.8957048651313655, 36.50368214999153], [2.894564042401578, 36.500725631494724], [2.8711756466118166, 36.49420430891663], [2.865965855202226, 36.48206727653969], [2.8606041036184675, 36.48203019552679], [2.8548944890533483, 36.48561919942286], [2.8504696494270254, 36.479125939824506], [2.8397024207397483, 36.47710361242966], [2.8389456101969044, 36.46840950740497], [2.8347637103380783, 36.46497647437687], [2.820966953534584, 36.465625532994736], [2.816362595645959, 36.46196507035106], [2.8056705282509244, 36.46197251854625], [2.801786817282675, 36.471495619164166], [2.7941907402653956, 36.47338740025587], [2.792444594781023, 36.480125398857496]], [[2.873672369892619, 36.50862701166397], [2.8774314254345343, 36.51141976702606], [2.8719296555692093, 36.5130444770079], [2.870188844334237, 36.51019889954358], [2.873672369892619, 36.50862701166397]]], [[[2.853698045675487, 36.68759363396741], [2.8611447664356713, 36.692078396251596], [2.8667699996620883, 36.691449611118614], [2.8729496746761978, 36.69428065628892], [2.8740397415720005, 36.689196839936436], [2.879468381978439, 36.6883301907114], [2.8825285711196544, 36.68510773287831], [2.884335869362181, 36.67868728592771], [2.8916816814799873, 36.67703840004506], [2.890817551730837, 36.67110034304918], [2.8728158669708264, 36.678308757609415], [2.8712190956927746, 36.68599716970007], [2.865512216619712, 36.68769278324952], [2.8540682232177623, 36.684734908852555], [2.853698045675487, 36.68759363396741]]], [[[2.8759823647027503, 36.542576012641575], [2.8804328599677156, 36.54842531798031], [2.8853878850717147, 36.54832797420639], [2.885275863776088, 36.5384098360692], [2.877846177987533, 36.538322152488966], [2.8759823647027503, 36.542576012641575]]], [[[2.872222540724036, 36.598073574068096], [2.8744150833788886, 36.602604395162615], [2.8855161571456023, 36.5989939921389], [2.8801149810879387, 36.593742516701866], [2.8721742276532276, 36.594594996290105], [2.872222540724036, 36.598073574068096]]], [[[2.8645098878363684, 36.61185391862876], [2.8634880701940717, 36.61606273403193], [2.867013348731799, 36.61797018805472], [2.869067240568541, 36.6273729360237], [2.872871342480865, 36.62976050671345], [2.8729560370337683, 36.63351963965081], [2.8776402906151075, 36.633604846456635], [2.8853913093949317, 36.61337434222925], [2.878598812118151, 36.60788481239848], [2.869997799046789, 36.60705221095741], [2.865588342389837, 36.60799974592154], [2.8645098878363684, 36.61185391862876]]], [[[2.842868831610816, 36.524922334862055], [2.8364607148464804, 36.52355238753403], [2.8334098813557995, 36.52612417983213], [2.8333762189932648, 36.53166219945198], [2.8454457776751743, 36.53595790395925], [2.846180047183057, 36.5276915744029], [2.842868831610816, 36.524922334862055]]], [[[2.835872012100127, 36.59146091374335], [2.84606657876987, 36.591549398271766], [2.8458703903760485, 36.58804903831225], [2.840495676974, 36.586213834357416], [2.842353934374078, 36.58008983274021], [2.8379342928925912, 36.5774122261059], [2.8350984487428255, 36.578069856485286], [2.835872012100127, 36.59146091374335]]], [[[2.7802048386759806, 36.68304062472274], [2.7884763434429547, 36.684340664933444], [2.7914937474647936, 36.68757872939705], [2.8012423308453966, 36.687134377117886], [2.8103635997045147, 36.69707713825048], [2.821698759980781, 36.7001902848972], [2.8296668090687196, 36.700177574504906], [2.832956965047919, 36.69675505327173], [2.832441142266471, 36.69215906926163], [2.8157976164737217, 36.69314941716377], [2.8129512777451557, 36.6914355380473], [2.81239832622681, 36.68627727355626], [2.8033300434083763, 36.68617735101657], [2.8000037806962252, 36.68162352363677], [2.8018152886158134, 36.67360758623926], [2.798069960900378, 36.670508637551634], [2.7990639349885487, 36.66378453485104], [2.796598323959992, 36.662478606481095], [2.792996123055636, 36.66260801736919], [2.7901822545351584, 36.66754145650811], [2.784527958855439, 36.67015339880255], [2.784142618827024, 36.676591950291254], [2.7797962927068407, 36.6784804173419], [2.7802048386759806, 36.68304062472274]]], [[[2.8188801427658476, 36.539904324228864], [2.819841566687637, 36.544600462140636], [2.82641932706162, 36.5454791399067], [2.8286505511569278, 36.535604218642845], [2.821914271808827, 36.53455162685312], [2.8188801427658476, 36.539904324228864]]], [[[2.8049268165258057, 36.6183242892176], [2.8060248783973933, 36.623852410446155], [2.8201401933637893, 36.6266311749585], [2.821181349149227, 36.623049010912645], [2.8153279908642195, 36.61376088101986], [2.8061272749902586, 36.613709067390545], [2.8049268165258057, 36.6183242892176]]], [[[2.7980010832865374, 36.5128227758237], [2.7997959304288176, 36.5194562581745], [2.805804799568232, 36.52111629170925], [2.8084165151245064, 36.51936820609775], [2.8083070479622725, 36.5124100703053], [2.7993934627794306, 36.510011512893264], [2.7980010832865374, 36.5128227758237]]], [[[2.6820707365511685, 36.6406386961785], [2.6865091377387404, 36.64723510821427], [2.6942513331000715, 36.64888844672086], [2.699533292910435, 36.64805178355979], [2.703544838980623, 36.6442227766555], [2.7086952628430385, 36.64811174024941], [2.7153507839824575, 36.64797782413274], [2.718212000350591, 36.65043817102013], [2.730683361297865, 36.64753135867099], [2.732410655958755, 36.65178711409612], [2.7413671819476964, 36.654515814966096], [2.7366658384223483, 36.664020801286796], [2.748443814495, 36.67344608275304], [2.7558439878581162, 36.67220173490862], [2.7556191454982057, 36.65686412098575], [2.7727321542911825, 36.65718654770338], [2.7788958547352824, 36.65086090527571], [2.790202979382682, 36.64981850964227], [2.792142153828151, 36.64684185064267], [2.7972860310656245, 36.646237422246884], [2.795314549449499, 36.64057206589633], [2.7904254165460927, 36.63744850662608], [2.790569389532243, 36.63078334425329], [2.7823786764319207, 36.630633047448356], [2.778584758089252, 36.6331997994682], [2.7717206158594614, 36.62910488083598], [2.7601773595671037, 36.630645741720315], [2.7577222788888807, 36.63489550734406], [2.7390376171433597, 36.63726141156891], [2.7348552783705204, 36.643822525537885], [2.7246239173109323, 36.64215030560183], [2.722525566429593, 36.63874131808923], [2.7094143785890634, 36.63447022450462], [2.706796884745409, 36.628275365325905], [2.6964289249721483, 36.63376938215343], [2.6888214342432954, 36.62892782628451], [2.684471421951161, 36.631577416664754], [2.6820707365511685, 36.6406386961785]]], [[[2.751507115629315, 36.46393871339652], [2.7644427925467685, 36.467220716762284], [2.7674212267818454, 36.472199528436434], [2.7733578728017267, 36.472158373182616], [2.7776547386989128, 36.46863786735866], [2.7861938176194387, 36.46922193213883], [2.7876789550032006, 36.465655501177], [2.786443278690949, 36.462050909041196], [2.780639466166131, 36.46079644864066], [2.7801752490931504, 36.455481440463764], [2.7768137958089323, 36.4544691371932], [2.7672098201533086, 36.45598343765806], [2.7603282885393066, 36.46002067822076], [2.756299624571583, 36.4546414333626], [2.753473294894295, 36.454475790869516], [2.751507115629315, 36.46393871339652]]], [[[2.7727044974057393, 36.616154258324386], [2.7747451564138284, 36.62153424046607], [2.7833729722254703, 36.62292805657049], [2.7823476800735576, 36.61596835283205], [2.7727044974057393, 36.616154258324386]]], [[[2.7445037273296125, 36.25866008515179], [2.7435064778822587, 36.26145825414804], [2.748573134615285, 36.26933677782776], [2.770643484340805, 36.26941644101473], [2.7736511172696874, 36.273886012344406], [2.7777458938789596, 36.27376674380635], [2.7808344042511033, 36.26974123597773], [2.7804312013182138, 36.26658783255968], [2.772370815942858, 36.26573763759731], [2.77082205756288, 36.255837071109475], [2.7657684580314186, 36.25320803979096], [2.753284642830337, 36.250938390508175], [2.7445037273296125, 36.25866008515179]]], [[[2.7531896948421726, 36.2863954108389], [2.7559038503191964, 36.29009788268765], [2.76526857487074, 36.2896250566464], [2.7610324618809257, 36.280556391966094], [2.75280432670712, 36.28294405291591], [2.7531896948421726, 36.2863954108389]]], [[[2.7432355407477087, 36.60900582918917], [2.743621065472758, 36.61633435220224], [2.7568240204878514, 36.61615859680027], [2.755675600606942, 36.60921342299335], [2.7502606118223216, 36.60923964305357], [2.7468514013309164, 36.60536799259231], [2.7432355407477087, 36.60900582918917]]], [[[2.730036312280553, 36.46372033241997], [2.7286962245117747, 36.4668849823377], [2.739703359062365, 36.46679825221151], [2.7398605620538254, 36.45762048568853], [2.7312500274428477, 36.456759166449494], [2.730036312280553, 36.46372033241997]]], [[[2.716120649275286, 36.27413726821121], [2.7153405292688175, 36.27946322536943], [2.7223368741771767, 36.280975044231816], [2.723759973947522, 36.285532307060095], [2.7299379976690776, 36.285601736341484], [2.7397406550325982, 36.26916264141042], [2.7203315152901877, 36.267887198619086], [2.716120649275286, 36.27413726821121]]], [[[2.6678976620179005, 36.47322702472475], [2.672292822303219, 36.47567637144521], [2.6781054668227116, 36.46982084104555], [2.6876999622261324, 36.47349759697609], [2.697468580617887, 36.471181954552364], [2.699611159472018, 36.45610403470873], [2.693273399274578, 36.45428370068964], [2.6864309830661877, 36.45734676556441], [2.676769714089449, 36.46816222455145], [2.669755582613501, 36.46849395259513], [2.6678976620179005, 36.47322702472475]]], [[[2.6853267409918544, 36.4294577664151], [2.685608489502089, 36.4341496862663], [2.694201519761021, 36.43396856874358], [2.6930729295488676, 36.42406250353255], [2.6855681962548483, 36.426306189013246], [2.6853267409918544, 36.4294577664151]]], [[[2.6652136580663814, 36.57407448413893], [2.669426615771424, 36.57841090876457], [2.6774433215692888, 36.58076301554731], [2.6826726246972665, 36.57744139243782], [2.6846271018339563, 36.57029499666191], [2.6829998878553276, 36.56823132074844], [2.6670506498899598, 36.56744782842327], [2.664491989393097, 36.56875999711962], [2.6652136580663814, 36.57407448413893]]], [[[2.62764160776858, 36.45012377847027], [2.6297043814844576, 36.45844763450048], [2.644685921659918, 36.45745044013271], [2.642517569610356, 36.44904577920011], [2.6300974523437497, 36.44744435984441], [2.62764160776858, 36.45012377847027]]], [[[2.6046562973477294, 36.466864203918306], [2.6069072263449966, 36.47027051100309], [2.615268497437207, 36.46921576854393], [2.618876131076984, 36.476247141330525], [2.6312348659523566, 36.47552836118007], [2.6364632308724367, 36.4720225380044], [2.6342669304370143, 36.46681871738055], [2.625493484296307, 36.469021933087966], [2.6207230624978153, 36.466756767718], [2.6192973399982664, 36.462961661127785], [2.608780252920251, 36.46220520409549], [2.6046562973477294, 36.466864203918306]]], [[[2.5549684006300257, 36.468003038202234], [2.55771628542079, 36.47929526256347], [2.5634437848106, 36.48552436449779], [2.5739138058453266, 36.48175987297438], [2.5729090578422102, 36.474798322933715], [2.5610588638492042, 36.4746544867136], [2.559341046140548, 36.46597088031008], [2.5554618018642916, 36.465033952086245], [2.5549684006300257, 36.468003038202234]]], [[[2.547552829711438, 36.51846138779408], [2.547424808866878, 36.52224340933106], [2.5504075252638274, 36.52332834457783], [2.5608236625000473, 36.51728714967439], [2.5610387542799526, 36.51426432725126], [2.5497591041449854, 36.51456325996063], [2.547552829711438, 36.51846138779408]]]]}}, {"type": "Feature", "properties": {"threshold": 90}, "geometry": {"type": "MultiPolygon", "coordinates": [[[[3.078306107851381, 36.60951180027961], [3.080518217031499, 36.61436290566174], [3.090793975842303, 36.61537662939613], [3.0970498012938394, 36.621010721517536], [3.1056450424418163, 36.6233335493239], [3.109157780481102, 36.62317718292882], [3.118643260690216, 36.61534184967628], [3.118447757267708, 36.61177037429914], [3.1116596364328646, 36.60786340057397], [3.1025467273159046, 36.61008278336143], [3.098292828646645, 36.600746579799114], [3.091282444991297, 36.59747855891913], [3.0803028738278946, 36.59848188815616], [3.078306107851381, 36.60951180027961]]], [[[3.0326748347473633, 36.69569037904264], [3.0341574755806744, 36.69738707508778], [3.0408751689122906, 36.69657370549985], [3.0481013777040626, 36.7010885101403], [3.053843975865109, 36.698878307577125], [3.0838057574509885, 36.70032872675145], [3.0956059052456855, 36.69782757277101], [3.0950890350519815, 36.6824505575847], [3.1029338222621203, 36.68006132276926], [3.1034355361332926, 36.67523026909295], [3.108602819058695, 36.67166248447071], [3.1084335640654435, 36.66601272223068], [3.1178036783764447, 36.65819181678838], [3.117728870093226, 36.65191737487923], [3.108044333386614, 36.6426030686609], [3.1067128635860533, 36.63349559255832], [3.1036597742973555, 36.63092231806322], [3.0994518698284446, 36.63276186202049], [3.0988822872382693, 36.64465901646202], [3.0851440976581284, 36.64717415249426], [3.0815906996953837, 36.65354611829322], [3.0780397143129647, 36.65318668065241], [3.076310925256576, 36.646643557441074], [3.070888440499565, 36.64409650249207], [3.06455053051098, 36.64617629316717], [3.0664831744181122, 36.6525867411214], [3.070345517366419, 36.65536202085594], [3.0677732463080813, 36.65917221724471], [3.058414998605523, 36.65630931428135], [3.0566197893699014, 36.65304307567834], [3.0491334338647618, 36.65325984668504], [3.0506430324978835, 36.66214508390852], [3.0381178652853684, 36.66436402925875], [3.037932361821975, 36.673855795987116], [3.04840282181955, 36.67631154087059], [3.0560041546148327, 36.6829021102507], [3.0570992577973644, 36.68718338686292], [3.043308584182694, 36.69066355509547], [3.0329744359749706, 36.68931237785309], [3.0326748347473633, 36.69569037904264]], [[3.05779456601996, 36.676099284533386], [3.0536876922532574, 36.67073796140654], [3.0634177630516506, 36.66750878836493], [3.0628416631246895, 36.66237601315299], [3.0654207225725316, 36.65990521510924], [3.071979900176883, 36.66110986267345], [3.0770623043700547, 36.65934676692272], [3.0835832524840567, 36.66285840175804], [3.0837370552605248, 36.67086078783393], [3.0770449194905027, 36.68108357543635], [3.0684949607085823, 36.675952743716536], [3.0638633697193174, 36.67775254843865], [3.05779456601996, 36.676099284533386]], [[3.0659789052491853, 36.68627983596729], [3.0687040709181894, 36.688843644254376], [3.065223445902499, 36.69103174479615], [3.062899100346271, 36.688511261477736], [3.0659789052491853, 36.68627983596729]]], [[[3.1067707605633115, 36.55934178447727], [3.106934895169001, 36.56688927486909], [3.1155656511366603, 36.56614120054089], [3.1155530768305093, 36.55769823500336], [3.1067707605633115, 36.55934178447727]]], [[[3.074076587813026, 36.54113744211266], [3.0820468070028073, 36.54479685908676], [3.084754503237009, 36.55886511898379], [3.0783772738273854, 36.562280334165784], [3.0746019520284262, 36.57135861744326], [3.0764763173662546, 36.58073387824115], [3.0941927776994844, 36.58556035677874], [3.0956279416772, 36.57948382636274], [3.090488404527836, 36.57778832740413], [3.0919498665031044, 36.572826540502575], [3.0891202347833953, 36.56529493898984], [3.0847104864703416, 36.562190659383], [3.10194983498953, 36.55487949398512], [3.1008585853803705, 36.54719527404929], [3.1111859318224386, 36.53616691505121], [3.1092493933887693, 36.527536992940405], [3.10067810848124, 36.52798186257516], [3.0947923960862824, 36.533802202185484], [3.0777628558530523, 36.53613928452732], [3.0737220178154145, 36.538664624679335], [3.074076587813026, 36.54113744211266]]], [[[3.036060340227462, 36.63736500616856], [3.035183406338748, 36.6413663875472], [3.0398923731475054, 36.646740590193374], [3.0466730604992804, 36.64916159010707], [3.049833997984774, 36.642681646050896], [3.0459986218676804, 36.634818924597404], [3.0412989947454094, 36.633784689062246], [3.036060340227462, 36.63736500616856]]], [[[2.9363048183637814, 36.63300038081433], [2.9411304316947033, 36.63552204289758], [2.941747861261034, 36.64092466662865], [2.948367928040542, 36.64179175144671], [2.9567315991675067, 36.650711034310184], [2.962482703089311, 36.646679297869454], [2.9617974065265367, 36.640506978254756], [2.965269901271246, 36.638969953490836], [2.9787397351979252, 36.64310034847827], [2.978246980730786, 36.65246976841455], [2.9833637933490724, 36.655897805216554], [2.9862583432143013, 36.65568472653218], [2.9868283099915387, 36.65002246309478], [2.991614137158177, 36.64719435338488], [2.9963067780282633, 36.653703255316806], [3.005260403378119, 36.65101989469114], [3.006805213186895, 36.653942405302274], [3.003993163981131, 36.660679928729614], [3.01183715385627, 36.66477849577839], [3.024053683018706, 36.65845753738138], [3.020958979427791, 36.65117556633523], [3.0222131559607295, 36.64605339234002], [3.016417602996789, 36.64309573339077], [3.0183391303052853, 36.63619468532784], [3.008331276438552, 36.633773973920206], [3.0037757978120867, 36.63688511679705], [2.9980595363533293, 36.63529623400195], [2.9926635899067846, 36.639288511893035], [2.967692859157577, 36.63440856405453], [2.9644945277025134, 36.632079218923174], [2.9659097339811606, 36.62771201772491], [2.975414762252986, 36.62582877190539], [2.972137083801662, 36.62049271636137], [2.9553309735685027, 36.61894876806633], [2.952665695297467, 36.62075814056642], [2.9607002417832087, 36.62703808465193], [2.959061244054412, 36.63802147267625], [2.952020655868622, 36.63727001356819], [2.9481807992623685, 36.62490041565994], [2.9427444220365584, 36.62503354555936], [2.9342962198135507, 36.631109622209586], [2.9363048183637814, 36.63300038081433]]], [[[3.0020904903156493, 36.58205681895869], [3.003408449065781, 36.586269405144854], [3.0102722297200897, 36.58639595312134], [3.012063147860106, 36.582605910033415], [3.0156337660302226, 36.58168300045642], [3.015504460305134, 36.56880495291133], [3.0032089235844963, 36.568908126407415], [3.0020904903156493, 36.58205681895869]]], [[[2.984578978130614, 36.52931753339203], [2.9950205278768522, 36.52712527080842], [2.996688936120751, 36.53346232993217], [3.0009845227982583, 36.53605804459473], [3.0148969961389214, 36.533997736928924], [3.005008213942328, 36.5212911115009], [3.0007319191427886, 36.52136411168339], [2.996756202936665, 36.52523685911775], [2.993341405862621, 36.522103955122894], [2.9888126456031854, 36.522103616340246], [2.9847695004113937, 36.52536597561276], [2.984578978130614, 36.52931753339203]]], [[[2.934155034918983, 36.68675355765166], [2.932737549371368, 36.690629414133596], [2.942447448553573, 36.690718015828715], [2.9456159077898048, 36.68656521783591], [2.9518824394218193, 36.68602796330154], [2.9553774933756745, 36.69409945173359], [2.965270794003494, 36.70055080204258], [2.967071339110826, 36.70478746762665], [2.970499174513527, 36.70462455138231], [2.9717363677100685, 36.70197872208491], [2.9703159180165644, 36.694249721051015], [2.9760515196878616, 36.69247707606407], [2.9821334993811424, 36.695882425170055], [2.98645550557845, 36.690809653181276], [2.986391067587612, 36.68601517385843], [2.9830551720929956, 36.68337130930091], [2.974430950526793, 36.68260156407373], [2.9668380182865493, 36.68481348428928], [2.9595269154046195, 36.68325956270003], [2.958886682123215, 36.67134702351148], [2.9543165035562984, 36.667179956127136], [2.9542476355614484, 36.6608468881677], [2.9461101465035413, 36.657967963739864], [2.942477189360419, 36.65077003512218], [2.937952825612715, 36.651091906848436], [2.936879395182563, 36.65749333720979], [2.9420044089288724, 36.662024560955814], [2.94166862779857, 36.66603137044853], [2.946225526796071, 36.66765568024054], [2.9472631676153513, 36.67699209063343], [2.934155034918983, 36.68675355765166]]], [[[2.8993978537028213, 36.6067083681062], [2.901669632774126, 36.61811775086139], [2.9107933430543933, 36.61509673340864], [2.9130850507909645, 36.61198021706887], [2.9220774698366645, 36.612895845457786], [2.9251376890385496, 36.609643950547735], [2.9281639862458673, 36.61305461843002], [2.9243881208230076, 36.61950312047003], [2.936991567979625, 36.62041428341804], [2.9386665514503463, 36.61848350773278], [2.9386699289263203, 36.614219100300495], [2.9324275845526393, 36.60723000281], [2.932678474174188, 36.601236546608355], [2.926471744205258, 36.601232879012386], [2.922677132465737, 36.60541669502985], [2.9155386069394282, 36.6049013384665], [2.9128235207184647, 36.60743063797256], [2.9057974521157193, 36.604865837690596], [2.8993978537028213, 36.6067083681062]]], [[[2.906752082378474, 36.679128372527096], [2.9100266037081024, 36.68402725930455], [2.9221305681421867, 36.68197646007712], [2.9191290946120554, 36.67686919965323], [2.9085610782702513, 36.67147970854468], [2.906752082378474, 36.679128372527096]]], [[[2.909600496808141, 36.515693859330796], [2.908895736920208, 36.52254958502742], [2.9193510711652126, 36.52171487651443], [2.919527468442313, 36.51363291133905], [2.915570176037794, 36.50957409798228], [2.909600496808141, 36.515693859330796]]], [[[2.8947550504045587, 36.588030559713516], [2.89545110971426, 36.59151382905566], [2.9056771307823954, 36.58920699435908], [2.9147209067175517, 36.59300920961303], [2.9194168927991293, 36.591091436059486], [2.914118990872325, 36.571303988528385], [2.9167224282522053, 36.56469268352559], [2.9088643350426904, 36.5597796282786], [2.899825959612583, 36.56128335852055], [2.896654980124811, 36.56534886943165], [2.9005694573459655, 36.57458434948221], [2.896608888350018, 36.57725728690964], [2.8947550504045587, 36.588030559713516]]], [[[2.792444594781023, 36.480125398857496], [2.793157266168292, 36.49170797231748], [2.7970429000548966, 36.49498210625195], [2.8195986976760703, 36.494260863394246], [2.821777692506879, 36.50020181961562], [2.8303602863438853, 36.50227433470765], [2.829780203090832, 36.50878649982477], [2.8335187165832987, 36.511116673153495], [2.8354907615355356, 36.51724215383235], [2.842934094753088, 36.517408868798704], [2.8568886149501074, 36.52271011668889], [2.8568461240546816, 36.53223004980114], [2.8669613682409683, 36.53091192531594], [2.876957821808921, 36.53366440559037], [2.879210135870589, 36.527927947552286], [2.8768613876974456, 36.5241961240038], [2.8826043246127218, 36.51536803495643], [2.8965794155891786, 36.512631381321505], [2.897554562912616, 36.507766032554436], [2.8936524884674513, 36.4970246753123], [2.8736409049946, 36.49561882121129], [2.8658849062732927, 36.482036247458], [2.853877132892233, 36.48526477243482], [2.8504696494270254, 36.479125939824506], [2.8391329325218044, 36.47664215811709], [2.8389456101969044, 36.46840950740497], [2.8347637103380783, 36.46497647437687], [2.820966953534584, 36.465625532994736], [2.816362595645959, 36.46196507035106], [2.8056705282509244, 36.46197251854625], [2.801786817282675, 36.471495619164166], [2.7941907402653956, 36.47338740025587], [2.792444594781023, 36.480125398857496]], [[2.873672369892619, 36.50862701166397], [2.8774314254345343, 36.51141976702606], [2.8719296555692093, 36.5130444770079], [2.870188844334237, 36.51019889954358], [2.873672369892619, 36.50862701166397]]], [[[2.853698045675487, 36.68759363396741], [2.858594534390001, 36.69113297960395], [2.8583786296660545, 36.697255172240986], [2.862066901866726, 36.6971482623265], [2.866120173199865, 36.69246260288103], [2.8729496746761978, 36.69428065628892], [2.874624287447232, 36.69006380247869], [2.880636689146495, 36.6903479562729], [2.884408630532572, 36.68128285258176], [2.891677531678814, 36.67999842452898], [2.890817551730837, 36.67110034304918], [2.8879089551978736, 36.66999962695997], [2.8846014629440933, 36.6736103483131], [2.872846690815043, 36.67485292251886], [2.865751116452613, 36.67213017883257], [2.8647258663757467, 36.667810840701954], [2.8555956455849154, 36.6678001204091], [2.85517559586049, 36.67095206593256], [2.858804979872679, 36.67367854925708], [2.856009241059535, 36.677385477660344], [2.8583284259578687, 36.68265382565537], [2.8534497845340074, 36.6850001710922], [2.853698045675487, 36.68759363396741]]], [[[2.8759823647027503, 36.542576012641575], [2.8795156835253994, 36.54842439481345], [2.8849463896648793, 36.54856537815751], [2.887403115839512, 36.539507824250826], [2.8780117538496244, 36.53826700692221], [2.8759823647027503, 36.542576012641575]]], [[[2.871979003960528, 36.59790374706889], [2.8744150833788886, 36.602604395162615], [2.8812794851060732, 36.60255885478937], [2.8855161571456023, 36.5989939921389], [2.8810338294346183, 36.59300341971274], [2.873094373551045, 36.593115944600015], [2.871979003960528, 36.59790374706889]]], [[[2.8645098878363684, 36.61185391862876], [2.8634880701940717, 36.61606273403193], [2.868691057476537, 36.62368698765628], [2.868149129736497, 36.627371923303656], [2.872744237183146, 36.62956823184554], [2.8729560370337683, 36.63351963965081], [2.8776402906151075, 36.633604846456635], [2.8853913093949317, 36.61337434222925], [2.878598812118151, 36.60788481239848], [2.869997799046789, 36.60705221095741], [2.865588342389837, 36.60799974592154], [2.8645098878363684, 36.61185391862876]]], [[[2.842868831610816, 36.524922334862055], [2.8364607148464804, 36.52355238753403], [2.8334098813557995, 36.52612417983213], [2.8333762189932648, 36.53166219945198], [2.8454457776751743, 36.53595790395925], [2.846180047183057, 36.5276915744029], [2.842868831610816, 36.524922334862055]]], [[[2.832530791906922, 36.58950399898373], [2.8394677093923155, 36.59367162853168], [2.845962467590911, 36.591824571654804], [2.8458703903760485, 36.58804903831225], [2.8406977281472416, 36.58619437692407], [2.8424186971228713, 36.580299814504194], [2.8401104989113897, 36.577498678630064], [2.835202579790275, 36.57779469200464], [2.832530791906922, 36.58950399898373]]], [[[2.7802048386759806, 36.68304062472274], [2.7884763434429547, 36.684340664933444], [2.7914937474647936, 36.68757872939705], [2.8012423308453966, 36.687134377117886], [2.8103635997045147, 36.69707713825048], [2.821698759980781, 36.7001902848972], [2.8296668090687196, 36.700177574504906], [2.832956965047919, 36.69675505327173], [2.832441142266471, 36.69215906926163], [2.8157976164737217, 36.69314941716377], [2.8129512777451557, 36.6914355380473], [2.81239832622681, 36.68627727355626], [2.8033300434083763, 36.68617735101657], [2.8000037806962252, 36.68162352363677], [2.8018152886158134, 36.67360758623926], [2.7980889261625483, 36.6704550400608], [2.7990639349885487, 36.66378453485104], [2.796598323959992, 36.662478606481095], [2.792996123055636, 36.66260801736919], [2.7901822545351584, 36.66754145650811], [2.784527958855439, 36.67015339880255], [2.784142618827024, 36.676591950291254], [2.7797962927068407, 36.6784804173419], [2.7802048386759806, 36.68304062472274]]], [[[2.8188801427658476, 36.539904324228864], [2.819841566687637, 36.544600462140636], [2.82641932706162, 36.5454791399067], [2.8286505511569278, 36.535604218642845], [2.821914271808827, 36.53455162685312], [2.8188801427658476, 36.539904324228864]]], [[[2.8036743642885367, 36.622492864453996], [2.814609870409228, 36.626936224794264], [2.8211989161436666, 36.62488694787659], [2.8149985499081627, 36.61365027406325], [2.8059113657627184, 36.613837613030604], [2.8036743642885367, 36.622492864453996]]], [[[2.7980010832865374, 36.5128227758237], [2.7997959304288176, 36.5194562581745], [2.805804799568232, 36.52111629170925], [2.8084165151245064, 36.51936820609775], [2.8083070479622725, 36.5124100703053], [2.7993934627794306, 36.510011512893264], [2.7980010832865374, 36.5128227758237]]], [[[2.6820646538695123, 36.64211869710862], [2.6865091377387404, 36.64723510821427], [2.6924146227858476, 36.648883718266035], [2.704462394869299, 36.645486869309934], [2.7181232122298833, 36.65042734382306], [2.729071883386411, 36.64991544442059], [2.731286767673925, 36.65902433879492], [2.7360082048584555, 36.66091692841818], [2.744217295268981, 36.67174465975896], [2.749384508161732, 36.67345429385579], [2.7558439878581162, 36.67220173490862], [2.7556191454982057, 36.65686412098575], [2.7727321542911825, 36.65718654770338], [2.7799711443014927, 36.65058627061791], [2.7902795680928234, 36.65275430559863], [2.800980457370668, 36.64104580509178], [2.7951860531682717, 36.63794979367611], [2.7904204942593087, 36.63070277908841], [2.783300964841528, 36.62915470458359], [2.7783197575394074, 36.633156803535776], [2.7707870323530193, 36.62687682446535], [2.767068505583785, 36.63046664225082], [2.7555866415512247, 36.630636412713216], [2.7533860633724707, 36.63481321434143], [2.7326887874453396, 36.63795640867007], [2.7294641766121566, 36.642426078161826], [2.7235509279425427, 36.64150515271448], [2.723767855983124, 36.63160959487864], [2.7150626182314768, 36.62755540821639], [2.6947274005697706, 36.630757924542884], [2.6888214342432954, 36.62892782628451], [2.684471421951161, 36.631577416664754], [2.6820646538695123, 36.64211869710862]]], [[[2.751507115629315, 36.46393871339652], [2.7644427925467685, 36.467220716762284], [2.7674212267818454, 36.472199528436434], [2.7733578728017267, 36.472158373182616], [2.7776547386989128, 36.46863786735866], [2.7861938176194387, 36.46922193213883], [2.7876789550032006, 36.465655501177], [2.786443278690949, 36.462050909041196], [2.780639466166131, 36.46079644864066], [2.7801752490931504, 36.455481440463764], [2.7768137958089323, 36.4544691371932], [2.7672098201533086, 36.45598343765806], [2.7603282885393066, 36.46002067822076], [2.756299624571583, 36.4546414333626], [2.753473294894295, 36.454475790869516], [2.751507115629315, 36.46393871339652]]], [[[2.7719281329871497, 36.61851554236943], [2.775888829853568, 36.62312766375167], [2.7835114957677636, 36.622742713856766], [2.7821177664523447, 36.61585669129081], [2.774160710143159, 36.61507748611609], [2.7719281329871497, 36.61851554236943]]], [[[2.7445037273296125, 36.25866008515179], [2.7435064778822587, 36.26145825414804], [2.748573134615285, 36.26933677782776], [2.770643484340805, 36.26941644101473], [2.7736511172696874, 36.273886012344406], [2.7777458938789596, 36.27376674380635], [2.7808344042511033, 36.26974123597773], [2.7804312013182138, 36.26658783255968], [2.772370815942858, 36.26573763759731], [2.77082205756288, 36.255837071109475], [2.7657684580314186, 36.25320803979096], [2.753284642830337, 36.250938390508175], [2.7445037273296125, 36.25866008515179]]], [[[2.7531896948421726, 36.2863954108389], [2.7559038503191964, 36.29009788268765], [2.76526857487074, 36.2896250566464], [2.7610324618809257, 36.280556391966094], [2.75280432670712, 36.28294405291591], [2.7531896948421726, 36.2863954108389]]], [[[2.7397638980321273, 36.61375971687329], [2.740028523092595, 36.615623755329565], [2.7499042744405386, 36.616584266542915], [2.7539517179000814, 36.61940869727194], [2.75693242782668, 36.61818325281513], [2.7568428572976678, 36.61015925524304], [2.7500202475732927, 36.60912919935696], [2.747184356307723, 36.605403126272], [2.7443218223162953, 36.60569296436165], [2.7397638980321273, 36.61375971687329]]], [[[2.730036312280553, 36.46372033241997], [2.7286962245117747, 36.4668849823377], [2.739703359062365, 36.46679825221151], [2.7398605620538254, 36.45762048568853], [2.7312500274428477, 36.456759166449494], [2.730036312280553, 36.46372033241997]]], [[[2.716120649275286, 36.27413726821121], [2.7153405292688175, 36.27946322536943], [2.7223368741771767, 36.280975044231816], [2.723759973947522, 36.285532307060095], [2.7299379976690776, 36.285601736341484], [2.7397406550325982, 36.26916264141042], [2.7203315152901877, 36.267887198619086], [2.716120649275286, 36.27413726821121]]], [[[2.6678976620179005, 36.47322702472475], [2.672292822303219, 36.47567637144521], [2.6781054668227116, 36.46982084104555], [2.6876999622261324, 36.47349759697609], [2.697468580617887, 36.471181954552364], [2.699611159472018, 36.45610403470873], [2.693273399274578, 36.45428370068964], [2.6864309830661877, 36.45734676556441], [2.676769714089449, 36.46816222455145], [2.669755582613501, 36.46849395259513], [2.6678976620179005, 36.47322702472475]]], [[[2.6853267409918544, 36.4294577664151], [2.685608489502089, 36.4341496862663], [2.694201519761021, 36.43396856874358], [2.6930729295488676, 36.42406250353255], [2.6855681962548483, 36.426306189013246], [2.6853267409918544, 36.4294577664151]]], [[[2.6652136580663814, 36.57407448413893], [2.669426615771424, 36.57841090876457], [2.6774433215692888, 36.58076301554731], [2.6826726246972665, 36.57744139243782], [2.6846271018339563, 36.57029499666191], [2.6829998878553276, 36.56823132074844], [2.6670506498899598, 36.56744782842327], [2.664491989393097, 36.56875999711962], [2.6652136580663814, 36.57407448413893]]], [[[2.6486468375954337, 36.61983213941982], [2.647923919772467, 36.622604816877505], [2.6544501110708416, 36.62864621004335], [2.6574470077116445, 36.6286548640366], [2.6587175753481387, 36.62357621180424], [2.655781690341356, 36.618732214204115], [2.6486468375954337, 36.61983213941982]]], [[[2.62764160776858, 36.45012377847027], [2.6297043814844576, 36.45844763450048], [2.644685921659918, 36.45745044013271], [2.642517569610356, 36.44904577920011], [2.6300974523437497, 36.44744435984441], [2.62764160776858, 36.45012377847027]]], [[[2.604660054744781, 36.46612418769097], [2.6068229966771996, 36.470245856097435], [2.615480008867847, 36.469362934957815], [2.618876131076984, 36.476247141330525], [2.6312348659523566, 36.47552836118007], [2.6364632308724367, 36.4720225380044], [2.6342669304370143, 36.46681871738055], [2.625493484296307, 36.469021933087966], [2.6207230624978153, 36.466756767718], [2.6192973399982664, 36.462961661127785], [2.608780252920251, 36.46220520409549], [2.604660054744781, 36.46612418769097]]], [[[2.5497247767957765, 36.46839950214695], [2.5515411165841524, 36.47211116839655], [2.5582028152515557, 36.47477410680768], [2.55771628542079, 36.47929526256347], [2.5635155157621305, 36.48556773158951], [2.566435126762965, 36.48553527107993], [2.56848806126183, 36.482181626210334], [2.574883866167488, 36.481705212977154], [2.57283733146377, 36.47475496146393], [2.560030122315948, 36.473966270218824], [2.558231396584085, 36.46508143633056], [2.5508766970943224, 36.4657568133417], [2.5497247767957765, 36.46839950214695]]], [[[2.547552829711438, 36.51846138779408], [2.547583494188873, 36.52241781056829], [2.553158087552307, 36.52333868067785], [2.5609378950755364, 36.51717583568683], [2.5610387542799526, 36.51426432725126], [2.551596874111949, 36.51383016114612], [2.547552829711438, 36.51846138779408]]]]}}, {"type": "Feature", "properties": {"threshold": 95}, "geometry": {"type": "MultiPolygon", "coordinates": [[[[3.078306107851381, 36.60951180027961], [3.080518217031499, 36.61436290566174], [3.090376278124017, 36.615403080466805], [3.0970498012938394, 36.621010721517536], [3.1056450424418163, 36.6233335493239], [3.109157780481102, 36.62317718292882], [3.118643260690216, 36.61534184967628], [3.118447757267708, 36.61177037429914], [3.1117408146250094, 36.60789426194304], [3.1030285692188415, 36.609342352455606], [3.0982392954044604, 36.600688504479436], [3.091282444991297, 36.59747855891913], [3.0803028738278946, 36.59848188815616], [3.078306107851381, 36.60951180027961]]], [[[3.0326748347473633, 36.69569037904264], [3.0341574755806744, 36.69738707508778], [3.0408751689122906, 36.69657370549985], [3.0481013777040626, 36.7010885101403], [3.053843975865109, 36.698878307577125], [3.0838057574509885, 36.70032872675145], [3.0956059052456855, 36.69782757277101], [3.0950890350519815, 36.6824505575847], [3.1029338222621203, 36.68006132276926], [3.1034355361332926, 36.67523026909295], [3.108602819058695, 36.67166248447071], [3.1084335640654435, 36.66601272223068], [3.1178036783764447, 36.65819181678838], [3.117728870093226, 36.65191737487923], [3.108044333386614, 36.6426030686609], [3.1067128635860533, 36.63349559255832], [3.1036597742973555, 36.63092231806322], [3.0994518698284446, 36.63276186202049], [3.0978341338664497, 36.644888235869274], [3.0851440976581284, 36.64717415249426], [3.0815906996953837, 36.65354611829322], [3.0780397143129647, 36.65318668065241], [3.076310925256576, 36.646643557441074], [3.070888440499565, 36.64409650249207], [3.064572290354613, 36.646106091329436], [3.065735141000549, 36.65655685910579], [3.058647012524527, 36.656421204472956], [3.056448092810627, 36.65300119855641], [3.0491334338647618, 36.65325984668504], [3.0502060299867986, 36.66224614479234], [3.0381178652853684, 36.66436402925875], [3.037932361821975, 36.673855795987116], [3.0453502018169143, 36.676471122563605], [3.0493505813795787, 36.68172090834083], [3.055852903294548, 36.683138300693955], [3.0570992577973644, 36.68718338686292], [3.0430868110445637, 36.69049039161531], [3.0338923106262796, 36.68709210136065], [3.0326748347473633, 36.69569037904264]], [[3.05779456601996, 36.676099284533386], [3.0542563220001537, 36.6714638406722], [3.0634183702294537, 36.668248796692964], [3.0655202936569115, 36.66070980541432], [3.0767962644084723, 36.659303740361274], [3.0835832524840567, 36.66285840175804], [3.0837370552605248, 36.67086078783393], [3.0770449194905027, 36.68108357543635], [3.0684949607085823, 36.675952743716536], [3.0638633697193174, 36.67775254843865], [3.05779456601996, 36.676099284533386]], [[3.0635403752785266, 36.68735986276967], [3.067694501196682, 36.68676100760683], [3.0680276485435063, 36.690085638639125], [3.0639854736662833, 36.69061956204209], [3.0635403752785266, 36.68735986276967]]], [[[3.1067707605633115, 36.55934178447727], [3.106934895169001, 36.56688927486909], [3.1155656511366603, 36.56614120054089], [3.1155530768305093, 36.55769823500336], [3.1067707605633115, 36.55934178447727]]], [[[3.074076587813026, 36.54113744211266], [3.0820468070028073, 36.54479685908676], [3.084754503237009, 36.55886511898379], [3.0783772738273854, 36.562280334165784], [3.0746019520284262, 36.57135861744326], [3.0764763173662546, 36.58073387824115], [3.0941927776994844, 36.58556035677874], [3.0956279416772, 36.57948382636274], [3.090488404527836, 36.57778832740413], [3.0919498665031044, 36.572826540502575], [3.0891202347833953, 36.56529493898984], [3.0847104864703416, 36.562190659383], [3.10194983498953, 36.55487949398512], [3.1008585853803705, 36.54719527404929], [3.1111859318224386, 36.53616691505121], [3.1092493933887693, 36.527536992940405], [3.10067810848124, 36.52798186257516], [3.0947923960862824, 36.533802202185484], [3.0777628558530523, 36.53613928452732], [3.0737220178154145, 36.538664624679335], [3.074076587813026, 36.54113744211266]]], [[[3.036060340227462, 36.63736500616856], [3.0351615573692303, 36.641296203973404], [3.038054959626995, 36.645261168335765], [3.0429782422581595, 36.649200180191144], [3.0466730604992804, 36.64916159010707], [3.049833997984774, 36.642681646050896], [3.0459986218676804, 36.634818924597404], [3.0412989947454094, 36.633784689062246], [3.036060340227462, 36.63736500616856]]], [[[2.9334360243657396, 36.633473652612444], [2.942663392639025, 36.644625170075614], [2.951073063440736, 36.64555619451262], [2.955066455618576, 36.650752376415205], [2.9615621546055775, 36.6511190711389], [2.9631356108179365, 36.639193944887936], [2.9761356889142863, 36.64112821748977], [2.9791127874257755, 36.64586470537674], [2.9791075978055344, 36.65913357959133], [2.971844497426283, 36.66307237598608], [2.9742593914519233, 36.66924073255472], [2.979699017365603, 36.66836615818394], [2.9815824623858034, 36.66268808328877], [2.9880944438140262, 36.66086499417944], [2.991286298425801, 36.65265177955936], [3.0059784868852795, 36.652704362383915], [3.0039201593001637, 36.66034326724232], [3.00649769274363, 36.66704089234586], [3.0117775331227192, 36.666190383131216], [3.0240839176861662, 36.6583894026151], [3.0222131559607295, 36.64605339234002], [3.0166626293552556, 36.64229096607993], [3.0185675980235915, 36.6357619747476], [3.011728513295386, 36.63351020441778], [3.011528907578005, 36.62713116802421], [3.0059657415515137, 36.628109415997464], [3.0038299979429635, 36.63547347188643], [2.9980595363533293, 36.63529623400195], [2.993729330303337, 36.63916264715263], [2.9780866934916523, 36.63684065814602], [2.9649978480352526, 36.631991534373505], [2.966522868783683, 36.62814164205976], [2.975299922573523, 36.62602435308728], [2.9734120779556754, 36.620706456778095], [2.96068216102725, 36.618216866839724], [2.952508386142404, 36.620482205171875], [2.9606211317058397, 36.62830960212434], [2.9595376056323994, 36.637816481932006], [2.952020655868622, 36.63727001356819], [2.9480937304626713, 36.62488279591751], [2.942816558443597, 36.624990476052766], [2.9334360243657396, 36.633473652612444]]], [[[3.0030013645144567, 36.56928887561402], [3.00215404579912, 36.58519850650728], [3.0106896915301564, 36.58633711228758], [3.0118817563989957, 36.58276735644947], [3.015823658420034, 36.581359058808886], [3.015769138108729, 36.56909272340793], [3.0030013645144567, 36.56928887561402]]], [[[2.9779052940502018, 36.53959890844643], [2.9818319856941597, 36.53709570596432], [2.9821818413159575, 36.53067105591986], [2.972305862811695, 36.53098124239897], [2.9719274820146677, 36.540119297824184], [2.9779052940502018, 36.53959890844643]]], [[[2.983465023650513, 36.529635845477145], [2.994248054901887, 36.526936113700124], [2.996688936120751, 36.53346232993217], [3.000813115571092, 36.5360160864935], [3.0148969961389214, 36.533997736928924], [3.005008213942328, 36.5212911115009], [3.0007319191427886, 36.52136411168339], [2.9962279811467605, 36.52522344581413], [2.991507912892411, 36.519883757346086], [2.9851455992568487, 36.51988313479401], [2.983465023650513, 36.529635845477145]]], [[[2.9839381019426323, 36.62440133339066], [2.985047931604301, 36.627709433474664], [2.993079426654064, 36.62930029409848], [2.9983890125194614, 36.62251335582644], [2.9960059396913943, 36.61975589225784], [2.990887340795246, 36.61971365205323], [2.984977059792069, 36.621346282984426], [2.9839381019426323, 36.62440133339066]]], [[[2.906752082378474, 36.679128372527096], [2.9099394776137077, 36.684009611884115], [2.92200750904119, 36.68245683404341], [2.9193319090351264, 36.67266849823771], [2.9150802677527303, 36.67002210056561], [2.9067024417512815, 36.671791791144734], [2.906752082378474, 36.679128372527096]]], [[[2.9250484076999324, 36.68491021994174], [2.924966222016415, 36.69145451658352], [2.944461227561291, 36.69069077351977], [2.9460666890379303, 36.68682935856853], [2.9516576001185633, 36.6859068343154], [2.9553774933756745, 36.69409945173359], [2.965270794003494, 36.70055080204258], [2.967071339110826, 36.70478746762665], [2.970499174513527, 36.70462455138231], [2.9717363677100685, 36.70197872208491], [2.9703159180165644, 36.694249721051015], [2.9760515196878616, 36.69247707606407], [2.9821334993811424, 36.695882425170055], [2.98645550557845, 36.690809653181276], [2.986391067587612, 36.68601517385843], [2.983139753736149, 36.68339569803505], [2.966876811448695, 36.68400184081104], [2.9651772420306917, 36.67848331529217], [2.959571378862513, 36.67589844320469], [2.95879629942434, 36.671143263201586], [2.9544198644464483, 36.6673817007863], [2.954209274568327, 36.66078146216087], [2.9484864939084536, 36.658922268489896], [2.9433955797016718, 36.650770475073855], [2.938006366407745, 36.65103381595254], [2.936879395182563, 36.65749333720979], [2.941615167148304, 36.665973225626125], [2.9463288108913916, 36.66785753255813], [2.947027955199096, 36.677615423270794], [2.935728729446543, 36.68591370955925], [2.9250484076999324, 36.68491021994174]]], [[[2.8982072470667886, 36.60928195508744], [2.901841167522606, 36.61815985108347], [2.9107933430543933, 36.61509673340864], [2.9130850507909645, 36.61198021706887], [2.922077617294231, 36.61289583390675], [2.924867453234116, 36.609643780370405], [2.9281639862458673, 36.61305461843002], [2.9244601782238897, 36.6195462704163], [2.9370803699899373, 36.62040371312565], [2.9396372941167614, 36.61760566908769], [2.932507624920603, 36.60742380002813], [2.9325069598530136, 36.601194490678225], [2.926471744205258, 36.601232879012386], [2.922677132465737, 36.60541669502985], [2.9155386069394282, 36.6049013384665], [2.9125584369348716, 36.607472947172965], [2.90360661568374, 36.60489228485009], [2.897715176065948, 36.60729163458414], [2.8982072470667886, 36.60928195508744]]], [[[2.909600496808141, 36.515693859330796], [2.908895736920208, 36.52254958502742], [2.9193510711652126, 36.52171487651443], [2.919527468442313, 36.51363291133905], [2.915570176037794, 36.50957409798228], [2.909600496808141, 36.515693859330796]]], [[[2.8947550504045587, 36.588030559713516], [2.89545110971426, 36.59151382905566], [2.9056771307823954, 36.58920699435908], [2.9147209067175517, 36.59300920961303], [2.9194168927991293, 36.591091436059486], [2.914118990872325, 36.571303988528385], [2.9167224282522053, 36.56469268352559], [2.9088643350426904, 36.5597796282786], [2.899825959612583, 36.56128335852055], [2.896654980124811, 36.56534886943165], [2.9005694573459655, 36.57458434948221], [2.896608888350018, 36.57725728690964], [2.8947550504045587, 36.588030559713516]]], [[[2.792444594781023, 36.480125398857496], [2.793157266168292, 36.49170797231748], [2.7970429000548966, 36.49498210625195], [2.8195986976760703, 36.494260863394246], [2.821777692506879, 36.50020181961562], [2.8303602863438853, 36.50227433470765], [2.829780203090832, 36.50878649982477], [2.8335187165832987, 36.511116673153495], [2.8354907615355356, 36.51724215383235], [2.842934094753088, 36.517408868798704], [2.8568886149501074, 36.52271011668889], [2.8568461240546816, 36.53223004980114], [2.8669613682409683, 36.53091192531594], [2.876957821808921, 36.53366440559037], [2.879210135870589, 36.527927947552286], [2.8768613876974456, 36.5241961240038], [2.8824890710040676, 36.516966926643995], [2.8882316623047766, 36.51326199840119], [2.8965794155891786, 36.512631381321505], [2.897554562912616, 36.507766032554436], [2.892738979674575, 36.49480376809391], [2.8738827484588922, 36.49574670811642], [2.8703241012243788, 36.49332084403846], [2.8660426481444676, 36.48210456350892], [2.8606041036184675, 36.48203019552679], [2.8548944890533483, 36.48561919942286], [2.8504696494270254, 36.479125939824506], [2.839494167489687, 36.476965117376295], [2.8389456101969044, 36.46840950740497], [2.8347637103380783, 36.46497647437687], [2.820966953534584, 36.465625532994736], [2.816362595645959, 36.46196507035106], [2.8056705282509244, 36.46197251854625], [2.801786817282675, 36.471495619164166], [2.7941907402653956, 36.47338740025587], [2.792444594781023, 36.480125398857496]], [[2.873672369892619, 36.50862701166397], [2.8774314254345343, 36.51141976702606], [2.8719296555692093, 36.5130444770079], [2.870188844334237, 36.51019889954358], [2.873672369892619, 36.50862701166397]]], [[[2.853698045675487, 36.68759363396741], [2.8575922141016545, 36.690103067062964], [2.8583786296660545, 36.697255172240986], [2.862066901866726, 36.6971482623265], [2.866120173199865, 36.69246260288103], [2.8729496746761978, 36.69428065628892], [2.874624287447232, 36.69006380247869], [2.880636689146495, 36.6903479562729], [2.884408630532572, 36.68128285258176], [2.891677531678814, 36.67999842452898], [2.890817551730837, 36.67110034304918], [2.8879089551978736, 36.66999962695997], [2.8846014629440933, 36.6736103483131], [2.872846690815043, 36.67485292251886], [2.865751116452613, 36.67213017883257], [2.8647258663757467, 36.667810840701954], [2.8555956455849154, 36.6678001204091], [2.85517559586049, 36.67095206593256], [2.858804979872679, 36.67367854925708], [2.856009241059535, 36.677385477660344], [2.8583284259578687, 36.68265382565537], [2.8534497845340074, 36.6850001710922], [2.853698045675487, 36.68759363396741]]], [[[2.8759823647027503, 36.542576012641575], [2.8795156835253994, 36.54842439481345], [2.885863568020917, 36.54856625955762], [2.888320187382065, 36.539508686888475], [2.8780117538496244, 36.53826700692221], [2.8759823647027503, 36.542576012641575]]], [[[2.8719736957911195, 36.59864110380421], [2.8740737649538186, 36.60252052147223], [2.880861838563622, 36.60261724194915], [2.8855250004759085, 36.598236210620655], [2.881375113494924, 36.593087273524944], [2.873670170249492, 36.59298961464893], [2.8719736957911195, 36.59864110380421]]], [[[2.8653142638194944, 36.60966109699774], [2.8634750258942256, 36.61599114364368], [2.8681108582447004, 36.6273064694394], [2.872744237183146, 36.62956823184554], [2.8729560370337683, 36.63351963965081], [2.8775590814179632, 36.63363570023376], [2.885429588781724, 36.613439790900664], [2.8783462280673096, 36.60781165864292], [2.868811850149542, 36.60706152858319], [2.8653142638194944, 36.60966109699774]]], [[[2.842868831610816, 36.524922334862055], [2.8364607148464804, 36.52355238753403], [2.8334098813557995, 36.52612417983213], [2.8333762189932648, 36.53166219945198], [2.8454457776751743, 36.53595790395925], [2.846180047183057, 36.5276915744029], [2.842868831610816, 36.524922334862055]]], [[[2.8332382551998907, 36.58767275870778], [2.8323830982487213, 36.591000820005014], [2.8356269948878436, 36.592884417721244], [2.845962467590911, 36.591824571654804], [2.8459237253647154, 36.58810722660234], [2.8406880231918916, 36.58582611739388], [2.8424186971228713, 36.580299814504194], [2.8401104989113897, 36.577498678630064], [2.835202579790275, 36.57779469200464], [2.8332382551998907, 36.58767275870778]]], [[[2.7802048386759806, 36.68304062472274], [2.7884763434429547, 36.684340664933444], [2.7914937474647936, 36.68757872939705], [2.8012423308453966, 36.687134377117886], [2.8103635997045147, 36.69707713825048], [2.821698759980781, 36.7001902848972], [2.8296668090687196, 36.700177574504906], [2.832956965047919, 36.69675505327173], [2.832441142266471, 36.69215906926163], [2.8157976164737217, 36.69314941716377], [2.8129512777451557, 36.6914355380473], [2.81239832622681, 36.68627727355626], [2.8033300434083763, 36.68617735101657], [2.8000037806962252, 36.68162352363677], [2.8018152886158134, 36.67360758623926], [2.7980889261625483, 36.6704550400608], [2.7990639349885487, 36.66378453485104], [2.796598323959992, 36.662478606481095], [2.792996123055636, 36.66260801736919], [2.7901822545351584, 36.66754145650811], [2.784527958855439, 36.67015339880255], [2.784142618827024, 36.676591950291254], [2.7797962927068407, 36.6784804173419], [2.7802048386759806, 36.68304062472274]]], [[[2.8188801427658476, 36.539904324228864], [2.819841566687637, 36.544600462140636], [2.82641932706162, 36.5454791399067], [2.8286505511569278, 36.535604218642845], [2.821914271808827, 36.53455162685312], [2.8188801427658476, 36.539904324228864]]], [[[2.8036743642885367, 36.622492864453996], [2.8108522275238554, 36.62617272428357], [2.8220916202439064, 36.626438500450725], [2.8150855745044714, 36.61366799079781], [2.8059113657627184, 36.613837613030604], [2.8036743642885367, 36.622492864453996]]], [[[2.7980010832865374, 36.5128227758237], [2.7997959304288176, 36.5194562581745], [2.805804799568232, 36.52111629170925], [2.8084165151245064, 36.51936820609775], [2.8083070479622725, 36.5124100703053], [2.7993934627794306, 36.510011512893264], [2.7980010832865374, 36.5128227758237]]], [[[2.6820646538695123, 36.64211869710862], [2.6865810875900333, 36.647278401544696], [2.703415026873159, 36.654091670530455], [2.7054313273777466, 36.65182122422498], [2.7026860058798587, 36.648180508117846], [2.7050141138631507, 36.64631604508219], [2.7253468795130678, 36.65077217392004], [2.7298370616503806, 36.65377006072354], [2.731340065032609, 36.659082577751086], [2.736168692169151, 36.661092272941495], [2.737746830295293, 36.66575692147352], [2.7486011668794963, 36.67345264281565], [2.7558439878581162, 36.67220173490862], [2.7556191454982057, 36.65686412098575], [2.7727321542911825, 36.65718654770338], [2.7799711443014927, 36.65058627061791], [2.790194949528445, 36.65277853326708], [2.7916648257116017, 36.64902571405496], [2.8009731228701678, 36.6438968384645], [2.800824133559306, 36.64058140473347], [2.7951860531682717, 36.63794979367611], [2.7904973972462987, 36.630740113923075], [2.7833880986910775, 36.62913728125902], [2.7783197575394074, 36.633156803535776], [2.771569903204288, 36.62687832794476], [2.767068505583785, 36.63046664225082], [2.7555866415512247, 36.630636412713216], [2.7531313096175576, 36.63488608280307], [2.7326887874453396, 36.63795640867007], [2.7294641766121566, 36.642426078161826], [2.7235509279425427, 36.64150515271448], [2.723767855983124, 36.63160959487864], [2.7150626182314768, 36.62755540821639], [2.6947274005697706, 36.630757924542884], [2.6888214342432954, 36.62892782628451], [2.684471421951161, 36.631577416664754], [2.6820646538695123, 36.64211869710862]]], [[[2.751507115629315, 36.46393871339652], [2.7644427925467685, 36.467220716762284], [2.7674212267818454, 36.472199528436434], [2.7733578728017267, 36.472158373182616], [2.7776547386989128, 36.46863786735866], [2.7861938176194387, 36.46922193213883], [2.7876789550032006, 36.465655501177], [2.786443278690949, 36.462050909041196], [2.780639466166131, 36.46079644864066], [2.7801752490931504, 36.455481440463764], [2.7768137958089323, 36.4544691371932], [2.7672098201533086, 36.45598343765806], [2.7603282885393066, 36.46002067822076], [2.756299624571583, 36.4546414333626], [2.753473294894295, 36.454475790869516], [2.751507115629315, 36.46393871339652]]], [[[2.7719281329871497, 36.61851554236943], [2.775888829853568, 36.62312766375167], [2.7835114957677636, 36.622742713856766], [2.7821177664523447, 36.61585669129081], [2.774160710143159, 36.61507748611609], [2.7719281329871497, 36.61851554236943]]], [[[2.7445037273296125, 36.25866008515179], [2.7435064778822587, 36.26145825414804], [2.748573134615285, 36.26933677782776], [2.770643484340805, 36.26941644101473], [2.7736511172696874, 36.273886012344406], [2.7777458938789596, 36.27376674380635], [2.7808344042511033, 36.26974123597773], [2.7804312013182138, 36.26658783255968], [2.772370815942858, 36.26573763759731], [2.77082205756288, 36.255837071109475], [2.7657684580314186, 36.25320803979096], [2.753284642830337, 36.250938390508175], [2.7445037273296125, 36.25866008515179]]], [[[2.7531896948421726, 36.2863954108389], [2.7559038503191964, 36.29009788268765], [2.76526857487074, 36.2896250566464], [2.7610324618809257, 36.280556391966094], [2.75280432670712, 36.28294405291591], [2.7531896948421726, 36.2863954108389]]], [[[2.740477791946245, 36.61118737443782], [2.740028523092595, 36.615623755329565], [2.7522027151630852, 36.619422654747986], [2.756863390236283, 36.61831665276639], [2.7568428572976678, 36.61015925524304], [2.7500202475732927, 36.60912919935696], [2.7473498065316977, 36.605458791336936], [2.744435923969048, 36.60558147556895], [2.740477791946245, 36.61118737443782]]], [[[2.730036312280553, 36.46372033241997], [2.7286962245117747, 36.4668849823377], [2.739703359062365, 36.46679825221151], [2.7398605620538254, 36.45762048568853], [2.7312500274428477, 36.456759166449494], [2.730036312280553, 36.46372033241997]]], [[[2.716120649275286, 36.27413726821121], [2.7153405292688175, 36.27946322536943], [2.7223368741771767, 36.280975044231816], [2.723759973947522, 36.285532307060095], [2.7299379976690776, 36.285601736341484], [2.7397406550325982, 36.26916264141042], [2.7203315152901877, 36.267887198619086], [2.716120649275286, 36.27413726821121]]], [[[2.6678976620179005, 36.47322702472475], [2.672292822303219, 36.47567637144521], [2.6781054668227116, 36.46982084104555], [2.6876999622261324, 36.47349759697609], [2.697468580617887, 36.471181954552364], [2.699611159472018, 36.45610403470873], [2.693273399274578, 36.45428370068964], [2.6864309830661877, 36.45734676556441], [2.676769714089449, 36.46816222455145], [2.669755582613501, 36.46849395259513], [2.6678976620179005, 36.47322702472475]]], [[[2.6853267409918544, 36.4294577664151], [2.685608489502089, 36.4341496862663], [2.694201519761021, 36.43396856874358], [2.6930729295488676, 36.42406250353255], [2.6855681962548483, 36.426306189013246], [2.6853267409918544, 36.4294577664151]]], [[[2.6652136580663814, 36.57407448413893], [2.669426615771424, 36.57841090876457], [2.6774433215692888, 36.58076301554731], [2.6826726246972665, 36.57744139243782], [2.6846271018339563, 36.57029499666191], [2.6829998878553276, 36.56823132074844], [2.6670506498899598, 36.56744782842327], [2.664491989393097, 36.56875999711962], [2.6652136580663814, 36.57407448413893]]], [[[2.6486468375954337, 36.61983213941982], [2.647923919772467, 36.622604816877505], [2.6544501110708416, 36.62864621004335], [2.6574470077116445, 36.6286548640366], [2.6587175753481387, 36.62357621180424], [2.655781690341356, 36.618732214204115], [2.6486468375954337, 36.61983213941982]]], [[[2.62764160776858, 36.45012377847027], [2.6297043814844576, 36.45844763450048], [2.644685921659918, 36.45745044013271], [2.642517569610356, 36.44904577920011], [2.6300974523437497, 36.44744435984441], [2.62764160776858, 36.45012377847027]]], [[[2.604660054744781, 36.46612418769097], [2.6068229966771996, 36.470245856097435], [2.615480008867847, 36.469362934957815], [2.618876131076984, 36.476247141330525], [2.6312348659523566, 36.47552836118007], [2.6364632308724367, 36.4720225380044], [2.6342669304370143, 36.46681871738055], [2.625493484296307, 36.469021933087966], [2.6207230624978153, 36.466756767718], [2.6192973399982664, 36.462961661127785], [2.608780252920251, 36.46220520409549], [2.604660054744781, 36.46612418769097]]], [[[2.5497247767957765, 36.46839950214695], [2.5515411165841524, 36.47211116839655], [2.5582028152515557, 36.47477410680768], [2.55771628542079, 36.47929526256347], [2.5635155157621305, 36.48556773158951], [2.566435126762965, 36.48553527107993], [2.56848806126183, 36.482181626210334], [2.574883866167488, 36.481705212977154], [2.57283733146377, 36.47475496146393], [2.560030122315948, 36.473966270218824], [2.558231396584085, 36.46508143633056], [2.5508766970943224, 36.4657568133417], [2.5497247767957765, 36.46839950214695]]], [[[2.547552829711438, 36.51846138779408], [2.547583494188873, 36.52241781056829], [2.553158087552307, 36.52333868067785], [2.5609378950755364, 36.51717583568683], [2.5610387542799526, 36.51426432725126], [2.551596874111949, 36.51383016114612], [2.547552829711438, 36.51846138779408]]]]}}]}