{"type": "Feature", "geometry": {"type": "MultiPolygon", "coordinates": [[[[-107.20666040227368, 24.687446430049647], [-107.20738412897965, 24.694237012220384], [-107.2051323943791, 24.696613243624938], [-107.20176481888248, 24.696707365616717], [-107.1955941526435, 24.692610743528007], [-107.19493557827258, 24.683755397403345], [-107.19701506637676, 24.681342045991958], [-107.20119088057287, 24.680603776155856], [-107.20666040227368, 24.687446430049647]]], [[[-107.22532862881144, 24.856951200784966], [-107.22417499051194, 24.862392660372304], [-107.21993994593684, 24.86417361216251], [-107.21160868381695, 24.86295373937982], [-107.20893399900596, 24.856513919961564], [-107.21353438206486, 24.850865273094076], [-107.22132752218057, 24.85059784343219], [-107.22504191952797, 24.852721595557533], [-107.22532862881144, 24.856951200784966]]], [[[-107.26234772358609, 24.91244102758108], [-107.26105018333668, 24.91642444684284], [-107.25409929911135, 24.920112101144028], [-107.24811795298572, 24.91763375819506], [-107.24635659643648, 24.914995747443403], [-107.24776189076974, 24.905564657733866], [-107.25089203563856, 24.90300375982044], [-107.25548887702563, 24.90298882407847], [-107.26059858707951, 24.90663918181797], [-107.26234772358609, 24.91244102758108]]], [[[-107.2950278812853, 24.89261349049468], [-107.29461817147654, 24.895620428529305], [-107.29222292052721, 24.897540879750668], [-107.28402417655583, 24.8957883812386], [-107.28158550273166, 24.887592371470515], [-107.27859697502946, 24.883825444287645], [-107.27760280556389, 24.877953985370063], [-107.27490811971563, 24.87657503976624], [-107.26854177341056, 24.87690802494398], [-107.26609598233011, 24.87481965467494], [-107.2639260928701, 24.86423365551097], [-107.26612332060309, 24.859153484433442], [-107.26974948258119, 24.858293530320957], [-107.27435966570243, 24.861173384878075], [-107.27703626846393, 24.868992893679497], [-107.27612824498661, 24.874648652225666], [-107.27774554872349, 24.87719293444626], [-107.28067973467628, 24.87788546328302], [-107.28642618758705, 24.876020380236678], [-107.29227313586871, 24.878121199990574], [-107.2950278812853, 24.89261349049468]]], [[[-107.48857552915935, 24.764359962547424], [-107.49231279099465, 24.766644551392012], [-107.4929271534411, 24.773420014584023], [-107.49104483921667, 24.775794783298046], [-107.48520233116611, 24.777715763466766], [-107.4823740512499, 24.785006064393446], [-107.47335278375606, 24.78593464100518], [-107.46398470732676, 24.78370705292005], [-107.4534977172538, 24.785745388662825], [-107.45104128465253, 24.78800792161946], [-107.45098081993795, 24.79430455742732], [-107.4532724614907, 24.79688650503551], [-107.4607308874407, 24.795002806128508], [-107.47847337015486, 24.79694564147367], [-107.48317223062915, 24.799502343368392], [-107.48439158104368, 24.802391149887676], [-107.48235976971264, 24.806241232048404], [-107.4773678557922, 24.80798879783656], [-107.47155251895592, 24.814366482823473], [-107.46518452673273, 24.81707534210764], [-107.46449833133059, 24.820065968520527], [-107.46671539519846, 24.82495988168104], [-107.46532014178688, 24.829651315199055], [-107.46261901462623, 24.830841035699866], [-107.456283372033, 24.830085807615905], [-107.45348890832973, 24.832053598229365], [-107.44929067042774, 24.840031094533828], [-107.45368244685078, 24.848880634399304], [-107.45261259727087, 24.85300711416284], [-107.44749160944122, 24.854401610374243], [-107.43684502786837, 24.84387590508279], [-107.43006822941486, 24.844416808818092], [-107.41423132207426, 24.840053001561817], [-107.40951528752237, 24.83599272854193], [-107.40633388386829, 24.83570784562303], [-107.4024550786625, 24.839324269289225], [-107.40390980035485, 24.85522960567133], [-107.40287130147964, 24.861454756536293], [-107.39014889753128, 24.872044345494164], [-107.3834736545016, 24.87330133580223], [-107.38060861257613, 24.872111914742263], [-107.37924828320108, 24.86207264300379], [-107.37507430682392, 24.856647215184687], [-107.37199757246682, 24.856464219240337], [-107.36760452967155, 24.859438291724885], [-107.36053733572643, 24.859401134228417], [-107.35343682179901, 24.85671274574232], [-107.34916891547154, 24.852278968520718], [-107.34854652945239, 24.84744626514012], [-107.35279437604895, 24.841521430883066], [-107.35242007309257, 24.827865548136373], [-107.35647418501536, 24.821892817603498], [-107.35496397024674, 24.815274261474958], [-107.35202816687239, 24.810576629919183], [-107.33568754088897, 24.80899493383144], [-107.33158565155614, 24.804988294741413], [-107.32889967304045, 24.804425744684316], [-107.32623277114453, 24.806038357207978], [-107.32168282902869, 24.81421584266233], [-107.31760935817798, 24.815206024874623], [-107.31102253091791, 24.81316489856043], [-107.3052938730922, 24.813456043383795], [-107.29868062381429, 24.808448194493916], [-107.29574211697961, 24.80414002837813], [-107.29657705222712, 24.799975959421516], [-107.30000203119907, 24.798187687543344], [-107.30789994596093, 24.800206506938096], [-107.31133285205043, 24.804162649455215], [-107.3153823243567, 24.805258384183166], [-107.32386842868034, 24.801377201777925], [-107.32709165716459, 24.793727781041053], [-107.33185007137544, 24.791397645058478], [-107.3372483944169, 24.792383333968615], [-107.34018918661847, 24.791243593993325], [-107.34178630805383, 24.788133217080084], [-107.34047662542864, 24.775819050819226], [-107.34328525693574, 24.769755682712184], [-107.34102285057507, 24.76312258494754], [-107.34196865128399, 24.759931616555352], [-107.35080049936204, 24.755347880595103], [-107.36244519783075, 24.754505805407298], [-107.36656811559934, 24.751767992669187], [-107.36924095046435, 24.746864547963863], [-107.37620341150836, 24.74418423253085], [-107.38018451063115, 24.73802054342713], [-107.39026360564111, 24.736772129747298], [-107.39839133581735, 24.72825549176228], [-107.40130445380458, 24.728768923085532], [-107.40358530107294, 24.731261081919122], [-107.4047103914926, 24.740196033561077], [-107.40698875117792, 24.742690900314752], [-107.41019934226763, 24.7426544405742], [-107.41660703673826, 24.738873233181685], [-107.42042672927883, 24.73888797482583], [-107.42511530686434, 24.741312730798686], [-107.43525779851072, 24.740510880598517], [-107.44021685309875, 24.74316770517056], [-107.44781826041539, 24.7404322377164], [-107.45316426335314, 24.7425419856461], [-107.45760120835921, 24.748524283791628], [-107.47158291368179, 24.751957661786985], [-107.4749264394766, 24.75660925961273], [-107.47790189557348, 24.76534904883628], [-107.48857552915935, 24.764359962547424]]], [[[-107.31883756236772, 24.68193868923386], [-107.31390211004094, 24.68792889348574], [-107.30960034180761, 24.688824845911963], [-107.30494167603077, 24.68737237803799], [-107.3004940307236, 24.68368131589074], [-107.29953810265314, 24.680869683023143], [-107.30235812021299, 24.67605339237888], [-107.31522532861304, 24.67430324109627], [-107.31941124270821, 24.677463930088383], [-107.31883756236772, 24.68193868923386]]], [[[-107.39945407399827, 24.696474258358293], [-107.4006885334735, 24.70078947520539], [-107.39849721515087, 24.704182963839752], [-107.39091944496663, 24.704594321082606], [-107.38529535582414, 24.71062530332852], [-107.37955805466376, 24.711232132842508], [-107.37667309507536, 24.70917297826518], [-107.37516504494488, 24.70331002955095], [-107.37756866544169, 24.699787135189034], [-107.3898226611805, 24.69430517632715], [-107.39654410901885, 24.694437720020943], [-107.39945407399827, 24.696474258358293]]], [[[-107.45182630395486, 24.674607664533283], [-107.45170144121603, 24.681232772609928], [-107.44767852817675, 24.686946070727338], [-107.44873340980698, 24.692049828025507], [-107.45272994670668, 24.69605974638017], [-107.45285720102605, 24.70072458622055], [-107.45023635277335, 24.703503761249518], [-107.44354671939828, 24.703466063199812], [-107.44102787499105, 24.70135188269528], [-107.43798507235024, 24.692531997461398], [-107.43822536499121, 24.68831717862217], [-107.44161187624682, 24.683719990754742], [-107.4409441500026, 24.67079317388543], [-107.44350796052571, 24.668332120329108], [-107.44986753925636, 24.668155085599643], [-107.4522696203104, 24.67071725421264], [-107.45182630395486, 24.674607664533283]]], [[[-107.46144692062161, 24.91079625982735], [-107.46086396134041, 24.914162366456523], [-107.45881628030929, 24.915940932147798], [-107.44911997320969, 24.91572206258144], [-107.44556643997862, 24.912273137074383], [-107.44503536882857, 24.908076416393346], [-107.45034411186141, 24.899576570592107], [-107.45400238194368, 24.898444389939122], [-107.45747567374688, 24.90050291791879], [-107.46144692062161, 24.91079625982735]]], [[[-107.50754259123981, 24.99020595251077], [-107.5091398059374, 24.994044868295713], [-107.50689501104134, 24.997359769047097], [-107.49790384050894, 25.00181479939222], [-107.49244133590088, 24.998797583507457], [-107.49249897499683, 24.992618464866627], [-107.49638481214168, 24.99109389717619], [-107.49967886155676, 24.98671544043381], [-107.5033769398869, 24.9866729678151], [-107.50754259123981, 24.99020595251077]]], [[[-107.48826988905908, 24.988866345420796], [-107.48286709783385, 24.991823068429163], [-107.47830899507866, 24.990697672413962], [-107.47597359790437, 24.98273325159135], [-107.47830785060368, 24.974566683775777], [-107.46288008582786, 24.966111637969576], [-107.46149939536652, 24.9629343109039], [-107.46289654369248, 24.959928319755374], [-107.47133018243814, 24.956904151530136], [-107.47551486711072, 24.959222221292706], [-107.48140466767038, 24.967068941082402], [-107.48058480901466, 24.975462016353767], [-107.49016591531519, 24.98079118923177], [-107.48826988905908, 24.988866345420796]]], [[[-107.51023135139528, 24.82136028188927], [-107.51220592677059, 24.82644120588595], [-107.508132026664, 24.82951882314657], [-107.49442389769528, 24.827142115728353], [-107.49024893791808, 24.824463766891565], [-107.48904653862648, 24.819907419448707], [-107.49231931490864, 24.815362476420006], [-107.49918491930111, 24.814065673407534], [-107.50462685661661, 24.815644796959845], [-107.51023135139528, 24.82136028188927]]], [[[-107.53338926251035, 24.923811732008705], [-107.53123778928295, 24.926668680726436], [-107.52795378459088, 24.92719862000218], [-107.52267096828882, 24.92247781665831], [-107.5181904338976, 24.921378009484112], [-107.51192383084557, 24.917061590526167], [-107.5110091629826, 24.913050885125312], [-107.51626992419051, 24.905196008706977], [-107.51940672606014, 24.90343152108619], [-107.52299573334827, 24.903986195160087], [-107.5312669738723, 24.911990033475814], [-107.53497726890244, 24.919360781586917], [-107.53338926251035, 24.923811732008705]]], [[[-107.56084401448955, 24.657077433322925], [-107.55645191020963, 24.66549011580751], [-107.54863429632668, 24.669916592824354], [-107.54843200535849, 24.672978481850915], [-107.55235350261478, 24.679591283560015], [-107.55107852592023, 24.684187983904245], [-107.54804099657737, 24.68624183076573], [-107.54049507285684, 24.685215214172654], [-107.53782397010296, 24.67251632175577], [-107.52423469771077, 24.665626052493288], [-107.52234249849793, 24.662884072770847], [-107.52478358389476, 24.652683672538135], [-107.53203535916747, 24.652110841064825], [-107.5359361270737, 24.648911343255964], [-107.54826948381532, 24.645006272263856], [-107.55243426293158, 24.645086860318695], [-107.55989803405575, 24.650039196177435], [-107.56198591541036, 24.653655518618535], [-107.56084401448955, 24.657077433322925]]], [[[-107.58994131170581, 24.82877477798804], [-107.59159424517986, 24.833017402145547], [-107.58749698900577, 24.83975960174383], [-107.57649033922735, 24.8470432906208], [-107.57293856207038, 24.844872503330798], [-107.57168265119417, 24.83766112803861], [-107.56930232972803, 24.835205760129632], [-107.55670544144907, 24.836256558871487], [-107.5522548613455, 24.830771720688954], [-107.5475399775796, 24.82937040400599], [-107.53941391451644, 24.833384576627928], [-107.52764162497014, 24.833316335911437], [-107.52420760817036, 24.830898389534244], [-107.5226951998493, 24.825904554868984], [-107.52740854404746, 24.819000531021683], [-107.5342989847099, 24.81591534706548], [-107.5416029270554, 24.81880701534768], [-107.55184221424808, 24.818966915243166], [-107.56303286665822, 24.822726107299285], [-107.57234978611947, 24.83080356400917], [-107.58305468804936, 24.82606750415969], [-107.58994131170581, 24.82877477798804]]], [[[-107.65536075856474, 24.764295291521943], [-107.65606650615224, 24.769995809586682], [-107.65259209873456, 24.772890908726037], [-107.64055510242845, 24.77510804844375], [-107.6194804500575, 24.77327235038653], [-107.60297952276522, 24.774348990083418], [-107.59914476547394, 24.77586803956575], [-107.59844438957639, 24.7879584825316], [-107.60002768324576, 24.79099754875235], [-107.60734337557906, 24.791283714014696], [-107.61425897670568, 24.79403667912852], [-107.61958127482849, 24.792841793846243], [-107.62526438158395, 24.7963856099091], [-107.62490452853378, 24.80147910582916], [-107.61885608421922, 24.806074540402754], [-107.60872981658181, 24.804721698549624], [-107.60398079674879, 24.80583245237697], [-107.59512117851614, 24.802669227101248], [-107.59307433133128, 24.798828070159523], [-107.59479330552023, 24.792184228090658], [-107.59154508875717, 24.78912845823239], [-107.58444113800819, 24.79011040769816], [-107.58117386193065, 24.797281515156897], [-107.57411849607303, 24.79985369847558], [-107.57092713046612, 24.799346241254128], [-107.56698616818696, 24.7951620158182], [-107.56821032792715, 24.789146902298636], [-107.5729304869549, 24.786442084869716], [-107.58019372218929, 24.78712100690903], [-107.58631795082214, 24.778225510587465], [-107.58623811954423, 24.770391169833307], [-107.5839262963083, 24.76425780967741], [-107.58806494724364, 24.75914664393587], [-107.59797218961793, 24.761274254727102], [-107.61262914146944, 24.76045584705617], [-107.61834813752787, 24.757292099729494], [-107.62580669872156, 24.757506343238656], [-107.63051720027782, 24.75899062607139], [-107.63409203535458, 24.763405164959945], [-107.63815560248966, 24.763752706954755], [-107.64240740846874, 24.761875053416265], [-107.64556817826708, 24.757390036928143], [-107.65156574739854, 24.7565574589378], [-107.65488607522295, 24.758835052682148], [-107.65536075856474, 24.764295291521943]]], [[[-107.62847109715145, 24.719458393221846], [-107.63251377314664, 24.722526545928574], [-107.6307949276716, 24.727207722091165], [-107.6137937783296, 24.7293370493491], [-107.60697956261288, 24.727534680116925], [-107.60152939895015, 24.73133900784193], [-107.59985104806665, 24.736659884515486], [-107.59717573801186, 24.738510076966524], [-107.59141843004537, 24.737886375478833], [-107.58742370181479, 24.72847919076192], [-107.58848604188982, 24.724868481784128], [-107.59456091914161, 24.72128248238458], [-107.60221152044086, 24.720399397982053], [-107.60828878332552, 24.72344647238843], [-107.61670865662641, 24.719683647668944], [-107.62847109715145, 24.719458393221846]]], [[[-107.61982908239891, 24.665799122651617], [-107.61865038999248, 24.66958316344346], [-107.61416751193347, 24.671352878678054], [-107.59577605846529, 24.668545317835225], [-107.59278188850622, 24.664436646641615], [-107.59628470707224, 24.660418839942714], [-107.61529407642578, 24.66086330376936], [-107.61826513672295, 24.662160779332734], [-107.61982908239891, 24.665799122651617]]], [[[-107.64290401616849, 24.895140022142407], [-107.64211586826507, 24.89985327140409], [-107.63294712249609, 24.90821803223603], [-107.62622129777752, 24.905673818465107], [-107.62006496730343, 24.899349699370696], [-107.62618910569712, 24.887041326954076], [-107.62888753443991, 24.88523707615658], [-107.6397576449538, 24.887456539570067], [-107.64290401616849, 24.895140022142407]]], [[[-107.64037418799225, 24.82702447970686], [-107.63942677573921, 24.831592748915906], [-107.63450737855881, 24.832820248762093], [-107.63040181048476, 24.828330895570645], [-107.62502867916858, 24.82600320575278], [-107.6240908907027, 24.821534867126765], [-107.62774237327802, 24.818503948805], [-107.63228668854683, 24.818735117068723], [-107.63805935480785, 24.821728744151176], [-107.64037418799225, 24.82702447970686]]], [[[-107.64354738394002, 24.802777941985138], [-107.64054497748796, 24.799492555027115], [-107.64206078818951, 24.79403161346209], [-107.65385876902523, 24.791161704145566], [-107.65753268267723, 24.792864275088675], [-107.65846717400879, 24.79700665004158], [-107.6567140101912, 24.79992883203254], [-107.64354738394002, 24.802777941985138]]]]}, "properties": {}}