{"type": "FeatureCollection", "features": [{"type": "Feature", "properties": {"threshold": 70}, "geometry": {"type": "MultiPolygon", "coordinates": [[[[-103.17392697428441, 20.608585488017603], [-103.17246313924129, 20.61128046512424], [-103.16423461932628, 20.609266528565204], [-103.16127119303937, 20.613587429394276], [-103.15522165233796, 20.61037448085388], [-103.15751181452066, 20.606341392388643], [-103.16563083795728, 20.606930711801052], [-103.16900543547219, 20.59912899623781], [-103.17241459059105, 20.5995870519268], [-103.17392697428441, 20.608585488017603]]], [[[-103.19416483696727, 20.511156733749104], [-103.19495379142157, 20.513919641956214], [-103.1904772390035, 20.520555374500873], [-103.17924617571217, 20.532112063406828], [-103.17180528792836, 20.52763671647587], [-103.17259509101699, 20.51664010844476], [-103.16437908468423, 20.51150892593156], [-103.16333059135745, 20.506806328679247], [-103.17205427216939, 20.501324191115383], [-103.175008290198, 20.509613842550923], [-103.18657488427142, 20.50713656347528], [-103.19416483696727, 20.511156733749104]]], [[[-103.21483757332652, 20.439498250907633], [-103.20044613353056, 20.448957877778593], [-103.19672939690122, 20.447780052832954], [-103.19690832973723, 20.440422309082713], [-103.20397242091893, 20.43989245881026], [-103.20924238872438, 20.4346901116694], [-103.21361726530745, 20.434822817932233], [-103.21483757332652, 20.439498250907633]]], [[[-103.29009353972083, 20.660763340320784], [-103.28059698615395, 20.664918331631043], [-103.27754263768628, 20.656605631197337], [-103.28080518997088, 20.65365606504884], [-103.2889420947129, 20.654564767678853], [-103.29009353972083, 20.660763340320784]]], [[[-103.27266212823386, 20.659620884646184], [-103.2712689025271, 20.66685966902256], [-103.26614654750536, 20.669876691948804], [-103.26950457646589, 20.679478636292636], [-103.26656035181244, 20.682911174879123], [-103.26674422709526, 20.690191926079855], [-103.26430408726962, 20.69146941861148], [-103.26004252995082, 20.690195843447537], [-103.25796330261188, 20.6812027984898], [-103.24568647459975, 20.681345730135895], [-103.24269107278168, 20.670740562111803], [-103.23789113480517, 20.66761733217139], [-103.23482867261674, 20.668538004450575], [-103.23317268744611, 20.67399376069386], [-103.2275270295527, 20.674930183495565], [-103.21040938744557, 20.669152405722656], [-103.20321915200768, 20.669789482186943], [-103.1992260056945, 20.665821554164253], [-103.20131818374328, 20.660290222992565], [-103.2093174012758, 20.658455803089996], [-103.20937889855563, 20.64411485598555], [-103.22600746251463, 20.648353974302122], [-103.23242265269582, 20.645935761894293], [-103.23833487892196, 20.65590536906729], [-103.24180194911028, 20.651004636810473], [-103.24606697340744, 20.649975367485343], [-103.25183155400775, 20.640415886740787], [-103.25853011363508, 20.640715691429715], [-103.26544233899085, 20.65034761312006], [-103.27053161553354, 20.652278778143685], [-103.27266212823386, 20.659620884646184]], [[-103.23797181837581, 20.657765223623354], [-103.23599420454133, 20.655379777521432], [-103.21783780903938, 20.6541827811609], [-103.21334037231959, 20.661202253102296], [-103.22391618407549, 20.66595188129542], [-103.23561367530573, 20.667199392500546], [-103.23797181837581, 20.657765223623354]]], [[[-103.21748677846168, 20.572574355575075], [-103.21908074806169, 20.577313227393105], [-103.21538249414232, 20.577711146105717], [-103.20871261593658, 20.570001579443264], [-103.20146557955304, 20.569306628974662], [-103.20137452249135, 20.56431331988644], [-103.21455401882723, 20.564118991134514], [-103.21748677846168, 20.572574355575075]]], [[[-103.29239314755473, 20.466563907242406], [-103.29323023261294, 20.46896916064841], [-103.28862246287918, 20.47244842227701], [-103.27719595621217, 20.47647966917943], [-103.26905901443038, 20.47641800916787], [-103.26757415722618, 20.474229667661405], [-103.27249036778237, 20.46923068747735], [-103.2824370454476, 20.468363253578207], [-103.28548595425444, 20.465297083945334], [-103.29239314755473, 20.466563907242406]]], [[[-103.262432137581, 20.473542192019934], [-103.25683647979803, 20.481788651482056], [-103.24880838437774, 20.483067100436223], [-103.2492294283143, 20.495878061555025], [-103.24239293963366, 20.501459549057383], [-103.24445242903631, 20.508783209688698], [-103.24903275565646, 20.510697293904364], [-103.25355629808139, 20.525654892017872], [-103.26501881927578, 20.53915901584148], [-103.26480527817418, 20.54165210183639], [-103.25995107330846, 20.54345953321484], [-103.25773852640343, 20.54050833294355], [-103.24739515432563, 20.537487014490917], [-103.24183796284505, 20.526258408111243], [-103.22766887723509, 20.517637231735986], [-103.23016252071669, 20.51370120951443], [-103.23036284370765, 20.501687791188232], [-103.2340458270807, 20.50026369562506], [-103.23630748605405, 20.494419529890294], [-103.22885238834878, 20.48934853591327], [-103.22884486704848, 20.48094226510647], [-103.23502724919707, 20.48015544709072], [-103.24050321485059, 20.48314742331792], [-103.24526720415304, 20.48167332329342], [-103.2472150716894, 20.472413319512874], [-103.25421859376158, 20.472129839131632], [-103.25884503033359, 20.469075311235784], [-103.26138530528506, 20.469379823330218], [-103.262432137581, 20.473542192019934]]], [[[-103.27372362812487, 20.43980369386048], [-103.26987959945448, 20.44727034521723], [-103.26165585859889, 20.44804281617606], [-103.25935007562448, 20.445112051531236], [-103.25953376746189, 20.44025140222925], [-103.26851108062904, 20.43444744429592], [-103.27201373425446, 20.43465690662625], [-103.27372362812487, 20.43980369386048]]], [[[-103.31641437880442, 20.62367023758896], [-103.31731289484838, 20.628279226865335], [-103.31513541151075, 20.630428589402726], [-103.30730197208116, 20.628327117898912], [-103.29916982182404, 20.631980545824817], [-103.29509323850732, 20.62792045593865], [-103.28680104306744, 20.627683361276336], [-103.28395709040127, 20.622664357549887], [-103.27403582786197, 20.62355391755266], [-103.27193368939699, 20.617891802536942], [-103.27993877267211, 20.61485386799226], [-103.28472589466138, 20.61999331834304], [-103.29299190546426, 20.619936031363128], [-103.2964624564626, 20.625853381693524], [-103.30026552121124, 20.623912075441154], [-103.3076785144236, 20.625821188016054], [-103.3113007596332, 20.622409897528424], [-103.31641437880442, 20.62367023758896]]], [[[-103.45634276227531, 20.481433063880463], [-103.4459836128721, 20.48376955074664], [-103.43689049896042, 20.48112326700352], [-103.43640286833323, 20.470144055760645], [-103.43088495609426, 20.466701549213795], [-103.42080466597994, 20.48188754187796], [-103.4152580480442, 20.47836423973946], [-103.41158265633916, 20.46765475650683], [-103.40233864645889, 20.47205250720292], [-103.39807810932872, 20.466927496788653], [-103.40169482838735, 20.459469176649193], [-103.40482453590998, 20.4583466565907], [-103.41274781381107, 20.46729303887619], [-103.41600275643907, 20.464097835003894], [-103.42246712607795, 20.466675007077026], [-103.43086426558447, 20.466233310750237], [-103.44385484067216, 20.4579108789864], [-103.44853026162922, 20.46063854346492], [-103.45041392229619, 20.46550502343117], [-103.45542916493825, 20.46649197260805], [-103.45634276227531, 20.481433063880463]]], [[[-103.41144316879306, 20.481306951446275], [-103.41180530257735, 20.48794740577697], [-103.41813935074613, 20.49022637835447], [-103.42419502042577, 20.50012620129395], [-103.41075778895836, 20.501629388727892], [-103.40948715896111, 20.50733774411667], [-103.40220611258286, 20.51355717689832], [-103.39823049046616, 20.525670728966613], [-103.40081541293512, 20.529373553069906], [-103.39957393700008, 20.53653306364713], [-103.38285798664326, 20.53576797394694], [-103.37506327634635, 20.538226196623587], [-103.37392350794377, 20.55288676715252], [-103.36964664798425, 20.55641017441477], [-103.37207809965471, 20.564998953981817], [-103.3648244104782, 20.567024550082984], [-103.36316126163523, 20.560724725698357], [-103.34914980327864, 20.546915346706573], [-103.34942640664097, 20.54295656297744], [-103.35902318894682, 20.537799113804365], [-103.35374559390851, 20.535183563800135], [-103.34770080165342, 20.52386884881663], [-103.35059894533161, 20.519464345522795], [-103.35754131589185, 20.519252088416934], [-103.35991941043741, 20.515297043863256], [-103.34446402944366, 20.508207597097318], [-103.34631044766492, 20.499450750404385], [-103.35040923581198, 20.497339224227183], [-103.34982956123545, 20.491397905485375], [-103.35373583978796, 20.487027237775397], [-103.36047220435329, 20.48712476480224], [-103.36248777826411, 20.491995646956315], [-103.3710141123265, 20.497258405197638], [-103.37087873787966, 20.50425159913356], [-103.3827873934887, 20.51051470462556], [-103.38941505530234, 20.51115319812694], [-103.39437521800485, 20.499093322669967], [-103.39887811279004, 20.49582744572641], [-103.3983666893001, 20.488662648458252], [-103.39355024721962, 20.486606130201956], [-103.39635401765466, 20.478018944096892], [-103.41144316879306, 20.481306951446275]]], [[[-103.35853337595546, 20.56464115618022], [-103.35630048241734, 20.575544364689687], [-103.3600100742488, 20.577164435353666], [-103.36874148193505, 20.575264297523596], [-103.37503986725629, 20.579929207037974], [-103.3809458575621, 20.5803103684015], [-103.3839375707615, 20.583395843529637], [-103.38191586108397, 20.588877455751714], [-103.37484967213332, 20.58648551336776], [-103.3721842217541, 20.582567683470696], [-103.36090577935767, 20.582266269424228], [-103.35590306140772, 20.586380941082215], [-103.35167535202416, 20.585457629068753], [-103.34965541463689, 20.57975951733771], [-103.35455488581395, 20.573805013869354], [-103.35187416783826, 20.570583675917874], [-103.34729516652921, 20.573406763692716], [-103.33969160981653, 20.572952609204314], [-103.33741116320088, 20.58031061759059], [-103.33250816474252, 20.58136955175913], [-103.32015559453656, 20.576083233973378], [-103.3132072224299, 20.57623271950426], [-103.30682761273832, 20.569069932991024], [-103.316122530292, 20.559415840682316], [-103.3272055446007, 20.56311990415677], [-103.33007544490201, 20.554668404455633], [-103.34335389113859, 20.55566198988123], [-103.35770644316786, 20.562129060358625], [-103.35853337595546, 20.56464115618022]]], [[[-103.30172214527349, 20.567725775996767], [-103.29686969603371, 20.5736468797209], [-103.28730700432666, 20.575313183401818], [-103.29034780631481, 20.581609533824373], [-103.28943164226796, 20.58676648061309], [-103.28802774573983, 20.589765581451683], [-103.28373357703425, 20.588792868940242], [-103.2800819595965, 20.583516055439443], [-103.28237727947409, 20.576288565988044], [-103.27854525262907, 20.57313484164062], [-103.2778443068683, 20.56738533165347], [-103.28670714982758, 20.559228413317346], [-103.2914129007389, 20.559136197133075], [-103.29970692326367, 20.56263808398597], [-103.30172214527349, 20.567725775996767]]], [[[-103.31230969785847, 20.684275784351755], [-103.31103878528195, 20.690225495452975], [-103.3029051696269, 20.688699325494664], [-103.29489359324859, 20.692552696276206], [-103.28510093545646, 20.681620359482423], [-103.2850466038256, 20.676895351050494], [-103.29129296223182, 20.674803079005965], [-103.29597167461681, 20.677535063435467], [-103.29904925818137, 20.683557938916746], [-103.30896001177709, 20.680599910971473], [-103.31230969785847, 20.684275784351755]]], [[[-103.31649201463924, 20.451318041743676], [-103.31188316194114, 20.457352730094154], [-103.30523509196125, 20.45653988244461], [-103.29794246311332, 20.446302530155673], [-103.29902192024238, 20.443009184048556], [-103.30641826159264, 20.438717632076564], [-103.30233613456036, 20.430613743194506], [-103.30635837271306, 20.425116353880945], [-103.3107654924945, 20.42620103405621], [-103.31678185095964, 20.436974275629524], [-103.31214577911872, 20.442740202580513], [-103.31649201463924, 20.451318041743676]]], [[[-103.33180917400396, 20.718113748759528], [-103.32347991783223, 20.71876972435285], [-103.32068408383454, 20.72252129784643], [-103.32477195340918, 20.732426236292486], [-103.32278505012505, 20.739465793888662], [-103.31152207222507, 20.742849831222326], [-103.30921611460401, 20.741326556783495], [-103.31087195719438, 20.732599414407506], [-103.29999197568799, 20.72610159731871], [-103.30006203320657, 20.719825466761453], [-103.30433199092269, 20.715093951574666], [-103.29759034864796, 20.707746500347934], [-103.303691592079, 20.704004400950332], [-103.30848887801166, 20.705900898263714], [-103.31098392804196, 20.710391641305062], [-103.31715552356582, 20.710585674280658], [-103.32195757710872, 20.705170990987817], [-103.32619688467156, 20.70425545781292], [-103.33098640282914, 20.708807666144196], [-103.33180917400396, 20.718113748759528]]], [[[-103.45320633637672, 20.696620427137074], [-103.45124875538923, 20.704561004814952], [-103.44845509472958, 20.697221185750713], [-103.44218844026062, 20.696858881567298], [-103.44010877123773, 20.68797106129694], [-103.43372844906743, 20.683843891633867], [-103.43252878413163, 20.677659127872438], [-103.42145696054301, 20.676494264361708], [-103.42045401490964, 20.688000845394306], [-103.42486872969076, 20.69471543157694], [-103.41905902473344, 20.697422522136574], [-103.41960783823373, 20.70364046211635], [-103.41614027162377, 20.70840986614404], [-103.42122084181942, 20.713853159792226], [-103.42268901116131, 20.736090848251255], [-103.42123625267045, 20.738231915533774], [-103.41001979553997, 20.73935575230962], [-103.40402380060954, 20.747749929556175], [-103.39636165147124, 20.745986912299276], [-103.39616140786228, 20.738466315185104], [-103.40605375502247, 20.730698803793985], [-103.39639861341253, 20.724804176363378], [-103.39564959702247, 20.71967320559699], [-103.40978923875333, 20.723465518679543], [-103.40707243016683, 20.72723782127365], [-103.40862189934629, 20.729889516027843], [-103.4142015445508, 20.73041405773834], [-103.41724438186372, 20.72724547588227], [-103.41049530677564, 20.72329878490142], [-103.4121597542626, 20.71655039509842], [-103.40837461566862, 20.713240589632473], [-103.40846666699315, 20.706381310228256], [-103.4131276269084, 20.69707363492833], [-103.40948978367621, 20.690685857297016], [-103.40914440555338, 20.683223919876447], [-103.40179464805337, 20.681347261220672], [-103.39561424813692, 20.683027231535984], [-103.39020299904696, 20.679661437185604], [-103.38477032884832, 20.683734563634427], [-103.37417236970602, 20.68302934384187], [-103.3714123139172, 20.68824008021918], [-103.36789986811765, 20.68838149672285], [-103.36578137175995, 20.682456991845005], [-103.3725231152537, 20.680661221682286], [-103.3734065176644, 20.676194765866594], [-103.36260757599685, 20.675218690937903], [-103.36444199332468, 20.667032838943626], [-103.36113542720975, 20.663857349944525], [-103.35608796129523, 20.665864264173404], [-103.35141397030056, 20.67693053079122], [-103.34232568309403, 20.676843369850204], [-103.33435351977265, 20.671766649516684], [-103.33326297141232, 20.66766497343814], [-103.33831023756412, 20.663399648591493], [-103.3391101125638, 20.655760309160055], [-103.3329655826039, 20.654169369402872], [-103.32908865348323, 20.660574136022937], [-103.31958269581888, 20.658003210596938], [-103.32088520711797, 20.65255387880057], [-103.33172702322955, 20.65279821208801], [-103.33369207847365, 20.647926546804804], [-103.33854004085343, 20.646251252158553], [-103.33315347412173, 20.634205475376348], [-103.32678163363636, 20.62998845292904], [-103.33422342518124, 20.622217458655836], [-103.32648234152649, 20.617129294187883], [-103.31777655791143, 20.616620180118456], [-103.31495519091527, 20.613777925975256], [-103.31513228953665, 20.607437870131353], [-103.32196026446954, 20.60553287001349], [-103.32891612437196, 20.61024183657731], [-103.33482710283072, 20.610365574889375], [-103.3403373942037, 20.595377217369848], [-103.35257699196862, 20.596302876651972], [-103.35450037009731, 20.60283826731477], [-103.34627170482611, 20.612865500724645], [-103.3491770616541, 20.61521203707488], [-103.35546414235607, 20.61233546737609], [-103.36113169360416, 20.615157784076892], [-103.35497131456066, 20.623602888872508], [-103.36037086913994, 20.62901329137144], [-103.37467496698999, 20.633884188650292], [-103.3756208948942, 20.637732416735073], [-103.37171944628119, 20.646998039841268], [-103.37388836740114, 20.649537148489838], [-103.38578355534123, 20.647374131422733], [-103.39180131232266, 20.650273057759044], [-103.40469897607073, 20.642093076045914], [-103.40496774830073, 20.632688698933652], [-103.40914438880435, 20.63141828248514], [-103.4142753885834, 20.636625896867404], [-103.42259053942269, 20.63577066182608], [-103.42962352354101, 20.644235714672533], [-103.42956788781719, 20.650582523365934], [-103.43578981595027, 20.650977320017994], [-103.44321033692731, 20.64721279969173], [-103.44373370933737, 20.634456920694916], [-103.45090126684603, 20.632745281014774], [-103.45296485266857, 20.6357806993814], [-103.45197181917379, 20.645788478822734], [-103.44499784148739, 20.649437034476705], [-103.44420912833473, 20.652762623508142], [-103.45259938122761, 20.6580509878422], [-103.45175440252144, 20.664459925665], [-103.44337835603942, 20.664367276298897], [-103.43517004176913, 20.66974071274949], [-103.43407492628441, 20.674657342489947], [-103.44068353508864, 20.6774227342939], [-103.444938027503, 20.673800829049053], [-103.44978405366982, 20.67656111328557], [-103.44644353418711, 20.68346298991037], [-103.45317333910658, 20.69046990428465], [-103.45320633637672, 20.696620427137074]], [[-103.34151325723988, 20.626348373635093], [-103.34009533987202, 20.622791634324315], [-103.33452580539239, 20.624432962341903], [-103.33732602989906, 20.63078308628503], [-103.34065333554307, 20.630020605575243], [-103.34151325723988, 20.626348373635093]], [[-103.35605120070565, 20.652125400386296], [-103.35123258467618, 20.638214228283292], [-103.34770672920014, 20.637346930384144], [-103.3415774400026, 20.644556672144237], [-103.34321700984941, 20.655960764220083], [-103.35122109756307, 20.661498090551436], [-103.35605120070565, 20.652125400386296]], [[-103.37376401621374, 20.652629864833273], [-103.37055643504252, 20.650253531805674], [-103.3679174915247, 20.65386022534326], [-103.37164407036448, 20.656898202105126], [-103.37376401621374, 20.652629864833273]], [[-103.39957934504923, 20.668008244007716], [-103.39892345052067, 20.663147039257204], [-103.38660229218473, 20.661967865606737], [-103.39039246291532, 20.671389679680825], [-103.39768384861495, 20.671213287871957], [-103.39957934504923, 20.668008244007716]], [[-103.41930630527546, 20.661428472131508], [-103.40883855100208, 20.666888893816818], [-103.40974336065696, 20.6704964060202], [-103.41914930878283, 20.674658735851178], [-103.42618940574484, 20.66330579484144], [-103.42416742207782, 20.659126491722652], [-103.41930630527546, 20.661428472131508]]], [[[-103.39933282102926, 20.42129893303532], [-103.3974452500693, 20.42717059588514], [-103.39365904500346, 20.429783960486322], [-103.39143902611232, 20.423437200963907], [-103.38404903855921, 20.41970110324691], [-103.38331908529625, 20.41158902310647], [-103.38997844042879, 20.40887052716361], [-103.3956647717364, 20.41067219929141], [-103.39933282102926, 20.42129893303532]]], [[[-103.43158719296815, 20.60707439254437], [-103.42897396279471, 20.611509752097355], [-103.42989097060858, 20.618169511557003], [-103.42492661009251, 20.622649455415555], [-103.41480457110465, 20.619154892502287], [-103.41278455458679, 20.612404985241866], [-103.40250312497898, 20.610455591413068], [-103.39939146356292, 20.612802108908028], [-103.40245080077233, 20.616567115153515], [-103.40197483713823, 20.622359006067065], [-103.39010412945737, 20.619856688985127], [-103.38790637967996, 20.616823100939502], [-103.39292404999576, 20.610335712037102], [-103.39419624648019, 20.60253002670722], [-103.4042745760153, 20.59419433188375], [-103.40920065498985, 20.595168663251243], [-103.41196351333558, 20.598901552392846], [-103.41767433795619, 20.599248978359725], [-103.42132758771695, 20.60321000255737], [-103.42882122212161, 20.60096792306637], [-103.4317639406715, 20.603014184434496], [-103.43158719296815, 20.60707439254437]]], [[[-103.44361665284548, 20.531059305814843], [-103.44430499627279, 20.533652554373358], [-103.43365123891097, 20.54100917835492], [-103.41892241963893, 20.54145084081222], [-103.41629293968722, 20.52943739773228], [-103.4230038614704, 20.52726080888487], [-103.41809622182177, 20.519828256968083], [-103.41910426606083, 20.514684691417845], [-103.42272048781788, 20.51340182141108], [-103.42452585205557, 20.508830409280446], [-103.42839682150365, 20.51241463028099], [-103.42815142703547, 20.5186215519309], [-103.43666104328608, 20.51945270847765], [-103.43885657659496, 20.526981167527886], [-103.44361665284548, 20.531059305814843]]], [[[-103.45066384273652, 20.589228736072783], [-103.44778924604624, 20.59366523756121], [-103.44277283883606, 20.59284529679799], [-103.43697289034967, 20.5859092550954], [-103.42887756277119, 20.586937528219526], [-103.4269801479287, 20.580328573520255], [-103.42942553485344, 20.57823997878548], [-103.43623255690999, 20.580201021246367], [-103.44529128445436, 20.578440696190277], [-103.44995880692075, 20.58369908056937], [-103.45066384273652, 20.589228736072783]]], [[[-103.47525160044096, 20.529879030587125], [-103.46826406348787, 20.534040561480477], [-103.4568780823666, 20.528912952215908], [-103.45419955750081, 20.520733053235723], [-103.46821997154728, 20.51799537246782], [-103.4720604162418, 20.52001116098006], [-103.47525160044096, 20.529879030587125]]], [[[-103.51842700369261, 20.484299130657792], [-103.50604345814388, 20.487792669068167], [-103.49660332859543, 20.494130170165672], [-103.49673362925483, 20.497205704605538], [-103.5015102703101, 20.499388411012585], [-103.5001042804136, 20.505206645447206], [-103.48360682143792, 20.498157848059837], [-103.48377280334253, 20.489316571355015], [-103.48668941459297, 20.48584435508543], [-103.49306807492638, 20.485215315217097], [-103.49733461375384, 20.478991099179453], [-103.49854556842448, 20.47376441451938], [-103.494959086099, 20.471202386575424], [-103.49724419680717, 20.46730258027565], [-103.50326851084182, 20.466667439341602], [-103.50526526643657, 20.47247471268157], [-103.51427025489558, 20.47561023463034], [-103.51516787753334, 20.479539776627366], [-103.51869843311161, 20.48065894038674], [-103.51842700369261, 20.484299130657792]]]]}}, {"type": "Feature", "properties": {"threshold": 80}, "geometry": {"type": "MultiPolygon", "coordinates": [[[[-103.17492726298535, 20.60444480550372], [-103.17558233185565, 20.609464202096557], [-103.17231595855753, 20.611285713338717], [-103.1652792702369, 20.609718955576504], [-103.16235472888498, 20.615158634139853], [-103.15527016161272, 20.61141289529249], [-103.15570848472758, 20.607164523224743], [-103.16570723875502, 20.60653321987179], [-103.16876121590359, 20.599183856025995], [-103.17220572492633, 20.59934185139992], [-103.17492726298535, 20.60444480550372]]], [[[-103.2071131653587, 20.501902239974818], [-103.20689214636421, 20.507043406726336], [-103.20229417826326, 20.511238181187306], [-103.19572302543125, 20.51202400076892], [-103.1904170009768, 20.521426829309895], [-103.18416671208111, 20.525123437869148], [-103.18121344738034, 20.5321211133783], [-103.17267433003876, 20.530943672130846], [-103.17154750018074, 20.517896873086208], [-103.16440207484769, 20.51479654941061], [-103.16158529867029, 20.510258271521202], [-103.16840970754996, 20.498063076167135], [-103.1718574436846, 20.498441993512504], [-103.17670198591134, 20.50891552171916], [-103.19592385775327, 20.507642711635768], [-103.19837896844004, 20.496778739074845], [-103.20510735732722, 20.496949521228846], [-103.2071131653587, 20.501902239974818]]], [[[-103.27266212823386, 20.659620884646184], [-103.2712689025271, 20.66685966902256], [-103.26614654750536, 20.669876691948804], [-103.26950457646589, 20.679478636292636], [-103.26656035181244, 20.682911174879123], [-103.26674422709526, 20.690191926079855], [-103.26430408726962, 20.69146941861148], [-103.26004252995082, 20.690195843447537], [-103.25796330261188, 20.6812027984898], [-103.24568647459975, 20.681345730135895], [-103.24269107278168, 20.670740562111803], [-103.23789113480517, 20.66761733217139], [-103.23482867261674, 20.668538004450575], [-103.2331046734639, 20.674040161528442], [-103.22652087784088, 20.674913029966643], [-103.21114951534388, 20.669698512446228], [-103.19978305340378, 20.66975363882434], [-103.19751754399034, 20.66499513486575], [-103.2013957166616, 20.65943536260983], [-103.2093174012758, 20.658455803089996], [-103.20719976477879, 20.64626272759066], [-103.20845697601197, 20.643337359701807], [-103.21359752518872, 20.64243985604821], [-103.21409775813508, 20.63517814740407], [-103.22099638024847, 20.636625855722134], [-103.22074503175494, 20.63985255776993], [-103.21540244070133, 20.642261777620607], [-103.21735849872792, 20.646710508469642], [-103.2262603326304, 20.64835657378604], [-103.23242265269582, 20.645935761894293], [-103.23781932359304, 20.655915985424514], [-103.24123928371799, 20.652904269268216], [-103.24171922565807, 20.64788112926794], [-103.24642996017212, 20.647525530389785], [-103.25137049050323, 20.64059021459893], [-103.25825446701128, 20.640538263625427], [-103.26544233899085, 20.65034761312006], [-103.27053161553354, 20.652278778143685], [-103.27266212823386, 20.659620884646184]], [[-103.23797181837581, 20.657765223623354], [-103.23599420454133, 20.655379777521432], [-103.21783780903938, 20.6541827811609], [-103.21334037231959, 20.661202253102296], [-103.22391618407549, 20.66595188129542], [-103.23561367530573, 20.667199392500546], [-103.23797181837581, 20.657765223623354]]], [[[-103.22048398927218, 20.57878838240805], [-103.2152260682307, 20.57844366504797], [-103.20785398184753, 20.569815089841473], [-103.19981023076794, 20.5693425171995], [-103.19976182701294, 20.563356661184876], [-103.21469241535713, 20.564208163278433], [-103.22048398927218, 20.57878838240805]]], [[[-103.2937550743284, 20.469299741232938], [-103.27718692842102, 20.47728819155706], [-103.26125286011982, 20.477108179836716], [-103.25750570654778, 20.479185589373028], [-103.25651321107266, 20.484359409716994], [-103.24939048951944, 20.483203203655957], [-103.24959164844628, 20.4900533532385], [-103.25959909318918, 20.492435056702018], [-103.25416960817475, 20.500671629241452], [-103.25767306313898, 20.508092055831437], [-103.25643933778153, 20.510941491416443], [-103.25116047580835, 20.51205351581823], [-103.25083793318312, 20.517794419600065], [-103.25355743408653, 20.52562186409784], [-103.26505718774133, 20.541163894398714], [-103.2598041087628, 20.543451252370968], [-103.25157418517506, 20.53857040247831], [-103.24314279630086, 20.539916849234288], [-103.24238533154806, 20.532192074462664], [-103.22758690312946, 20.51741378351223], [-103.22863735461918, 20.50247878449029], [-103.23617082208855, 20.493481889104817], [-103.23252784939174, 20.49147573314967], [-103.22491970119468, 20.49533308696666], [-103.22272782575945, 20.49399160367187], [-103.22289886794435, 20.488460319523693], [-103.22782833391004, 20.487223034741305], [-103.22946422255258, 20.480118050289178], [-103.2454967079874, 20.48157385893121], [-103.2472150716894, 20.472413319512874], [-103.2542076634315, 20.472082258114593], [-103.25963048448978, 20.46829378277664], [-103.265354210261, 20.47276754030115], [-103.29332891972858, 20.463738621008165], [-103.2937550743284, 20.469299741232938]]], [[[-103.24646925962062, 20.430528098071083], [-103.24731463987094, 20.435287951299696], [-103.24085344210131, 20.440102276738973], [-103.23937634451627, 20.447476154391115], [-103.2347571108091, 20.447651625190733], [-103.2310522801276, 20.44401801591169], [-103.23035617849179, 20.436786212931157], [-103.24025184161437, 20.430120993085787], [-103.24646925962062, 20.430528098071083]]], [[[-103.31641437880442, 20.62367023758896], [-103.31731289484838, 20.628279226865335], [-103.31513541151075, 20.630428589402726], [-103.30730197208116, 20.628327117898912], [-103.29916982182404, 20.631980545824817], [-103.29509323850732, 20.62792045593865], [-103.28680104306744, 20.627683361276336], [-103.28395709040127, 20.622664357549887], [-103.27403582786197, 20.62355391755266], [-103.27193368939699, 20.617891802536942], [-103.27993877267211, 20.61485386799226], [-103.28472589466138, 20.61999331834304], [-103.29299190546426, 20.619936031363128], [-103.2964624564626, 20.625853381693524], [-103.30026552121124, 20.623912075441154], [-103.3076785144236, 20.625821188016054], [-103.3113007596332, 20.622409897528424], [-103.31641437880442, 20.62367023758896]]], [[[-103.45634276227531, 20.481433063880463], [-103.4459836128721, 20.48376955074664], [-103.43689049896042, 20.48112326700352], [-103.43640286833323, 20.470144055760645], [-103.43088495609426, 20.466701549213795], [-103.42080466597994, 20.48188754187796], [-103.4152580480442, 20.47836423973946], [-103.41158265633916, 20.46765475650683], [-103.40233864645889, 20.47205250720292], [-103.39807810932872, 20.466927496788653], [-103.40169482838735, 20.459469176649193], [-103.40482453590998, 20.4583466565907], [-103.41274781381107, 20.46729303887619], [-103.41600275643907, 20.464097835003894], [-103.42246712607795, 20.466675007077026], [-103.43086426558447, 20.466233310750237], [-103.44385484067216, 20.4579108789864], [-103.44853026162922, 20.46063854346492], [-103.45041392229619, 20.46550502343117], [-103.45542916493825, 20.46649197260805], [-103.45634276227531, 20.481433063880463]]], [[[-103.41144316879306, 20.481306951446275], [-103.41180530257735, 20.48794740577697], [-103.41813935074613, 20.49022637835447], [-103.42419502042577, 20.50012620129395], [-103.41075778895836, 20.501629388727892], [-103.40948715896111, 20.50733774411667], [-103.40220611258286, 20.51355717689832], [-103.39823049046616, 20.525670728966613], [-103.40081541293512, 20.529373553069906], [-103.39957393700008, 20.53653306364713], [-103.38285798664326, 20.53576797394694], [-103.37506327634635, 20.538226196623587], [-103.37392350794377, 20.55288676715252], [-103.36964664798425, 20.55641017441477], [-103.37207809965471, 20.564998953981817], [-103.3648244104782, 20.567024550082984], [-103.36316126163523, 20.560724725698357], [-103.3491383273544, 20.546837025328134], [-103.34942640664097, 20.54295656297744], [-103.35902318894682, 20.537799113804365], [-103.35374559390851, 20.535183563800135], [-103.34770080165342, 20.52386884881663], [-103.35073927126028, 20.5193779296066], [-103.35864760100394, 20.518498610508136], [-103.359685818812, 20.51413655053954], [-103.34507091234916, 20.509874498080805], [-103.34223152664194, 20.514208280047193], [-103.33643029515287, 20.515081681674896], [-103.33505859066483, 20.508238106431566], [-103.34357849233449, 20.507712773170745], [-103.34689644915105, 20.50331682400143], [-103.34635431320284, 20.499383349032122], [-103.35040923581198, 20.497339224227183], [-103.34987342254095, 20.491330503167934], [-103.35373583978796, 20.487027237775397], [-103.3600070232258, 20.4870223099462], [-103.36248777826411, 20.491995646956315], [-103.37097169126687, 20.497190187332894], [-103.37106191753328, 20.504402963857757], [-103.3827873934887, 20.51051470462556], [-103.3899151633407, 20.51103073417539], [-103.39437521800485, 20.499093322669967], [-103.39887811279004, 20.49582744572641], [-103.3983666893001, 20.488662648458252], [-103.39355024721962, 20.486606130201956], [-103.39635401765466, 20.478018944096892], [-103.41144316879306, 20.481306951446275]]], [[[-103.35853337595546, 20.56464115618022], [-103.35630048241734, 20.575544364689687], [-103.3600100742488, 20.577164435353666], [-103.36874148193505, 20.575264297523596], [-103.37503986725629, 20.579929207037974], [-103.3809458575621, 20.5803103684015], [-103.3839375707615, 20.583395843529637], [-103.38191586108397, 20.588877455751714], [-103.3740626186853, 20.5865187669425], [-103.37193094647611, 20.583504059827668], [-103.3616616812521, 20.582273428689298], [-103.35582372707592, 20.586406824197752], [-103.35167535202416, 20.585457629068753], [-103.34965541463689, 20.57975951733771], [-103.35455488581395, 20.573805013869354], [-103.35187416783826, 20.570583675917874], [-103.34729516652921, 20.573406763692716], [-103.33969160981653, 20.572952609204314], [-103.33741116320088, 20.58031061759059], [-103.33250816474252, 20.58136955175913], [-103.32015559453656, 20.576083233973378], [-103.3132072224299, 20.57623271950426], [-103.30682761273832, 20.569069932991024], [-103.316122530292, 20.559415840682316], [-103.3272055446007, 20.56311990415677], [-103.33007544490201, 20.554668404455633], [-103.34335389113859, 20.55566198988123], [-103.35770644316786, 20.562129060358625], [-103.35853337595546, 20.56464115618022]]], [[[-103.30172214527349, 20.567725775996767], [-103.29686969603371, 20.5736468797209], [-103.28730700432666, 20.575313183401818], [-103.29028123029983, 20.58758348633561], [-103.28786674666648, 20.589809835580343], [-103.28373357703425, 20.588792868940242], [-103.2800819595965, 20.583516055439443], [-103.28237727947409, 20.576288565988044], [-103.27854525262907, 20.57313484164062], [-103.2778443068683, 20.56738533165347], [-103.28670714982758, 20.559228413317346], [-103.2914129007389, 20.559136197133075], [-103.29970692326367, 20.56263808398597], [-103.30172214527349, 20.567725775996767]]], [[[-103.31230969785847, 20.684275784351755], [-103.31103878528195, 20.690225495452975], [-103.3029051696269, 20.688699325494664], [-103.29489359324859, 20.692552696276206], [-103.28510093545646, 20.681620359482423], [-103.2850466038256, 20.676895351050494], [-103.29129296223182, 20.674803079005965], [-103.29597167461681, 20.677535063435467], [-103.29904925818137, 20.683557938916746], [-103.30896001177709, 20.680599910971473], [-103.31230969785847, 20.684275784351755]]], [[[-103.31649201463924, 20.451318041743676], [-103.31188316194114, 20.457352730094154], [-103.30523509196125, 20.45653988244461], [-103.29794246311332, 20.446302530155673], [-103.29902192024238, 20.443009184048556], [-103.30641826159264, 20.438717632076564], [-103.30233613456036, 20.430613743194506], [-103.30635837271306, 20.425116353880945], [-103.3107654924945, 20.42620103405621], [-103.31678185095964, 20.436974275629524], [-103.31214577911872, 20.442740202580513], [-103.31649201463924, 20.451318041743676]]], [[[-103.33180917400396, 20.718113748759528], [-103.32347991783223, 20.71876972435285], [-103.32068408383454, 20.72252129784643], [-103.32477195340918, 20.732426236292486], [-103.32278505012505, 20.739465793888662], [-103.31152207222507, 20.742849831222326], [-103.30921611460401, 20.741326556783495], [-103.31087195719438, 20.732599414407506], [-103.29999197568799, 20.72610159731871], [-103.30006203320657, 20.719825466761453], [-103.30433199092269, 20.715093951574666], [-103.29759034864796, 20.707746500347934], [-103.303691592079, 20.704004400950332], [-103.30848887801166, 20.705900898263714], [-103.31098392804196, 20.710391641305062], [-103.31715552356582, 20.710585674280658], [-103.32195757710872, 20.705170990987817], [-103.32619688467156, 20.70425545781292], [-103.33098640282914, 20.708807666144196], [-103.33180917400396, 20.718113748759528]]], [[[-103.47262912895852, 20.711531187668623], [-103.47081524210165, 20.715836482154124], [-103.46538846569054, 20.715967601688266], [-103.46023380486989, 20.722352170159567], [-103.45210332974105, 20.722091779358017], [-103.45017403150395, 20.72765941327067], [-103.44584795219649, 20.728644497440506], [-103.44292943726418, 20.733517426917842], [-103.43252424025837, 20.730733747427994], [-103.42593982629711, 20.731798057667753], [-103.42370250175676, 20.735342904721747], [-103.42570319918313, 20.738627898177654], [-103.45016316355323, 20.742496917190028], [-103.446840900338, 20.748187989203167], [-103.44004105486005, 20.744489819692074], [-103.4387347022784, 20.74864409952948], [-103.43298969702523, 20.74943997684168], [-103.4272078972025, 20.75763342877649], [-103.42252822375356, 20.75615030088052], [-103.42359832419162, 20.748121233039196], [-103.42693366168841, 20.745565769186367], [-103.42544436485605, 20.741315591887698], [-103.42021385585281, 20.7455202186344], [-103.41088570900918, 20.740649660847144], [-103.40402380060954, 20.747749929556175], [-103.39636165147124, 20.745986912299276], [-103.39620532889145, 20.738398906047333], [-103.40602931372919, 20.731185079548617], [-103.39645443067118, 20.7248632819869], [-103.39539775158282, 20.720161602413366], [-103.40533848894445, 20.713594426486615], [-103.41260954003994, 20.69811037813285], [-103.40944487793553, 20.693034647085042], [-103.40914440555338, 20.683223919876447], [-103.40179464805337, 20.681347261220672], [-103.39561424813692, 20.683027231535984], [-103.39020299904696, 20.679661437185604], [-103.38477032884832, 20.683734563634427], [-103.37417236970602, 20.68302934384187], [-103.3714123139172, 20.68824008021918], [-103.36789986811765, 20.68838149672285], [-103.36578137175995, 20.682456991845005], [-103.3725231152537, 20.680661221682286], [-103.3734065176644, 20.676194765866594], [-103.36260757599685, 20.675218690937903], [-103.36444199332468, 20.667032838943626], [-103.36113542720975, 20.663857349944525], [-103.35608796129523, 20.665864264173404], [-103.35141397030056, 20.67693053079122], [-103.34232568309403, 20.676843369850204], [-103.33435351977265, 20.671766649516684], [-103.33326297141232, 20.66766497343814], [-103.33831023756412, 20.663399648591493], [-103.3391101125638, 20.655760309160055], [-103.3329655826039, 20.654169369402872], [-103.32908865348323, 20.660574136022937], [-103.31958269581888, 20.658003210596938], [-103.32088520711797, 20.65255387880057], [-103.33172702322955, 20.65279821208801], [-103.33369207847365, 20.647926546804804], [-103.33854004085343, 20.646251252158553], [-103.33315347412173, 20.634205475376348], [-103.32678163363636, 20.62998845292904], [-103.33422342518124, 20.622217458655836], [-103.32648234152649, 20.617129294187883], [-103.31777655791143, 20.616620180118456], [-103.31495519091527, 20.613777925975256], [-103.31513228953665, 20.607437870131353], [-103.32196026446954, 20.60553287001349], [-103.32891612437196, 20.61024183657731], [-103.33482710283072, 20.610365574889375], [-103.3403373942037, 20.595377217369848], [-103.35257699196862, 20.596302876651972], [-103.35450037009731, 20.60283826731477], [-103.34627170482611, 20.612865500724645], [-103.3491770616541, 20.61521203707488], [-103.35546414235607, 20.61233546737609], [-103.36113169360416, 20.615157784076892], [-103.35497131456066, 20.623602888872508], [-103.36037086913994, 20.62901329137144], [-103.37467496698999, 20.633884188650292], [-103.3756208948942, 20.637732416735073], [-103.37171944628119, 20.646998039841268], [-103.37388836740114, 20.649537148489838], [-103.38578355534123, 20.647374131422733], [-103.39180131232266, 20.650273057759044], [-103.40469897607073, 20.642093076045914], [-103.40496774830073, 20.632688698933652], [-103.40914438880435, 20.63141828248514], [-103.4142753885834, 20.636625896867404], [-103.42259053942269, 20.63577066182608], [-103.42962352354101, 20.644235714672533], [-103.42956788781719, 20.650582523365934], [-103.43578981595027, 20.650977320017994], [-103.44321033692731, 20.64721279969173], [-103.44373370933737, 20.634456920694916], [-103.45090126684603, 20.632745281014774], [-103.45296485266857, 20.6357806993814], [-103.45197181917379, 20.645788478822734], [-103.44499784148739, 20.649437034476705], [-103.44421843049858, 20.65299308353467], [-103.45259938122761, 20.6580509878422], [-103.45346442776132, 20.66528391816092], [-103.44232658369405, 20.665317446971358], [-103.43517004176913, 20.66974071274949], [-103.4341542602711, 20.675138410988957], [-103.43940590123238, 20.676935259522708], [-103.44804276233432, 20.673252269607588], [-103.44999210394022, 20.67551638715599], [-103.44810869633115, 20.682889976680816], [-103.45416412947118, 20.68584953612662], [-103.45363137296054, 20.695500111527654], [-103.45824738868404, 20.701974900433306], [-103.46565552438608, 20.70322980600174], [-103.47262912895852, 20.711531187668623]], [[-103.34151325723988, 20.626348373635093], [-103.34009533987202, 20.622791634324315], [-103.33452580539239, 20.624432962341903], [-103.33732602989906, 20.63078308628503], [-103.34065333554307, 20.630020605575243], [-103.34151325723988, 20.626348373635093]], [[-103.35605120070565, 20.652125400386296], [-103.35123258467618, 20.638214228283292], [-103.34770672920014, 20.637346930384144], [-103.3415774400026, 20.644556672144237], [-103.34321700984941, 20.655960764220083], [-103.35122109756307, 20.661498090551436], [-103.35605120070565, 20.652125400386296]], [[-103.37376401621374, 20.652629864833273], [-103.37055643504252, 20.650253531805674], [-103.3679174915247, 20.65386022534326], [-103.37164407036448, 20.656898202105126], [-103.37376401621374, 20.652629864833273]], [[-103.39957934504923, 20.668008244007716], [-103.39892345052067, 20.663147039257204], [-103.38660229218473, 20.661967865606737], [-103.39039246291532, 20.671389679680825], [-103.39768384861495, 20.671213287871957], [-103.39957934504923, 20.668008244007716]], [[-103.4120305529614, 20.730201354442944], [-103.41592290047595, 20.72752331521603], [-103.41016010731406, 20.723350145949293], [-103.40709370449667, 20.72816540243929], [-103.4120305529614, 20.730201354442944]], [[-103.41930630527546, 20.661428472131508], [-103.40883855100208, 20.666888893816818], [-103.40974336065696, 20.6704964060202], [-103.41914930878283, 20.674658735851178], [-103.42618940574484, 20.66330579484144], [-103.42416742207782, 20.659126491722652], [-103.41930630527546, 20.661428472131508]], [[-103.44858083470936, 20.718310669460426], [-103.45080790638667, 20.714451348222415], [-103.44277092442987, 20.710242424131557], [-103.44714233457697, 20.698428223865193], [-103.44048640975271, 20.695226192850964], [-103.4402147271194, 20.688187232888957], [-103.43372844906743, 20.683843891633867], [-103.43234169644583, 20.677490604822413], [-103.42186596151225, 20.67621338253897], [-103.42045401490964, 20.688000845394306], [-103.42487739153486, 20.69457698418197], [-103.42064753089748, 20.69914584795176], [-103.42050530350157, 20.7032293943787], [-103.42552605406698, 20.713083957255293], [-103.42586429629073, 20.72429564398827], [-103.43370540848261, 20.729714717252858], [-103.44271625704435, 20.72498399727323], [-103.44458685617114, 20.71937243758171], [-103.44858083470936, 20.718310669460426]]], [[[-103.39933282102926, 20.42129893303532], [-103.39570457974145, 20.429580523825894], [-103.39280127454094, 20.429776043392312], [-103.39143902611232, 20.423437200963907], [-103.38404903855921, 20.41970110324691], [-103.38331908529625, 20.41158902310647], [-103.38997844042879, 20.40887052716361], [-103.3956647717364, 20.41067219929141], [-103.39933282102926, 20.42129893303532]]], [[[-103.43158719296815, 20.60707439254437], [-103.42897396279471, 20.611509752097355], [-103.42989097060858, 20.618169511557003], [-103.42492661009251, 20.622649455415555], [-103.41487153438126, 20.619202608172998], [-103.4093315204091, 20.61205362055412], [-103.40418158088981, 20.613090821569624], [-103.40414263341003, 20.621017017997556], [-103.40173755902397, 20.622436466875726], [-103.39010412945737, 20.619856688985127], [-103.38790637967996, 20.616823100939502], [-103.39292404999576, 20.610335712037102], [-103.39419624648019, 20.60253002670722], [-103.4042745760153, 20.59419433188375], [-103.40920065498985, 20.595168663251243], [-103.41196351333558, 20.598901552392846], [-103.41767433795619, 20.599248978359725], [-103.42132758771695, 20.60321000255737], [-103.42882122212161, 20.60096792306637], [-103.4317639406715, 20.603014184434496], [-103.43158719296815, 20.60707439254437]]], [[[-103.44361665284548, 20.531059305814843], [-103.44430499627279, 20.533652554373358], [-103.43365123891097, 20.54100917835492], [-103.41892241963893, 20.54145084081222], [-103.41629293968722, 20.52943739773228], [-103.4230038614704, 20.52726080888487], [-103.41809622182177, 20.519828256968083], [-103.41910426606083, 20.514684691417845], [-103.42272048781788, 20.51340182141108], [-103.42452585205557, 20.508830409280446], [-103.42839682150365, 20.51241463028099], [-103.42815142703547, 20.5186215519309], [-103.43666104328608, 20.51945270847765], [-103.43885657659496, 20.526981167527886], [-103.44361665284548, 20.531059305814843]]], [[[-103.45153657514746, 20.58784471719162], [-103.45059297092273, 20.591123559992553], [-103.44541952811952, 20.59370439813748], [-103.43697289034967, 20.5859092550954], [-103.42887756277119, 20.586937528219526], [-103.42695110084357, 20.580402757120485], [-103.43322688985515, 20.57738068635872], [-103.43590790059754, 20.571199829957408], [-103.44014296202923, 20.57028119321242], [-103.44070506729717, 20.577098743878587], [-103.4472761259729, 20.57944183195107], [-103.45153657514746, 20.58784471719162]]], [[[-103.48405550241841, 20.5325311932053], [-103.4844863278063, 20.537343354361997], [-103.47250779527577, 20.538930002180045], [-103.47087571702293, 20.534536730451336], [-103.4568780823666, 20.528912952215908], [-103.45419955750081, 20.520733053235723], [-103.46821997154728, 20.51799537246782], [-103.47201794303218, 20.51994296461706], [-103.47625110672367, 20.530229975839525], [-103.48405550241841, 20.5325311932053]]], [[[-103.51842700369261, 20.484299130657792], [-103.50604345814388, 20.487792669068167], [-103.49660332859543, 20.494130170165672], [-103.49673362925483, 20.497205704605538], [-103.5015102703101, 20.499388411012585], [-103.5001042804136, 20.505206645447206], [-103.48360682143792, 20.498157848059837], [-103.48377280334253, 20.489316571355015], [-103.48668941459297, 20.48584435508543], [-103.49306807492638, 20.485215315217097], [-103.49733461375384, 20.478991099179453], [-103.49865092809357, 20.474219801084004], [-103.4950236818299, 20.471570849698562], [-103.49552815511531, 20.467287736438507], [-103.50327634956803, 20.465858825693914], [-103.50493416332822, 20.47213857896712], [-103.51439884921722, 20.475711540144772], [-103.51516787753334, 20.479539776627366], [-103.51882547900877, 20.480862840765624], [-103.51842700369261, 20.484299130657792]]]]}}, {"type": "Feature", "properties": {"threshold": 90}, "geometry": {"type": "MultiPolygon", "coordinates": [[[[-103.17492726298535, 20.60444480550372], [-103.17558233185565, 20.609464202096557], [-103.17231595855753, 20.611285713338717], [-103.1652792702369, 20.609718955576504], [-103.16227535347993, 20.61518442496457], [-103.15726909992388, 20.614221461895344], [-103.15354491305338, 20.60970291146169], [-103.15414686018615, 20.607087414780576], [-103.16552662280786, 20.60669069498349], [-103.16798196936514, 20.5991489655594], [-103.17220572492633, 20.59934185139992], [-103.17492726298535, 20.60444480550372]]], [[[-103.20547753846098, 20.498060588411224], [-103.20695856074191, 20.509338531796047], [-103.1936907570301, 20.51656850916912], [-103.19124668681566, 20.523861223317738], [-103.18563527077188, 20.52613058270598], [-103.183850722782, 20.533746704270893], [-103.17279153957988, 20.531056584330134], [-103.17133194947637, 20.51855931911102], [-103.15900143929656, 20.512733276212714], [-103.15907467433065, 20.506606332612094], [-103.16467951971886, 20.502143369247722], [-103.1649055304292, 20.497236705972828], [-103.17255866965314, 20.49746562098012], [-103.17765383733922, 20.507719943503005], [-103.18815368798657, 20.506337670179633], [-103.19159360131182, 20.50837496215133], [-103.19649005100734, 20.506759414465737], [-103.19808303987419, 20.496923852562688], [-103.20547753846098, 20.498060588411224]]], [[[-103.2285196120791, 20.583475410151603], [-103.22827166820936, 20.58812199518535], [-103.22312863050911, 20.58996548337455], [-103.22108632226978, 20.58195534011319], [-103.21598951052044, 20.580830189303125], [-103.20854932946203, 20.572256290534433], [-103.19947400697659, 20.572004036332483], [-103.19006636600403, 20.5750799305881], [-103.18530706114785, 20.573321693603145], [-103.1838389099808, 20.56797623588159], [-103.17899355399803, 20.563884442799353], [-103.18085842774116, 20.55682181614491], [-103.18608587729483, 20.555657682645638], [-103.19150497741293, 20.559068957109787], [-103.19559741032566, 20.567037642086476], [-103.200259404744, 20.56308276192145], [-103.21456341826128, 20.563310504208435], [-103.21543948856491, 20.56979610072405], [-103.22172832442342, 20.573563929617183], [-103.22076321244037, 20.58074814348129], [-103.2285196120791, 20.583475410151603]]], [[[-103.27393182450663, 20.439229168228554], [-103.2700960987379, 20.44715094514977], [-103.26173603068088, 20.44885875022109], [-103.26009046478806, 20.456933459320105], [-103.24623497992333, 20.45463747227533], [-103.23901622407487, 20.45663005904628], [-103.23870264429648, 20.449764538694883], [-103.23382323958445, 20.448403646959807], [-103.22789256618124, 20.44034393068373], [-103.21731916556527, 20.445988501071938], [-103.20965683218733, 20.44117653960101], [-103.20302890986322, 20.448175989891187], [-103.19662666796911, 20.44828675772263], [-103.19709601394482, 20.440265476851124], [-103.20397242091893, 20.43989245881026], [-103.21042961174996, 20.433802477311723], [-103.2164197051355, 20.43703244281918], [-103.22449421326456, 20.437353733285192], [-103.22607039217482, 20.42960447947339], [-103.2302495974669, 20.42591913801495], [-103.23502956600564, 20.428695075056865], [-103.24649301376054, 20.42893131950268], [-103.24906214867686, 20.436771613191784], [-103.24088143142576, 20.441653050351373], [-103.2419474476462, 20.44705961055533], [-103.2578212878124, 20.44744070531483], [-103.25953376746189, 20.44025140222925], [-103.26859034614253, 20.434421596254687], [-103.27201373425446, 20.43465690662625], [-103.27393182450663, 20.439229168228554]]], [[[-103.27266212823386, 20.659620884646184], [-103.2712689025271, 20.66685966902256], [-103.26614654750536, 20.669876691948804], [-103.26950457646589, 20.679478636292636], [-103.26656035181244, 20.682911174879123], [-103.26674422709526, 20.690191926079855], [-103.26430408726962, 20.69146941861148], [-103.26004252995082, 20.690195843447537], [-103.25796330261188, 20.6812027984898], [-103.24568647459975, 20.681345730135895], [-103.24269107278168, 20.670740562111803], [-103.23789113480517, 20.66761733217139], [-103.23482867261674, 20.668538004450575], [-103.23323554121936, 20.67394130926854], [-103.22911862864684, 20.674946541705523], [-103.21112480922494, 20.67017150529827], [-103.20326235421221, 20.673043427657134], [-103.19662036715518, 20.668220031738848], [-103.19672360377449, 20.66224829212325], [-103.19954690998715, 20.659516266468557], [-103.20892667443735, 20.657900040302515], [-103.20719976477879, 20.64626272759066], [-103.21409775813508, 20.63517814740407], [-103.22096895437637, 20.636551131762918], [-103.21894506983305, 20.646777259421732], [-103.2262603326304, 20.64835657378604], [-103.23249818267334, 20.645970339477287], [-103.23781932359304, 20.655915985424514], [-103.24123928371799, 20.652904269268216], [-103.24171922565807, 20.64788112926794], [-103.24642996017212, 20.647525530389785], [-103.25137049050323, 20.64059021459893], [-103.25825446701128, 20.640538263625427], [-103.26544233899085, 20.65034761312006], [-103.27053161553354, 20.652278778143685], [-103.27266212823386, 20.659620884646184]], [[-103.23797181837581, 20.657765223623354], [-103.23599420454133, 20.655379777521432], [-103.21783780903938, 20.6541827811609], [-103.21334037231959, 20.661202253102296], [-103.22391618407549, 20.66595188129542], [-103.23561367530573, 20.667199392500546], [-103.23797181837581, 20.657765223623354]]], [[[-103.29480850688033, 20.46836081457492], [-103.29292121991506, 20.471682085966837], [-103.28306680985074, 20.47441101837688], [-103.27983115314309, 20.478096367040116], [-103.26300699394649, 20.47782861791725], [-103.25673200998806, 20.4850691211576], [-103.25060697448676, 20.485408372034822], [-103.25231770475239, 20.490219078582466], [-103.26045368839317, 20.49339074657681], [-103.25574903337579, 20.502868208060992], [-103.2584746748576, 20.51060035526729], [-103.25159233956383, 20.512406879706127], [-103.25083793318312, 20.517794419600065], [-103.26505718774133, 20.541163894398714], [-103.25972121981194, 20.54343881873206], [-103.25078885319273, 20.5384879263713], [-103.24563331402196, 20.54244231901066], [-103.24139842370688, 20.542324941929138], [-103.24171305742513, 20.532239915366475], [-103.22758690312946, 20.51741378351223], [-103.22866899421821, 20.505828327906237], [-103.22658721122036, 20.503220753995816], [-103.22945526903324, 20.49820478506444], [-103.22269129038156, 20.49369780751146], [-103.22728190910098, 20.480419166781086], [-103.23239824940285, 20.477691324856874], [-103.23619126481071, 20.480794915484633], [-103.24414489333736, 20.481635420421362], [-103.2472150716894, 20.472413319512874], [-103.25507474889815, 20.47128236155692], [-103.25972119031026, 20.467466872562856], [-103.26965522756554, 20.47157810013325], [-103.29418683538243, 20.463747041441575], [-103.29480850688033, 20.46836081457492]]], [[[-103.31641437880442, 20.62367023758896], [-103.31731289484838, 20.628279226865335], [-103.31513541151075, 20.630428589402726], [-103.30730197208116, 20.628327117898912], [-103.29916982182404, 20.631980545824817], [-103.29509323850732, 20.62792045593865], [-103.28680104306744, 20.627683361276336], [-103.28395709040127, 20.622664357549887], [-103.27403582786197, 20.62355391755266], [-103.27193368939699, 20.617891802536942], [-103.27993877267211, 20.61485386799226], [-103.28472589466138, 20.61999331834304], [-103.29299190546426, 20.619936031363128], [-103.2964624564626, 20.625853381693524], [-103.30026552121124, 20.623912075441154], [-103.3076785144236, 20.625821188016054], [-103.3113007596332, 20.622409897528424], [-103.31641437880442, 20.62367023758896]]], [[[-103.45634276227531, 20.481433063880463], [-103.4459836128721, 20.48376955074664], [-103.43689049896042, 20.48112326700352], [-103.43640286833323, 20.470144055760645], [-103.43088495609426, 20.466701549213795], [-103.42080466597994, 20.48188754187796], [-103.4152580480442, 20.47836423973946], [-103.41158265633916, 20.46765475650683], [-103.40233864645889, 20.47205250720292], [-103.39807810932872, 20.466927496788653], [-103.40169482838735, 20.459469176649193], [-103.40482453590998, 20.4583466565907], [-103.41274781381107, 20.46729303887619], [-103.41600275643907, 20.464097835003894], [-103.42246712607795, 20.466675007077026], [-103.43086426558447, 20.466233310750237], [-103.44385484067216, 20.4579108789864], [-103.44853026162922, 20.46063854346492], [-103.45041392229619, 20.46550502343117], [-103.45542916493825, 20.46649197260805], [-103.45634276227531, 20.481433063880463]]], [[[-103.41144316879306, 20.481306951446275], [-103.41180530257735, 20.48794740577697], [-103.41813935074613, 20.49022637835447], [-103.42419502042577, 20.50012620129395], [-103.41075778895836, 20.501629388727892], [-103.40948715896111, 20.50733774411667], [-103.40220611258286, 20.51355717689832], [-103.39823049046616, 20.525670728966613], [-103.40081541293512, 20.529373553069906], [-103.39957393700008, 20.53653306364713], [-103.38285798664326, 20.53576797394694], [-103.37506327634635, 20.538226196623587], [-103.37392350794377, 20.55288676715252], [-103.36964664798425, 20.55641017441477], [-103.37207809965471, 20.564998953981817], [-103.3648244104782, 20.567024550082984], [-103.36316126163523, 20.560724725698357], [-103.34914980327864, 20.546915346706573], [-103.34936941180648, 20.54301460577389], [-103.3579299574589, 20.539886239143488], [-103.35853368691201, 20.536468407153798], [-103.35380132998812, 20.53524267869645], [-103.3532681891311, 20.531063591689303], [-103.3474577119185, 20.52531014870043], [-103.33739930736775, 20.528040607459424], [-103.3314248724443, 20.526752578535007], [-103.33152957754888, 20.52107440810496], [-103.33772941401294, 20.51826767927947], [-103.33409587073075, 20.514577389525332], [-103.33166964912078, 20.50416242474141], [-103.33922718086332, 20.502195629532114], [-103.34506723140798, 20.503658772386103], [-103.34640497904398, 20.499320323416608], [-103.35032172576922, 20.497562542822546], [-103.34976385878439, 20.491543204937376], [-103.35339963313861, 20.487257292361775], [-103.36015394618823, 20.487030502573543], [-103.36248777826411, 20.491995646956315], [-103.37097169126687, 20.497190187332894], [-103.37106191753328, 20.504402963857757], [-103.3827873934887, 20.51051470462556], [-103.389668378424, 20.511103815972383], [-103.39437521800485, 20.499093322669967], [-103.39887811279004, 20.49582744572641], [-103.3983666893001, 20.488662648458252], [-103.39355024721962, 20.486606130201956], [-103.39635401765466, 20.478018944096892], [-103.41144316879306, 20.481306951446275]], [[-103.35983092663336, 20.515796033173384], [-103.35823303461342, 20.512876822245065], [-103.34432839698896, 20.510006300421182], [-103.34102326836387, 20.521156383916093], [-103.34680763317401, 20.524244226869317], [-103.35066685536532, 20.51941789017704], [-103.35754131589185, 20.519252088416934], [-103.35983092663336, 20.515796033173384]]], [[[-103.35853337595546, 20.56464115618022], [-103.35630048241734, 20.575544364689687], [-103.3600100742488, 20.577164435353666], [-103.36874148193505, 20.575264297523596], [-103.37503986725629, 20.579929207037974], [-103.3809458575621, 20.5803103684015], [-103.3839375707615, 20.583395843529637], [-103.38191586108397, 20.588877455751714], [-103.3616616812521, 20.582273428689298], [-103.35582372707592, 20.586406824197752], [-103.35167535202416, 20.585457629068753], [-103.34965541463689, 20.57975951733771], [-103.35455488581395, 20.573805013869354], [-103.35187416783826, 20.570583675917874], [-103.34729516652921, 20.573406763692716], [-103.33969160981653, 20.572952609204314], [-103.33741116320088, 20.58031061759059], [-103.33250816474252, 20.58136955175913], [-103.32015559453656, 20.576083233973378], [-103.3132072224299, 20.57623271950426], [-103.30682761273832, 20.569069932991024], [-103.316122530292, 20.559415840682316], [-103.3272055446007, 20.56311990415677], [-103.33007544490201, 20.554668404455633], [-103.34335389113859, 20.55566198988123], [-103.35770644316786, 20.562129060358625], [-103.35853337595546, 20.56464115618022]]], [[[-103.30172214527349, 20.567725775996767], [-103.2968607251277, 20.57445540136534], [-103.28730700432666, 20.575313183401818], [-103.29028123029983, 20.58758348633561], [-103.28786674666648, 20.589809835580343], [-103.28373357703425, 20.588792868940242], [-103.2800819595965, 20.583516055439443], [-103.28237727947409, 20.576288565988044], [-103.27854525262907, 20.57313484164062], [-103.2778443068683, 20.56738533165347], [-103.28670714982758, 20.559228413317346], [-103.2914129007389, 20.559136197133075], [-103.29970692326367, 20.56263808398597], [-103.30172214527349, 20.567725775996767]]], [[[-103.30463979223221, 20.523287126869114], [-103.30551636208607, 20.527972652165996], [-103.3017495800656, 20.533176418977757], [-103.29324139105992, 20.532432439763664], [-103.29239341540861, 20.526466501957938], [-103.28777165292043, 20.524032523024385], [-103.28510196850476, 20.51840948021218], [-103.28876707834588, 20.516291336647836], [-103.29339438318428, 20.5181554359883], [-103.29585032320911, 20.52268492829694], [-103.30463979223221, 20.523287126869114]]], [[[-103.31230969785847, 20.684275784351755], [-103.31103878528195, 20.690225495452975], [-103.3029051696269, 20.688699325494664], [-103.29489359324859, 20.692552696276206], [-103.28510093545646, 20.681620359482423], [-103.2850466038256, 20.676895351050494], [-103.29129296223182, 20.674803079005965], [-103.29597167461681, 20.677535063435467], [-103.29904925818137, 20.683557938916746], [-103.30896001177709, 20.680599910971473], [-103.31230969785847, 20.684275784351755]]], [[[-103.31649201463924, 20.451318041743676], [-103.31188316194114, 20.457352730094154], [-103.30523509196125, 20.45653988244461], [-103.29794246311332, 20.446302530155673], [-103.29902192024238, 20.443009184048556], [-103.30641826159264, 20.438717632076564], [-103.30233613456036, 20.430613743194506], [-103.30635837271306, 20.425116353880945], [-103.3107654924945, 20.42620103405621], [-103.31678185095964, 20.436974275629524], [-103.31214577911872, 20.442740202580513], [-103.31649201463924, 20.451318041743676]]], [[[-103.33180917400396, 20.718113748759528], [-103.32347991783223, 20.71876972435285], [-103.32068408383454, 20.72252129784643], [-103.32477195340918, 20.732426236292486], [-103.32278505012505, 20.739465793888662], [-103.31152207222507, 20.742849831222326], [-103.30921611460401, 20.741326556783495], [-103.31087195719438, 20.732599414407506], [-103.29999197568799, 20.72610159731871], [-103.30006203320657, 20.719825466761453], [-103.30433199092269, 20.715093951574666], [-103.29759034864796, 20.707746500347934], [-103.303691592079, 20.704004400950332], [-103.30848887801166, 20.705900898263714], [-103.31098392804196, 20.710391641305062], [-103.31715552356582, 20.710585674280658], [-103.32195757710872, 20.705170990987817], [-103.32619688467156, 20.70425545781292], [-103.33098640282914, 20.708807666144196], [-103.33180917400396, 20.718113748759528]]], [[[-103.47368918460396, 20.711686395287312], [-103.47516118355611, 20.7166251038355], [-103.46704239597801, 20.719105911445133], [-103.46997748319373, 20.728577509091497], [-103.4609787233662, 20.7288118318294], [-103.45925164138924, 20.73447306473678], [-103.42744767453658, 20.73300222640494], [-103.42726806480853, 20.737581900079707], [-103.43621990921883, 20.741469137530046], [-103.44907014441111, 20.741187666464732], [-103.45007343695853, 20.745309341917075], [-103.44534268235802, 20.74971206898371], [-103.4336425575902, 20.74907993276793], [-103.42585962414107, 20.757712339586362], [-103.42262211307913, 20.756451997758628], [-103.42126664360524, 20.748867593653234], [-103.41132217567167, 20.75030087851667], [-103.40647752667986, 20.747197983288576], [-103.39636165147124, 20.745986912299276], [-103.39620532889145, 20.738398906047333], [-103.40602931372919, 20.731185079548617], [-103.39645443067118, 20.7248632819869], [-103.39539775158282, 20.720161602413366], [-103.40533848894445, 20.713594426486615], [-103.41260954003994, 20.69811037813285], [-103.40944487793553, 20.693034647085042], [-103.40914440555338, 20.683223919876447], [-103.40179464805337, 20.681347261220672], [-103.39561424813692, 20.683027231535984], [-103.39020299904696, 20.679661437185604], [-103.38477032884832, 20.683734563634427], [-103.37417236970602, 20.68302934384187], [-103.3714123139172, 20.68824008021918], [-103.36789986811765, 20.68838149672285], [-103.36578137175995, 20.682456991845005], [-103.3725231152537, 20.680661221682286], [-103.3734065176644, 20.676194765866594], [-103.36260757599685, 20.675218690937903], [-103.36444199332468, 20.667032838943626], [-103.36113542720975, 20.663857349944525], [-103.35608796129523, 20.665864264173404], [-103.35141397030056, 20.67693053079122], [-103.34232568309403, 20.676843369850204], [-103.33435351977265, 20.671766649516684], [-103.33326297141232, 20.66766497343814], [-103.33831023756412, 20.663399648591493], [-103.3391101125638, 20.655760309160055], [-103.3329655826039, 20.654169369402872], [-103.32908865348323, 20.660574136022937], [-103.31958269581888, 20.658003210596938], [-103.32088520711797, 20.65255387880057], [-103.33172702322955, 20.65279821208801], [-103.33369207847365, 20.647926546804804], [-103.33854004085343, 20.646251252158553], [-103.33315347412173, 20.634205475376348], [-103.32678163363636, 20.62998845292904], [-103.33422342518124, 20.622217458655836], [-103.32648234152649, 20.617129294187883], [-103.31777655791143, 20.616620180118456], [-103.31495519091527, 20.613777925975256], [-103.31513228953665, 20.607437870131353], [-103.32196026446954, 20.60553287001349], [-103.32891612437196, 20.61024183657731], [-103.33482710283072, 20.610365574889375], [-103.3403373942037, 20.595377217369848], [-103.35257699196862, 20.596302876651972], [-103.35450037009731, 20.60283826731477], [-103.34627170482611, 20.612865500724645], [-103.3491770616541, 20.61521203707488], [-103.35546414235607, 20.61233546737609], [-103.36113169360416, 20.615157784076892], [-103.35497131456066, 20.623602888872508], [-103.36037086913994, 20.62901329137144], [-103.37467496698999, 20.633884188650292], [-103.3756208948942, 20.637732416735073], [-103.37171944628119, 20.646998039841268], [-103.37388836740114, 20.649537148489838], [-103.38578355534123, 20.647374131422733], [-103.39180131232266, 20.650273057759044], [-103.40469897607073, 20.642093076045914], [-103.40496774830073, 20.632688698933652], [-103.40914438880435, 20.63141828248514], [-103.4142753885834, 20.636625896867404], [-103.42259053942269, 20.63577066182608], [-103.42962352354101, 20.644235714672533], [-103.42956788781719, 20.650582523365934], [-103.43578981595027, 20.650977320017994], [-103.44321033692731, 20.64721279969173], [-103.44373370933737, 20.634456920694916], [-103.45090126684603, 20.632745281014774], [-103.45296485266857, 20.6357806993814], [-103.45197181917379, 20.645788478822734], [-103.44499784148739, 20.649437034476705], [-103.44421843049858, 20.65299308353467], [-103.45259938122761, 20.6580509878422], [-103.45346442776132, 20.66528391816092], [-103.45022555205037, 20.668971340692185], [-103.44264477953004, 20.667404040315063], [-103.43595356489908, 20.669147335582043], [-103.4341542602711, 20.675138410988957], [-103.43879672740532, 20.676919611661724], [-103.44761476553579, 20.672803547196708], [-103.44998627950818, 20.675377806688836], [-103.44810869633115, 20.682889976680816], [-103.4541444923796, 20.685772659978806], [-103.45363137296054, 20.695500111527654], [-103.45844109998346, 20.702136696375874], [-103.46480433717191, 20.702413569777434], [-103.47368918460396, 20.711686395287312]], [[-103.34151325723988, 20.626348373635093], [-103.34009533987202, 20.622791634324315], [-103.33452580539239, 20.624432962341903], [-103.33732602989906, 20.63078308628503], [-103.34065333554307, 20.630020605575243], [-103.34151325723988, 20.626348373635093]], [[-103.35605120070565, 20.652125400386296], [-103.35123258467618, 20.638214228283292], [-103.34770672920014, 20.637346930384144], [-103.3415774400026, 20.644556672144237], [-103.34321700984941, 20.655960764220083], [-103.35122109756307, 20.661498090551436], [-103.35605120070565, 20.652125400386296]], [[-103.37376401621374, 20.652629864833273], [-103.37055643504252, 20.650253531805674], [-103.3679174915247, 20.65386022534326], [-103.37164407036448, 20.656898202105126], [-103.37376401621374, 20.652629864833273]], [[-103.39957934504923, 20.668008244007716], [-103.39892345052067, 20.663147039257204], [-103.38660229218473, 20.661967865606737], [-103.39039246291532, 20.671389679680825], [-103.39768384861495, 20.671213287871957], [-103.39957934504923, 20.668008244007716]], [[-103.4120305529614, 20.730201354442944], [-103.41592290047595, 20.72752331521603], [-103.41016010731406, 20.723350145949293], [-103.40709370449667, 20.72816540243929], [-103.4120305529614, 20.730201354442944]], [[-103.41930630527546, 20.661428472131508], [-103.40883855100208, 20.666888893816818], [-103.40974336065696, 20.6704964060202], [-103.41914930878283, 20.674658735851178], [-103.42618940574484, 20.66330579484144], [-103.42416742207782, 20.659126491722652], [-103.41930630527546, 20.661428472131508]], [[-103.44051917023182, 20.707907343469547], [-103.44429654571981, 20.699354197946903], [-103.44038117176717, 20.69501149510721], [-103.44010877123773, 20.68797106129694], [-103.43372844906743, 20.683843891633867], [-103.432137584981, 20.677340599377775], [-103.42186596151225, 20.67621338253897], [-103.42045401490964, 20.688000845394306], [-103.42486904148029, 20.695385546552636], [-103.4205468375382, 20.70233328167069], [-103.426378204869, 20.70559138537638], [-103.42981820504671, 20.719163056640188], [-103.43973155013505, 20.719331855734055], [-103.44107153331089, 20.714664694176538], [-103.43674874706146, 20.71083853656091], [-103.44051917023182, 20.707907343469547]], [[-103.42694404587968, 20.744885996636548], [-103.4237522710981, 20.741166470204554], [-103.42082875914343, 20.746280029863634], [-103.42433880792926, 20.747982959027887], [-103.42694404587968, 20.744885996636548]]], [[[-103.39933282102926, 20.42129893303532], [-103.39570457974145, 20.429580523825894], [-103.39280127454094, 20.429776043392312], [-103.39143902611232, 20.423437200963907], [-103.38404903855921, 20.41970110324691], [-103.38331908529625, 20.41158902310647], [-103.38997844042879, 20.40887052716361], [-103.3956647717364, 20.41067219929141], [-103.39933282102926, 20.42129893303532]]], [[[-103.43158719296815, 20.60707439254437], [-103.42897396279471, 20.611509752097355], [-103.42989097060858, 20.618169511557003], [-103.42492661009251, 20.622649455415555], [-103.41743133056457, 20.620843360607658], [-103.40932312465569, 20.612862184479905], [-103.40467104074415, 20.613856467538422], [-103.40412142913527, 20.621093521580896], [-103.40173755902397, 20.622436466875726], [-103.39010412945737, 20.619856688985127], [-103.38790637967996, 20.616823100939502], [-103.39292404999576, 20.610335712037102], [-103.39419624648019, 20.60253002670722], [-103.4042745760153, 20.59419433188375], [-103.40920065498985, 20.595168663251243], [-103.41196351333558, 20.598901552392846], [-103.41767433795619, 20.599248978359725], [-103.42132758771695, 20.60321000255737], [-103.42882122212161, 20.60096792306637], [-103.4317639406715, 20.603014184434496], [-103.43158719296815, 20.60707439254437]]], [[[-103.44361665284548, 20.531059305814843], [-103.44430499627279, 20.533652554373358], [-103.43365123891097, 20.54100917835492], [-103.41892241963893, 20.54145084081222], [-103.41629293968722, 20.52943739773228], [-103.4230038614704, 20.52726080888487], [-103.41809622182177, 20.519828256968083], [-103.41910426606083, 20.514684691417845], [-103.42272048781788, 20.51340182141108], [-103.42452585205557, 20.508830409280446], [-103.42839682150365, 20.51241463028099], [-103.42815142703547, 20.5186215519309], [-103.43666104328608, 20.51945270847765], [-103.43885657659496, 20.526981167527886], [-103.44361665284548, 20.531059305814843]]], [[[-103.45153657514746, 20.58784471719162], [-103.44558371980166, 20.59373668850638], [-103.43697289034967, 20.5859092550954], [-103.42933462889393, 20.587120689595345], [-103.42705937407652, 20.585192021486023], [-103.42706063394334, 20.580190006061052], [-103.43362173397541, 20.5767736239664], [-103.43507404936274, 20.568766336123662], [-103.44141185215643, 20.57055250763577], [-103.44070506729717, 20.577098743878587], [-103.4472761259729, 20.57944183195107], [-103.45153657514746, 20.58784471719162]]], [[[-103.48405550241841, 20.5325311932053], [-103.48367985977116, 20.53890653684927], [-103.47334212446677, 20.541363351247274], [-103.47107728917418, 20.53468033011797], [-103.4568223059241, 20.528853867560034], [-103.45419955750081, 20.520733053235723], [-103.46821997154728, 20.51799537246782], [-103.47201794303218, 20.51994296461706], [-103.47625110672367, 20.530229975839525], [-103.48405550241841, 20.5325311932053]]], [[[-103.51842700369261, 20.484299130657792], [-103.50604345814388, 20.487792669068167], [-103.49660332859543, 20.494130170165672], [-103.49673362925483, 20.497205704605538], [-103.5015102703101, 20.499388411012585], [-103.5001042804136, 20.505206645447206], [-103.48360682143792, 20.498157848059837], [-103.48377280334253, 20.489316571355015], [-103.48668941459297, 20.48584435508543], [-103.49306807492638, 20.485215315217097], [-103.49733461375384, 20.478991099179453], [-103.49865092809357, 20.474219801084004], [-103.4950236818299, 20.471570849698562], [-103.49552815511531, 20.467287736438507], [-103.50327634956803, 20.465858825693914], [-103.50493416332822, 20.47213857896712], [-103.51439884921722, 20.475711540144772], [-103.51516787753334, 20.479539776627366], [-103.51882547900877, 20.480862840765624], [-103.51842700369261, 20.484299130657792]]]]}}, {"type": "Feature", "properties": {"threshold": 95}, "geometry": {"type": "MultiPolygon", "coordinates": [[[[-103.12976481229956, 20.57566271947441], [-103.12705277729933, 20.583757909283833], [-103.12050774853607, 20.5872443091126], [-103.11819782493829, 20.59192247984146], [-103.11100534985198, 20.59011530209567], [-103.11674639441246, 20.581937556485887], [-103.11732616900021, 20.5744965004105], [-103.1231351850793, 20.571954952078368], [-103.12976481229956, 20.57566271947441]]], [[[-103.17492726298535, 20.60444480550372], [-103.17558233185565, 20.609464202096557], [-103.17231595855753, 20.611285713338717], [-103.1652792702369, 20.609718955576504], [-103.16227535347993, 20.61518442496457], [-103.15352542420916, 20.611319822047776], [-103.15406748808174, 20.607113202040455], [-103.16552662280786, 20.60669069498349], [-103.16798196936514, 20.5991489655594], [-103.17220572492633, 20.59934185139992], [-103.17492726298535, 20.60444480550372]]], [[[-103.20872597844804, 20.50451549111161], [-103.20853254488738, 20.50873610493975], [-103.2004366900783, 20.512410375145286], [-103.19982843262592, 20.51915760648417], [-103.19427030684267, 20.51913454138077], [-103.18590476472747, 20.526595447113145], [-103.18375954459442, 20.53457353572272], [-103.17272999057657, 20.53100284036064], [-103.17133194947637, 20.51855931911102], [-103.15898196817139, 20.512656376895002], [-103.15907467433065, 20.506606332612094], [-103.16467951971886, 20.502143369247722], [-103.16498714428874, 20.497218358098202], [-103.17255866965314, 20.49746562098012], [-103.17837432625619, 20.507934149590515], [-103.19563968600463, 20.507624020494823], [-103.19854370733772, 20.496749636751606], [-103.20517419910901, 20.496997310591727], [-103.20872597844804, 20.50451549111161]]], [[[-103.2010197702371, 20.430051378874573], [-103.20029538987828, 20.43449295991976], [-103.19392685303343, 20.428011697435213], [-103.18757507093935, 20.427846299966852], [-103.18199011184126, 20.431037558186894], [-103.17892580945444, 20.424340605292308], [-103.18270304938854, 20.418331062814513], [-103.18865007669974, 20.41743624660566], [-103.20090710892221, 20.426659082741352], [-103.2010197702371, 20.430051378874573]]], [[[-103.2285196120791, 20.583475410151603], [-103.22827166820936, 20.58812199518535], [-103.22312863050911, 20.58996548337455], [-103.22108632226978, 20.58195534011319], [-103.21598951052044, 20.580830189303125], [-103.20854932946203, 20.572256290534433], [-103.19947400697659, 20.572004036332483], [-103.19006636600403, 20.5750799305881], [-103.18530706114785, 20.573321693603145], [-103.18370049682554, 20.56777677695382], [-103.17814472450301, 20.56306694109641], [-103.18085842774116, 20.55682181614491], [-103.18608587729483, 20.555657682645638], [-103.19150497741293, 20.559068957109787], [-103.19536962994562, 20.56643101394902], [-103.20456099187129, 20.562318840377877], [-103.21456341826128, 20.563310504208435], [-103.21543948856491, 20.56979610072405], [-103.22089794036611, 20.571129639526976], [-103.22076321244037, 20.58074814348129], [-103.2285196120791, 20.583475410151603]]], [[[-103.27393182450663, 20.439229168228554], [-103.27048360814227, 20.445598030547096], [-103.27029467668324, 20.45404150131863], [-103.2674138617608, 20.456827580824008], [-103.26193448528139, 20.460155522020273], [-103.253161174297, 20.4609138196329], [-103.24821569797594, 20.456585210451717], [-103.24372679349486, 20.462429171026614], [-103.23442220811495, 20.456320541346123], [-103.23461071846364, 20.44947451646187], [-103.22929441880214, 20.440591796270876], [-103.21717214180956, 20.445993799372555], [-103.20965683218733, 20.44117653960101], [-103.20302890986322, 20.448175989891187], [-103.19662666796911, 20.44828675772263], [-103.19709601394482, 20.440265476851124], [-103.20397242091893, 20.43989245881026], [-103.21042961174996, 20.433802477311723], [-103.2164197051355, 20.43703244281918], [-103.22440119988609, 20.437065292650043], [-103.226107069099, 20.429533378985056], [-103.2302495974669, 20.42591913801495], [-103.23528059437845, 20.428720953653322], [-103.24647816074835, 20.4264375349936], [-103.2490753405167, 20.43669353639261], [-103.24246482119096, 20.441873240750173], [-103.24386472904419, 20.445433932601084], [-103.25783696919768, 20.44739403216851], [-103.25953376746189, 20.44025140222925], [-103.26867191782114, 20.43440319619669], [-103.27201373425446, 20.43465690662625], [-103.27393182450663, 20.439229168228554]]], [[[-103.27266212823386, 20.659620884646184], [-103.2712689025271, 20.66685966902256], [-103.26614654750536, 20.669876691948804], [-103.26950457646589, 20.679478636292636], [-103.26656035181244, 20.682911174879123], [-103.26674422709526, 20.690191926079855], [-103.26430408726962, 20.69146941861148], [-103.26004252995082, 20.690195843447537], [-103.25796330261188, 20.6812027984898], [-103.24568647459975, 20.681345730135895], [-103.24269107278168, 20.670740562111803], [-103.23789113480517, 20.66761733217139], [-103.23482867261674, 20.668538004450575], [-103.23323554121936, 20.67394130926854], [-103.22911862864684, 20.674946541705523], [-103.21112480922494, 20.67017150529827], [-103.20326235421221, 20.673043427657134], [-103.19491189589826, 20.667393585527975], [-103.19797892250565, 20.657782558497043], [-103.20880495508136, 20.658109271988362], [-103.20719976477879, 20.64626272759066], [-103.21409775813508, 20.63517814740407], [-103.22096895437637, 20.636551131762918], [-103.21894506983305, 20.646777259421732], [-103.2262603326304, 20.64835657378604], [-103.23249818267334, 20.645970339477287], [-103.23781932359304, 20.655915985424514], [-103.24123928371799, 20.652904269268216], [-103.24171922565807, 20.64788112926794], [-103.24642996017212, 20.647525530389785], [-103.25137049050323, 20.64059021459893], [-103.25825446701128, 20.640538263625427], [-103.26544233899085, 20.65034761312006], [-103.27053161553354, 20.652278778143685], [-103.27266212823386, 20.659620884646184]], [[-103.23797181837581, 20.657765223623354], [-103.23599420454133, 20.655379777521432], [-103.21783780903938, 20.6541827811609], [-103.21334037231959, 20.661202253102296], [-103.22391618407549, 20.66595188129542], [-103.23561367530573, 20.667199392500546], [-103.23797181837581, 20.657765223623354]]], [[[-103.2954888246478, 20.467699515878017], [-103.29292121991506, 20.471682085966837], [-103.28245665742696, 20.47526055201363], [-103.27292199625282, 20.48207087420432], [-103.26277703873163, 20.47849112730433], [-103.25759002750611, 20.485077730808985], [-103.25060697448676, 20.485408372034822], [-103.25231770475239, 20.490219078582466], [-103.25830948706857, 20.49098194675406], [-103.26125690536162, 20.494722575321973], [-103.25782848830977, 20.49908672181927], [-103.2584746748576, 20.51060035526729], [-103.25159233956383, 20.512406879706127], [-103.25075322041093, 20.51734752663061], [-103.26505718774133, 20.541163894398714], [-103.25972121981194, 20.54343881873206], [-103.25078885319273, 20.5384879263713], [-103.24563331402196, 20.54244231901066], [-103.24139842370688, 20.542324941929138], [-103.24171305742513, 20.532239915366475], [-103.22758690312946, 20.51741378351223], [-103.22866899421821, 20.505828327906237], [-103.22658721122036, 20.503220753995816], [-103.22945526903324, 20.49820478506444], [-103.22269129038156, 20.49369780751146], [-103.22730049030211, 20.47880216556389], [-103.23248110022985, 20.47770376892589], [-103.23619126481071, 20.480794915484633], [-103.24391048601272, 20.481724151365714], [-103.2472150716894, 20.472413319512874], [-103.25711236626614, 20.47044976607275], [-103.25973030483047, 20.46665835679626], [-103.26991488026964, 20.47154302790963], [-103.29248888662956, 20.462113135986602], [-103.29585707847531, 20.46419224031134], [-103.2954888246478, 20.467699515878017]]], [[[-103.2537875859949, 20.860360085699124], [-103.24926384062695, 20.861835761797554], [-103.24272072187455, 20.869888213699266], [-103.23776388162756, 20.86983722174773], [-103.23475294846205, 20.86694447397883], [-103.23494845857476, 20.861275702290783], [-103.2439525080439, 20.859044923187373], [-103.24568223360902, 20.8546843040364], [-103.25250608718129, 20.854828557519625], [-103.2537875859949, 20.860360085699124]]], [[[-103.30463979223221, 20.523287126869114], [-103.30551636208607, 20.527972652165996], [-103.3017495800656, 20.533176418977757], [-103.2929487563017, 20.532281368782975], [-103.29226577859889, 20.52626105376348], [-103.28345186039328, 20.518198223646547], [-103.28286400905517, 20.512271247073052], [-103.26907731593978, 20.502759673640465], [-103.26834354664194, 20.496133372988155], [-103.27900511049307, 20.49451048279309], [-103.28447088175051, 20.511393174708658], [-103.2917048606433, 20.51571296619522], [-103.29562872859147, 20.52257052965858], [-103.30463979223221, 20.523287126869114]]], [[[-103.31641437880442, 20.62367023758896], [-103.31731289484838, 20.628279226865335], [-103.31513541151075, 20.630428589402726], [-103.30730197208116, 20.628327117898912], [-103.29916982182404, 20.631980545824817], [-103.29509323850732, 20.62792045593865], [-103.28680104306744, 20.627683361276336], [-103.28395709040127, 20.622664357549887], [-103.27403582786197, 20.62355391755266], [-103.27193368939699, 20.617891802536942], [-103.27993877267211, 20.61485386799226], [-103.28472589466138, 20.61999331834304], [-103.29299190546426, 20.619936031363128], [-103.2964624564626, 20.625853381693524], [-103.30026552121124, 20.623912075441154], [-103.3076785144236, 20.625821188016054], [-103.3113007596332, 20.622409897528424], [-103.31641437880442, 20.62367023758896]]], [[[-103.45634276227531, 20.481433063880463], [-103.4459836128721, 20.48376955074664], [-103.43689049896042, 20.48112326700352], [-103.43640286833323, 20.470144055760645], [-103.43088495609426, 20.466701549213795], [-103.42080466597994, 20.48188754187796], [-103.4152580480442, 20.47836423973946], [-103.41158265633916, 20.46765475650683], [-103.40233864645889, 20.47205250720292], [-103.39807810932872, 20.466927496788653], [-103.40169482838735, 20.459469176649193], [-103.40482453590998, 20.4583466565907], [-103.41274781381107, 20.46729303887619], [-103.41600275643907, 20.464097835003894], [-103.42246712607795, 20.466675007077026], [-103.43086426558447, 20.466233310750237], [-103.44385484067216, 20.4579108789864], [-103.44853026162922, 20.46063854346492], [-103.45041392229619, 20.46550502343117], [-103.45542916493825, 20.46649197260805], [-103.45634276227531, 20.481433063880463]]], [[[-103.41144316879306, 20.481306951446275], [-103.41180530257735, 20.48794740577697], [-103.41813935074613, 20.49022637835447], [-103.42419502042577, 20.50012620129395], [-103.41075778895836, 20.501629388727892], [-103.40948715896111, 20.50733774411667], [-103.40220611258286, 20.51355717689832], [-103.39823049046616, 20.525670728966613], [-103.40081541293512, 20.529373553069906], [-103.39957393700008, 20.53653306364713], [-103.38285798664326, 20.53576797394694], [-103.37506327634635, 20.538226196623587], [-103.37392350794377, 20.55288676715252], [-103.36964664798425, 20.55641017441477], [-103.37207809965471, 20.564998953981817], [-103.3648244104782, 20.567024550082984], [-103.36316126163523, 20.560724725698357], [-103.34914980327864, 20.546915346706573], [-103.34936941180648, 20.54301460577389], [-103.3579299574589, 20.539886239143488], [-103.35853368691201, 20.536468407153798], [-103.35380132998812, 20.53524267869645], [-103.3532681891311, 20.531063591689303], [-103.34874989432886, 20.527129776828126], [-103.33464803408688, 20.52882283077267], [-103.3297346328469, 20.52431043238417], [-103.33084175473925, 20.520892598659135], [-103.33772230684488, 20.518510594861564], [-103.33242321459495, 20.510518188002997], [-103.33167840400023, 20.503353882018732], [-103.34506723140798, 20.503658772386103], [-103.34640497904398, 20.499320323416608], [-103.35032172576922, 20.497562542822546], [-103.34976385878439, 20.491543204937376], [-103.35339963313861, 20.487257292361775], [-103.36015394618823, 20.487030502573543], [-103.36248777826411, 20.491995646956315], [-103.37097169126687, 20.497190187332894], [-103.37106191753328, 20.504402963857757], [-103.3827873934887, 20.51051470462556], [-103.389668378424, 20.511103815972383], [-103.39437521800485, 20.499093322669967], [-103.39887811279004, 20.49582744572641], [-103.3983666893001, 20.488662648458252], [-103.39355024721962, 20.486606130201956], [-103.39635401765466, 20.478018944096892], [-103.41144316879306, 20.481306951446275]], [[-103.35983092663336, 20.515796033173384], [-103.35823303461342, 20.512876822245065], [-103.34457091825671, 20.509939507512474], [-103.34143717789954, 20.520604399904187], [-103.34830342468321, 20.523331138626787], [-103.35066685536532, 20.51941789017704], [-103.35754131589185, 20.519252088416934], [-103.35983092663336, 20.515796033173384]]], [[[-103.35853337595546, 20.56464115618022], [-103.35630048241734, 20.575544364689687], [-103.3600100742488, 20.577164435353666], [-103.36874148193505, 20.575264297523596], [-103.37503986725629, 20.579929207037974], [-103.3809458575621, 20.5803103684015], [-103.3839375707615, 20.583395843529637], [-103.38191586108397, 20.588877455751714], [-103.3616616812521, 20.582273428689298], [-103.35582372707592, 20.586406824197752], [-103.35167535202416, 20.585457629068753], [-103.34965541463689, 20.57975951733771], [-103.35455488581395, 20.573805013869354], [-103.35187416783826, 20.570583675917874], [-103.34729516652921, 20.573406763692716], [-103.33969160981653, 20.572952609204314], [-103.33741116320088, 20.58031061759059], [-103.33250816474252, 20.58136955175913], [-103.32015559453656, 20.576083233973378], [-103.3132072224299, 20.57623271950426], [-103.30682761273832, 20.569069932991024], [-103.316122530292, 20.559415840682316], [-103.3272055446007, 20.56311990415677], [-103.33007544490201, 20.554668404455633], [-103.34335389113859, 20.55566198988123], [-103.35770644316786, 20.562129060358625], [-103.35853337595546, 20.56464115618022]]], [[[-103.30172214527349, 20.567725775996767], [-103.2968607251277, 20.57445540136534], [-103.28730700432666, 20.575313183401818], [-103.29199844025996, 20.587600450455238], [-103.28373357703425, 20.588792868940242], [-103.2800819595965, 20.583516055439443], [-103.28237727947409, 20.576288565988044], [-103.27854525262907, 20.57313484164062], [-103.2778443068683, 20.56738533165347], [-103.28670714982758, 20.559228413317346], [-103.2914129007389, 20.559136197133075], [-103.29970692326367, 20.56263808398597], [-103.30172214527349, 20.567725775996767]]], [[[-103.31230969785847, 20.684275784351755], [-103.31103878528195, 20.690225495452975], [-103.3029051696269, 20.688699325494664], [-103.29489359324859, 20.692552696276206], [-103.28510093545646, 20.681620359482423], [-103.2850466038256, 20.676895351050494], [-103.29129296223182, 20.674803079005965], [-103.29597167461681, 20.677535063435467], [-103.29904925818137, 20.683557938916746], [-103.30896001177709, 20.680599910971473], [-103.31230969785847, 20.684275784351755]]], [[[-103.31649201463924, 20.451318041743676], [-103.31188316194114, 20.457352730094154], [-103.30523509196125, 20.45653988244461], [-103.29794246311332, 20.446302530155673], [-103.29902192024238, 20.443009184048556], [-103.30641826159264, 20.438717632076564], [-103.30233613456036, 20.430613743194506], [-103.30635837271306, 20.425116353880945], [-103.3107654924945, 20.42620103405621], [-103.31678185095964, 20.436974275629524], [-103.31214577911872, 20.442740202580513], [-103.31649201463924, 20.451318041743676]]], [[[-103.33180917400396, 20.718113748759528], [-103.32347991783223, 20.71876972435285], [-103.32068408383454, 20.72252129784643], [-103.32477195340918, 20.732426236292486], [-103.32278505012505, 20.739465793888662], [-103.31152207222507, 20.742849831222326], [-103.30921611460401, 20.741326556783495], [-103.31087195719438, 20.732599414407506], [-103.29999197568799, 20.72610159731871], [-103.30006203320657, 20.719825466761453], [-103.30433199092269, 20.715093951574666], [-103.29759034864796, 20.707746500347934], [-103.303691592079, 20.704004400950332], [-103.30848887801166, 20.705900898263714], [-103.31098392804196, 20.710391641305062], [-103.31715552356582, 20.710585674280658], [-103.32195757710872, 20.705170990987817], [-103.32619688467156, 20.70425545781292], [-103.33098640282914, 20.708807666144196], [-103.33180917400396, 20.718113748759528]]], [[[-103.47961976787914, 20.716670090682083], [-103.47477861625433, 20.717328065370182], [-103.47008409518284, 20.72204647673571], [-103.46894200127929, 20.73118415858815], [-103.46141725221595, 20.72946075781906], [-103.45736872662332, 20.735325275247924], [-103.42796208897484, 20.7324484635429], [-103.42787855297742, 20.73803043039093], [-103.4369277867656, 20.741636574103236], [-103.4487152186488, 20.740983169523666], [-103.45099681264675, 20.74575841894258], [-103.44596480230618, 20.749797351125462], [-103.43341274217761, 20.749179625324896], [-103.42713156362166, 20.757666536185926], [-103.42266462124265, 20.756520206872597], [-103.42103301331178, 20.74877483961935], [-103.41132217567167, 20.75030087851667], [-103.40647752667986, 20.747197983288576], [-103.39636165147124, 20.745986912299276], [-103.39620532889145, 20.738398906047333], [-103.40602931372919, 20.731185079548617], [-103.39645443067118, 20.7248632819869], [-103.39539775158282, 20.720161602413366], [-103.40533848894445, 20.713594426486615], [-103.41260954003994, 20.69811037813285], [-103.40944487793553, 20.693034647085042], [-103.40914440555338, 20.683223919876447], [-103.40179464805337, 20.681347261220672], [-103.39561424813692, 20.683027231535984], [-103.39020299904696, 20.679661437185604], [-103.38477032884832, 20.683734563634427], [-103.37417236970602, 20.68302934384187], [-103.3714123139172, 20.68824008021918], [-103.36789986811765, 20.68838149672285], [-103.36578137175995, 20.682456991845005], [-103.3725231152537, 20.680661221682286], [-103.3734065176644, 20.676194765866594], [-103.36260757599685, 20.675218690937903], [-103.36444199332468, 20.667032838943626], [-103.36113542720975, 20.663857349944525], [-103.35608796129523, 20.665864264173404], [-103.35141397030056, 20.67693053079122], [-103.34232568309403, 20.676843369850204], [-103.33435351977265, 20.671766649516684], [-103.33326297141232, 20.66766497343814], [-103.33831023756412, 20.663399648591493], [-103.3391101125638, 20.655760309160055], [-103.3329655826039, 20.654169369402872], [-103.32908865348323, 20.660574136022937], [-103.31958269581888, 20.658003210596938], [-103.32088520711797, 20.65255387880057], [-103.33172702322955, 20.65279821208801], [-103.33369207847365, 20.647926546804804], [-103.33854004085343, 20.646251252158553], [-103.33315347412173, 20.634205475376348], [-103.32678163363636, 20.62998845292904], [-103.33422342518124, 20.622217458655836], [-103.32648234152649, 20.617129294187883], [-103.31777655791143, 20.616620180118456], [-103.31495519091527, 20.613777925975256], [-103.31513228953665, 20.607437870131353], [-103.32196026446954, 20.60553287001349], [-103.32891612437196, 20.61024183657731], [-103.33482710283072, 20.610365574889375], [-103.3403373942037, 20.595377217369848], [-103.35257699196862, 20.596302876651972], [-103.35450037009731, 20.60283826731477], [-103.34627170482611, 20.612865500724645], [-103.3491770616541, 20.61521203707488], [-103.35546414235607, 20.61233546737609], [-103.36113169360416, 20.615157784076892], [-103.35497131456066, 20.623602888872508], [-103.36037086913994, 20.62901329137144], [-103.37467496698999, 20.633884188650292], [-103.3756208948942, 20.637732416735073], [-103.37171944628119, 20.646998039841268], [-103.37388836740114, 20.649537148489838], [-103.38578355534123, 20.647374131422733], [-103.39180131232266, 20.650273057759044], [-103.40469897607073, 20.642093076045914], [-103.40496774830073, 20.632688698933652], [-103.40914438880435, 20.63141828248514], [-103.4142753885834, 20.636625896867404], [-103.42259053942269, 20.63577066182608], [-103.42962352354101, 20.644235714672533], [-103.42956788781719, 20.650582523365934], [-103.43578981595027, 20.650977320017994], [-103.44321033692731, 20.64721279969173], [-103.44373370933737, 20.634456920694916], [-103.45090126684603, 20.632745281014774], [-103.45296485266857, 20.6357806993814], [-103.45197181917379, 20.645788478822734], [-103.44499784148739, 20.649437034476705], [-103.44421843049858, 20.65299308353467], [-103.45259938122761, 20.6580509878422], [-103.45349348149479, 20.665209730716406], [-103.45022555205037, 20.668971340692185], [-103.44264477953004, 20.667404040315063], [-103.43595356489908, 20.669147335582043], [-103.43423196373627, 20.67537090303506], [-103.43879672740532, 20.676919611661724], [-103.44761476553579, 20.672803547196708], [-103.44999210394022, 20.67551638715599], [-103.44802169144278, 20.682671514081658], [-103.4540817453819, 20.685626170990705], [-103.45328125239315, 20.694648498107586], [-103.45791643365281, 20.701600698208715], [-103.46465705906982, 20.702337800055897], [-103.47043802666954, 20.707694457688735], [-103.4776215637813, 20.709805233887934], [-103.47961976787914, 20.716670090682083]], [[-103.34151325723988, 20.626348373635093], [-103.34009533987202, 20.622791634324315], [-103.33452580539239, 20.624432962341903], [-103.33732602989906, 20.63078308628503], [-103.34065333554307, 20.630020605575243], [-103.34151325723988, 20.626348373635093]], [[-103.35476180317059, 20.652744380630512], [-103.35668063841013, 20.64929675791234], [-103.35246434737795, 20.64582181885496], [-103.35109423099912, 20.638014964664265], [-103.34793095058149, 20.637236854069368], [-103.3415774400026, 20.644556672144237], [-103.34310007031897, 20.655749689096975], [-103.35122109756307, 20.661498090551436], [-103.35476180317059, 20.652744380630512]], [[-103.37376401621374, 20.652629864833273], [-103.37055643504252, 20.650253531805674], [-103.3679174915247, 20.65386022534326], [-103.37164407036448, 20.656898202105126], [-103.37376401621374, 20.652629864833273]], [[-103.39957934504923, 20.668008244007716], [-103.39892345052067, 20.663147039257204], [-103.38660229218473, 20.661967865606737], [-103.39039246291532, 20.671389679680825], [-103.39768384861495, 20.671213287871957], [-103.39957934504923, 20.668008244007716]], [[-103.4120305529614, 20.730201354442944], [-103.41592290047595, 20.72752331521603], [-103.41016010731406, 20.723350145949293], [-103.40709370449667, 20.72816540243929], [-103.4120305529614, 20.730201354442944]], [[-103.41930630527546, 20.661428472131508], [-103.40883855100208, 20.666888893816818], [-103.40974336065696, 20.6704964060202], [-103.41914930878283, 20.674658735851178], [-103.42618940574484, 20.66330579484144], [-103.42416742207782, 20.659126491722652], [-103.41930630527546, 20.661428472131508]], [[-103.4413003746186, 20.69599457920696], [-103.4402147271194, 20.688187232888957], [-103.43372844906743, 20.683843891633867], [-103.43252878413163, 20.677659127872438], [-103.42145696054301, 20.676494264361708], [-103.42045401490964, 20.688000845394306], [-103.42486904148029, 20.695385546552636], [-103.4205468375382, 20.70233328167069], [-103.426378204869, 20.70559138537638], [-103.43047728149699, 20.719558463703144], [-103.43519997900664, 20.71797716784624], [-103.4335059889535, 20.710376892687435], [-103.4419159266795, 20.706667675567047], [-103.44429654571981, 20.699354197946903], [-103.4413003746186, 20.69599457920696]], [[-103.42694404587968, 20.744885996636548], [-103.4237522710981, 20.741166470204554], [-103.42082875914343, 20.746280029863634], [-103.42433880792926, 20.747982959027887], [-103.42694404587968, 20.744885996636548]]], [[[-103.39933282102926, 20.42129893303532], [-103.39570457974145, 20.429580523825894], [-103.39280127454094, 20.429776043392312], [-103.39143902611232, 20.423437200963907], [-103.38404903855921, 20.41970110324691], [-103.38331908529625, 20.41158902310647], [-103.38997844042879, 20.40887052716361], [-103.3956647717364, 20.41067219929141], [-103.39933282102926, 20.42129893303532]]], [[[-103.43158719296815, 20.60707439254437], [-103.42897396279471, 20.611509752097355], [-103.42989097060858, 20.618169511557003], [-103.42492661009251, 20.622649455415555], [-103.41743133056457, 20.620843360607658], [-103.40932312465569, 20.612862184479905], [-103.40467104074415, 20.613856467538422], [-103.40412142913527, 20.621093521580896], [-103.40173755902397, 20.622436466875726], [-103.39010412945737, 20.619856688985127], [-103.38790637967996, 20.616823100939502], [-103.39292404999576, 20.610335712037102], [-103.39419624648019, 20.60253002670722], [-103.4042745760153, 20.59419433188375], [-103.40920065498985, 20.595168663251243], [-103.41196351333558, 20.598901552392846], [-103.41767433795619, 20.599248978359725], [-103.42132758771695, 20.60321000255737], [-103.42882122212161, 20.60096792306637], [-103.4317639406715, 20.603014184434496], [-103.43158719296815, 20.60707439254437]]], [[[-103.44361665284548, 20.531059305814843], [-103.44430499627279, 20.533652554373358], [-103.43365123891097, 20.54100917835492], [-103.41892241963893, 20.54145084081222], [-103.41629293968722, 20.52943739773228], [-103.4230038614704, 20.52726080888487], [-103.41809622182177, 20.519828256968083], [-103.41910426606083, 20.514684691417845], [-103.42272048781788, 20.51340182141108], [-103.42452585205557, 20.508830409280446], [-103.42839682150365, 20.51241463028099], [-103.42815142703547, 20.5186215519309], [-103.43666104328608, 20.51945270847765], [-103.43885657659496, 20.526981167527886], [-103.44361665284548, 20.531059305814843]]], [[[-103.45153657514746, 20.58784471719162], [-103.44558371980166, 20.59373668850638], [-103.43697289034967, 20.5859092550954], [-103.42933462889393, 20.587120689595345], [-103.42711515657734, 20.58525111521364], [-103.42706063394334, 20.580190006061052], [-103.43370917984205, 20.576550260226046], [-103.43244387562125, 20.567986988924535], [-103.44135606860047, 20.570493418279966], [-103.44070506729717, 20.577098743878587], [-103.4472761259729, 20.57944183195107], [-103.45153657514746, 20.58784471719162]]], [[[-103.48405550241841, 20.5325311932053], [-103.48367985977116, 20.53890653684927], [-103.47334212446677, 20.541363351247274], [-103.47107728917418, 20.53468033011797], [-103.4568223059241, 20.528853867560034], [-103.45419955750081, 20.520733053235723], [-103.46821997154728, 20.51799537246782], [-103.47201794303218, 20.51994296461706], [-103.47625110672367, 20.530229975839525], [-103.48405550241841, 20.5325311932053]]], [[[-103.51842700369261, 20.484299130657792], [-103.50604345814388, 20.487792669068167], [-103.49660332859543, 20.494130170165672], [-103.49673362925483, 20.497205704605538], [-103.5015102703101, 20.499388411012585], [-103.5001042804136, 20.505206645447206], [-103.48360682143792, 20.498157848059837], [-103.48377280334253, 20.489316571355015], [-103.48668941459297, 20.48584435508543], [-103.49306807492638, 20.485215315217097], [-103.49733461375384, 20.478991099179453], [-103.49865092809357, 20.474219801084004], [-103.4950236818299, 20.471570849698562], [-103.49552815511531, 20.467287736438507], [-103.50327634956803, 20.465858825693914], [-103.50493416332822, 20.47213857896712], [-103.51439884921722, 20.475711540144772], [-103.51516787753334, 20.479539776627366], [-103.51882547900877, 20.480862840765624], [-103.51842700369261, 20.484299130657792]]]]}}]}