{"type": "FeatureCollection", "features": [{"type": "Feature", "properties": {"threshold": 70}, "geometry": {"type": "Polygon", "coordinates": [[[75.2755074635746, 51.73986620972191], [75.27855652314561, 51.74301674123296], [75.28272346153429, 51.736132390912545], [75.28914326893846, 51.736072435558796], [75.29083058041499, 51.742717324361585], [75.29783254776788, 51.74600152980185], [75.29763051424045, 51.75107482347725], [75.30336819214268, 51.75246838136396], [75.30463970298173, 51.75482571057144], [75.31745873727891, 51.75374280227496], [75.32996219281489, 51.7559537161424], [75.33291382465481, 51.75192202836697], [75.33882831886247, 51.749766926767094], [75.34167941239528, 51.739658839076256], [75.34650389327568, 51.73587843715056], [75.34344283164178, 51.7289399603702], [75.35518884950388, 51.70388719944203], [75.36067887074356, 51.70114112477343], [75.36047430334973, 51.69759969538274], [75.3492090945678, 51.69382956227447], [75.33754372759347, 51.69556989599408], [75.33072021039489, 51.69208850425891], [75.32355328531305, 51.69340241011802], [75.30980557114772, 51.700386779331154], [75.28888085493477, 51.70190221388297], [75.28694343184668, 51.706028661095615], [75.27800141719786, 51.70885293639577], [75.27908349641913, 51.728224775156626], [75.2858255394536, 51.73387134533022], [75.28344232112042, 51.73546693263022], [75.27746031691714, 51.73486907107651], [75.2755074635746, 51.73986620972191]], [[75.3201762722627, 51.717020740847026], [75.32464631759869, 51.71543781408574], [75.32726885311028, 51.71731421238811], [75.32226663042363, 51.72103480557115], [75.3201762722627, 51.717020740847026]], [[75.29505852876753, 51.7051241643307], [75.30071185671132, 51.70335623236915], [75.30511069051568, 51.70517589325248], [75.3057418393188, 51.71010305826269], [75.29980534881925, 51.715728746606544], [75.29448580937519, 51.71322326175606], [75.29505852876753, 51.7051241643307]]]}}, {"type": "Feature", "properties": {"threshold": 80}, "geometry": {"type": "MultiPolygon", "coordinates": [[[[75.37668037602863, 51.897121717169824], [75.3760725049035, 51.89989231364915], [75.38323873274031, 51.90243439364162], [75.39856580177056, 51.90235848089638], [75.40192979131899, 51.89769266991651], [75.39991279804765, 51.89443925876979], [75.40173763472298, 51.88838145206455], [75.39332552809232, 51.88895786796195], [75.39317568812386, 51.89564275659743], [75.37668037602863, 51.897121717169824]]], [[[75.36153108932933, 51.88801410316863], [75.36407252247751, 51.889976256757244], [75.38154972603489, 51.88878800964136], [75.36997811328024, 51.87979906643049], [75.36521924227021, 51.88007594426202], [75.36153108932933, 51.88801410316863]]], [[[75.27483912891125, 51.740013884621554], [75.27967828902379, 51.745381790276696], [75.29393365238334, 51.74607564281325], [75.29575572344316, 51.75172790391494], [75.30135562555161, 51.753196971954274], [75.30096128584917, 51.75789099475105], [75.31283328795357, 51.754941643825184], [75.33093914662591, 51.757745508192], [75.33344189838671, 51.752112238576764], [75.33886821186081, 51.74971393770958], [75.34167941239528, 51.739658839076256], [75.34650389327568, 51.73587843715056], [75.34344283164178, 51.7289399603702], [75.35518884950388, 51.70388719944203], [75.36067887074356, 51.70114112477343], [75.36047430334973, 51.69759969538274], [75.3492090945678, 51.69382956227447], [75.33754372759347, 51.69556989599408], [75.33072021039489, 51.69208850425891], [75.32355328531305, 51.69340241011802], [75.30980557114772, 51.700386779331154], [75.28888085493477, 51.70190221388297], [75.28694343184668, 51.706028661095615], [75.27798795770687, 51.70891082541596], [75.27908349641913, 51.728224775156626], [75.28578329978565, 51.734049194562374], [75.27752987412676, 51.73482962738153], [75.27483912891125, 51.740013884621554]], [[75.29627690226121, 51.71124078546148], [75.29897901067177, 51.7091782356764], [75.3023109669332, 51.71097226736129], [75.29940234632667, 51.71369744011356], [75.29627690226121, 51.71124078546148]], [[75.28097878362756, 51.73921546863892], [75.28388826659001, 51.73564508327135], [75.29045680129782, 51.73696510058511], [75.28821342138484, 51.74129653365656], [75.28097878362756, 51.73921546863892]]]]}}, {"type": "Feature", "properties": {"threshold": 90}, "geometry": {"type": "MultiPolygon", "coordinates": [[[[75.35961209950574, 51.88981448234447], [75.37299877693563, 51.89167526740805], [75.37596676795816, 51.89979550512476], [75.38121406026711, 51.9018177961185], [75.39820666153918, 51.902427201796364], [75.40667531983333, 51.895453363655115], [75.40621301958363, 51.89017823757218], [75.40956026547529, 51.88618435326676], [75.40673654733469, 51.88326676063536], [75.38832896825699, 51.885458153710914], [75.3787135391401, 51.883065186104886], [75.37605645280385, 51.88042046420915], [75.36495209914504, 51.87921659385412], [75.35933891555447, 51.88503749610637], [75.35961209950574, 51.88981448234447]]], [[[75.27483912891125, 51.740013884621554], [75.27967828902379, 51.745381790276696], [75.29374228592727, 51.745945633898565], [75.29575572344316, 51.75172790391494], [75.30135562555161, 51.753196971954274], [75.30056539615242, 51.75764732876598], [75.30772877498653, 51.76086436811628], [75.31095067266735, 51.76001303206404], [75.3128516823967, 51.75497453165706], [75.32330475421361, 51.757876378387415], [75.33093914662591, 51.757745508192], [75.33344189838671, 51.752112238576764], [75.33886821186081, 51.74971393770958], [75.34167941239528, 51.739658839076256], [75.34650389327568, 51.73587843715056], [75.34344283164178, 51.7289399603702], [75.35518884950388, 51.70388719944203], [75.36067887074356, 51.70114112477343], [75.36047430334973, 51.69759969538274], [75.3492090945678, 51.69382956227447], [75.33754372759347, 51.69556989599408], [75.33072021039489, 51.69208850425891], [75.32355328531305, 51.69340241011802], [75.30980557114772, 51.700386779331154], [75.28888085493477, 51.70190221388297], [75.28694343184668, 51.706028661095615], [75.27798795770687, 51.70891082541596], [75.27908349641913, 51.728224775156626], [75.28578329978565, 51.734049194562374], [75.27752987412676, 51.73482962738153], [75.27483912891125, 51.740013884621554]], [[75.29627433829408, 51.711177110172095], [75.30038325462785, 51.709456368182344], [75.30180637176623, 51.712658701955796], [75.29803885526296, 51.7135560447654], [75.29627433829408, 51.711177110172095]], [[75.28097878362756, 51.73921546863892], [75.28388826659001, 51.73564508327135], [75.29045680129782, 51.73696510058511], [75.28821342138484, 51.74129653365656], [75.28097878362756, 51.73921546863892]]], [[[75.05588379359178, 51.78726364430577], [75.05601652370525, 51.79109765466816], [75.06374637926821, 51.791183637560636], [75.06811475680016, 51.784420721994444], [75.05914153671077, 51.78290667028119], [75.05588379359178, 51.78726364430577]]]]}}, {"type": "Feature", "properties": {"threshold": 95}, "geometry": {"type": "MultiPolygon", "coordinates": [[[[75.35961209950574, 51.88981448234447], [75.38121406026711, 51.9018177961185], [75.39820666153918, 51.902427201796364], [75.4066807198238, 51.896051511603375], [75.40956026547529, 51.88618435326676], [75.40692191712775, 51.88328891360596], [75.3815287403952, 51.883904758250296], [75.37605645280385, 51.88042046420915], [75.36495209914504, 51.87921659385412], [75.35933891555447, 51.88503749610637], [75.35961209950574, 51.88981448234447]]], [[[75.27483912891125, 51.740013884621554], [75.27967828902379, 51.745381790276696], [75.29374228592727, 51.745945633898565], [75.29575572344316, 51.75172790391494], [75.30135562555161, 51.753196971954274], [75.30056539615242, 51.75764732876598], [75.30772877498653, 51.76086436811628], [75.31095067266735, 51.76001303206404], [75.3128516823967, 51.75497453165706], [75.32330475421361, 51.757876378387415], [75.33093914662591, 51.757745508192], [75.33344189838671, 51.752112238576764], [75.33886821186081, 51.74971393770958], [75.34167941239528, 51.739658839076256], [75.34650389327568, 51.73587843715056], [75.34344283164178, 51.7289399603702], [75.35518884950388, 51.70388719944203], [75.36067887074356, 51.70114112477343], [75.36047430334973, 51.69759969538274], [75.3492090945678, 51.69382956227447], [75.33754372759347, 51.69556989599408], [75.33072021039489, 51.69208850425891], [75.32355328531305, 51.69340241011802], [75.30980557114772, 51.700386779331154], [75.28888085493477, 51.70190221388297], [75.28694343184668, 51.706028661095615], [75.27798795770687, 51.70891082541596], [75.27908349641913, 51.728224775156626], [75.28578329978565, 51.734049194562374], [75.27752987412676, 51.73482962738153], [75.27483912891125, 51.740013884621554]], [[75.29627433829408, 51.711177110172095], [75.30038325462785, 51.709456368182344], [75.30180637176623, 51.712658701955796], [75.29803885526296, 51.7135560447654], [75.29627433829408, 51.711177110172095]], [[75.28097878362756, 51.73921546863892], [75.28388826659001, 51.73564508327135], [75.29045680129782, 51.73696510058511], [75.28821342138484, 51.74129653365656], [75.28097878362756, 51.73921546863892]]], [[[75.05588379359178, 51.78726364430577], [75.05601652370525, 51.79109765466816], [75.06374637926821, 51.791183637560636], [75.06811994863801, 51.787867756950185], [75.06811475680016, 51.784420721994444], [75.05914153671077, 51.78290667028119], [75.05588379359178, 51.78726364430577]]]]}}]}