{"type": "Feature", "geometry": {"type": "MultiPolygon", "coordinates": [[[[-100.80662914975177, 25.633700397985116], [-100.80611271939426, 25.637036612313302], [-100.80326076368716, 25.63989617896616], [-100.79602465515075, 25.641706840032157], [-100.79108955132502, 25.63843762430479], [-100.78941392542647, 25.632535550160757], [-100.79221011171882, 25.628988643742403], [-100.80266241589929, 25.628018077153797], [-100.8056131423099, 25.629694547019227], [-100.80662914975177, 25.633700397985116]]], [[[-100.80695450714343, 25.301098140148095], [-100.8045045994886, 25.31107789105912], [-100.79748403673044, 25.312042620386844], [-100.79453332839759, 25.310526141469897], [-100.79231783463611, 25.300765302899254], [-100.79582863272837, 25.293610180458643], [-100.79918035139546, 25.291814693553093], [-100.80284548766673, 25.29258623226332], [-100.8066089362605, 25.29651837998081], [-100.80695450714343, 25.301098140148095]]], [[[-100.81566761091254, 25.271971175704902], [-100.82071697467711, 25.276109999574228], [-100.82009659032742, 25.279859536750077], [-100.8180352597411, 25.28189284605757], [-100.80672523956383, 25.28093885582516], [-100.80265888710471, 25.277955573449173], [-100.8036900415707, 25.271264461812876], [-100.8057722472522, 25.26892301872955], [-100.80876420862926, 25.268747997414238], [-100.81566761091254, 25.271971175704902]]], [[[-101.04260593588943, 25.463593514107878], [-101.04014206530171, 25.468204169346105], [-101.03246886501631, 25.473656758761045], [-101.02217370584866, 25.475654338771164], [-101.0169508870091, 25.471638838321166], [-101.01387378202027, 25.471259386897476], [-101.00908002675166, 25.47554157685251], [-101.00353279649232, 25.476715644319736], [-100.99195138485523, 25.483088523696573], [-100.9910276845747, 25.486076568338312], [-100.99234471938597, 25.490642304815147], [-100.98974465660763, 25.497264167456567], [-100.99001249660148, 25.502211999420332], [-100.98605157317225, 25.509729721279378], [-100.98834126873845, 25.515165122919665], [-100.98773808039662, 25.518086254431953], [-100.98177677025514, 25.522432160503218], [-100.96923032069316, 25.52483177823924], [-100.96818517380471, 25.527772405708212], [-100.97023820529301, 25.535006615601574], [-100.967860778418, 25.540872594045613], [-100.96350620635519, 25.543568994401703], [-100.96135042235143, 25.5482184739351], [-100.95064191424272, 25.558854601187488], [-100.94514679984775, 25.568169146077224], [-100.93625478862249, 25.57107963858983], [-100.93418920611028, 25.573286582811864], [-100.93396113320425, 25.57849628006001], [-100.93057671795918, 25.58467486317457], [-100.93489178531358, 25.59454594097291], [-100.93539627159153, 25.599283111203757], [-100.93392650100814, 25.601884291992924], [-100.9193294243733, 25.610567565665267], [-100.9140316444045, 25.607607054855567], [-100.91037715550117, 25.602551038358598], [-100.90569694201771, 25.601277685685936], [-100.90006986274591, 25.602999596080938], [-100.89303872823486, 25.59999405418492], [-100.88597181132532, 25.60743888866028], [-100.88536289848756, 25.613213605845562], [-100.88235375560905, 25.61601071550222], [-100.8596536434107, 25.61835364221839], [-100.85448591538987, 25.61486301415275], [-100.85784579656215, 25.60657696764556], [-100.8679197263213, 25.599057786995758], [-100.87368904054969, 25.597924280961646], [-100.88022842254325, 25.590244276482082], [-100.87934461512893, 25.582565663988934], [-100.86665703990856, 25.57191185109845], [-100.86643059530105, 25.56232469826209], [-100.87204752917111, 25.559990116504146], [-100.87695615631283, 25.56089925268793], [-100.88004841619505, 25.56866281588539], [-100.89295252486873, 25.58030591812505], [-100.8958872152834, 25.57983796448584], [-100.90581714225206, 25.573145254274618], [-100.91216027183899, 25.576138576691843], [-100.91549000940748, 25.57540467587012], [-100.917044113866, 25.572369791684007], [-100.91497606952548, 25.563665383015522], [-100.91633737879384, 25.55900996512543], [-100.91553713525431, 25.52899236018644], [-100.91809921638311, 25.527096759969925], [-100.92737199042178, 25.526224487956917], [-100.92992141531072, 25.52032770124642], [-100.9356218600789, 25.515943805962383], [-100.93897824158203, 25.516341784491452], [-100.94447841876894, 25.52099413214302], [-100.95209084441528, 25.517854461783152], [-100.96318372217816, 25.49796805876337], [-100.96180165046421, 25.49162340631382], [-100.96403379944242, 25.485151417606815], [-100.97193205569042, 25.478835586539077], [-100.97266926162101, 25.47516805277447], [-100.96380782308358, 25.467385729618574], [-100.96005900897384, 25.46627302541928], [-100.95418984938692, 25.468437883643183], [-100.9487003016911, 25.46690311943637], [-100.94180707385584, 25.468400187362377], [-100.9375493656358, 25.463607554818015], [-100.92681917475075, 25.457203274423552], [-100.9143688040887, 25.459838405786403], [-100.89663561410192, 25.458127144439878], [-100.89097551379704, 25.465879344394967], [-100.88176815793862, 25.466732600641514], [-100.87593991071704, 25.472316938156162], [-100.86269912071809, 25.46773212689346], [-100.8575839377913, 25.461189672876014], [-100.85019846455478, 25.463862664729692], [-100.84240278130453, 25.460361764383656], [-100.83522346897678, 25.4632125156014], [-100.8229006326123, 25.454201663795853], [-100.82243631201528, 25.451208165685916], [-100.82451849784267, 25.44681939051465], [-100.823250114224, 25.443689093362835], [-100.8147680191899, 25.442350489164152], [-100.80656185266116, 25.437372566554366], [-100.80448258393356, 25.42508177818472], [-100.80595776530726, 25.421734933669565], [-100.81256486831644, 25.417568130116827], [-100.81788814217633, 25.420441454343976], [-100.82444239931796, 25.420771114288574], [-100.82669288051768, 25.427017971742977], [-100.8259591618023, 25.432709529601652], [-100.83058465357814, 25.438966969394635], [-100.83763968131255, 25.436421893275956], [-100.85049780363197, 25.43665857007132], [-100.85696825408725, 25.441754111778053], [-100.86713778318709, 25.441129849968803], [-100.87031460017668, 25.437476785314647], [-100.86848367323626, 25.429757171907372], [-100.87405375777789, 25.42214998954947], [-100.87907999939111, 25.419282396262865], [-100.88467883542833, 25.409298498059453], [-100.92110903222293, 25.397243925526844], [-100.9241278684339, 25.399489981427298], [-100.93302505087682, 25.425912394984078], [-100.93566346535262, 25.4281721109632], [-100.94425098236675, 25.42638796335157], [-100.9452707143613, 25.41857716052881], [-100.94703383963368, 25.416081163390622], [-100.95770946493646, 25.41482465188798], [-100.96137731785127, 25.4085894764286], [-100.96708648709104, 25.4065768879138], [-100.97795898458637, 25.411954508447213], [-100.98092874660551, 25.419563230793564], [-100.98990153954847, 25.422978716000944], [-100.99316453919016, 25.422284933457696], [-100.99694127638396, 25.41788741768274], [-101.00311530547293, 25.417368023697446], [-101.00815953491161, 25.413004184659226], [-101.01169840356052, 25.414165825812766], [-101.01508461030103, 25.418682246820094], [-101.02140772448814, 25.419189590139247], [-101.02879615522812, 25.427605159473387], [-101.0273377003859, 25.435471966525128], [-101.02913425114517, 25.441621277044366], [-101.0340949594095, 25.44601039020926], [-101.03615289627653, 25.452881820580156], [-101.04248711291048, 25.457496890223037], [-101.04260593588943, 25.463593514107878]]], [[[-100.85029487370292, 25.615511964650175], [-100.84758084836646, 25.619948856616354], [-100.83734204109786, 25.627870533295525], [-100.83427565333727, 25.628094591100396], [-100.83099020616653, 25.62552911411525], [-100.8307565545966, 25.622362472436606], [-100.83348103738983, 25.618353043593835], [-100.84111693240868, 25.612588814735027], [-100.84621214832727, 25.612167773996678], [-100.85029487370292, 25.615511964650175]]], [[[-100.87239738283483, 25.35297276504987], [-100.87635553223305, 25.35402212709972], [-100.87970940569768, 25.3603105441854], [-100.87858032205838, 25.362968150256872], [-100.87185260206685, 25.368435559195678], [-100.85857850364148, 25.36583808056846], [-100.85230199439908, 25.362151829342316], [-100.85316834486214, 25.357234969946475], [-100.85877184317997, 25.35529126344425], [-100.86224237792125, 25.351221398741664], [-100.8657789721117, 25.35050223825517], [-100.87239738283483, 25.35297276504987]]], [[[-100.89741290231117, 25.312617107986537], [-100.8974221176539, 25.31938471021416], [-100.89331934998341, 25.32173710140167], [-100.8856481440609, 25.320091017990265], [-100.87746002225475, 25.314530275113082], [-100.8762178729432, 25.311388784756826], [-100.8799300887584, 25.30593684497267], [-100.88374157629652, 25.305071140875494], [-100.89027133094609, 25.306347277615693], [-100.89741290231117, 25.312617107986537]]], [[[-100.95739136399297, 25.285132804439314], [-100.95495322598853, 25.291520065253142], [-100.94714582247178, 25.29249021646978], [-100.94279354495804, 25.289164293522326], [-100.94008343208952, 25.2830433407726], [-100.94322206721897, 25.277048943388827], [-100.95018826139281, 25.27624577949764], [-100.95686940054173, 25.280836855559112], [-100.95739136399297, 25.285132804439314]]], [[[-101.02079575226547, 25.357968803012238], [-101.0218816089886, 25.3627287310084], [-101.01853916165066, 25.369403999064588], [-101.01190611662908, 25.373314759576907], [-101.00406734376553, 25.368288434392763], [-100.99292375548748, 25.356239330803888], [-100.99208168116121, 25.353021761034885], [-100.99777466002756, 25.34732434513547], [-101.00577824533349, 25.344107719429022], [-101.01859728001128, 25.354423425086257], [-101.02079575226547, 25.357968803012238]]], [[[-101.01308310000282, 25.401106043557736], [-101.0070617226114, 25.403166636797774], [-100.99853281738001, 25.39509094437623], [-100.99777350865895, 25.391443726288834], [-101.00076341996768, 25.387026221273505], [-101.00611905717089, 25.386216823873955], [-101.01601139719536, 25.392565017096988], [-101.01669129179909, 25.39650874435455], [-101.01308310000282, 25.401106043557736]]], [[[-101.02624676352423, 25.542777851806026], [-101.02352653187975, 25.54515543890771], [-101.01325302123095, 25.546426452126266], [-101.01037315966164, 25.543826586755326], [-101.00887262055551, 25.538041039228883], [-101.0146035108531, 25.53318330083695], [-101.02297663936834, 25.53417580354051], [-101.0269872011825, 25.538644314560987], [-101.02624676352423, 25.542777851806026]]], [[[-101.13453723154407, 25.26012741229185], [-101.13048423249418, 25.27284992254773], [-101.10754358918939, 25.27805496685062], [-101.09131614028337, 25.26852273628459], [-101.08815333530352, 25.258542976777463], [-101.08784173440216, 25.25159361655434], [-101.08957165670249, 25.248986336924197], [-101.09240330055839, 25.248376035551132], [-101.10221242708889, 25.250260722826148], [-101.10937207214201, 25.254992006313532], [-101.13042627235573, 25.250113455255672], [-101.13340296581578, 25.25259085641339], [-101.13453723154407, 25.26012741229185]]]]}, "properties": {}}