{"type": "Feature", "properties": {"city": "Saltillo", "country": "Mexico", "real_area": 162.16}, "geometry": {"type": "MultiLineString", "coordinates": [[[-100.943826848089, 25.5126359373123], [-100.943370714966, 25.5074254194239], [-100.938176528032, 25.5051712686665], [-100.933438291223, 25.5081274344495], [-100.928244444499, 25.5058729689004], [-100.923506116406, 25.5088287544998], [-100.923961386196, 25.5140391416027], [-100.929155415751, 25.5162938085929], [-100.929610959983, 25.521504218241], [-100.93480551287, 25.5237587717237], [-100.935261331608, 25.528969203678], [-100.930522165683, 25.5319250167052], [-100.930977827162, 25.537135405347], [-100.936173086399, 25.539390046358], [-100.936629022461, 25.5446004569094], [-100.931889267402, 25.5475561610143], [-100.932345046173, 25.5527665278654], [-100.927604950794, 25.5557219869258], [-100.928060572229, 25.5609323098464], [-100.933256721041, 25.5631872391669], [-100.937997065375, 25.5602316443634], [-100.943193554705, 25.5624862581085], [-100.94364988286, 25.5676966677466], [-100.948846895743, 25.569951166863], [-100.949303498687, 25.5751615975359], [-100.954501035119, 25.5774159817836], [-100.95924178515, 25.5744597343925], [-100.958784750113, 25.5692492385935], [-100.963525159386, 25.5662927460763], [-100.963067967154, 25.5610822061771], [-100.967808035663, 25.5581254687598], [-100.973005544762, 25.5603791352808], [-100.977745520747, 25.557422017135], [-100.977287739391, 25.5522113685395], [-100.982027374494, 25.549254005869], [-100.981569436089, 25.5440433137066], [-100.976372294494, 25.5417900489516], [-100.975914630942, 25.5365793781335], [-100.980653677125, 25.5336219073727], [-100.985850634893, 25.5358749712385], [-100.990589588212, 25.5329171201971], [-100.990131335843, 25.5277063415918], [-100.984934561953, 25.5254534786193], [-100.980195856557, 25.5284111933756], [-100.974999421607, 25.5261580148849], [-100.970260623523, 25.5291153494383], [-100.970718012286, 25.534325998673], [-100.965978873529, 25.5372830890816], [-100.960782594282, 25.5350293941091], [-100.960325637331, 25.5298188097913], [-100.955129881155, 25.5275650005126], [-100.950390898568, 25.5305215744457], [-100.945195482224, 25.5282674498973], [-100.944739231713, 25.5230569526362], [-100.949477965777, 25.520100514754], [-100.949021558108, 25.5148899744834], [-100.943826848089, 25.5126359373123]], [[-101.035023213412, 25.3567021178833], [-101.030291287302, 25.3596633955606], [-101.030750672478, 25.3648747092296], [-101.035942414383, 25.3671248089331], [-101.040674586862, 25.3641633936668], [-101.040214771069, 25.3589520163028], [-101.035023213412, 25.3567021178833]], [[-101.013801238851, 25.3424898726821], [-101.009069712137, 25.3454504979895], [-101.003879869715, 25.3431997489488], [-100.999148249741, 25.3461599969901], [-100.999606225324, 25.3513711314881], [-100.994874265339, 25.3543311395463], [-100.995332084472, 25.3595422355833], [-101.000522294179, 25.3617933878184], [-101.000980387461, 25.3670045094763], [-100.996247840395, 25.3699644146034], [-100.996705777196, 25.375175497412], [-100.991972890024, 25.3781351620256], [-100.986782313234, 25.3758836066119], [-100.986324807135, 25.3706725881887], [-100.98113475176, 25.3684209210369], [-100.976402019141, 25.3713800706612], [-100.976859094532, 25.3765910245447], [-100.972126022033, 25.3795499333561], [-100.972582940784, 25.3847608480138], [-100.967849528411, 25.3877195157859], [-100.96265944493, 25.3854671319138], [-100.957925940441, 25.3884254215274], [-100.952736195792, 25.3861727243414], [-100.948002599478, 25.3891306357246], [-100.942813193957, 25.3868776253073], [-100.938079506108, 25.3898351583885], [-100.932890440012, 25.3875818348224], [-100.928156660917, 25.3905389895301], [-100.928611699633, 25.3957496044465], [-100.923877581123, 25.3987065172907], [-100.918688672354, 25.3964526786201], [-100.913954463003, 25.3994092128699], [-100.914408913851, 25.4046197222781], [-100.909674365204, 25.4075760142889], [-100.90448561445, 25.4053216604481], [-100.899750975365, 25.408277573644], [-100.894562565265, 25.4060229067502], [-100.889827836032, 25.40897844106], [-100.890281267869, 25.4141887785185], [-100.89546985992, 25.4164436475949], [-100.895923565573, 25.4216540103791], [-100.891188248143, 25.4246094381198], [-100.891641796589, 25.4298197600883], [-100.896831093554, 25.4320747202352], [-100.897284915892, 25.4372850671329], [-100.902474735867, 25.4395399159324], [-100.902928832162, 25.4447502875205], [-100.898192677289, 25.4477057444318], [-100.898646616357, 25.4529160746587], [-100.903837141547, 25.4551710138038], [-100.904291354647, 25.4603813683246], [-100.909482402958, 25.4626361955624], [-100.914219055836, 25.4596804664103], [-100.919410444812, 25.4619349797293], [-100.924147006886, 25.4589788710033], [-100.923691931196, 25.4537683851739], [-100.928428153561, 25.450812033222], [-100.927972920771, 25.4456015060196], [-100.932708803423, 25.4426449110678], [-100.932253413578, 25.4374343427227], [-100.93698895651, 25.4344775049975], [-100.936533409655, 25.4292668957401], [-100.941268612861, 25.4263098154676], [-100.946459611216, 25.4285632079615], [-100.946915589185, 25.4337738824232], [-100.952107109924, 25.4360271627736], [-100.952563362106, 25.441237861519], [-100.947827662387, 25.4441952148076], [-100.942635958705, 25.4419417328257], [-100.937900167374, 25.4448987069817], [-100.938355831394, 25.4501092995342], [-100.943547717969, 25.4523629831434], [-100.944003656227, 25.4575735996645], [-100.949196065422, 25.4598271707294], [-100.949652277982, 25.4650378109799], [-100.954845209791, 25.4672912692606], [-100.955301696718, 25.4725019330017], [-100.960495151136, 25.4747552782584], [-100.965231935371, 25.4717977583717], [-100.970425729018, 25.4740507890597], [-100.970882921803, 25.4792615409225], [-100.976077237929, 25.4815144581874], [-100.976534705259, 25.4867252329812], [-100.971797424988, 25.4896830257381], [-100.966602925367, 25.4874299072489], [-100.961865552712, 25.4903873203349], [-100.962322431584, 25.4955979882519], [-100.967517114651, 25.4978513079612], [-100.972254735397, 25.4948937585166], [-100.977449757611, 25.4971467632621], [-100.982187285797, 25.4941888340688], [-100.987382646863, 25.496441523768], [-100.992120082197, 25.4934832148978], [-100.991661908733, 25.4882723528592], [-100.996399003366, 25.4853138009755], [-100.995940673095, 25.4801028970673], [-101.000677427021, 25.4771441023966], [-101.000218939989, 25.4719331568492], [-101.004955353202, 25.4689741196178], [-101.010150500795, 25.4712258912051], [-101.010609419231, 25.4764369010053], [-101.005872758673, 25.4793960749822], [-101.006331520405, 25.4846070432161], [-101.011527374151, 25.4868589016613], [-101.016264281983, 25.4838995909382], [-101.021460473517, 25.4861511341662], [-101.026197287512, 25.4831914441315], [-101.031393816537, 25.4854426720601], [-101.036130536405, 25.4824826027857], [-101.035670480331, 25.4772714425009], [-101.030474135827, 25.4750204153363], [-101.030014354605, 25.4698092774934], [-101.0347504865, 25.4668491030087], [-101.039946646432, 25.4690999294055], [-101.044682683974, 25.4661393759807], [-101.044222314881, 25.4609281332308], [-101.039026339571, 25.4586775076057], [-101.034290548733, 25.4616379239756], [-101.029094910401, 25.4593869832817], [-101.02863524741, 25.4541758270874], [-101.033370791473, 25.4512155477717], [-101.032910971969, 25.4460043507754], [-101.027716039623, 25.4437534969577], [-101.027256494818, 25.4385423231968], [-101.031991451189, 25.4355819394298], [-101.037186199105, 25.4378325923101], [-101.041921061251, 25.4348718300575], [-101.041460928856, 25.4296605521487], [-101.036266365421, 25.4274101002096], [-101.035806507699, 25.4221988458515], [-101.030612465514, 25.4199482803376], [-101.0301528824, 25.4147370497694], [-101.034886910469, 25.4117763209557], [-101.03442717095, 25.4065650505924], [-101.039160858262, 25.4036040810305], [-101.038700962384, 25.3983927711027], [-101.033507810084, 25.3961424944711], [-101.033048188725, 25.3909312088875], [-101.037781288829, 25.3879701362406], [-101.037321511142, 25.3827588114808], [-101.032129064132, 25.3805086231107], [-101.027396210542, 25.3834695583218], [-101.022204100289, 25.3812190560621], [-101.021745027778, 25.3760078198843], [-101.016553438557, 25.3737572051701], [-101.016094640373, 25.3685459940538], [-101.020827000725, 25.3655853337124], [-101.020368046174, 25.3603740838928], [-101.025100066188, 25.3574131835642], [-101.024640955315, 25.3522018952719], [-101.019450254999, 25.3499515712221], [-101.018991418364, 25.3447403085456], [-101.013801238851, 25.3424898726821]], [[-101.003579539901, 25.4533411406375], [-100.998843714712, 25.4563002833816], [-100.993649611083, 25.4540482843945], [-100.993191516515, 25.4488373438439], [-100.997927094328, 25.4458783379206], [-101.003121014089, 25.4481301357439], [-101.003579539901, 25.4533411406375]]]}}