{"type": "Feature", "geometry": {"type": "MultiPolygon", "coordinates": [[[[-5.572268329336081, 35.82956895109326], [-5.572659498701782, 35.83600936759681], [-5.570567604971679, 35.83845143543896], [-5.5663784243723855, 35.83965429155329], [-5.5605329861556845, 35.83585557424122], [-5.552791067796746, 35.83375729736201], [-5.550855853637768, 35.83054455612189], [-5.552572356502029, 35.82696630932379], [-5.5575101187428775, 35.825740954166925], [-5.56084782427565, 35.82156470500657], [-5.563992945463458, 35.82058092854154], [-5.569859342347228, 35.8239782696646], [-5.572268329336081, 35.82956895109326]]], [[[-5.698866369238711, 35.653595545867134], [-5.699129321165658, 35.6576812629894], [-5.6969566049989195, 35.661112389782005], [-5.689686410522457, 35.66232281020995], [-5.687461974568568, 35.66543363174063], [-5.687960737771633, 35.671832071558455], [-5.695878268587751, 35.67963852851689], [-5.693619599969944, 35.68663831519167], [-5.695366216847108, 35.69599203837716], [-5.689611424922347, 35.70421012144261], [-5.677720692357168, 35.71019970763899], [-5.674652484212921, 35.71016993466358], [-5.6674919815045195, 35.7027869866992], [-5.665255628860494, 35.69827450842754], [-5.676792996259131, 35.68636544106839], [-5.675929070202289, 35.681126007615774], [-5.668839073050454, 35.67942628183265], [-5.664428560085084, 35.676506719426065], [-5.650400879213, 35.67642653948743], [-5.648307176341167, 35.674130208852965], [-5.647549547826499, 35.66733314647832], [-5.639250086541227, 35.662545398800475], [-5.63778588679087, 35.65552815926531], [-5.639522667297177, 35.65079131042188], [-5.639079231322553, 35.64410543435119], [-5.642472944128637, 35.63562073683964], [-5.645692740229485, 35.63317588174469], [-5.659587430892944, 35.63361026821595], [-5.661802671297467, 35.635775661860514], [-5.6636348034944, 35.643871038101004], [-5.673526964052932, 35.64462937923213], [-5.679657820167746, 35.649840261475234], [-5.685005897370083, 35.64802696210157], [-5.689112981942654, 35.641376835192276], [-5.694182852837772, 35.64027855364515], [-5.698160351407267, 35.643435892610995], [-5.698866369238711, 35.653595545867134]]], [[[-5.9462225951717, 35.704202448959244], [-5.945199525298904, 35.70975565650515], [-5.938810937245184, 35.713725097342525], [-5.938200838020965, 35.72000125721447], [-5.936443242463129, 35.72245982089855], [-5.931338454551367, 35.72460237363546], [-5.922320931195869, 35.72429211695972], [-5.898764737547931, 35.73241664947498], [-5.897540752308187, 35.73597369659764], [-5.901154243865509, 35.749038875586294], [-5.897349540161896, 35.75414331260719], [-5.887821322989175, 35.757322090902534], [-5.884111118107157, 35.75498683475615], [-5.881178267486055, 35.749783527175644], [-5.876092727273722, 35.750480255126774], [-5.874007215051839, 35.7548856856428], [-5.867483307747452, 35.7607321597104], [-5.867768821262222, 35.76374657251614], [-5.871313873501536, 35.767819327574195], [-5.871973897114677, 35.773609803315914], [-5.8661527834228915, 35.781455390312786], [-5.864986254875824, 35.78645923508686], [-5.8596283100226865, 35.78907525116223], [-5.855418890275301, 35.79458363761525], [-5.849780361746879, 35.7951976430529], [-5.842236851382554, 35.7998026430983], [-5.833524964162009, 35.797594798167204], [-5.824899950150576, 35.79847207246653], [-5.82070872656909, 35.79548882072983], [-5.804352169635188, 35.79028533261105], [-5.79854332036249, 35.79043050551579], [-5.795330861821003, 35.78722394835609], [-5.794785783579702, 35.781204927872054], [-5.79111419288934, 35.77919538888333], [-5.779636996338443, 35.780428145733644], [-5.7680737931973995, 35.7842214184404], [-5.761076657380269, 35.79338216253553], [-5.7521310073662075, 35.79909732335979], [-5.750405712825641, 35.80540292394305], [-5.7454459383352185, 35.809468558631245], [-5.743243129337766, 35.81438307944583], [-5.740019612885821, 35.81582590408788], [-5.729063726588662, 35.811986190782264], [-5.721828133655378, 35.81161457494385], [-5.720012876439082, 35.80798403996315], [-5.721892108674477, 35.79941962930951], [-5.717260364982658, 35.79595539760731], [-5.704958432148292, 35.79681456228634], [-5.701452689074692, 35.80396907953063], [-5.698822267516174, 35.805610443621504], [-5.69258172174544, 35.804999518719775], [-5.689337328616891, 35.800444178388624], [-5.689013816632803, 35.79696470098256], [-5.691021095837437, 35.792922437677994], [-5.696206833844958, 35.791234562626485], [-5.7010066723164625, 35.794116834856275], [-5.704357518685528, 35.79370953978954], [-5.710065536814892, 35.78293807441644], [-5.714048772382442, 35.77948412080433], [-5.7224306184080245, 35.78219513479891], [-5.727395591368673, 35.78767239999573], [-5.735844565648903, 35.786152852405365], [-5.7443853867435655, 35.792562617227894], [-5.749038962538489, 35.79152318300103], [-5.751180525597368, 35.78508864290677], [-5.745966405462637, 35.77518094045074], [-5.7505216111069055, 35.76570773630447], [-5.745226532569476, 35.761292880376196], [-5.7428060811670845, 35.756104997388825], [-5.747196129856923, 35.749050164970974], [-5.744655656459185, 35.74233515433811], [-5.744913222158375, 35.73503268550705], [-5.737116196275998, 35.72775985132571], [-5.723200295943318, 35.72549943273292], [-5.721900085926655, 35.72118773319453], [-5.723915990641788, 35.71419686450061], [-5.731098316671974, 35.7073251649811], [-5.734768343902176, 35.70626844851], [-5.738707674466337, 35.7090823137291], [-5.73844434927819, 35.718150340965785], [-5.741649357696013, 35.721423113631474], [-5.750116583942463, 35.72162081266617], [-5.7583660173645015, 35.71949356098228], [-5.762854896604935, 35.72029925123973], [-5.770243471475096, 35.714964535057995], [-5.77848240773601, 35.71660864072898], [-5.782801784393107, 35.70909608353882], [-5.782711541661937, 35.70608168756152], [-5.779801171251615, 35.70377026401578], [-5.770166565914666, 35.70309295631956], [-5.767987684724533, 35.69932441886215], [-5.76880315349674, 35.69352390433188], [-5.771460089096821, 35.69060423301577], [-5.780553962566309, 35.689432603180855], [-5.783730684270889, 35.68454692741032], [-5.787248068829243, 35.68283661621612], [-5.7916870743420965, 35.6839092304661], [-5.794786719507833, 35.688558125034525], [-5.79536937272019, 35.69379456464181], [-5.80067881507264, 35.69812142375221], [-5.803972505708065, 35.69752349281826], [-5.811142283942884, 35.691097273005965], [-5.817206296933068, 35.691513465019206], [-5.822032793656721, 35.6958531716297], [-5.824828621887726, 35.70118047102046], [-5.823862798072061, 35.70720311218388], [-5.82665501176655, 35.7121016642698], [-5.826437215524438, 35.71899933953925], [-5.830339371534419, 35.72296196720596], [-5.8406856461458405, 35.72379997821321], [-5.844332826668372, 35.722541635398464], [-5.849876507460345, 35.71741374485935], [-5.856949289468854, 35.71826588749242], [-5.859995147743888, 35.71603920390391], [-5.860753241938852, 35.70902935654862], [-5.8527632114287345, 35.693112429262676], [-5.85405370692105, 35.68995163819985], [-5.859427491806531, 35.68522032446914], [-5.86527072201958, 35.68531786255853], [-5.872474162329159, 35.69713342535354], [-5.87613772468899, 35.6988922808946], [-5.886195025800094, 35.6955405348112], [-5.895951167869558, 35.694446736489446], [-5.904946694215826, 35.69556697638292], [-5.907948894906698, 35.693930301004386], [-5.908757577094102, 35.69104561012618], [-5.906603369621332, 35.680320329501946], [-5.9040816713436834, 35.67862786547072], [-5.897188938752238, 35.67831297214926], [-5.893441045107555, 35.67348096059057], [-5.88685295694307, 35.67095191877416], [-5.885498508516501, 35.66745349639738], [-5.887731234064887, 35.664245141409836], [-5.898205136883799, 35.664080864372494], [-5.90524536054694, 35.668490108605006], [-5.907404720300289, 35.67451889966396], [-5.910935146547914, 35.67555137023222], [-5.915800132647356, 35.67179875874871], [-5.921786781566713, 35.66993743936022], [-5.9246879326759085, 35.66250517383065], [-5.92831424963775, 35.65903763499342], [-5.9371531467747936, 35.65792231431302], [-5.939711948031456, 35.65921434910216], [-5.9407540101108625, 35.66198212506703], [-5.937242888870645, 35.67774290089018], [-5.941850898494317, 35.683186498586835], [-5.940704638612961, 35.69075414820672], [-5.944354386369511, 35.69684771026696], [-5.9462225951717, 35.704202448959244]]], [[[-5.701705981830498, 35.83409323299844], [-5.695666299209178, 35.834965751780985], [-5.691345938606347, 35.830502590866224], [-5.691225164620104, 35.82401398339154], [-5.693931389801213, 35.820788836381446], [-5.698873883785978, 35.81845133305499], [-5.702861507014104, 35.82000323464223], [-5.706903150480168, 35.82896988313801], [-5.7056704289040585, 35.83259106081916], [-5.701705981830498, 35.83409323299844]]], [[[-5.874814009906831, 35.659775023261965], [-5.872509401832, 35.66620083700156], [-5.860534991836272, 35.670511944665705], [-5.849779232689717, 35.660122716177035], [-5.838812900538076, 35.66126281788108], [-5.834200508448191, 35.65476397493694], [-5.83929417190401, 35.64882278370242], [-5.844576638924859, 35.647976823881336], [-5.853180702840583, 35.65417639938543], [-5.8651775352804325, 35.65493626588226], [-5.871804704480313, 35.65292102378073], [-5.875201507518823, 35.65571489424949], [-5.874814009906831, 35.659775023261965]]], [[[-5.828191088282381, 35.65383146374966], [-5.820219957216233, 35.661545299349946], [-5.816271325025202, 35.66881879827299], [-5.810522147428502, 35.67240908504964], [-5.804197226068031, 35.672765104053276], [-5.799377139949686, 35.66831921913276], [-5.793339494886563, 35.66766413082457], [-5.788323702293361, 35.66284069743736], [-5.7854035632533085, 35.663679178604205], [-5.781304820578999, 35.66821527803862], [-5.776657006903896, 35.669314962687636], [-5.771999280312243, 35.668409786618284], [-5.766912087002244, 35.67146446063536], [-5.759140470536704, 35.67013752492411], [-5.756561804380075, 35.66576967987581], [-5.758288705688808, 35.66126121386828], [-5.762591836877555, 35.65796817662304], [-5.771843419165293, 35.65864064993684], [-5.7801280466700735, 35.65483765666688], [-5.785967612881931, 35.65444351452083], [-5.793413329414382, 35.64973301041452], [-5.798807390269363, 35.64909953766223], [-5.804095826951749, 35.64331083852788], [-5.825402068591335, 35.649521271390384], [-5.828191088282381, 35.65383146374966]]], [[[-5.94389471240654, 35.73632071989399], [-5.944849296136289, 35.74020956299264], [-5.940265469615201, 35.74669712866819], [-5.940283822856562, 35.751482608667686], [-5.93829440388736, 35.755104855119555], [-5.9328806486771075, 35.758668444450116], [-5.922709099168636, 35.75820977827788], [-5.919533072130073, 35.7601825713508], [-5.919110751515308, 35.76318743625446], [-5.922440582544126, 35.771852278648986], [-5.921333916077367, 35.775164868444136], [-5.9114122586776965, 35.7769434872021], [-5.906132737587801, 35.77990174804314], [-5.9015832071796845, 35.778210010658576], [-5.900356601863443, 35.7749040094968], [-5.902576585743295, 35.766038846475205], [-5.912806392983321, 35.764000017484484], [-5.916530278951886, 35.76101614664162], [-5.913612614440999, 35.748649031662985], [-5.916031556185101, 35.7407016076988], [-5.928422136167918, 35.73494053595055], [-5.9335058999009, 35.73593577649818], [-5.939996137100206, 35.73371468426062], [-5.94389471240654, 35.73632071989399]]], [[[-5.965663965670835, 35.66006936296056], [-5.957708979324059, 35.660875276142114], [-5.955559984957714, 35.657923974366646], [-5.955616357320045, 35.65471148462455], [-5.963101582678519, 35.64867003264365], [-5.966768647159184, 35.64222312625696], [-5.972366406290947, 35.6411795702411], [-5.975084218987611, 35.64434436765368], [-5.973939740641133, 35.65361189803501], [-5.969877362021654, 35.65855846222125], [-5.965663965670835, 35.66006936296056]]]]}, "properties": {}}