{"type": "FeatureCollection", "features": [{"type": "Feature", "properties": {"threshold": 70}, "geometry": {"type": "MultiPolygon", "coordinates": [[[[30.933398394997226, -29.669321505847623], [30.933309223706843, -29.666276213296815], [30.952374827990887, -29.665030994252295], [30.958090130346452, -29.667739255355563], [30.959795981754898, -29.676121251432566], [30.957470253334485, -29.678883775014434], [30.952467103622368, -29.6788319163015], [30.937405904629642, -29.67391693510323], [30.933398394997226, -29.669321505847623]]], [[[30.94178087946507, -29.522930849611704], [30.944749113240384, -29.51642930555281], [30.949525150146705, -29.51562600300258], [30.95126242257247, -29.52289856614228], [30.944316223901776, -29.524616081815683], [30.94178087946507, -29.522930849611704]]], [[[30.85256981473253, -29.906058960308826], [30.860928622290885, -29.901185668792504], [30.85288201409885, -29.893277777095914], [30.856224828678187, -29.88469418021058], [30.866283058479006, -29.89203130687806], [30.876467618144815, -29.889760963916316], [30.882411160718895, -29.903360358087717], [30.89780836804017, -29.903802810660643], [30.908830789744556, -29.907044171311306], [30.913270995904792, -29.904861849903167], [30.91849553223911, -29.89284917890303], [30.924842022396707, -29.88987756625485], [30.92256628715395, -29.886018498245765], [30.917287418438704, -29.88634602330796], [30.912511533017586, -29.882940508265147], [30.91358731425491, -29.87653338057427], [30.927575906549674, -29.875762091303926], [30.942373276248443, -29.87954639418449], [30.938587504093707, -29.891633898900263], [30.933283782843773, -29.896312019475175], [30.937481253691804, -29.90240494075149], [30.9267665036961, -29.913511698271513], [30.928826851714867, -29.918985669382735], [30.936195578433743, -29.924288418375255], [30.935988512819282, -29.927943904879434], [30.93021705383085, -29.931218537696523], [30.923770086468657, -29.929754596907735], [30.905848659894804, -29.933970623208406], [30.883741125669562, -29.925965360069064], [30.879656249493866, -29.92968781001117], [30.86817539364631, -29.926794383457143], [30.860657158265894, -29.929362433777047], [30.854105077440693, -29.918726619213118], [30.85256981473253, -29.906058960308826]], [[30.862221430790054, -29.903580614926522], [30.871341175271176, -29.904054689694043], [30.87351665491504, -29.90112129257814], [30.86758654027329, -29.897308061684633], [30.86169132235536, -29.90026025928876], [30.862221430790054, -29.903580614926522]]], [[[30.929870326052875, -29.77276365261287], [30.935377689149597, -29.770398839517906], [30.938256113870317, -29.77687712142773], [30.931728844010085, -29.778631577441786], [30.929870326052875, -29.77276365261287]]], [[[30.927519425847656, -29.751298457005802], [30.926839588892083, -29.745795861814823], [30.933392249610282, -29.74502135713999], [30.935162841329447, -29.750753303983316], [30.930984589630615, -29.753276857211905], [30.927519425847656, -29.751298457005802]]], [[[30.913077731225204, -29.718415348175036], [30.915208783979185, -29.707913824777066], [30.918386011930092, -29.705343813410053], [30.922641587862724, -29.706277610487867], [30.923784888618027, -29.712403505910682], [30.920736866141933, -29.720548226941755], [30.92445548396873, -29.72722620749898], [30.93128902719628, -29.72903725157943], [30.930123322011717, -29.73531817603944], [30.92459736093189, -29.73532709586292], [30.922655353015706, -29.729941056701787], [30.915798470498434, -29.727387219647312], [30.915995810875547, -29.72173605443103], [30.913077731225204, -29.718415348175036]]], [[[30.912444031306492, -29.83396172546533], [30.920999894935175, -29.831905247635063], [30.92007232088589, -29.8399066345771], [30.914412985317867, -29.839923784417355], [30.912444031306492, -29.83396172546533]]], [[[30.89229630754287, -29.867581425223808], [30.891669053593894, -29.86243069682145], [30.897256725977147, -29.861498691794175], [30.900007447933604, -29.86757970076239], [30.906229469364874, -29.870368436421074], [30.906176955557605, -29.875009061910777], [30.896107048820536, -29.876705231636308], [30.89229630754287, -29.867581425223808]]], [[[30.897127372249226, -29.84963545962236], [30.89847430317383, -29.844603837630615], [30.90409319221285, -29.84567559889213], [30.90279941480495, -29.85365535064634], [30.899101411314, -29.85355165268077], [30.897127372249226, -29.84963545962236]]], [[[30.7665977777948, -29.854733750008865], [30.772430890519967, -29.853325805189783], [30.774954510046705, -29.848629457360627], [30.784526428380886, -29.851445661255024], [30.78591306362131, -29.845352025137686], [30.790708418229702, -29.843363707762688], [30.79240855713274, -29.838344767592478], [30.800541489755787, -29.837598756942384], [30.806085397473826, -29.832241781320555], [30.81125391090942, -29.832359776079812], [30.81754235317671, -29.837221518546357], [30.817322074534225, -29.8436424422671], [30.82023556859106, -29.846980518744587], [30.818853584946343, -29.8541792292771], [30.810669995259513, -29.852063775249825], [30.809385512850405, -29.844954039781477], [30.80035314980615, -29.842994950454553], [30.79781798577623, -29.8449223972916], [30.798873649089884, -29.850847919217113], [30.793104393659654, -29.857260650249568], [30.78769062319479, -29.857940565464325], [30.784588098581978, -29.851937136175422], [30.781192593614616, -29.85411085183944], [30.782801551740242, -29.86517156346474], [30.799015384168428, -29.862946729526563], [30.80783421719412, -29.876057309587058], [30.814975974479662, -29.878906113394425], [30.816675134262013, -29.88581915113617], [30.80974584601833, -29.888800501178295], [30.81355780906623, -29.898345630217012], [30.792964781365974, -29.893379199735914], [30.794334265375564, -29.8807261712846], [30.774794432597744, -29.8753510691694], [30.773566177574043, -29.86664162437642], [30.7660626537247, -29.86185498210281], [30.7665977777948, -29.854733750008865]]], [[[30.82029813529654, -29.85674549835676], [30.827711035610914, -29.85742411921595], [30.832052032632312, -29.86710930985112], [30.84632226164035, -29.871105441118207], [30.851555578919125, -29.86802218898815], [30.847391533542716, -29.85913534702586], [30.85013714946384, -29.85353438773098], [30.84562628852896, -29.84543232082178], [30.834548592657548, -29.841349639282527], [30.834710365203012, -29.83691460579819], [30.842694184334402, -29.82993557449332], [30.837656994370793, -29.820149254873712], [30.841772674694447, -29.81664778980787], [30.849942889598385, -29.816470300520027], [30.850422835941274, -29.809305298273014], [30.861108181249367, -29.803083437548157], [30.863229390723905, -29.797802961217055], [30.874149844867876, -29.794719170438814], [30.875558691861823, -29.788195929682804], [30.880442381552015, -29.785937716467423], [30.87996860837099, -29.77888142571243], [30.866993067017354, -29.773434672883436], [30.86897073851033, -29.767993992173203], [30.88778566222083, -29.76891519766032], [30.891547219828958, -29.77647376092925], [30.88878722228427, -29.78717339021203], [30.89553350188938, -29.794042430865385], [30.897929132903947, -29.80622714891955], [30.892104306572794, -29.804842245500478], [30.889610387594097, -29.799004939300055], [30.88067770988622, -29.798734444281553], [30.871421001652898, -29.801517246583327], [30.866585232576067, -29.809482234419708], [30.868687753469537, -29.8130954274493], [30.867038309076513, -29.822281773137473], [30.871823309056293, -29.825124066855388], [30.877349930479465, -29.837984068970055], [30.881259160999146, -29.840752181385728], [30.882902914511032, -29.84662808956663], [30.888990175697288, -29.84928787824365], [30.8889235846787, -29.852451711971998], [30.886319272888112, -29.8542952259324], [30.87975785525821, -29.851625160863303], [30.87210626194197, -29.852508129268323], [30.866814013718646, -29.847286662158766], [30.8598920398254, -29.846588424376737], [30.858858233865035, -29.850486757238762], [30.853326377009317, -29.853686305812325], [30.85883559480033, -29.860712171552716], [30.85425815961505, -29.86692378816813], [30.85666796693162, -29.876457623050857], [30.851153223867236, -29.87757939168737], [30.846305582526195, -29.873752789095256], [30.83606500321681, -29.87898434825988], [30.840495676330093, -29.890690723224424], [30.83153187246185, -29.90117533269413], [30.82742247140709, -29.90098198731363], [30.823605892887638, -29.896577613188537], [30.824895895325266, -29.87963381658983], [30.818777075483222, -29.874076859265372], [30.821269474712896, -29.86703847775709], [30.818995004620476, -29.864063072824326], [30.82029813529654, -29.85674549835676]]], [[[30.870709386551084, -29.864160409731195], [30.873543453585725, -29.86031590305534], [30.881755310899845, -29.86086350199452], [30.875840628611087, -29.867165685553427], [30.870580413618285, -29.867780527714192], [30.870709386551084, -29.864160409731195]]], [[[30.845599712697158, -29.71580084998402], [30.856162687715937, -29.71208210987126], [30.857352389364486, -29.720039903051855], [30.84563734065135, -29.71872406428618], [30.845599712697158, -29.71580084998402]]], [[[30.828810626600873, -29.78963645652326], [30.832055698259406, -29.787151920739028], [30.83701042723564, -29.788899968136047], [30.839973782591112, -29.791748789935642], [30.838864070895443, -29.796159903742318], [30.833189851765766, -29.797819968022676], [30.828810626600873, -29.78963645652326]]], [[[30.82581917408057, -29.92546799174944], [30.82611426866038, -29.920488941408003], [30.831806756815887, -29.917385800770543], [30.837108702284304, -29.918569948535065], [30.83582497921881, -29.925778357392563], [30.82825627240539, -29.928868289769966], [30.82581917408057, -29.92546799174944]]], [[[30.82481141144065, -29.81114684061314], [30.832271864816615, -29.806474691333346], [30.836045991022704, -29.807722671677567], [30.833665243540693, -29.81408086405195], [30.825058341194943, -29.81316884596885], [30.82481141144065, -29.81114684061314]]], [[[30.791656381624524, -29.760375657759045], [30.796490514018085, -29.7572819706516], [30.80660908775923, -29.75948247133713], [30.807331081126875, -29.75330897881483], [30.809850048235475, -29.752109869482712], [30.817725335808106, -29.759093527088705], [30.813438736948463, -29.76139216369716], [30.808373147722065, -29.760590138913955], [30.803524045422165, -29.766632916910638], [30.797727662867988, -29.76644953043686], [30.791656381624524, -29.760375657759045]]], [[[30.757151242920788, -29.78290382460004], [30.756395404649513, -29.780194886706045], [30.76345260232348, -29.77159612120441], [30.76203604284577, -29.76487925606766], [30.768396011520363, -29.761445286035183], [30.772547955589488, -29.76527533309776], [30.767640121632038, -29.772597242945995], [30.769284531815085, -29.784054942225513], [30.779922404946202, -29.789244791187034], [30.791793189618268, -29.781872947805862], [30.79850306339275, -29.788626164035445], [30.80672069814135, -29.7859743728602], [30.809957679321393, -29.790783744767225], [30.803471680210183, -29.79441322717629], [30.7997266531713, -29.800304357291626], [30.796343647863267, -29.800407500599903], [30.790498420161544, -29.79141350831819], [30.783287070658478, -29.796353791695406], [30.770998844867684, -29.791457603775047], [30.76096388691428, -29.791260585549797], [30.757110685794864, -29.787729699220037], [30.757151242920788, -29.78290382460004]]], [[[30.726624654973236, -29.863297757309443], [30.733195429189642, -29.851916574664948], [30.72831347589688, -29.847967191212884], [30.731553249367916, -29.84180219225784], [30.75037793299261, -29.8496438225351], [30.75473481890242, -29.847505439506573], [30.759105672780525, -29.848752420511065], [30.757150046715985, -29.857148585161436], [30.75127843462786, -29.860602766737706], [30.759520775124578, -29.873629319411833], [30.755397648608284, -29.87977997591478], [30.736816733575182, -29.88023191946518], [30.73144413187273, -29.882413628204354], [30.730382765117632, -29.877542365950237], [30.740174339593633, -29.867490326838556], [30.737502919909716, -29.865598439987266], [30.728471908293315, -29.867818471876433], [30.726624654973236, -29.863297757309443]], [[30.74447637050378, -29.863726837200304], [30.74826452912793, -29.863361797447155], [30.74803248314803, -29.85981917549715], [30.743864558125644, -29.860394380024875], [30.74447637050378, -29.863726837200304]]], [[[30.651214147567362, -29.804270137771553], [30.663394420657408, -29.805939413203703], [30.66365986764545, -29.81006524148602], [30.655378107228643, -29.811004200500868], [30.648913970582385, -29.807492006506635], [30.648984970882037, -29.80445786310949], [30.651214147567362, -29.804270137771553]]], [[[30.57580480815369, -29.830555423145437], [30.58293764170875, -29.791920352325214], [30.586947829217724, -29.787652523483196], [30.599729273143552, -29.78868433111367], [30.60189591531786, -29.78493805603742], [30.60871218228699, -29.78175184552086], [30.6157798348007, -29.78491066157681], [30.646720891129963, -29.787063777186184], [30.64908822869822, -29.78898448543949], [30.64988638254361, -29.797353382907584], [30.64407553857045, -29.799528835617636], [30.643179429339433, -29.804584147405766], [30.633197213837512, -29.80417796719673], [30.629302821056168, -29.807550108399095], [30.61579607908401, -29.80460369859784], [30.607572524575655, -29.809408637103814], [30.601412906972897, -29.809559757192506], [30.594367088159427, -29.825772669947288], [30.58793286871061, -29.827588674344284], [30.583386979476437, -29.83499921654211], [30.579623238940624, -29.835025740130842], [30.57580480815369, -29.830555423145437]], [[30.59849999123879, -29.796482576715793], [30.60087231002246, -29.79940439405288], [30.60477733816296, -29.797320393118337], [30.60486048087285, -29.791590231194316], [30.601567333777687, -29.789192358459005], [30.598075094669255, -29.790639632929018], [30.59849999123879, -29.796482576715793]]], [[[30.614066247639144, -29.68114225446969], [30.62154945079977, -29.671209973988915], [30.61954949504372, -29.66313634241238], [30.626450893248947, -29.657490730452114], [30.627921712532416, -29.6484341707975], [30.631149635381863, -29.64580751633029], [30.636208143334855, -29.64672597312419], [30.638314163478096, -29.65212060981858], [30.63653251142714, -29.658430975997604], [30.644102335641016, -29.66413364408687], [30.644004609288423, -29.67291302126128], [30.63475047909949, -29.680315795979197], [30.646105212915117, -29.682430658415168], [30.647021014216264, -29.690337186736123], [30.634460164678288, -29.69279775872533], [30.62840719230353, -29.686583346210334], [30.614122114898954, -29.68463119671717], [30.614066247639144, -29.68114225446969]]], [[[30.585059280168437, -29.67449586065358], [30.5861228832379, -29.669073130543772], [30.591825541816224, -29.66858629354053], [30.597123095045497, -29.66371301517417], [30.60776099409812, -29.667209910520217], [30.607736028594857, -29.670434635394013], [30.601673334592416, -29.6743079503469], [30.60836058842203, -29.685977634139437], [30.6103393072503, -29.702240262097693], [30.59888163523147, -29.704485710424034], [30.588924422407477, -29.69712238791224], [30.590936693787214, -29.689194397686492], [30.59737061541657, -29.690922623855787], [30.600976484646495, -29.687451409626107], [30.5967311355474, -29.680805570702056], [30.589729026770033, -29.68120368703708], [30.585093588929244, -29.6778959393523], [30.585059280168437, -29.67449586065358]]], [[[30.529988988176935, -29.581020677238687], [30.530924906607666, -29.57648115006316], [30.535708581588402, -29.574007959166092], [30.5539054652501, -29.574250228345807], [30.56188974498116, -29.570164274183053], [30.564086616219793, -29.563783193669913], [30.571860825459446, -29.564599820532706], [30.575058357385178, -29.56594061999573], [30.575990315861524, -29.580099350060483], [30.585879639735307, -29.58590752160775], [30.59281767642815, -29.597530950801673], [30.583558256516593, -29.607120782791434], [30.579551601081953, -29.602683265489105], [30.577854444801723, -29.587571578266296], [30.57359369547303, -29.58482665541673], [30.569031522025334, -29.584648289776915], [30.565701487033078, -29.587566972160587], [30.55022392793478, -29.58306336130997], [30.54482714908675, -29.585623779376256], [30.53135229879277, -29.585384820586157], [30.529988988176935, -29.581020677238687]]], [[[30.563937315176656, -29.63558485087704], [30.571347941130227, -29.62658922590291], [30.571494115342198, -29.62247895245924], [30.57719870385535, -29.62268088854486], [30.580038863735464, -29.620191427967697], [30.583635336792838, -29.622818234247934], [30.589474176900364, -29.62224834654735], [30.58944647642817, -29.626820824639154], [30.5837486856821, -29.63318098929321], [30.578455848591705, -29.630997127005553], [30.57558552252666, -29.63256990699646], [30.57557793356961, -29.640011401087367], [30.564209379969103, -29.63833286705125], [30.563937315176656, -29.63558485087704]]], [[[30.570132429573484, -29.708125608166437], [30.578520744348324, -29.700391494103307], [30.583151767169717, -29.702267715302135], [30.58497431451497, -29.70588484006889], [30.57981207216799, -29.72099348292445], [30.573340676944177, -29.71912211468636], [30.570132429573484, -29.708125608166437]]], [[[30.52426600581906, -29.73011182315469], [30.523659972997432, -29.727429802195967], [30.528418235667914, -29.725014670725244], [30.530375106776464, -29.72030563733886], [30.537658166550088, -29.723838553813284], [30.538479351076443, -29.729061616070506], [30.535356482482314, -29.730998689587057], [30.52426600581906, -29.73011182315469]]], [[[30.498194237977373, -29.726049428650743], [30.499597712005663, -29.721981511667533], [30.50564385191639, -29.72454832063488], [30.50733225831097, -29.732595070125782], [30.498194237977373, -29.726049428650743]]], [[[30.46542508473167, -29.687289450768475], [30.466712038224205, -29.6837433913977], [30.47187403522176, -29.68291205008198], [30.476757895518585, -29.686413601459698], [30.476816967576347, -29.689302479353284], [30.46863513727621, -29.692831427909248], [30.46542508473167, -29.687289450768475]]], [[[30.40644808453792, -29.622535460065485], [30.412472189310535, -29.61165151387583], [30.420942999023225, -29.6218040897944], [30.425264359472063, -29.62087896373881], [30.425851330547456, -29.613982955914118], [30.42915236010295, -29.6112237622567], [30.448703028722342, -29.614497676379447], [30.447273068115518, -29.621422142200814], [30.429414002078207, -29.62602234909053], [30.42789356049041, -29.629663269189184], [30.43232346040123, -29.63451358656235], [30.425290704597334, -29.641144160558753], [30.416628642543426, -29.638454067122108], [30.40644808453792, -29.622535460065485]]], [[[30.414098834005372, -29.554740788775497], [30.41337847881709, -29.549093003626133], [30.416745273374485, -29.54708466360656], [30.41807084268335, -29.53979449764861], [30.421946456122242, -29.53345683465248], [30.42692861329687, -29.53179130740172], [30.4329840983706, -29.535392547754242], [30.433508175908432, -29.542624380544954], [30.4447917696733, -29.547716575500882], [30.446729897548938, -29.55282048866799], [30.44620392204635, -29.555948678095405], [30.43883514334449, -29.558964588589863], [30.42893244938245, -29.55848812648573], [30.42679523997429, -29.562424684645055], [30.42154743649068, -29.563869944593442], [30.422480816575042, -29.56739389338602], [30.431937062649176, -29.57300109979319], [30.433214157255634, -29.576975711297738], [30.444173657529625, -29.577089766031005], [30.445070413137316, -29.58174029625976], [30.438883686648843, -29.587171600781883], [30.447556853019982, -29.590796986416066], [30.442449505069632, -29.593687989793676], [30.43632897673765, -29.593224759626846], [30.434707834007263, -29.598020220524337], [30.425860532265876, -29.59905281230358], [30.422725545146864, -29.603340825399318], [30.413836460625983, -29.600253190479556], [30.41721458286965, -29.594065105344587], [30.413356087240317, -29.584534706683623], [30.41860553368126, -29.581221874426284], [30.420250140731152, -29.572922302820185], [30.41729733457146, -29.567735408607838], [30.421503707995555, -29.563338720165948], [30.414098834005372, -29.554740788775497]]]]}}, {"type": "Feature", "properties": {"threshold": 80}, "geometry": {"type": "MultiPolygon", "coordinates": [[[[30.93157344846582, -29.514677997337714], [30.938256373746327, -29.509915998472195], [30.96171157804872, -29.507965818758183], [30.96326932331654, -29.516771601814668], [30.96719223368409, -29.517609143396466], [30.97182326525465, -29.515020420466588], [30.975222716616692, -29.51695758519543], [30.975166454433545, -29.52531265138503], [30.96065716590818, -29.527535879169115], [30.957273753023937, -29.519504234165456], [30.953286804092976, -29.518295379226704], [30.95028488878923, -29.525221467041074], [30.95836858130253, -29.52946828362068], [30.957347962907257, -29.533587903350917], [30.95393969466057, -29.535547039102642], [30.94950773095737, -29.53324277073812], [30.944805373079223, -29.534606046603372], [30.939085491026407, -29.527069853563827], [30.93973851630738, -29.518763382504456], [30.932643364551833, -29.518176475687966], [30.93157344846582, -29.514677997337714]]], [[[30.933398394997226, -29.669321505847623], [30.933227495341928, -29.666300323440275], [30.94497741525186, -29.664887100789503], [30.95940048748483, -29.66668063313782], [30.959795981754898, -29.676121251432566], [30.957470253334485, -29.678883775014434], [30.952467103622368, -29.6788319163015], [30.937405904629642, -29.67391693510323], [30.933398394997226, -29.669321505847623]]], [[[30.85256981473253, -29.906058960308826], [30.860928622290885, -29.901185668792504], [30.85288201409885, -29.893277777095914], [30.856224828678187, -29.88469418021058], [30.866283058479006, -29.89203130687806], [30.876467618144815, -29.889760963916316], [30.882411160718895, -29.903360358087717], [30.89780836804017, -29.903802810660643], [30.908830789744556, -29.907044171311306], [30.913270995904792, -29.904861849903167], [30.91849553223911, -29.89284917890303], [30.924842022396707, -29.88987756625485], [30.92256628715395, -29.886018498245765], [30.917287418438704, -29.88634602330796], [30.912511533017586, -29.882940508265147], [30.91358731425491, -29.87653338057427], [30.927575906549674, -29.875762091303926], [30.942373276248443, -29.87954639418449], [30.938587504093707, -29.891633898900263], [30.933283782843773, -29.896312019475175], [30.937481253691804, -29.90240494075149], [30.9267665036961, -29.913511698271513], [30.928826851714867, -29.918985669382735], [30.936195578433743, -29.924288418375255], [30.935988512819282, -29.927943904879434], [30.93021705383085, -29.931218537696523], [30.923770086468657, -29.929754596907735], [30.905848659894804, -29.933970623208406], [30.883437158132207, -29.926179655611072], [30.87875552830529, -29.93044389174401], [30.86817539364631, -29.926794383457143], [30.859772794872434, -29.92934807372922], [30.854105077440693, -29.918726619213118], [30.85256981473253, -29.906058960308826]], [[30.862221430790054, -29.903580614926522], [30.871341175271176, -29.904054689694043], [30.87351665491504, -29.90112129257814], [30.86758654027329, -29.897308061684633], [30.86169132235536, -29.90026025928876], [30.862221430790054, -29.903580614926522]]], [[[30.91070343006154, -29.748190525372014], [30.9111056253098, -29.74390068381457], [30.915668315844727, -29.744698377094345], [30.92392456997683, -29.751135708909548], [30.922760553636465, -29.755122218439585], [30.91100561948936, -29.752066487008424], [30.91070343006154, -29.748190525372014]]], [[[30.92560492031764, -29.750610789863785], [30.92808611976581, -29.74482251091796], [30.933173224313084, -29.744902094355893], [30.9353589335065, -29.747663600993228], [30.931236123857058, -29.75322604234191], [30.92560492031764, -29.750610789863785]]], [[[30.913077731225204, -29.718415348175036], [30.915208783979185, -29.707913824777066], [30.918386011930092, -29.705343813410053], [30.922641587862724, -29.706277610487867], [30.923784888618027, -29.712403505910682], [30.920736866141933, -29.720548226941755], [30.92445548396873, -29.72722620749898], [30.93128902719628, -29.72903725157943], [30.930123322011717, -29.73531817603944], [30.92459736093189, -29.73532709586292], [30.922655353015706, -29.729941056701787], [30.915798470498434, -29.727387219647312], [30.915995810875547, -29.72173605443103], [30.913077731225204, -29.718415348175036]]], [[[30.912444031306492, -29.83396172546533], [30.920858134244952, -29.831819393013966], [30.922837571333027, -29.839054422868767], [30.91455475181165, -29.840009646607076], [30.912444031306492, -29.83396172546533]]], [[[30.89229630754287, -29.867581425223808], [30.891669053593894, -29.86243069682145], [30.897256725977147, -29.861498691794175], [30.900007447933604, -29.86757970076239], [30.906229469364874, -29.870368436421074], [30.906176955557605, -29.875009061910777], [30.896107048820536, -29.876705231636308], [30.89229630754287, -29.867581425223808]]], [[[30.897627269764858, -29.84532728223345], [30.904136262799405, -29.8457409115747], [30.90272448830598, -29.853692897019858], [30.89716933508248, -29.85097753409344], [30.897627269764858, -29.84532728223345]]], [[[30.7665977777948, -29.854733750008865], [30.772430890519967, -29.853325805189783], [30.774954510046705, -29.848629457360627], [30.784526428380886, -29.851445661255024], [30.78591306362131, -29.845352025137686], [30.790708418229702, -29.843363707762688], [30.79240855713274, -29.838344767592478], [30.800541489755787, -29.837598756942384], [30.806085397473826, -29.832241781320555], [30.81125391090942, -29.832359776079812], [30.81754235317671, -29.837221518546357], [30.817322074534225, -29.8436424422671], [30.82023556859106, -29.846980518744587], [30.819108858951477, -29.854301346088633], [30.810669995259513, -29.852063775249825], [30.809385512850405, -29.844954039781477], [30.80035314980615, -29.842994950454553], [30.79781798577623, -29.8449223972916], [30.798873649089884, -29.850847919217113], [30.793174784186647, -29.857216943837106], [30.787763883194422, -29.857980529103656], [30.784449275540926, -29.852679067978602], [30.781160557335472, -29.855031222225872], [30.782801551740242, -29.86517156346474], [30.799015384168428, -29.862946729526563], [30.80783421719412, -29.876057309587058], [30.814975974479662, -29.878906113394425], [30.816728392984302, -29.88567600263042], [30.81177325197564, -29.889214413091608], [30.81355780906623, -29.898345630217012], [30.792964781365974, -29.893379199735914], [30.794334265375564, -29.8807261712846], [30.774794432597744, -29.8753510691694], [30.774338715576068, -29.867968007317742], [30.7660626537247, -29.86185498210281], [30.7665977777948, -29.854733750008865]]], [[[30.820339265675482, -29.85598299138494], [30.827711035610914, -29.85742411921595], [30.832052032632312, -29.86710930985112], [30.84632226164035, -29.871105441118207], [30.851555578919125, -29.86802218898815], [30.847391533542716, -29.85913534702586], [30.84977018617271, -29.85373107468354], [30.84562628852896, -29.84543232082178], [30.834518108149748, -29.84120151843819], [30.837489765795404, -29.833042650166764], [30.842694184334402, -29.82993557449332], [30.83677104690092, -29.821604959597426], [30.842518888784955, -29.81596035297768], [30.84772740973447, -29.815067955727898], [30.851048291285057, -29.808157148922604], [30.848871474409663, -29.802906494328692], [30.844270530211656, -29.800222269264957], [30.849861069567574, -29.796719177680135], [30.858061019366563, -29.80409548896238], [30.861426364177817, -29.802743283213506], [30.863229390723905, -29.797802961217055], [30.874149844867876, -29.794719170438814], [30.8754745738028, -29.78832732012382], [30.880145899875888, -29.78630977307428], [30.88154460388302, -29.781606831005806], [30.87818282586821, -29.777421711880958], [30.868072608125857, -29.774454257332252], [30.867019038884433, -29.77046755567718], [30.869570428206963, -29.767726639777557], [30.88778566222083, -29.76891519766032], [30.891547219828958, -29.77647376092925], [30.88878722228427, -29.78717339021203], [30.89553350188938, -29.794042430865385], [30.897929132903947, -29.80622714891955], [30.892104306572794, -29.804842245500478], [30.889610387594097, -29.799004939300055], [30.880806629252255, -29.798734234431866], [30.876025100178065, -29.80197157357724], [30.87556944133161, -29.806939762348275], [30.868904024276123, -29.80677824265394], [30.866585232576067, -29.809482234419708], [30.868687753469537, -29.8130954274493], [30.867038309076513, -29.822281773137473], [30.871823309056293, -29.825124066855388], [30.877349930479465, -29.837984068970055], [30.881259160999146, -29.840752181385728], [30.882902914511032, -29.84662808956663], [30.888990175697288, -29.84928787824365], [30.8889235846787, -29.852451711971998], [30.886470797538905, -29.854291167368583], [30.87949941473728, -29.851598772295006], [30.872089917632987, -29.85327844940598], [30.867025135394176, -29.847393203483794], [30.8598920398254, -29.846588424376737], [30.858858233865035, -29.850486757238762], [30.8537127164444, -29.853489538190434], [30.858901394991886, -29.857630920460895], [30.858715567259928, -29.863391039753733], [30.85422782404513, -29.867149065161556], [30.85666796693162, -29.876457623050857], [30.851153223867236, -29.87757939168737], [30.846305582526195, -29.873752789095256], [30.83606500321681, -29.87898434825988], [30.840495676330093, -29.890690723224424], [30.837151514770895, -29.892655883013642], [30.83667235269746, -29.89783996596672], [30.83153187246185, -29.90117533269413], [30.82742247140709, -29.90098198731363], [30.823605892887638, -29.896577613188537], [30.824895895325266, -29.87963381658983], [30.818777075483222, -29.874076859265372], [30.821269474712896, -29.86703847775709], [30.818995004620476, -29.864063072824326], [30.820339265675482, -29.85598299138494]]], [[[30.86164312389835, -29.77260085354048], [30.860180934214462, -29.775951549354986], [30.85011752663707, -29.77778482196097], [30.855047373643966, -29.77066113630512], [30.86014990779499, -29.76991563590478], [30.86164312389835, -29.77260085354048]]], [[[30.881934894609227, -29.825945759756564], [30.883982260336644, -29.822757112865247], [30.889151929333895, -29.82280762732989], [30.890377382904678, -29.829224528914647], [30.8838687715089, -29.83184768303447], [30.881934894609227, -29.825945759756564]]], [[[30.870709386551084, -29.864160409731195], [30.873543453585725, -29.86031590305534], [30.881755310899845, -29.86086350199452], [30.875840628611087, -29.867165685553427], [30.870580413618285, -29.867780527714192], [30.870709386551084, -29.864160409731195]]], [[[30.845599712697158, -29.71580084998402], [30.856162687715937, -29.71208210987126], [30.857352389364486, -29.720039903051855], [30.84563734065135, -29.71872406428618], [30.845599712697158, -29.71580084998402]]], [[[30.839792395617696, -29.682853445615933], [30.839068151626133, -29.679661578050553], [30.84526701271663, -29.67718482355235], [30.851965939445048, -29.685131836916817], [30.84825642126533, -29.68644547431724], [30.839792395617696, -29.682853445615933]]], [[[30.82581917408057, -29.92546799174944], [30.82611426866038, -29.920488941408003], [30.831806756815887, -29.917385800770543], [30.837108702284304, -29.918569948535065], [30.83582497921881, -29.925778357392563], [30.82825627240539, -29.928868289769966], [30.82581917408057, -29.92546799174944]]], [[[30.823886127741904, -29.809620702235897], [30.829256874049562, -29.807145838633314], [30.834158642710747, -29.800502238702737], [30.83787885075511, -29.80467036466992], [30.833665243540693, -29.81408086405195], [30.82498095998523, -29.813135356785185], [30.823886127741904, -29.809620702235897]]], [[[30.8341969792698, -29.799838290940347], [30.82847684900629, -29.794171675903222], [30.828619689165464, -29.789877520846556], [30.831970045223105, -29.787161571434485], [30.839973782591112, -29.791748789935642], [30.8341969792698, -29.799838290940347]]], [[[30.792008269606907, -29.759515155949686], [30.810905250006197, -29.75212734000509], [30.819404324557, -29.763124635017455], [30.81605444966449, -29.76681113156312], [30.80730553045723, -29.764403221125253], [30.80068607112118, -29.767356311895327], [30.79593568338576, -29.762933216698347], [30.791427541000804, -29.76235735983185], [30.792008269606907, -29.759515155949686]]], [[[30.80788020932899, -29.693784521124105], [30.811018627002046, -29.690512094926618], [30.816154611587663, -29.691463818978093], [30.816240783167054, -29.698694885521377], [30.810588567348503, -29.699583954024725], [30.80788020932899, -29.693784521124105]]], [[[30.75724116451753, -29.778871319677105], [30.762498918465244, -29.772292390096542], [30.76209159341399, -29.764041520864758], [30.768310867745644, -29.761432793460997], [30.772536937716122, -29.765200616726354], [30.767650586787642, -29.773087066405935], [30.7696574383223, -29.78177320178251], [30.772999700803318, -29.784322021103105], [30.781095450492206, -29.787679101957767], [30.79085883902401, -29.78030513869277], [30.793663510545052, -29.784602644300588], [30.802500447266404, -29.78691035781754], [30.811151472700196, -29.781413325383742], [30.812705098631554, -29.78690184351171], [30.79979174797752, -29.800254841733206], [30.796428829426116, -29.800419976965983], [30.790498420161544, -29.79141350831819], [30.782386930941605, -29.797109253177958], [30.776103321912405, -29.79371258438846], [30.77157003739754, -29.794554340267982], [30.766890827721507, -29.790845437623275], [30.76089068546098, -29.791220609680227], [30.757083178702434, -29.787658291014488], [30.75724116451753, -29.778871319677105]]], [[[30.72072932474732, -29.878786219668356], [30.723077071950936, -29.875484292469647], [30.732099414992714, -29.876741990792922], [30.736705849248768, -29.870226119991674], [30.735224776246554, -29.867102889487807], [30.727671574829472, -29.86782299716852], [30.726144625564576, -29.86565237921938], [30.733083775836295, -29.852070684879646], [30.727447360618864, -29.84718173474146], [30.731342716067612, -29.841932789576784], [30.75062064255804, -29.849699251313233], [30.75897301838908, -29.84779864321703], [30.754589629252195, -29.860265881502052], [30.75947675322675, -29.876165265894148], [30.75378869713654, -29.88193002107974], [30.72650604629306, -29.883995380656774], [30.721572776743912, -29.882918536478556], [30.72072932474732, -29.878786219668356]]], [[[30.574727446557024, -29.838815881789394], [30.575004243830243, -29.827292843257332], [30.585292912140194, -29.78299921734887], [30.589651632656604, -29.783007842502435], [30.592258240802057, -29.787391229935217], [30.599230695773333, -29.788773854092483], [30.60886327799217, -29.78176106392991], [30.61605396455421, -29.78495379439965], [30.64688935792443, -29.78709613889841], [30.65179065364721, -29.794519894437588], [30.656085804347537, -29.791093933195107], [30.663126778193448, -29.793086168050845], [30.663517460421073, -29.801799811953536], [30.651316006402592, -29.796902896370483], [30.64477529595258, -29.799319115524238], [30.642943736219244, -29.804676270867283], [30.633197213837512, -29.80417796719673], [30.629302821056168, -29.807550108399095], [30.61579607908401, -29.80460369859784], [30.607572524575655, -29.809408637103814], [30.59997044712276, -29.81024872099332], [30.6006698202606, -29.81901735144137], [30.593241940824903, -29.826754232565495], [30.5877636837719, -29.827760935112686], [30.580606910512074, -29.840341838576855], [30.574727446557024, -29.838815881789394]], [[30.59849999123879, -29.796482576715793], [30.60087231002246, -29.79940439405288], [30.60477733816296, -29.797320393118337], [30.60486048087285, -29.791590231194316], [30.601567333777687, -29.789192358459005], [30.598075094669255, -29.790639632929018], [30.59849999123879, -29.796482576715793]]], [[[30.648743976587273, -29.80459781625994], [30.66345463497314, -29.80450164119863], [30.664670801087727, -29.808329920729925], [30.657367918511806, -29.81188593952092], [30.649063568402866, -29.807675633297706], [30.648743976587273, -29.80459781625994]]], [[[30.570854718003545, -29.706231123709156], [30.57493059513259, -29.70195595222657], [30.57583995339249, -29.695802934586403], [30.586815596371967, -29.69727398769752], [30.590486063409955, -29.692948883166654], [30.589863809167262, -29.68656039998748], [30.592438127453498, -29.682821639182922], [30.584788915332254, -29.677372167532532], [30.587092694753107, -29.662982429059216], [30.594223148550554, -29.66516667540494], [30.6121240520479, -29.6641000810599], [30.61309532164847, -29.673506515828254], [30.60372922211565, -29.67595152153962], [30.610016318391448, -29.691474314912483], [30.61046367441196, -29.7021360850125], [30.60010449459116, -29.704537248948178], [30.59429208044626, -29.701873611496545], [30.58824759130823, -29.70326695910207], [30.582349578250774, -29.710357670518217], [30.582053871201573, -29.72116015605058], [30.572458339634355, -29.719105930946327], [30.570854718003545, -29.706231123709156]]], [[[30.617492415058422, -29.675258061800463], [30.620744811352342, -29.67026864750627], [30.615412255862037, -29.66597363116806], [30.625542703772457, -29.65769022432535], [30.62802033228481, -29.64831079531466], [30.631233696647783, -29.64579071181568], [30.636208143334855, -29.64672597312419], [30.64004452119014, -29.6527154502095], [30.6393068359229, -29.660448183488008], [30.64419518134949, -29.664421958642684], [30.643957058966556, -29.673191789567174], [30.63920311718659, -29.67879116508222], [30.646274528140122, -29.682600608084194], [30.647021014216264, -29.690337186736123], [30.632828049523052, -29.694339020417335], [30.632476670236077, -29.690092049235258], [30.62891677029986, -29.68728458161781], [30.61766891310529, -29.687045380710245], [30.613744748050483, -29.683929295713593], [30.617492415058422, -29.675258061800463]]], [[[30.56214872154096, -29.632970501107142], [30.567102754166637, -29.63223767170477], [30.571077479096108, -29.626511189616977], [30.571887812215703, -29.612398395823327], [30.575422476843347, -29.612578893910324], [30.58225980139887, -29.61995899423007], [30.592178376402494, -29.62320074475468], [30.592052633514186, -29.62693629358335], [30.584603465419555, -29.63159464938151], [30.58293378467387, -29.63762235297318], [30.57792673368576, -29.638698404762312], [30.575368970045055, -29.642390095216577], [30.56052028206552, -29.635837635573637], [30.56214872154096, -29.632970501107142]]], [[[30.529988988176935, -29.581020677238687], [30.530977699472622, -29.576421617425673], [30.537568039184183, -29.573239740534145], [30.54452170525083, -29.57557166790727], [30.55985909633242, -29.571736762632078], [30.564240076957805, -29.56371506283556], [30.574485387222545, -29.56541833180606], [30.576101810215235, -29.57661729988475], [30.59037682554868, -29.58772358072562], [30.592931522942685, -29.594152768002836], [30.591863161749696, -29.60059575603679], [30.58340058153898, -29.607060314816863], [30.574465147912978, -29.595202381554028], [30.56515225119603, -29.59281839643096], [30.563447261505967, -29.588315076089938], [30.55578386261059, -29.583573724425314], [30.550244143019377, -29.58413776711838], [30.548484435922905, -29.590238622775473], [30.535421396411028, -29.592365751091744], [30.53056362853752, -29.587981972194765], [30.529988988176935, -29.581020677238687]]], [[[30.52346926449805, -29.730960734945675], [30.52272010317006, -29.72825081277752], [30.528708127118534, -29.719471800062884], [30.541204034813916, -29.72474310818306], [30.540572209078366, -29.731127970471096], [30.52346926449805, -29.730960734945675]]], [[[30.498095975248525, -29.726168597084584], [30.500127201107166, -29.721221023134518], [30.505812982234268, -29.7247184394645], [30.508332563436554, -29.731718286655813], [30.50184049226761, -29.731911008989012], [30.498095975248525, -29.726168597084584]]], [[[30.464785928471102, -29.685564846890312], [30.465172225744844, -29.683598101510853], [30.47203779125005, -29.682958862909228], [30.475957139775524, -29.68492198030671], [30.476744107510832, -29.690215595625702], [30.468471366710197, -29.6927846098655], [30.464785928471102, -29.685564846890312]]], [[[30.40644808453792, -29.622535460065485], [30.412388131555698, -29.61166817911771], [30.4159698613415, -29.61358710577173], [30.419349440928723, -29.62110720786282], [30.42283815284755, -29.62195216146382], [30.429070579497903, -29.611247557423635], [30.449604068737003, -29.61290095217036], [30.447343422604693, -29.62137861779685], [30.429414002078207, -29.62602234909053], [30.42789356049041, -29.629663269189184], [30.43232346040123, -29.63451358656235], [30.425374785934057, -29.641127488534615], [30.415766791233068, -29.637666789978763], [30.40644808453792, -29.622535460065485]]], [[[30.406251407053972, -29.594066560744977], [30.408142282303857, -29.584991321377693], [30.417976902108826, -29.58214339739743], [30.420232894033234, -29.57360028726335], [30.41729733457146, -29.567735408607838], [30.421439080945404, -29.5628892451112], [30.414195631773538, -29.5550139588573], [30.41340126547514, -29.54902036713504], [30.416745273374485, -29.54708466360656], [30.420953765311676, -29.533553897539488], [30.42814918397569, -29.53184430623524], [30.433038657040907, -29.534691217055993], [30.433678055526155, -29.542795738585372], [30.447661268741506, -29.550826459785842], [30.446278770622897, -29.555911385831838], [30.43883514334449, -29.558964588589863], [30.428690665898092, -29.55857025007592], [30.421363313960434, -29.565384409325592], [30.431880626565817, -29.572944185727746], [30.433433678650296, -29.57709657409075], [30.444173657529625, -29.577089766031005], [30.445070413137316, -29.58174029625976], [30.438883686648843, -29.587171600781883], [30.446246333598722, -29.58926748095997], [30.447492282078493, -29.59173234250155], [30.43655443329237, -29.593112499522263], [30.434707834007263, -29.598020220524337], [30.425860532265876, -29.59905281230358], [30.422640030311804, -29.6033502179805], [30.40896925388994, -29.59833531249781], [30.406251407053972, -29.594066560744977]]]]}}, {"type": "Feature", "properties": {"threshold": 90}, "geometry": {"type": "MultiPolygon", "coordinates": [[[[30.930741587278717, -29.514619743506994], [30.956336443899016, -29.504000723765394], [30.963045628663185, -29.509065102321124], [30.96529857849079, -29.51503717895741], [30.979151357185764, -29.51283765207538], [30.983253282143075, -29.51912283936537], [30.97916636061572, -29.524286545870815], [30.959382749924117, -29.52989135683546], [30.955119146587105, -29.537019502599936], [30.94403022822262, -29.537705953964277], [30.941227780352698, -29.53092358681662], [30.937339831760426, -29.529493730959295], [30.93689923343378, -29.523987343989138], [30.932195469778918, -29.522478082856054], [30.930741587278717, -29.514619743506994]], [[30.95779005764547, -29.521384767244168], [30.95260318438484, -29.521253870935322], [30.95167301023119, -29.524448649007287], [30.957097622315693, -29.526335575628135], [30.95779005764547, -29.521384767244168]]], [[[30.952996517845964, -29.556444672940216], [30.95527868872544, -29.55381149704687], [30.953750382414675, -29.545977547990923], [30.95854065143486, -29.541150958771944], [30.96386348641712, -29.54042327704223], [30.966874172185996, -29.54507503071045], [30.962432480312323, -29.549185550605493], [30.968411528230824, -29.553206470490224], [30.967357024898668, -29.560011239541307], [30.95311810083505, -29.55939469831076], [30.952996517845964, -29.556444672940216]]], [[[30.933398394997226, -29.669321505847623], [30.93282727268532, -29.666576878490986], [30.94108402815778, -29.6596029074664], [30.94630976140277, -29.659542773377897], [30.947367467888924, -29.6649381155658], [30.959869926085815, -29.666996048762787], [30.95978042207887, -29.676891635295966], [30.952467103622368, -29.6788319163015], [30.937405904629642, -29.67391693510323], [30.933398394997226, -29.669321505847623]]], [[[30.85256981473253, -29.906058960308826], [30.860928622290885, -29.901185668792504], [30.85288201409885, -29.893277777095914], [30.856224828678187, -29.88469418021058], [30.866283058479006, -29.89203130687806], [30.876467618144815, -29.889760963916316], [30.882411160718895, -29.903360358087717], [30.89780836804017, -29.903802810660643], [30.908830789744556, -29.907044171311306], [30.913270995904792, -29.904861849903167], [30.91849553223911, -29.89284917890303], [30.924842022396707, -29.88987756625485], [30.92256628715395, -29.886018498245765], [30.917287418438704, -29.88634602330796], [30.912511533017586, -29.882940508265147], [30.91358731425491, -29.87653338057427], [30.927575906549674, -29.875762091303926], [30.942373276248443, -29.87954639418449], [30.938587504093707, -29.891633898900263], [30.933283782843773, -29.896312019475175], [30.937481253691804, -29.90240494075149], [30.9267665036961, -29.913511698271513], [30.928826851714867, -29.918985669382735], [30.936195578433743, -29.924288418375255], [30.935988512819282, -29.927943904879434], [30.93021705383085, -29.931218537696523], [30.923770086468657, -29.929754596907735], [30.905848659894804, -29.933970623208406], [30.883437158132207, -29.926179655611072], [30.87875552830529, -29.93044389174401], [30.867813589735146, -29.927005675706493], [30.859772794872434, -29.92934807372922], [30.854105077440693, -29.918726619213118], [30.85256981473253, -29.906058960308826]], [[30.862221430790054, -29.903580614926522], [30.871341175271176, -29.904054689694043], [30.87351665491504, -29.90112129257814], [30.86758654027329, -29.897308061684633], [30.86169132235536, -29.90026025928876], [30.862221430790054, -29.903580614926522]]], [[[30.91070343006154, -29.748190525372014], [30.9111056253098, -29.74390068381457], [30.915668315844727, -29.744698377094345], [30.92392456997683, -29.751135708909548], [30.92274466090794, -29.755892575084964], [30.91100561948936, -29.752066487008424], [30.91070343006154, -29.748190525372014]]], [[[30.92560492031764, -29.750610789863785], [30.92808611976581, -29.74482251091796], [30.933173224313084, -29.744902094355893], [30.9353589335065, -29.747663600993228], [30.931236123857058, -29.75322604234191], [30.92560492031764, -29.750610789863785]]], [[[30.913077731225204, -29.718415348175036], [30.912312828500543, -29.713539226015026], [30.91612305698718, -29.706387001181497], [30.922641587862724, -29.706277610487867], [30.923784888618027, -29.712403505910682], [30.920736866141933, -29.720548226941755], [30.92445548396873, -29.72722620749898], [30.93128902719628, -29.72903725157943], [30.930123322011717, -29.73531817603944], [30.92459736093189, -29.73532709586292], [30.922655353015706, -29.729941056701787], [30.915798470498434, -29.727387219647312], [30.915995810875547, -29.72173605443103], [30.913077731225204, -29.718415348175036]]], [[[30.912444031306492, -29.83396172546533], [30.920858134244952, -29.831819393013966], [30.922837571333027, -29.839054422868767], [30.914538741487494, -29.840779989276836], [30.912444031306492, -29.83396172546533]]], [[[30.89229630754287, -29.867581425223808], [30.891669053593894, -29.86243069682145], [30.897256725977147, -29.861498691794175], [30.900007447933604, -29.86757970076239], [30.906229469364874, -29.870368436421074], [30.906176955557605, -29.875009061910777], [30.896107048820536, -29.876705231636308], [30.89229630754287, -29.867581425223808]]], [[[30.7665977777948, -29.854733750008865], [30.772430890519967, -29.853325805189783], [30.774954510046705, -29.848629457360627], [30.784526428380886, -29.851445661255024], [30.78591306362131, -29.845352025137686], [30.790708418229702, -29.843363707762688], [30.79240855713274, -29.838344767592478], [30.800541489755787, -29.837598756942384], [30.806085397473826, -29.832241781320555], [30.81125391090942, -29.832359776079812], [30.81754235317671, -29.837221518546357], [30.817322074534225, -29.8436424422671], [30.82023556859106, -29.846980518744587], [30.819108858951477, -29.854301346088633], [30.810669995259513, -29.852063775249825], [30.809385512850405, -29.844954039781477], [30.80035314980615, -29.842994950454553], [30.79781798577623, -29.8449223972916], [30.798873649089884, -29.850847919217113], [30.793174784186647, -29.857216943837106], [30.787763883194422, -29.857980529103656], [30.784449275540926, -29.852679067978602], [30.781160557335472, -29.855031222225872], [30.782801551740242, -29.86517156346474], [30.799015384168428, -29.862946729526563], [30.80783421719412, -29.876057309587058], [30.814975974479662, -29.878906113394425], [30.816753015197914, -29.885469874909656], [30.81280293103274, -29.88893778585696], [30.81355780906623, -29.898345630217012], [30.792964781365974, -29.893379199735914], [30.794334265375564, -29.8807261712846], [30.78781361585159, -29.87739513803469], [30.7770423185861, -29.877921815165163], [30.774777325626445, -29.876121336977857], [30.774338715576068, -29.867968007317742], [30.766035123449022, -29.861783575262322], [30.7665977777948, -29.854733750008865]]], [[[30.820339265675482, -29.85598299138494], [30.827711035610914, -29.85742411921595], [30.832052032632312, -29.86710930985112], [30.84632226164035, -29.871105441118207], [30.851555578919125, -29.86802218898815], [30.847391533542716, -29.85913534702586], [30.84977018617271, -29.85373107468354], [30.84562628852896, -29.84543232082178], [30.834518108149748, -29.84120151843819], [30.834671958594747, -29.836982088991338], [30.841812918447452, -29.82793219862074], [30.83677104690092, -29.821604959597426], [30.851048291285057, -29.808157148922604], [30.844270530211656, -29.800222269264957], [30.849861069567574, -29.796719177680135], [30.858061019366563, -29.80409548896238], [30.861426364177817, -29.802743283213506], [30.863229390723905, -29.797802961217055], [30.874149844867876, -29.794719170438814], [30.8754745738028, -29.78832732012382], [30.880145899875888, -29.78630977307428], [30.88154460388302, -29.781606831005806], [30.87818282586821, -29.777421711880958], [30.868072608125857, -29.774454257332252], [30.867019038884433, -29.77046755567718], [30.869570428206963, -29.767726639777557], [30.88778566222083, -29.76891519766032], [30.891547219828958, -29.77647376092925], [30.88878722228427, -29.78717339021203], [30.89553350188938, -29.794042430865385], [30.89879632377293, -29.807011539501758], [30.892235669930525, -29.80493982781528], [30.88667944141929, -29.799118841885853], [30.880806629252255, -29.798734234431866], [30.876025100178065, -29.80197157357724], [30.87556944133161, -29.806939762348275], [30.868904024276123, -29.80677824265394], [30.866585232576067, -29.809482234419708], [30.869538421028984, -29.81465032473831], [30.867038309076513, -29.822281773137473], [30.871823309056293, -29.825124066855388], [30.877349930479465, -29.837984068970055], [30.881259160999146, -29.840752181385728], [30.882902914511032, -29.84662808956663], [30.888990175697288, -29.84928787824365], [30.8889235846787, -29.852451711971998], [30.886470797538905, -29.854291167368583], [30.87949941473728, -29.851598772295006], [30.872089917632987, -29.85327844940598], [30.867025135394176, -29.847393203483794], [30.8598920398254, -29.846588424376737], [30.85457660694797, -29.853669614188142], [30.858901394991886, -29.857630920460895], [30.858715567259928, -29.863391039753733], [30.85422782404513, -29.867149065161556], [30.85666796693162, -29.876457623050857], [30.851153223867236, -29.87757939168737], [30.846305582526195, -29.873752789095256], [30.83606500321681, -29.87898434825988], [30.84050996637754, -29.890616425537292], [30.837151514770895, -29.892655883013642], [30.836655705794332, -29.89861026312717], [30.83241597053289, -29.90118986981271], [30.827495779010505, -29.90102193098006], [30.82362530847771, -29.896651021957208], [30.824895895325266, -29.87963381658983], [30.818777075483222, -29.874076859265372], [30.821269474712896, -29.86703847775709], [30.818995004620476, -29.864063072824326], [30.820339265675482, -29.85598299138494]]], [[[30.86164312389835, -29.77260085354048], [30.857573971738294, -29.77741176198896], [30.850713466240887, -29.77818562060247], [30.846657795930973, -29.770281513845006], [30.860066548255812, -29.769895978441625], [30.86164312389835, -29.77260085354048]]], [[[30.881934894609227, -29.825945759756564], [30.883982260336644, -29.822757112865247], [30.88937106159924, -29.822926967412595], [30.889308421554585, -29.83171248060411], [30.88364962752195, -29.83172833324418], [30.881934894609227, -29.825945759756564]]], [[[30.869326902593343, -29.86701718410502], [30.873389710779257, -29.860384377613848], [30.88167674089518, -29.860729498809107], [30.877778337179144, -29.866355330334592], [30.872020785123063, -29.868700047483543], [30.869326902593343, -29.86701718410502]]], [[[30.845599712697158, -29.71580084998402], [30.856162687715937, -29.71208210987126], [30.857352389364486, -29.720039903051855], [30.84563734065135, -29.71872406428618], [30.845599712697158, -29.71580084998402]]], [[[30.838124942966637, -29.682722915981536], [30.840924522599224, -29.67809483608365], [30.84526701271663, -29.67718482355235], [30.851846007557448, -29.682181221574584], [30.851965939445048, -29.685131836916817], [30.84204795529413, -29.68788563893095], [30.838124942966637, -29.682722915981536]]], [[[30.812582137050835, -29.8025121594901], [30.813585173380854, -29.799398010997635], [30.818033253667174, -29.797738574520878], [30.821191553233117, -29.801384846739303], [30.821560053756006, -29.80829665631576], [30.828532101707893, -29.80762022795237], [30.83357905679062, -29.7999402571566], [30.828496253380923, -29.794245084358568], [30.82957445152476, -29.788283933447758], [30.833279826966912, -29.787201359753418], [30.83989134437044, -29.791535296387984], [30.83554451476818, -29.799297331857503], [30.837917089948068, -29.805810648250446], [30.8337440175987, -29.814049940971387], [30.825058341194943, -29.81316884596885], [30.8214797384791, -29.809245467665377], [30.816181301801937, -29.811449016997127], [30.81232532461087, -29.80791961372878], [30.812582137050835, -29.8025121594901]]], [[[30.82581917408057, -29.92546799174944], [30.82611426866038, -29.920488941408003], [30.831806756815887, -29.917385800770543], [30.837108702284304, -29.918569948535065], [30.83582497921881, -29.925778357392563], [30.82825627240539, -29.928868289769966], [30.82581917408057, -29.92546799174944]]], [[[30.777242639731302, -29.758105090803642], [30.776697606935446, -29.755535231402146], [30.782757416396386, -29.75477006964362], [30.789254619925405, -29.761828433985357], [30.798460194495348, -29.7546498894377], [30.79554075709495, -29.749714437488574], [30.790378131193638, -29.75022079875804], [30.78524266084369, -29.74732003038052], [30.779108921497524, -29.748451692311058], [30.782178475481583, -29.744113590396168], [30.79800051096612, -29.736501596293675], [30.802052927875998, -29.74881647035126], [30.80010660072841, -29.754677287545533], [30.804076110421697, -29.755750854857162], [30.811231778180456, -29.75221970703488], [30.818455081664027, -29.75952484189472], [30.819387636029454, -29.763894938819504], [30.81597030876952, -29.766828049585396], [30.80730553045723, -29.764403221125253], [30.79995427615136, -29.767350621426804], [30.79593568338576, -29.762933216698347], [30.79101225631461, -29.762480259502762], [30.78569378001536, -29.76633549343979], [30.77905067168702, -29.76292061203854], [30.777242639731302, -29.758105090803642]]], [[[30.80788020932899, -29.693784521124105], [30.809975936763287, -29.69055245386536], [30.8152890358529, -29.690678955464655], [30.81739447709499, -29.69281798995856], [30.816240783167054, -29.698694885521377], [30.810588567348503, -29.699583954024725], [30.80788020932899, -29.693784521124105]]], [[[30.75724116451753, -29.778871319677105], [30.762498918465244, -29.772292390096542], [30.76209159341399, -29.764041520864758], [30.768310867745644, -29.761432793460997], [30.772536937716122, -29.765200616726354], [30.767650586787642, -29.773087066405935], [30.772999700803318, -29.784322021103105], [30.781345688838094, -29.787617449539088], [30.789992753927116, -29.77952009045289], [30.79483513295341, -29.784978030406045], [30.80286193427621, -29.781305148906412], [30.811319998338377, -29.78144547973904], [30.812705098631554, -29.78690184351171], [30.79979174797752, -29.800254841733206], [30.796428829426116, -29.800419976965983], [30.790498420161544, -29.79141350831819], [30.782386930941605, -29.797109253177958], [30.77506843701475, -29.79615442264095], [30.76689082776873, -29.790845437634438], [30.760007598211214, -29.791205643107435], [30.75706382828377, -29.787584875226393], [30.75724116451753, -29.778871319677105]]], [[[30.72072932474732, -29.878786219668356], [30.723750833893536, -29.87403073852928], [30.730685607741588, -29.87662145536775], [30.73563400782456, -29.87259096681394], [30.734865052460542, -29.868101978222672], [30.727588167186877, -29.867803253529516], [30.72613363660254, -29.86557766116419], [30.73295771638702, -29.85205216467585], [30.727447360618864, -29.84718173474146], [30.731342716067612, -29.841932789576784], [30.741972532434804, -29.84426027008584], [30.75062064255804, -29.849699251313233], [30.75897301838908, -29.84779864321703], [30.7545947081881, -29.8600391126274], [30.75797717175904, -29.863585913518186], [30.756193733987004, -29.87066746765002], [30.759531789608676, -29.873704035597203], [30.756423091677394, -29.882745408695566], [30.721202760561077, -29.883903858020915], [30.72072932474732, -29.878786219668356]]], [[[30.73877103520154, -29.786585346237242], [30.74693062805827, -29.77747312688891], [30.749940723076506, -29.77752440143276], [30.74787451522625, -29.790903931803243], [30.741518809530017, -29.791700229966555], [30.73877103520154, -29.786585346237242]]], [[[30.568919760570214, -29.831386551118154], [30.575811782303084, -29.82597962976215], [30.584960635641405, -29.78333769000679], [30.590755983368236, -29.782600500040612], [30.596091666343426, -29.777763744963025], [30.59983040808052, -29.778021727734846], [30.602007714958606, -29.78466801827954], [30.60871218228699, -29.78175184552086], [30.61605396455421, -29.78495379439965], [30.647689016570624, -29.787092069152415], [30.65206569555787, -29.794113610770058], [30.654952274157313, -29.793015210690253], [30.65697439480451, -29.787275336647895], [30.661175140352736, -29.787407346915685], [30.66498942705563, -29.790872117967567], [30.666745585735388, -29.79594500903945], [30.66365442812551, -29.8024292557644], [30.664670801087727, -29.808329920729925], [30.66052700162811, -29.811898243641227], [30.648956854660057, -29.8075573932589], [30.648743976587273, -29.80459781625994], [30.65456995264085, -29.802139092321703], [30.650901401168344, -29.79904617165363], [30.64527749176891, -29.799824780703577], [30.642943736219244, -29.804676270867283], [30.633197213837512, -29.80417796719673], [30.629302821056168, -29.807550108399095], [30.61579607908401, -29.80460369859784], [30.607572524575655, -29.809408637103814], [30.59975125005003, -29.810370765569758], [30.60071576281944, -29.81895356412638], [30.593241940824903, -29.826754232565495], [30.5877636837719, -29.827760935112686], [30.582412400511195, -29.836600362282123], [30.58606709288072, -29.841733753089596], [30.576616268271444, -29.84736959379763], [30.574546110425256, -29.846772062717623], [30.574535465811365, -29.838032476675956], [30.570564679189072, -29.836249054597086], [30.568919760570214, -29.831386551118154]], [[30.59849999123879, -29.796482576715793], [30.60087231002246, -29.79940439405288], [30.60477733816296, -29.797320393118337], [30.60486048087285, -29.791590231194316], [30.601567333777687, -29.789192358459005], [30.598075094669255, -29.790639632929018], [30.59849999123879, -29.796482576715793]]], [[[30.57019863246232, -29.707312742148], [30.57493059513259, -29.70195595222657], [30.57583995339249, -29.695802934586403], [30.579902315311674, -29.69415916354216], [30.583631209761894, -29.69691061752177], [30.586667534785505, -29.69616656085237], [30.592404258271262, -29.68447889279301], [30.584799787958936, -29.677446892318738], [30.587151934365917, -29.662927683233413], [30.61617168537702, -29.66513823963541], [30.625514799431343, -29.65691740539038], [30.62807954182489, -29.648256029343003], [30.631233696647783, -29.64579071181568], [30.636412091894158, -29.646863824738478], [30.64004452119014, -29.6527154502095], [30.63921237451456, -29.66023691674733], [30.64419518134949, -29.664421958642684], [30.643957058966556, -29.673191789567174], [30.639679687629215, -29.678427006181362], [30.646353268692874, -29.68112555191415], [30.646863145721127, -29.690515347675376], [30.632828049523052, -29.694339020417335], [30.629143289841377, -29.68739557392972], [30.619732502154168, -29.68754926176439], [30.610215289606934, -29.69431285728078], [30.61026895755957, -29.702283873454103], [30.60010449459116, -29.704537248948178], [30.594901281118563, -29.702494262401217], [30.587878026446514, -29.703555013442838], [30.582191339609476, -29.712681080670844], [30.58222361017587, -29.721133896368134], [30.57250827738326, -29.719167361753424], [30.57019863246232, -29.707312742148]], [[30.60418605317569, -29.677558617534014], [30.60634529465941, -29.68124986222136], [30.612128437015517, -29.682042519705174], [30.617024896662738, -29.677830497155504], [30.620462433603823, -29.66963684796688], [30.61301493364861, -29.66607263413675], [30.613240678150163, -29.673407725016833], [30.60505599640319, -29.674106230323055], [30.60418605317569, -29.677558617534014]]], [[[30.585626146596574, -29.86309667519185], [30.586800438545335, -29.85720748983424], [30.5924999053937, -29.85478826237703], [30.59429952650454, -29.863591021174734], [30.585626146596574, -29.86309667519185]]], [[[30.5483539992374, -29.615076873284146], [30.54760478471325, -29.612367060465548], [30.5524738153361, -29.60671882665428], [30.55710910039307, -29.607651417328018], [30.565613344327925, -29.604552747917307], [30.570401039051298, -29.606429215189152], [30.571988533076944, -29.611910788893955], [30.579688383919102, -29.612573202096375], [30.580791920108215, -29.616595912689103], [30.590267554800985, -29.62137589763237], [30.595577711644093, -29.627046978729034], [30.595556515620352, -29.630713491456188], [30.585271693393707, -29.632234315199405], [30.582821760290436, -29.637736650452755], [30.57389550523407, -29.642388513006217], [30.56027321753863, -29.635533421876087], [30.56044603945818, -29.631734196548575], [30.567845067070706, -29.626208909674084], [30.5615854319678, -29.621050407435277], [30.561090955330112, -29.616881071810198], [30.5483539992374, -29.615076873284146]]], [[[30.529988988176935, -29.581020677238687], [30.530977699472622, -29.576421617425673], [30.53748937984933, -29.57327049382258], [30.54426231359985, -29.57556686845859], [30.5539054652501, -29.574250228345807], [30.56188974498116, -29.570164274183053], [30.564086616219793, -29.563783193669913], [30.571860825459446, -29.564599820532706], [30.575058357385178, -29.56594061999573], [30.576101810215235, -29.57661729988475], [30.589404383654728, -29.585971602710654], [30.593698966832672, -29.597546939472014], [30.583477719253988, -29.607093933315817], [30.57776589580123, -29.598329342514052], [30.564271020327517, -29.59280222045872], [30.5626819533537, -29.588856175688576], [30.552109532389423, -29.58358613386258], [30.5486109409413, -29.590927866402215], [30.542495542151055, -29.592049909943942], [30.54128539146908, -29.596269550738064], [30.534427754644582, -29.59697038299547], [30.529988988176935, -29.581020677238687]]], [[[30.523105176351514, -29.72787982896818], [30.528359537077428, -29.719687532049146], [30.531864065964704, -29.719487016570532], [30.546219972256345, -29.72843969629719], [30.54811486164993, -29.733019996134804], [30.543517738007115, -29.734308407066344], [30.53729217083756, -29.730452846997654], [30.5232594234654, -29.732389659947785], [30.523105176351514, -29.72787982896818]]], [[[30.525431619955107, -29.867845870419796], [30.525718521929765, -29.862950151760177], [30.53141597184001, -29.861409481791377], [30.531283762215942, -29.871733342114705], [30.527440331221598, -29.872583139380936], [30.525431619955107, -29.867845870419796]]], [[[30.498095975248525, -29.726168597084584], [30.500146298895213, -29.720450890517856], [30.505812982234268, -29.7247184394645], [30.509994326616784, -29.73412568260655], [30.50176744592517, -29.73187089749437], [30.498095975248525, -29.726168597084584]]], [[[30.464785928471102, -29.685564846890312], [30.470312475345608, -29.681384937591307], [30.47591441854828, -29.684856545738302], [30.476744107510832, -29.690215595625702], [30.468471366710197, -29.6927846098655], [30.464785928471102, -29.685564846890312]]], [[[30.40644808453792, -29.622535460065485], [30.412388131555698, -29.61166817911771], [30.4159698613415, -29.61358710577173], [30.419349440928723, -29.62110720786282], [30.423097638829113, -29.621957205236377], [30.429070579497903, -29.611247557423635], [30.449623466561704, -29.61213083697072], [30.44644259364411, -29.622131757459645], [30.429414002078207, -29.62602234909053], [30.42787457147887, -29.62961141136428], [30.43232346040123, -29.63451358656235], [30.425374785934057, -29.641127488534615], [30.415766791233068, -29.637666789978763], [30.40644808453792, -29.622535460065485]]], [[[30.406251407053972, -29.594066560744977], [30.408142282303857, -29.584991321377693], [30.417976902108826, -29.58214339739743], [30.420232894033234, -29.57360028726335], [30.41729733457146, -29.567735408607838], [30.421439080945404, -29.5628892451112], [30.414195631773538, -29.5550139588573], [30.41340126547514, -29.54902036713504], [30.416745273374485, -29.54708466360656], [30.420953765311676, -29.533553897539488], [30.42814918397569, -29.53184430623524], [30.433038657040907, -29.534691217055993], [30.433678055526155, -29.542795738585372], [30.447346639234226, -29.54849132837587], [30.447675778633762, -29.550752215020424], [30.446278770622897, -29.555911385831838], [30.43883514334449, -29.558964588589863], [30.428690665898092, -29.55857025007592], [30.423286781317106, -29.56543314183152], [30.434155248374765, -29.577089593977597], [30.444173657529625, -29.577089766031005], [30.445070413137316, -29.58174029625976], [30.438883686648843, -29.587171600781883], [30.446319256886458, -29.589307616482923], [30.44747288418567, -29.592502458787518], [30.43655443329237, -29.593112499522263], [30.434707834007263, -29.598020220524337], [30.425860532265876, -29.59905281230358], [30.422640030311804, -29.6033502179805], [30.40896925388994, -29.59833531249781], [30.406251407053972, -29.594066560744977]]]]}}, {"type": "Feature", "properties": {"threshold": 95}, "geometry": {"type": "MultiPolygon", "coordinates": [[[[30.930426255872757, -29.52644954390562], [30.928973301346502, -29.512331248399917], [30.953436928952957, -29.503967174705696], [30.963850412818392, -29.507419791793467], [30.96529857849079, -29.51503717895741], [30.979151357185764, -29.51283765207538], [30.983260390189947, -29.518127237255488], [30.98116828284115, -29.522641453958], [30.974260253812464, -29.526281117483283], [30.97393703403745, -29.531779106037277], [30.96242242508582, -29.533561571630997], [30.95851116967555, -29.537506275722386], [30.959372293795703, -29.540155310475587], [30.966877410977464, -29.54323564528083], [30.963278893892323, -29.548810923151], [30.968439134435926, -29.55327784130067], [30.966746154299862, -29.560393020499433], [30.96165679434151, -29.558270364574664], [30.952756004683014, -29.559197282622492], [30.95566143476802, -29.538994621202626], [30.95165959190135, -29.537842300338976], [30.946300458300044, -29.539966002917904], [30.94090545672769, -29.530589644853038], [30.93541076739481, -29.52628570754341], [30.930426255872757, -29.52644954390562]], [[30.95385304976924, -29.525823325994754], [30.95787900268038, -29.525774634354935], [30.9575259329047, -29.521814718571903], [30.953177272273198, -29.522422386884585], [30.95385304976924, -29.525823325994754]]], [[[30.933398394997226, -29.669321505847623], [30.93282727268532, -29.666576878490986], [30.9410190934918, -29.659652501531895], [30.94900278406973, -29.657272615538183], [30.953878542121714, -29.66003267839466], [30.953633341399993, -29.665497566647435], [30.95991296509787, -29.667061343338684], [30.95978042207887, -29.676891635295966], [30.952467103622368, -29.6788319163015], [30.937405904629642, -29.67391693510323], [30.933398394997226, -29.669321505847623]]], [[[30.85256981473253, -29.906058960308826], [30.860928622290885, -29.901185668792504], [30.85288201409885, -29.893277777095914], [30.856224828678187, -29.88469418021058], [30.866283058479006, -29.89203130687806], [30.876467618144815, -29.889760963916316], [30.882411160718895, -29.903360358087717], [30.89780836804017, -29.903802810660643], [30.908830789744556, -29.907044171311306], [30.913270995904792, -29.904861849903167], [30.91849553223911, -29.89284917890303], [30.924842022396707, -29.88987756625485], [30.92256628715395, -29.886018498245765], [30.917287418438704, -29.88634602330796], [30.912511533017586, -29.882940508265147], [30.91358731425491, -29.87653338057427], [30.927575906549674, -29.875762091303926], [30.942373276248443, -29.87954639418449], [30.938587504093707, -29.891633898900263], [30.933283782843773, -29.896312019475175], [30.937481253691804, -29.90240494075149], [30.9267665036961, -29.913511698271513], [30.928826851714867, -29.918985669382735], [30.936195578433743, -29.924288418375255], [30.935988512819282, -29.927943904879434], [30.93021705383085, -29.931218537696523], [30.923770086468657, -29.929754596907735], [30.905848659894804, -29.933970623208406], [30.883437158132207, -29.926179655611072], [30.87875552830529, -29.93044389174401], [30.870367860072086, -29.927253629274308], [30.859772794872434, -29.92934807372922], [30.854105077440693, -29.918726619213118], [30.85256981473253, -29.906058960308826]], [[30.862221430790054, -29.903580614926522], [30.871341175271176, -29.904054689694043], [30.87351665491504, -29.90112129257814], [30.86758654027329, -29.897308061684633], [30.86169132235536, -29.90026025928876], [30.862221430790054, -29.903580614926522]]], [[[30.91070343006154, -29.748190525372014], [30.9111056253098, -29.74390068381457], [30.915668315844727, -29.744698377094345], [30.92392456997683, -29.751135708909548], [30.92274466090794, -29.755892575084964], [30.91100561948936, -29.752066487008424], [30.91070343006154, -29.748190525372014]]], [[[30.913077731225204, -29.718415348175036], [30.912312828500543, -29.713539226015026], [30.91612305698718, -29.706387001181497], [30.922641587862724, -29.706277610487867], [30.923784888618027, -29.712403505910682], [30.920736866141933, -29.720548226941755], [30.92445548396873, -29.72722620749898], [30.93128902719628, -29.72903725157943], [30.930123322011717, -29.73531817603944], [30.92459736093189, -29.73532709586292], [30.922655353015706, -29.729941056701787], [30.915798470498434, -29.727387219647312], [30.915995810875547, -29.72173605443103], [30.913077731225204, -29.718415348175036]]], [[[30.912444031306492, -29.83396172546533], [30.920858134244952, -29.831819393013966], [30.922837571333027, -29.839054422868767], [30.914538741487494, -29.840779989276836], [30.912444031306492, -29.83396172546533]]], [[[30.89229630754287, -29.867581425223808], [30.891669053593894, -29.86243069682145], [30.897256725977147, -29.861498691794175], [30.900007447933604, -29.86757970076239], [30.906229469364874, -29.870368436421074], [30.906176955557605, -29.875009061910777], [30.896107048820536, -29.876705231636308], [30.89229630754287, -29.867581425223808]]], [[[30.7665977777948, -29.854733750008865], [30.772430890519967, -29.853325805189783], [30.774954510046705, -29.848629457360627], [30.784526428380886, -29.851445661255024], [30.78591306362131, -29.845352025137686], [30.790708418229702, -29.843363707762688], [30.79240855713274, -29.838344767592478], [30.800541489755787, -29.837598756942384], [30.806085397473826, -29.832241781320555], [30.81125391090942, -29.832359776079812], [30.81754235317671, -29.837221518546357], [30.817322074534225, -29.8436424422671], [30.82023556859106, -29.846980518744587], [30.819108858951477, -29.854301346088633], [30.810669995259513, -29.852063775249825], [30.809385512850405, -29.844954039781477], [30.80035314980615, -29.842994950454553], [30.79781798577623, -29.8449223972916], [30.798873649089884, -29.850847919217113], [30.793174784186647, -29.857216943837106], [30.787763883194422, -29.857980529103656], [30.784449275540926, -29.852679067978602], [30.781160557335472, -29.855031222225872], [30.782801551740242, -29.86517156346474], [30.799015384168428, -29.862946729526563], [30.80783421719412, -29.876057309587058], [30.814975974479662, -29.878906113394425], [30.816753015197914, -29.885469874909656], [30.81280293103274, -29.88893778585696], [30.81355780906623, -29.898345630217012], [30.792964781365974, -29.893379199735914], [30.794334265375564, -29.8807261712846], [30.78781361585159, -29.87739513803469], [30.7770423185861, -29.877921815165163], [30.774777325626445, -29.876121336977857], [30.774338715576068, -29.867968007317742], [30.766035123449022, -29.861783575262322], [30.7665977777948, -29.854733750008865]]], [[[30.820339265675482, -29.85598299138494], [30.827711035610914, -29.85742411921595], [30.832052032632312, -29.86710930985112], [30.84632226164035, -29.871105441118207], [30.851555578919125, -29.86802218898815], [30.847391533542716, -29.85913534702586], [30.84977018617271, -29.85373107468354], [30.84562628852896, -29.84543232082178], [30.834518108149748, -29.84120151843819], [30.834671958594747, -29.836982088991338], [30.841812918447452, -29.82793219862074], [30.836787641182905, -29.820834653484976], [30.851048291285057, -29.808157148922604], [30.848629725095677, -29.80335479884452], [30.84162088478211, -29.800179010906515], [30.849861069567574, -29.796719177680135], [30.858061019366563, -29.80409548896238], [30.861426364177817, -29.802743283213506], [30.863229390723905, -29.797802961217055], [30.873945807542505, -29.794859810358382], [30.875512932852626, -29.788259822611344], [30.880145899875888, -29.78630977307428], [30.88154460388302, -29.781606831005806], [30.8779558071975, -29.777311123346156], [30.86805628441596, -29.7752245845455], [30.867019038884433, -29.77046755567718], [30.869570428206963, -29.767726639777557], [30.88778566222083, -29.76891519766032], [30.891547219828958, -29.77647376092925], [30.88878722228427, -29.78717339021203], [30.89553350188938, -29.794042430865385], [30.89879632377293, -29.807011539501758], [30.884245847266694, -29.810244991099438], [30.886540260053646, -29.80184374322444], [30.880806629252255, -29.798734234431866], [30.876025100178065, -29.80197157357724], [30.875553153618565, -29.807710089625893], [30.869068175988676, -29.80680332032927], [30.866585313805682, -29.809484371683112], [30.869538421028984, -29.81465032473831], [30.867038309076513, -29.822281773137473], [30.871823309056293, -29.825124066855388], [30.877349930479465, -29.837984068970055], [30.881259160999146, -29.840752181385728], [30.882902914511032, -29.84662808956663], [30.888990175697288, -29.84928787824365], [30.8889235846787, -29.852451711971998], [30.886470797538905, -29.854291167368583], [30.87949941473728, -29.851598772295006], [30.872089917632987, -29.85327844940598], [30.867025135394176, -29.847393203483794], [30.8598920398254, -29.846588424376737], [30.85457660694797, -29.853669614188142], [30.858901394991886, -29.857630920460895], [30.858715567259928, -29.863391039753733], [30.85422782404513, -29.867149065161556], [30.85666796693162, -29.876457623050857], [30.851153223867236, -29.87757939168737], [30.846305582526195, -29.873752789095256], [30.83606500321681, -29.87898434825988], [30.84050996637754, -29.890616425537292], [30.837151514770895, -29.892655883013642], [30.836655705794332, -29.89861026312717], [30.83241597053289, -29.90118986981271], [30.827495779010505, -29.90102193098006], [30.82362530847771, -29.896651021957208], [30.824895895325266, -29.87963381658983], [30.818777075483222, -29.874076859265372], [30.821269474712896, -29.86703847775709], [30.818995004620476, -29.864063072824326], [30.820339265675482, -29.85598299138494]]], [[[30.837772454369826, -29.804454674328884], [30.833499193840442, -29.814121832274218], [30.825058341194943, -29.81316884596885], [30.8214797384791, -29.809245467665377], [30.81633944725571, -29.811509229964457], [30.812278378646827, -29.80777480478807], [30.815925836392186, -29.79767439223237], [30.820278751347015, -29.799689583470748], [30.821938349754607, -29.80860722967663], [30.829343680778837, -29.80706134770197], [30.83357905679062, -29.7999402571566], [30.828465787514997, -29.794096962226693], [30.828619689165464, -29.789877520846556], [30.831970045223105, -29.787161571434485], [30.839954370238097, -29.791675383240985], [30.835488997124234, -29.799518926594512], [30.837772454369826, -29.804454674328884]]], [[[30.86164312389835, -29.77260085354048], [30.85755756599217, -29.778182083488044], [30.850713466240887, -29.77818562060247], [30.846657795930973, -29.770281513845006], [30.860066548255812, -29.769895978441625], [30.86164312389835, -29.77260085354048]]], [[[30.881934894609227, -29.825945759756564], [30.883982260336644, -29.822757112865247], [30.88937106159924, -29.822926967412595], [30.889308421554585, -29.83171248060411], [30.88364962752195, -29.83172833324418], [30.881934894609227, -29.825945759756564]]], [[[30.869326902593343, -29.86701718410502], [30.873389710779257, -29.860384377613848], [30.882576780136407, -29.859973358138614], [30.879480783794246, -29.86946503747453], [30.869326902593343, -29.86701718410502]]], [[[30.845599712697158, -29.71580084998402], [30.856162687715937, -29.71208210987126], [30.857352389364486, -29.720039903051855], [30.84563734065135, -29.71872406428618], [30.845599712697158, -29.71580084998402]]], [[[30.838124942966637, -29.682722915981536], [30.840924522599224, -29.67809483608365], [30.84526701271663, -29.67718482355235], [30.84926507059751, -29.679056954498243], [30.851965939445048, -29.685131836916817], [30.84204795529413, -29.68788563893095], [30.838124942966637, -29.682722915981536]]], [[[30.82581917408057, -29.92546799174944], [30.82611426866038, -29.920488941408003], [30.831806756815887, -29.917385800770543], [30.837108702284304, -29.918569948535065], [30.83582497921881, -29.925778357392563], [30.82825627240539, -29.928868289769966], [30.82581917408057, -29.92546799174944]]], [[[30.777242639731302, -29.758105090803642], [30.776627284276287, -29.755578932806948], [30.784443867956277, -29.75265157085825], [30.779282786688718, -29.74976900657403], [30.779355211854714, -29.746484360935685], [30.79800051096612, -29.736501596293675], [30.80569032684875, -29.743408296116062], [30.802164016380754, -29.753352969613815], [30.80507104761657, -29.754678484467426], [30.811304973833696, -29.752259654612327], [30.818455081664027, -29.75952484189472], [30.819387636029454, -29.763894938819504], [30.81605444966449, -29.76681113156312], [30.801686426508265, -29.768920582111736], [30.798315678097563, -29.767810421632582], [30.796156071005907, -29.763053520324306], [30.79113628182203, -29.762685266922652], [30.789133254881676, -29.77131677995493], [30.78645805766565, -29.771742280453314], [30.779707739624524, -29.76820927924362], [30.777242639731302, -29.758105090803642]], [[30.78686088361924, -29.757205286829315], [30.78814291852476, -29.760734789801166], [30.79198310328932, -29.75901344831671], [30.790504069986365, -29.755511273207954], [30.78686088361924, -29.757205286829315]]], [[[30.80788020932899, -29.693784521124105], [30.809975936763287, -29.69055245386536], [30.8152890358529, -29.690678955464655], [30.81739447709499, -29.69281798995856], [30.816240783167054, -29.698694885521377], [30.810588567348503, -29.699583954024725], [30.80788020932899, -29.693784521124105]]], [[[30.756285586423644, -29.781971209030495], [30.762498918465244, -29.772292390096542], [30.76209159341399, -29.764041520864758], [30.768310867745644, -29.761432793460997], [30.772536937716122, -29.765200616726354], [30.767650586787642, -29.773087066405935], [30.7730756660259, -29.784279998636528], [30.781345688838094, -29.787617449539088], [30.789992753927116, -29.77952009045289], [30.79483513295341, -29.784978030406045], [30.80286193427621, -29.781305148906412], [30.811319998338377, -29.78144547973904], [30.812705098631554, -29.78690184351171], [30.79942074824637, -29.800440480653915], [30.794165122006, -29.798619883650634], [30.79024439624086, -29.79136500242642], [30.782868840778097, -29.797023894362518], [30.777940979275257, -29.79663733763691], [30.776354389187865, -29.799273472535333], [30.77951723729523, -29.805128633267948], [30.76791043861304, -29.811499670865853], [30.763823778248295, -29.809612424340678], [30.763692202446475, -29.80673619313027], [30.768919385250335, -29.802533985261192], [30.770888300354926, -29.79433207191819], [30.767138157307265, -29.790915470575627], [30.759876389222836, -29.79110793651489], [30.756285586423644, -29.781971209030495]]], [[[30.72072932474732, -29.878786219668356], [30.723750833893536, -29.87403073852928], [30.730685607741588, -29.87662145536775], [30.73563400782456, -29.87259096681394], [30.734865052460542, -29.868101978222672], [30.727588167186877, -29.867803253529516], [30.72613363660254, -29.86557766116419], [30.73295771638702, -29.85205216467585], [30.727447360618864, -29.84718173474146], [30.731342716067612, -29.841932789576784], [30.741972532434804, -29.84426027008584], [30.75062064255804, -29.849699251313233], [30.75897301838908, -29.84779864321703], [30.7545947081881, -29.8600391126274], [30.75797717175904, -29.863585913518186], [30.756193733987004, -29.87066746765002], [30.759531789608676, -29.873704035597203], [30.756423091677394, -29.882745408695566], [30.721202760561077, -29.883903858020915], [30.72072932474732, -29.878786219668356]]], [[[30.73877103520154, -29.786585346237242], [30.74693062805827, -29.77747312688891], [30.749940723076506, -29.77752440143276], [30.750925517722443, -29.78432378635623], [30.74787451522625, -29.790903931803243], [30.74150150554684, -29.792470489923605], [30.73877103520154, -29.786585346237242]]], [[[30.568919760570214, -29.831386551118154], [30.575811782303084, -29.82597962976215], [30.5815824666211, -29.805097919591923], [30.581134614249603, -29.793428378212585], [30.58536789027543, -29.782961854229796], [30.59932837033153, -29.777746674590233], [30.60338683451453, -29.783380197792518], [30.60886327799217, -29.78176106392991], [30.61605396455421, -29.78495379439965], [30.621187642039462, -29.78352451950955], [30.623997416909333, -29.78560849832818], [30.63353064636926, -29.784516646570413], [30.647689016570624, -29.787092069152415], [30.652774669120745, -29.792973979960777], [30.65762311985048, -29.784345916529716], [30.665150403423727, -29.783940147518546], [30.666630433970283, -29.800584686887763], [30.66239015984725, -29.811128486540618], [30.657284573448646, -29.81186615450731], [30.64900688110803, -29.807618799212246], [30.648743976587273, -29.80459781625994], [30.65452227508919, -29.802175265676958], [30.650901401168344, -29.79904617165363], [30.64527749176891, -29.799824780703577], [30.642943736219244, -29.804676270867283], [30.633197213837512, -29.80417796719673], [30.629302821056168, -29.807550108399095], [30.61579607908401, -29.80460369859784], [30.607572524575655, -29.809408637103814], [30.601162330814837, -29.809665996416253], [30.59864160468911, -29.8120938212276], [30.60071576281944, -29.81895356412638], [30.593241940824903, -29.826754232565495], [30.587786903751933, -29.827738405532326], [30.582412400511195, -29.836600362282123], [30.58606709288072, -29.841733753089596], [30.576515710237317, -29.8481636325879], [30.573644021318348, -29.847525984976517], [30.574535465811365, -29.838032476675956], [30.570564679189072, -29.836249054597086], [30.568919760570214, -29.831386551118154]], [[30.59849999123879, -29.796482576715793], [30.60087231002246, -29.79940439405288], [30.60477733816296, -29.797320393118337], [30.60486048087285, -29.791590231194316], [30.601567333777687, -29.789192358459005], [30.598075094669255, -29.790639632929018], [30.59849999123879, -29.796482576715793]]], [[[30.569928940582276, -29.710434655668525], [30.56821203411506, -29.707591376070432], [30.574826282861117, -29.70216395990585], [30.575662725929543, -29.69596662462675], [30.579902315311674, -29.69415916354216], [30.586311108058606, -29.696495821755683], [30.592540777100268, -29.68404180732158], [30.584924389904025, -29.677725917671896], [30.584102662935543, -29.673338306508978], [30.579683665829542, -29.67210386596643], [30.58180157023304, -29.66288595337296], [30.61617168537702, -29.66513823963541], [30.625514799431343, -29.65691740539038], [30.62807954182489, -29.648256029343003], [30.631233696647783, -29.64579071181568], [30.636349391425814, -29.64681210899501], [30.64004452119014, -29.6527154502095], [30.63921237451456, -29.66023691674733], [30.64419518134949, -29.664421958642684], [30.643957058966556, -29.673191789567174], [30.639679687629215, -29.678427006181362], [30.646353268692874, -29.68112555191415], [30.646922372420367, -29.690460574083026], [30.632828049523052, -29.694339020417335], [30.629143289841377, -29.68739557392972], [30.619732502154168, -29.68754926176439], [30.610215289606934, -29.69431285728078], [30.61026895755957, -29.702283873454103], [30.58741948671778, -29.70425228641086], [30.582191339609476, -29.712681080670844], [30.58222361017587, -29.721133896368134], [30.572546328936284, -29.71999439878605], [30.569928940582276, -29.710434655668525]], [[30.60418605317569, -29.677558617534014], [30.612128437015517, -29.682042519705174], [30.617024896662738, -29.677830497155504], [30.620462433603823, -29.66963684796688], [30.61301493364861, -29.66607263413675], [30.613240678150163, -29.673407725016833], [30.60505599640319, -29.674106230323055], [30.60418605317569, -29.677558617534014]]], [[[30.584839385420665, -29.86047130059252], [30.58502445386398, -29.85569860829517], [30.5889646548033, -29.853914478214165], [30.59629628914683, -29.855904413719976], [30.59713958441216, -29.860357075851343], [30.59305588754209, -29.865359899538802], [30.585967223307826, -29.865191652846683], [30.584839385420665, -29.86047130059252]]], [[[30.54798929763068, -29.611995967946786], [30.552709103611825, -29.6066268404853], [30.55710910039307, -29.607651417328018], [30.564391732152774, -29.604500959580726], [30.570063597537114, -29.60620078406902], [30.57495317938118, -29.611943286383784], [30.57989218394388, -29.612711133566858], [30.580791920108215, -29.616595912689103], [30.590267554800985, -29.62137589763237], [30.59642566709922, -29.630029660515003], [30.58506000129715, -29.632365592010714], [30.574622728006243, -29.645458532764707], [30.571494972047855, -29.63974827285058], [30.56024588667375, -29.63546198153626], [30.56040016652266, -29.631797974890933], [30.567128602985612, -29.627634694210712], [30.5673636308367, -29.624709654376744], [30.56163531875244, -29.621111840063897], [30.560371221953243, -29.61636798416974], [30.54888124975206, -29.61570530205968], [30.54798929763068, -29.611995967946786]]], [[[30.529988988176935, -29.581020677238687], [30.530977699472622, -29.576421617425673], [30.53748937984933, -29.57327049382258], [30.54426231359985, -29.57556686845859], [30.5539054652501, -29.574250228345807], [30.56188974498116, -29.570164274183053], [30.564086616219793, -29.563783193669913], [30.571860825459446, -29.564599820532706], [30.575058357385178, -29.56594061999573], [30.576101810215235, -29.57661729988475], [30.589404383654728, -29.585971602710654], [30.593698966832672, -29.597546939472014], [30.583477719253988, -29.607093933315817], [30.57776589580123, -29.598329342514052], [30.56425250879122, -29.593572405461533], [30.561662019989367, -29.588586754765956], [30.552109532389423, -29.58358613386258], [30.548676007622348, -29.590878472318657], [30.54373765033214, -29.59133069924989], [30.54143053972833, -29.59618862667484], [30.53440901299509, -29.59774055009821], [30.529988988176935, -29.581020677238687]]], [[[30.523105176351514, -29.72787982896818], [30.528359537077428, -29.719687532049146], [30.531864065964704, -29.719487016570532], [30.546219972256345, -29.72843969629719], [30.54811486164993, -29.733019996134804], [30.543517738007115, -29.734308407066344], [30.53729217083756, -29.730452846997654], [30.5232594234654, -29.732389659947785], [30.523105176351514, -29.72787982896818]]], [[[30.52471075143403, -29.868316256676273], [30.525718521929765, -29.862950151760177], [30.53141597184001, -29.861409481791377], [30.531283762215942, -29.871733342114705], [30.527513486898176, -29.87262324225838], [30.52471075143403, -29.868316256676273]]], [[[30.498095975248525, -29.726168597084584], [30.500146298895213, -29.720450890517856], [30.505812982234268, -29.7247184394645], [30.509994326616784, -29.73412568260655], [30.50176744592517, -29.73187089749437], [30.498095975248525, -29.726168597084584]]], [[[30.464785928471102, -29.685564846890312], [30.470312475345608, -29.681384937591307], [30.47591441854828, -29.684856545738302], [30.476744107510832, -29.690215595625702], [30.474436247323496, -29.692898534411192], [30.468471366710197, -29.6927846098655], [30.464785928471102, -29.685564846890312]]], [[[30.40644808453792, -29.622535460065485], [30.412388131555698, -29.61166817911771], [30.4159698613415, -29.61358710577173], [30.419349440928723, -29.62110720786282], [30.423097638829113, -29.621957205236377], [30.425577235209378, -29.62025835599186], [30.42590174385057, -29.613142519654854], [30.429070579497903, -29.611247557423635], [30.45052417870038, -29.6113776683452], [30.44644259364411, -29.622131757459645], [30.429414002321405, -29.626022348808853], [30.43232346040123, -29.63451358656235], [30.425374785934057, -29.641127488534615], [30.415766791233068, -29.637666789978763], [30.40644808453792, -29.622535460065485]]], [[[30.406251407053972, -29.594066560744977], [30.408142282303857, -29.584991321377693], [30.417976902108826, -29.58214339739743], [30.420181086540754, -29.57351361249592], [30.41729733457146, -29.567735408607838], [30.421439080945404, -29.5628892451112], [30.414195631773538, -29.5550139588573], [30.41340126547514, -29.54902036713504], [30.416745273374485, -29.54708466360656], [30.42106583749211, -29.533439739128212], [30.431652157156023, -29.532682575229618], [30.433452502218255, -29.54205279115531], [30.43865196129402, -29.54639428370553], [30.447477225531607, -29.548589312899267], [30.447583806437006, -29.553906943935807], [30.43891915365312, -29.558947903560817], [30.428459253186283, -29.55867269746244], [30.423286781317106, -29.56543314183152], [30.434350169207864, -29.577130770251497], [30.444193068515137, -29.576319650076858], [30.445070413137316, -29.58174029625976], [30.438883686648843, -29.587171600781883], [30.446319256886458, -29.589307616482923], [30.44747288418567, -29.592502458787518], [30.43655443329237, -29.593112499522263], [30.434707834007263, -29.598020220524337], [30.425860532265876, -29.59905281230358], [30.422640030311804, -29.6033502179805], [30.40896925388994, -29.59833531249781], [30.406251407053972, -29.594066560744977]]], [[[30.413169265186237, -29.668170033082365], [30.418750155042325, -29.656727437015874], [30.42802247945363, -29.65294896496364], [30.42112813770883, -29.661828708840712], [30.422473218213728, -29.667790133183793], [30.417365728140997, -29.671819983986595], [30.414018531100357, -29.67153351881629], [30.413169265186237, -29.668170033082365]]]]}}]}