{"type": "FeatureCollection", "features": [{"type": "Feature", "properties": {"threshold": 70}, "geometry": {"type": "MultiPolygon", "coordinates": [[[[26.28793258542219, -29.109039441838522], [26.2884892333973, -29.104717448223894], [26.29533924851596, -29.104753612888572], [26.29682914740375, -29.106876415243928], [26.2934886176289, -29.111020729132488], [26.28793258542219, -29.109039441838522]]], [[[26.272232430566778, -29.204717600350133], [26.276886880268407, -29.20073527842504], [26.28274890014372, -29.200710421315215], [26.286232813434417, -29.2063566840191], [26.277071566073772, -29.21098625754817], [26.272232430566778, -29.204717600350133]]], [[[26.246439020806147, -29.220760739339788], [26.246424241085855, -29.216871753367773], [26.252168472922598, -29.209450845383696], [26.26612051049132, -29.20725625257479], [26.262311636029928, -29.21628674233845], [26.24836966144452, -29.22429284688479], [26.246439020806147, -29.220760739339788]]], [[[26.23142380567854, -29.171440033503554], [26.235425761040926, -29.15850519931099], [26.24391956134284, -29.15446615989303], [26.25749667552703, -29.1556722511473], [26.257473473023904, -29.16521653752366], [26.246266525574566, -29.17337702118974], [26.23142380567854, -29.171440033503554]]], [[[26.23485435899947, -29.074612178374938], [26.23459527555724, -29.070266898088985], [26.250095009409712, -29.072563531215366], [26.248436972573092, -29.079041206427334], [26.237988689785947, -29.07734959762703], [26.23485435899947, -29.074612178374938]]], [[[26.20421289023928, -29.108277602380056], [26.209265023064876, -29.10582449374869], [26.215550433543445, -29.109709601167292], [26.228737938004564, -29.107707969867892], [26.225308774592307, -29.11500492971487], [26.231631363651353, -29.1183531384146], [26.231418666299817, -29.128682364731098], [26.22413040976049, -29.128895499993483], [26.217842042351318, -29.124975403908813], [26.210272570203205, -29.12708143633161], [26.20815571516894, -29.124947400741036], [26.209177460439413, -29.116285121617178], [26.203833094032362, -29.11251585638671], [26.20421289023928, -29.108277602380056]]], [[[26.20073026828481, -29.135148369291876], [26.207432804707686, -29.134428473118504], [26.211275052469375, -29.13833468118708], [26.219013416226986, -29.13446620209693], [26.223315077193995, -29.13728697994031], [26.227839542938295, -29.15046476636533], [26.224784658823708, -29.15110034717658], [26.221217213395306, -29.147916139782456], [26.218274424401613, -29.149710473434435], [26.22001485013124, -29.166122178323416], [26.21579003137815, -29.166969531052327], [26.21421534352477, -29.164826498621313], [26.212132195291243, -29.14240940927542], [26.208751277091235, -29.140253490400003], [26.20571550123861, -29.143811035862605], [26.20117377718254, -29.14374413396878], [26.20073026828481, -29.135148369291876]]], [[[26.20512729137776, -29.075126800165894], [26.208312185508177, -29.069339465375503], [26.216282052409344, -29.072785351310113], [26.224183395931178, -29.071019816024776], [26.227460763992447, -29.075535206535992], [26.22741588366847, -29.08155101295137], [26.209125382044608, -29.081177922246347], [26.20499319861404, -29.07918178978151], [26.20512729137776, -29.075126800165894]]], [[[26.190016800925022, -29.16469232289957], [26.197192082585616, -29.16133872537296], [26.20057517074004, -29.166258137568104], [26.193155092957692, -29.17001038127859], [26.190016800925022, -29.16469232289957]]], [[[26.182865598167115, -29.148023492548248], [26.185046126777575, -29.144640099945402], [26.19131609425592, -29.144751176839364], [26.192398205690488, -29.15379303183679], [26.18481674000257, -29.15396533963696], [26.182865598167115, -29.148023492548248]]], [[[26.179813508447566, -29.050172752030818], [26.181851406059746, -29.04012637243304], [26.188533659494066, -29.038361011989476], [26.189565010201374, -29.05375339179398], [26.183946500270025, -29.054804514117485], [26.179813508447566, -29.050172752030818]]], [[[26.167292009181708, -29.17884172432312], [26.172975985956583, -29.17397073025656], [26.17728071599602, -29.173937909089325], [26.184142127786846, -29.18290458060249], [26.180961964911177, -29.186528395395218], [26.17302569249597, -29.188126581657677], [26.167292009181708, -29.17884172432312]]], [[[26.167444143571803, -29.127891870550755], [26.167901730685376, -29.120793109723323], [26.17220114160526, -29.11990779688283], [26.17636863032626, -29.122651267202915], [26.17607340471692, -29.128509491552915], [26.167444143571803, -29.127891870550755]]], [[[26.155454980283032, -29.1016288052052], [26.161627665689384, -29.099901519835125], [26.167323119025635, -29.08979035555052], [26.17484620155281, -29.09254303309471], [26.169507201458728, -29.10321274790211], [26.16977722338958, -29.115015516642437], [26.1623893107993, -29.11483129960546], [26.159613300182833, -29.109440039281353], [26.155023037935575, -29.107384052742994], [26.155454980283032, -29.1016288052052]]], [[[26.156008878532905, -29.144498778038553], [26.165773009489182, -29.142907707523854], [26.1707140387165, -29.144781140384346], [26.170848380869934, -29.148688636914862], [26.162454314410915, -29.153132827705463], [26.156008878532905, -29.144498778038553]]]]}}, {"type": "Feature", "properties": {"threshold": 80}, "geometry": {"type": "MultiPolygon", "coordinates": [[[[26.28793258542219, -29.109039441838522], [26.2884892333973, -29.104717448223894], [26.29533924851596, -29.104753612888572], [26.29682914740375, -29.106876415243928], [26.2934886176289, -29.111020729132488], [26.28793258542219, -29.109039441838522]]], [[[26.246439020806147, -29.220760739339788], [26.246424241085855, -29.216871753367773], [26.252239868817004, -29.209405005920434], [26.259003940908457, -29.20693166784052], [26.26717251633757, -29.208050941336182], [26.26612691416292, -29.213754265836172], [26.257693099967483, -29.21948272957917], [26.248196084110653, -29.224322120795883], [26.246439020806147, -29.220760739339788]]], [[[26.270170624265543, -29.207686714896678], [26.27705630104939, -29.200691183608733], [26.283909836420644, -29.20077303690927], [26.28623243865027, -29.204537193140567], [26.284197977454966, -29.20994537205827], [26.280050311730317, -29.21099092768034], [26.270170624265543, -29.207686714896678]]], [[[26.254070349550215, -29.0887182686662], [26.260527465887986, -29.086453411623175], [26.26420279228863, -29.095525211588015], [26.25392530661778, -29.091608900350725], [26.254070349550215, -29.0887182686662]]], [[[26.23142380567854, -29.171440033503554], [26.235425761040926, -29.15850519931099], [26.24391956134284, -29.15446615989303], [26.25749667552703, -29.1556722511473], [26.257473473023904, -29.16521653752366], [26.246266525574566, -29.17337702118974], [26.23142380567854, -29.171440033503554]]], [[[26.23485435899947, -29.074612178374938], [26.23393565081555, -29.070736213174776], [26.237311818648664, -29.069488523776695], [26.250095009409712, -29.072563531215366], [26.248436972573092, -29.079041206427334], [26.237988689785947, -29.07734959762703], [26.23485435899947, -29.074612178374938]]], [[[26.204736721339064, -29.11333487324576], [26.20386327821868, -29.10859500391497], [26.208936743940306, -29.10585948825891], [26.2158150939212, -29.109734056537928], [26.228667293150114, -29.107661324687665], [26.225857046044155, -29.11424755430426], [26.231660598929313, -29.118426389788077], [26.231471790450346, -29.128620323230976], [26.22331194346945, -29.12890962050038], [26.217836035160907, -29.125769198866752], [26.210343219738764, -29.127128091271377], [26.20815571516894, -29.124947400741036], [26.20910191708713, -29.116061031018077], [26.204736721339064, -29.11333487324576]]], [[[26.200887766813025, -29.14347745282653], [26.20148508067597, -29.13439317077381], [26.211355788195295, -29.136698112415075], [26.21991753965088, -29.1344714672289], [26.223217931251497, -29.137157493659927], [26.227839542938295, -29.15046476636533], [26.221620763067286, -29.148478404405136], [26.21902336512772, -29.14991417438165], [26.217844328623585, -29.159391157693708], [26.220162381803398, -29.166036894155514], [26.214203253467545, -29.166414077614427], [26.211555075435083, -29.14167515690486], [26.200887766813025, -29.14347745282653]]], [[[26.20518297801123, -29.074286625704403], [26.209221796772905, -29.068550992031827], [26.21629406341551, -29.07119774922448], [26.222465204531204, -29.07024218635471], [26.22743154318201, -29.07546195424777], [26.227385570661436, -29.081623922450724], [26.217419179769173, -29.082844468280506], [26.20633750672339, -29.080341478111325], [26.20518297801123, -29.074286625704403]]], [[[26.179813508447566, -29.050172752030818], [26.17897667056086, -29.04666934454458], [26.183920513998306, -29.038333061328732], [26.201426205968556, -29.03865651372394], [26.197981588974795, -29.043639501594107], [26.198755444176015, -29.052652806718616], [26.19652996847888, -29.05560115042478], [26.18573463272187, -29.057196874758425], [26.179813508447566, -29.050172752030818]]], [[[26.190016800925022, -29.16469232289957], [26.197192082585616, -29.16133872537296], [26.20057517074004, -29.166258137568104], [26.193155092957692, -29.17001038127859], [26.190016800925022, -29.16469232289957]]], [[[26.182865598167115, -29.148023492548248], [26.185046126777575, -29.144640099945402], [26.19131609425592, -29.144751176839364], [26.192398205690488, -29.15379303183679], [26.18481674000257, -29.15396533963696], [26.182865598167115, -29.148023492548248]]], [[[26.167292009181708, -29.17884172432312], [26.172975985956583, -29.17397073025656], [26.17728071599602, -29.173937909089325], [26.184059462932566, -29.17905976917794], [26.184142127786846, -29.18290458060249], [26.180961964911177, -29.186528395395218], [26.17302569249597, -29.188126581657677], [26.167292009181708, -29.17884172432312]]], [[[26.155454980283032, -29.1016288052052], [26.161627665689384, -29.099901519835125], [26.167486678872287, -29.0897320337727], [26.178502403676955, -29.09588404222654], [26.178186355462284, -29.099104614748477], [26.17290905362758, -29.098377649571155], [26.16968772500563, -29.102738478662268], [26.169613624591335, -29.115073840143694], [26.1623893107993, -29.11483129960546], [26.159613300182833, -29.109440039281353], [26.155023037935575, -29.107384052742994], [26.155454980283032, -29.1016288052052]]], [[[26.167444143571803, -29.127891870550755], [26.167901730685376, -29.120793109723323], [26.17220114160526, -29.11990779688283], [26.17636863032626, -29.122651267202915], [26.17607340471692, -29.128509491552915], [26.167444143571803, -29.127891870550755]]], [[[26.15554223128209, -29.14607533079312], [26.155220487689476, -29.142867749410744], [26.165687400297095, -29.142888314477002], [26.1707140387165, -29.144781140384346], [26.170870468812545, -29.148613479928418], [26.16253993212229, -29.153152223114667], [26.15554223128209, -29.14607533079312]]], [[[26.145634551215416, -29.094395986732348], [26.148358089042393, -29.08808365310778], [26.153169333735473, -29.090820296164082], [26.15004058809735, -29.096633882667454], [26.1455764904107, -29.09660552228888], [26.145634551215416, -29.094395986732348]]]]}}, {"type": "Feature", "properties": {"threshold": 90}, "geometry": {"type": "MultiPolygon", "coordinates": [[[[26.28793258542219, -29.109039441838522], [26.2884892333973, -29.104717448223894], [26.29533924851596, -29.104753612888572], [26.29682914740375, -29.106876415243928], [26.2934886176289, -29.111020729132488], [26.28793258542219, -29.109039441838522]]], [[[26.246439020806147, -29.220760739339788], [26.246424241085855, -29.216871753367773], [26.252239868817004, -29.209405005920434], [26.259003940908457, -29.20693166784052], [26.26717251633757, -29.208050941336182], [26.26612691416292, -29.213754265836172], [26.257693099967483, -29.21948272957917], [26.248196084110653, -29.224322120795883], [26.246439020806147, -29.220760739339788]]], [[[26.270170624265543, -29.207686714896678], [26.27705630104939, -29.200691183608733], [26.283909836420644, -29.20077303690927], [26.287137190239637, -29.204542015039777], [26.284138163923167, -29.21000256516376], [26.27913994888407, -29.211779852508098], [26.270170624265543, -29.207686714896678]]], [[[26.26541717315009, -29.11119128769756], [26.266853968567634, -29.108551251430345], [26.273326508302986, -29.110001773802754], [26.2698613113916, -29.116469883145175], [26.26541717315009, -29.11119128769756]]], [[[26.254070349550215, -29.0887182686662], [26.26045682043151, -29.086406782936113], [26.263475501439423, -29.091187374510728], [26.267939073504014, -29.09228949487087], [26.26695600972821, -29.097065614888553], [26.26117500797683, -29.098839800382], [26.25917717704795, -29.09373742028862], [26.253749082092234, -29.091435932572942], [26.254070349550215, -29.0887182686662]]], [[[26.23142380567854, -29.171440033503554], [26.235425761040926, -29.15850519931099], [26.24391956134284, -29.15446615989303], [26.25749667552703, -29.1556722511473], [26.257473473023904, -29.16521653752366], [26.246266525574566, -29.17337702118974], [26.23142380567854, -29.171440033503554]]], [[[26.24715504056698, -29.10689483660148], [26.24965149054106, -29.100536610091492], [26.25617108058129, -29.10427556990361], [26.251902160998977, -29.111589018574445], [26.24715504056698, -29.10689483660148]]], [[[26.23485435899947, -29.074612178374938], [26.23393565081555, -29.070736213174776], [26.237311818648664, -29.069488523776695], [26.250095009409712, -29.072563531215366], [26.248436972573092, -29.079041206427334], [26.237988689785947, -29.07734959762703], [26.23485435899947, -29.074612178374938]]], [[[26.204736721339064, -29.11333487324576], [26.20386327821868, -29.10859500391497], [26.208936743940306, -29.10585948825891], [26.2158150939212, -29.109734056537928], [26.228667293150114, -29.107661324687665], [26.225857046044155, -29.11424755430426], [26.231660598929313, -29.118426389788077], [26.231471790450346, -29.128620323230976], [26.22331194346945, -29.12890962050038], [26.217836035160907, -29.125769198866752], [26.210343219738764, -29.127128091271377], [26.20815571516894, -29.124947400741036], [26.20910191708713, -29.116061031018077], [26.204736721339064, -29.11333487324576]]], [[[26.200887766813025, -29.14347745282653], [26.20148508067597, -29.13439317077381], [26.211355788301354, -29.136698112411118], [26.21991753965088, -29.1344714672289], [26.223217931251497, -29.137157493659927], [26.227839542938295, -29.15046476636533], [26.219944855772855, -29.151401887965193], [26.217833886370684, -29.15916598227479], [26.220162381803398, -29.166036894155514], [26.214203253467545, -29.166414077614427], [26.2119508084685, -29.142362171288067], [26.200887766813025, -29.14347745282653]]], [[[26.205026662172823, -29.0744515115239], [26.206015429041667, -29.069643367636225], [26.209221796772905, -29.068550992031827], [26.21629406341551, -29.07119774922448], [26.222382214837488, -29.07021555563774], [26.22743154318201, -29.07546195424777], [26.22741588366847, -29.08155101295137], [26.217419179769173, -29.082844468280506], [26.206420500072102, -29.08036811875691], [26.205026662172823, -29.0744515115239]]], [[[26.179813508447566, -29.050172752030818], [26.17897667056086, -29.04666934454458], [26.183996584825657, -29.03829361803704], [26.198065064579243, -29.037494928741893], [26.20236828030067, -29.03952252861322], [26.197975330189916, -29.0448524053419], [26.199234706016675, -29.05072588702084], [26.2032404053453, -29.052372362312735], [26.201868361867877, -29.056466733515443], [26.18761826370153, -29.058028270477767], [26.179813508447566, -29.050172752030818]]], [[[26.190016800925022, -29.16469232289957], [26.197192082585616, -29.16133872537296], [26.20057517074004, -29.166258137568104], [26.193155092957692, -29.17001038127859], [26.190016800925022, -29.16469232289957]]], [[[26.182865598167115, -29.148023492548248], [26.185046126777575, -29.144640099945402], [26.19131609425592, -29.144751176839364], [26.192398205690488, -29.15379303183679], [26.18481674000257, -29.15396533963696], [26.182865598167115, -29.148023492548248]]], [[[26.167292009181708, -29.17884172432312], [26.172975985956583, -29.17397073025656], [26.17728071599602, -29.173937909089325], [26.184059462932566, -29.17905976917794], [26.184142127786846, -29.18290458060249], [26.180961964911177, -29.186528395395218], [26.17302569249597, -29.188126581657677], [26.167292009181708, -29.17884172432312]]], [[[26.155454980283032, -29.1016288052052], [26.161627665689384, -29.099901519835125], [26.167486678872287, -29.0897320337727], [26.178502403676955, -29.09588404222654], [26.178186355462284, -29.099104614748477], [26.17290905362758, -29.098377649571155], [26.16968772500563, -29.102738478662268], [26.169613624591335, -29.115073840143694], [26.1623893107993, -29.11483129960546], [26.159613300182833, -29.109440039281353], [26.155023037935575, -29.107384052742994], [26.155454980283032, -29.1016288052052]]], [[[26.167444143571803, -29.127891870550755], [26.167901730685376, -29.120793109723323], [26.17220114160526, -29.11990779688283], [26.17636863032626, -29.122651267202915], [26.17607340471692, -29.128509491552915], [26.167444143571803, -29.127891870550755]]], [[[26.15554223128209, -29.14607533079312], [26.15613115609858, -29.142079665574695], [26.165687400297095, -29.142888314477002], [26.1707140387165, -29.144781140384346], [26.170870468812545, -29.148613479928418], [26.16253993212229, -29.153152223114667], [26.15554223128209, -29.14607533079312]]], [[[26.139759668866756, -29.090892659977353], [26.14002458069913, -29.086581113480698], [26.145363714964986, -29.085604934764937], [26.153241055262974, -29.092935564316427], [26.15004058809735, -29.096633882667454], [26.145824660357064, -29.09668529966417], [26.139759668866756, -29.090892659977353]]], [[[26.142092378489377, -29.133087552537045], [26.14318449466331, -29.128000049374066], [26.147154414115196, -29.127013320189196], [26.146430820660843, -29.13525019010872], [26.142542661353794, -29.13548349867782], [26.142092378489377, -29.133087552537045]]]]}}, {"type": "Feature", "properties": {"threshold": 95}, "geometry": {"type": "MultiPolygon", "coordinates": [[[[26.28793258542219, -29.109039441838522], [26.2884892333973, -29.104717448223894], [26.29533924851596, -29.104753612888572], [26.29682914740375, -29.106876415243928], [26.2934886176289, -29.111020729132488], [26.28793258542219, -29.109039441838522]]], [[[26.246439020806147, -29.220760739339788], [26.246424241085855, -29.216871753367773], [26.252239868817004, -29.209405005920434], [26.259003940908457, -29.20693166784052], [26.26717251633757, -29.208050941336182], [26.26612691416292, -29.213754265836172], [26.257693099967483, -29.21948272957917], [26.248196084110653, -29.224322120795883], [26.246439020806147, -29.220760739339788]]], [[[26.270170624265543, -29.207686714896678], [26.27705630104939, -29.200691183608733], [26.283909836420644, -29.20077303690927], [26.287137190239637, -29.204542015039777], [26.284138163923167, -29.21000256516376], [26.27913994888407, -29.211779852508098], [26.270170624265543, -29.207686714896678]]], [[[26.237260990085137, -29.11590531941768], [26.23636844673762, -29.113547035212576], [26.243816863311203, -29.105464463635236], [26.25882075794756, -29.096355519542726], [26.25361683543121, -29.089330556844185], [26.26045682043151, -29.086406782936113], [26.263475501439423, -29.091187374510728], [26.268005614563684, -29.092433111337957], [26.265833583347312, -29.103731429259756], [26.260944355020236, -29.103537260851837], [26.251985570090184, -29.111563333978534], [26.24661916552865, -29.110838465872423], [26.24390133088408, -29.11545397832481], [26.237260990085137, -29.11590531941768]]], [[[26.26827105995035, -29.10698639511614], [26.273326508302986, -29.110001773802754], [26.2698613113916, -29.116469883145175], [26.265207629187795, -29.11344149811746], [26.26827105995035, -29.10698639511614]]], [[[26.23142380567854, -29.171440033503554], [26.235425761040926, -29.15850519931099], [26.24391956134284, -29.15446615989303], [26.25749667552703, -29.1556722511473], [26.257473473023904, -29.16521653752366], [26.246266525574566, -29.17337702118974], [26.23142380567854, -29.171440033503554]]], [[[26.23485435899947, -29.074612178374938], [26.23393565081555, -29.070736213174776], [26.237311818648664, -29.069488523776695], [26.250095009409712, -29.072563531215366], [26.248436972573092, -29.079041206427334], [26.237988689785947, -29.07734959762703], [26.23485435899947, -29.074612178374938]]], [[[26.204736721339064, -29.11333487324576], [26.20386327821868, -29.10859500391497], [26.208936743940306, -29.10585948825891], [26.2158150939212, -29.109734056537928], [26.228667293150114, -29.107661324687665], [26.225857046044155, -29.11424755430426], [26.231660598929313, -29.118426389788077], [26.231471790450346, -29.128620323230976], [26.22331194346945, -29.12890962050038], [26.217836035160907, -29.125769198866752], [26.210343219738764, -29.127128091271377], [26.20815571516894, -29.124947400741036], [26.20910191708713, -29.116061031018077], [26.204736721339064, -29.11333487324576]]], [[[26.200887766813025, -29.14347745282653], [26.20148508067597, -29.13439317077381], [26.211355788301354, -29.136698112411118], [26.21991753965088, -29.1344714672289], [26.223217931251497, -29.137157493659927], [26.227848170035756, -29.150328826905554], [26.21982106939629, -29.153284359142027], [26.21865470939498, -29.157803506628458], [26.222274831442764, -29.16037211983811], [26.22197118252652, -29.16604741316171], [26.214232489011916, -29.16648733213081], [26.2119508084685, -29.142362171288067], [26.200887766813025, -29.14347745282653]]], [[[26.204956524841872, -29.074624367885015], [26.208318251418916, -29.06854566572264], [26.222382214837488, -29.07021555563774], [26.22743154318201, -29.07546195424777], [26.22741588366847, -29.08155101295137], [26.217419179769173, -29.082844468280506], [26.206420500072102, -29.08036811875691], [26.204956524841872, -29.074624367885015]]], [[[26.179813508447566, -29.050172752030818], [26.17897667056086, -29.04666934454458], [26.18384920906162, -29.03837886698967], [26.19451979953686, -29.03817066291001], [26.200501380012845, -29.034619472701632], [26.20244710266236, -29.040844003639787], [26.19797352290157, -29.045086105207446], [26.199234706016675, -29.05072588702084], [26.2032404053453, -29.052372362312735], [26.20201574948596, -29.056381465149688], [26.18761826370153, -29.058028270477767], [26.179813508447566, -29.050172752030818]]], [[[26.190016800925022, -29.16469232289957], [26.197192082585616, -29.16133872537296], [26.20057517074004, -29.166258137568104], [26.193155092957692, -29.17001038127859], [26.190016800925022, -29.16469232289957]]], [[[26.182865598167115, -29.148023492548248], [26.185046126777575, -29.144640099945402], [26.19131609425592, -29.144751176839364], [26.192398205690488, -29.15379303183679], [26.18481674000257, -29.15396533963696], [26.182865598167115, -29.148023492548248]]], [[[26.167292009181708, -29.17884172432312], [26.172975985956583, -29.17397073025656], [26.17728071599602, -29.173937909089325], [26.184059462932566, -29.17905976917794], [26.184142127786846, -29.18290458060249], [26.180961964911177, -29.186528395395218], [26.17302569249597, -29.188126581657677], [26.167292009181708, -29.17884172432312]]], [[[26.155454980283032, -29.1016288052052], [26.161627665689384, -29.099901519835125], [26.167486678872287, -29.0897320337727], [26.178502403676955, -29.09588404222654], [26.178186355462284, -29.099104614748477], [26.17290905362758, -29.098377649571155], [26.16968772500563, -29.102738478662268], [26.169613624591335, -29.115073840143694], [26.1623893107993, -29.11483129960546], [26.159613300182833, -29.109440039281353], [26.155023037935575, -29.107384052742994], [26.155454980283032, -29.1016288052052]]], [[[26.167444143571803, -29.127891870550755], [26.167901730685376, -29.120793109723323], [26.17220114160526, -29.11990779688283], [26.17636863032626, -29.122651267202915], [26.17607340471692, -29.128509491552915], [26.167444143571803, -29.127891870550755]]], [[[26.15554223128209, -29.14607533079312], [26.15613115609858, -29.142079665574695], [26.165687400297095, -29.142888314477002], [26.1707140387165, -29.144781140384346], [26.170870468812545, -29.148613479928418], [26.16253993212229, -29.153152223114667], [26.15554223128209, -29.14607533079312]]], [[[26.139759668866756, -29.090892659977353], [26.14002458069913, -29.086581113480698], [26.145363714964986, -29.085604934764937], [26.153241055262974, -29.092935564316427], [26.15004058809735, -29.096633882667454], [26.145824660357064, -29.09668529966417], [26.139759668866756, -29.090892659977353]]], [[[26.138578122109195, -29.133565556535082], [26.1379906817538, -29.130129991820294], [26.145575175541953, -29.12688516233318], [26.14829863822956, -29.128032640082502], [26.147084591316084, -29.135472574460294], [26.142784335390388, -29.136357061978238], [26.138578122109195, -29.133565556535082]]]]}}]}