{"type": "Feature", "geometry": {"type": "MultiPolygon", "coordinates": [[[[-60.11631949960524, -3.0576410138674834], [-60.11005528978216, -3.0466705408952643], [-60.109689342479484, -3.0397231183957394], [-60.10589605900538, -3.0358956224447597], [-60.10233606275861, -3.0286323741283674], [-60.09533890888366, -3.0227080918684304], [-60.08713424353776, -3.0250359988715436], [-60.08367001394625, -3.02267135146073], [-60.08596180685271, -3.0016121819625905], [-60.084442022725355, -2.9991184334511907], [-60.07990569014022, -2.9970522638805726], [-60.07880690026326, -2.994102016913197], [-60.07914794132855, -2.987326811502147], [-60.084524037743755, -2.9819065418172603], [-60.08423543974697, -2.9778757173359875], [-60.07994053266278, -2.97455032357594], [-60.07536606124211, -2.974812350887789], [-60.07002343546465, -2.982474751528694], [-60.061156830845405, -2.9842545643331433], [-60.057728264553496, -2.9932804116209173], [-60.053165035747696, -2.993623183375681], [-60.043943720952015, -2.983387103779687], [-60.0448303126861, -2.977066853376982], [-60.04361954340808, -2.9738586915317193], [-60.034573324385036, -2.9698507927786544], [-60.03257408779584, -2.9673978819892692], [-60.03385118637116, -2.962300907314673], [-60.04044941619071, -2.960678453095306], [-60.04376566510058, -2.957197585495998], [-60.04381523549829, -2.9540187634006045], [-60.040717144113856, -2.9496384586141158], [-60.03294865506099, -2.948570031484944], [-60.02812094608818, -2.951720370449261], [-60.020916791068736, -2.952440188604397], [-60.018973345773524, -2.9551847728257936], [-60.01872651863855, -2.963004541004408], [-60.01597319053359, -2.9655187769990348], [-60.01267722210075, -2.965703676400328], [-60.008457415582896, -2.9627883169283837], [-60.00388963916226, -2.9628270871993054], [-59.9964487304432, -2.960128019750001], [-59.98311913668672, -2.958890553128286], [-59.98033678966667, -2.96020364759956], [-59.97754984163467, -2.965483192912891], [-59.9701334618548, -2.9678243415767867], [-59.96904945898906, -2.9808874329033954], [-59.97118491130834, -2.990530413172869], [-59.97466506778191, -2.9923021103637155], [-59.98076316215204, -2.9895200134211954], [-59.98906325665802, -2.9912849841260103], [-59.990286679113055, -2.9945088661784354], [-59.988064149780016, -2.9992808379509257], [-59.98854649402919, -3.0067357550414933], [-59.99011489047063, -3.0091855649783175], [-59.99653749343219, -3.0125941539163357], [-59.99600220216585, -3.0230381156060524], [-60.000887073583876, -3.026385711926156], [-60.00986370952278, -3.026693338321519], [-60.01218459200564, -3.0297811194014055], [-60.011793631668176, -3.0334928811358597], [-60.00966020721024, -3.035678950113984], [-60.00149567158749, -3.0342715651181473], [-59.998476389644296, -3.0353592910598692], [-59.99563011705294, -3.0436564643461295], [-59.99062152336777, -3.04782387400909], [-59.9832301087352, -3.0452441007900415], [-59.97810780464653, -3.029979643326704], [-59.9752824952568, -3.0288163104496677], [-59.9720703330525, -3.0301166819266934], [-59.9688187279138, -3.0358968496395393], [-59.97062864635564, -3.0426604417457512], [-59.97434264740255, -3.0481268390992984], [-59.97387518707246, -3.0533782753672063], [-59.97560391481263, -3.0589420775796694], [-59.97387803343228, -3.0673808036196224], [-59.971128361796445, -3.070113936299596], [-59.96093776226558, -3.07142972393109], [-59.958646247150554, -3.0746363158276355], [-59.96034228507079, -3.0846605508716265], [-59.96282385116297, -3.087083797862132], [-59.97002836704168, -3.0873382466451154], [-59.975271756862156, -3.081509889534979], [-59.97978601657628, -3.081738856429385], [-59.982945435439525, -3.089769028454494], [-59.98313203062288, -3.0951217791744665], [-59.988743853175016, -3.099880207494871], [-59.988374295294534, -3.105315487389046], [-59.991736423362404, -3.117942764494952], [-59.989767889502716, -3.1203364125484656], [-59.982480640422935, -3.122463979868572], [-59.98373042549152, -3.1310958877871067], [-59.97954854520818, -3.1353344003160935], [-59.978508112768885, -3.139031107737523], [-59.980501989238576, -3.1422154299830565], [-59.9874724025482, -3.143965882021788], [-59.99251785973188, -3.1503338185991185], [-59.99273728258655, -3.155453456628609], [-59.99445674186478, -3.157727887362657], [-59.99832317332911, -3.158142248616241], [-60.007051736114335, -3.1540039749994495], [-60.011516642642974, -3.147489336399623], [-60.024857010516456, -3.1445763665925943], [-60.04025843684576, -3.1293927925663], [-60.043544326730014, -3.1235400840857324], [-60.04976195571799, -3.1228269761446215], [-60.058753415828825, -3.1162279820274295], [-60.06600260815247, -3.114538637510653], [-60.07838429312002, -3.0956707205205696], [-60.07837346793913, -3.0870857104223557], [-60.08111308127056, -3.0857082971501253], [-60.08717640698683, -3.0866473337238602], [-60.0921457235399, -3.0842202572480777], [-60.09418195807369, -3.0739440777531435], [-60.10368930471553, -3.0666392417849875], [-60.113225904583345, -3.062145015619811], [-60.11631949960524, -3.0576410138674834]], [[-60.01315082958659, -3.1091836950231846], [-60.01423193926018, -3.1122345235784863], [-60.01289734396546, -3.1149187200613446], [-60.00900763604488, -3.1177495872587224], [-60.00509749301769, -3.1166329968064352], [-60.002395633888355, -3.1087995035130014], [-60.003719335577486, -3.1047505080052527], [-60.00811984414957, -3.104063198316089], [-60.01315082958659, -3.1091836950231846]], [[-60.06762744403614, -3.0176915668190785], [-60.063007512553014, -3.019467324529168], [-60.0592762511864, -3.02691765995631], [-60.066864579735295, -3.0373806685959694], [-60.069028454589, -3.046037321897866], [-60.06703426508749, -3.0495968764604378], [-60.06063845028287, -3.049068287497396], [-60.052689571021546, -3.0507931776208745], [-60.04675676309763, -3.0440156551852704], [-60.03240070310587, -3.0423520070611376], [-60.02681816909369, -3.043227431125236], [-60.023530092212745, -3.040967936698632], [-60.022258551517574, -3.0333529503007455], [-60.02331072306371, -3.0304677909031756], [-60.03251228770457, -3.0259774713891883], [-60.03649957030425, -3.02141669043587], [-60.04300735702363, -3.0226609327503295], [-60.04908007582164, -3.0204003166335136], [-60.05566785367556, -3.0131165417484773], [-60.05861167291365, -3.0059945576833886], [-60.065610934309746, -3.005415356387299], [-60.0683024516667, -3.006855777779616], [-60.071024038380166, -3.013718678793016], [-60.06762744403614, -3.0176915668190785]]], [[[-59.96329232040839, -3.029283944173558], [-59.96259071970038, -3.0224729755389923], [-59.96391100245714, -3.0182552463712664], [-59.97221390028839, -3.0139573330355875], [-59.973794314471284, -3.0113673244339214], [-59.973042847444056, -3.0083352605517892], [-59.96751620967809, -3.0033989907780163], [-59.95772494557296, -3.002080052331198], [-59.95160180014275, -3.0053481980607537], [-59.900779187829784, -2.9985071633094376], [-59.899123961952014, -3.000830286121106], [-59.89935381289067, -3.0041885671047592], [-59.90667951535848, -3.017644000244976], [-59.91216136735868, -3.022651710837172], [-59.905830078646645, -3.0334166587570044], [-59.91090390319278, -3.0436040802801045], [-59.906043850240145, -3.0497261892901735], [-59.90598775796271, -3.0547804575888273], [-59.910330974814855, -3.0592161540595466], [-59.91087340002358, -3.062600133411386], [-59.908950957290934, -3.064990594668084], [-59.90382392747075, -3.065760025852949], [-59.89599880733405, -3.0722984290124487], [-59.89298777436489, -3.072876761577658], [-59.88941926445823, -3.06914650276222], [-59.88853183024306, -3.0609019302500853], [-59.88639812199531, -3.057473729627505], [-59.883437964304846, -3.05594374288093], [-59.879827779512574, -3.0569727566006435], [-59.87667069089465, -3.0641050310860725], [-59.87615713153433, -3.0747960033394697], [-59.87401870931823, -3.0801962505660523], [-59.8750435092576, -3.08694868467341], [-59.880243482571466, -3.0890991665993823], [-59.891483221207956, -3.082972361738781], [-59.895265167003444, -3.078458740409831], [-59.90605110775181, -3.078673453832211], [-59.9108080069488, -3.0825007008551264], [-59.90822765028265, -3.089809117472591], [-59.91060331382005, -3.0943133409050447], [-59.915832125366975, -3.0967063240603285], [-59.920338841356504, -3.096311957880923], [-59.92251363444192, -3.0935541288619484], [-59.92299869324452, -3.0853755595338748], [-59.93057441598117, -3.076496541042602], [-59.936482061856985, -3.074428170875491], [-59.93835951745257, -3.0694741972624393], [-59.94469902935449, -3.063121680112386], [-59.945116307862605, -3.054322275647877], [-59.93989423834828, -3.0480918786203777], [-59.937366942862774, -3.040787317159253], [-59.937947440822434, -3.037843271971516], [-59.9441140064994, -3.034080569085261], [-59.949429734202724, -3.0348581425741608], [-59.95758123297875, -3.032955107385898], [-59.96329232040839, -3.029283944173558]]], [[[-59.938451873995874, -3.120374629456773], [-59.93752192479552, -3.1157923693761487], [-59.942777611320786, -3.1110786484479167], [-59.94301539599893, -3.1048358583997255], [-59.93984683464154, -3.102875352089272], [-59.9286735618662, -3.103967256194789], [-59.926924149634274, -3.1060791762761055], [-59.92449916271606, -3.1166959910718517], [-59.925718291033476, -3.1250646859117768], [-59.92961633270547, -3.1271976684845044], [-59.9359209512055, -3.126357621547011], [-59.93852580216113, -3.12374038768845], [-59.938451873995874, -3.120374629456773]]], [[[-59.95867837658663, -3.141382532577687], [-59.95597718169308, -3.134939470068123], [-59.95017510442164, -3.135491473469526], [-59.94628634498739, -3.1463912744332023], [-59.94929743687071, -3.1517372061681184], [-59.95568693204166, -3.153557831014816], [-59.95887561738254, -3.152344635313414], [-59.960882389957526, -3.146875513257018], [-59.95867837658663, -3.141382532577687]]], [[[-59.974811673372294, -3.1079692395110023], [-59.97405805649689, -3.1050805671873896], [-59.96709612321904, -3.097446244954259], [-59.95864962914191, -3.096337426527081], [-59.955212522584645, -3.098900557174284], [-59.95470642732167, -3.1030769559046627], [-59.95774625549401, -3.108545149132944], [-59.96674978840134, -3.1147040412371387], [-59.97111611637746, -3.114063416743012], [-59.974811673372294, -3.1079692395110023]]], [[[-60.01484307919473, -2.928942409133274], [-60.014675260539924, -2.9247414448597495], [-60.00859346478948, -2.920971352098282], [-60.00418943741644, -2.9137743342710136], [-60.000795304974574, -2.913668863717906], [-59.99333282982272, -2.918289049567003], [-59.9945429747811, -2.9305122785689792], [-60.00359634161805, -2.939587324847293], [-60.00826389726526, -2.938957243310961], [-60.01210434525867, -2.934947136369406], [-60.01484307919473, -2.928942409133274]]], [[[-60.041217095555396, -3.2133422274151564], [-60.03886957258146, -3.2076198769405404], [-60.034818648539215, -3.2065594218427407], [-60.02663096848933, -3.213966100798723], [-60.02575743577725, -3.218108079887772], [-60.03280916383514, -3.2239267090764745], [-60.03617701200388, -3.224288442523147], [-60.0429424298025, -3.2193413312204524], [-60.041217095555396, -3.2133422274151564]]], [[[-60.113161074093874, -3.171213181114634], [-60.109108585471056, -3.1629403203898803], [-60.103148855732016, -3.158996488288906], [-60.10474341993205, -3.148874462295194], [-60.097151874625524, -3.1445702104315894], [-60.0929627326468, -3.145568918755504], [-60.087765250133046, -3.149723670218809], [-60.086715368974836, -3.1578265594538135], [-60.07861837883537, -3.162319193681027], [-60.075134311851045, -3.1706795991786314], [-60.076608617263034, -3.173833908437833], [-60.08299723358431, -3.177008976333874], [-60.09294122253084, -3.1790083134952147], [-60.09558414263493, -3.1844549258823744], [-60.0986358767277, -3.1858688046944414], [-60.11068026084147, -3.1847090076651914], [-60.113161074093874, -3.171213181114634]]], [[[-60.162518263669604, -3.1554738037734316], [-60.160659752630146, -3.151145311330665], [-60.15245959213914, -3.14680986489525], [-60.14885020294465, -3.1481823613769553], [-60.146603117755824, -3.1537775728095747], [-60.14900160884216, -3.1598723659177197], [-60.15191351236999, -3.1615976327915525], [-60.16076415424088, -3.1613336975100284], [-60.16280262224096, -3.15866121220688], [-60.162518263669604, -3.1554738037734316]]]]}, "properties": {}}