{"type": "Feature", "properties": {"city": "Pretoria", "country": "South Africa", "real_area": 828.06}, "geometry": {"type": "MultiLineString", "coordinates": [[[28.0920460132462, -25.9686785108304], [28.0942104820838, -25.964052835299], [28.0907186256108, -25.9600815504716], [28.0850623716884, -25.9607359221302], [28.0828977528373, -25.9653615736663], [28.0863895378917, -25.9693328775447], [28.0920460132462, -25.9686785108304]], [[28.135288442911, -26.0249099838676], [28.1374526012081, -26.0202857012973], [28.1339589923216, -26.0163171277409], [28.1283012958081, -26.0169728177851], [28.1261369868646, -26.0215970769078], [28.1296305250506, -26.0255656694395], [28.135288442911, -26.0249099838676]], [[28.2245099780603, -26.1544299273589], [28.226673621782, -26.1498090521964], [28.2231761894207, -26.1458465325435], [28.2175151825319, -26.1465048692914], [28.2153513868387, -26.1511257221721], [28.2188487499755, -26.1550882605925], [28.2245099780603, -26.1544299273589]], [[28.1200964546456, -26.2058440887805], [28.1222627056914, -26.2012268181067], [28.1187665111389, -26.1972634641758], [28.113104136593, -26.1979173627012], [28.1109377348474, -26.2025346103485], [28.1144338583169, -26.2064979825026], [28.1200964546456, -26.2058440887805]], [[27.947671101183, -26.2649372023091], [27.9498413747045, -26.2603249646549], [27.9463476851643, -26.2563594566246], [27.9406837962071, -26.2570061688367], [27.9385133741295, -26.2616183821669], [27.9420069895347, -26.2655839076147], [27.947671101183, -26.2649372023091]], [[28.207005426058, -25.985958393429], [28.2091677599498, -25.9813315222312], [28.2056733580317, -25.9773634148989], [28.2000166916152, -25.978022159403], [28.1978542062097, -25.9826490076548], [28.2013485387041, -25.9866171343541], [28.207005426058, -25.985958393429]], [[28.0873067319494, -26.1615841115266], [28.0894732012038, -26.1569657054882], [28.0859783646751, -26.1530002231898], [28.0803171304888, -26.1536531286518], [28.0781505110177, -26.1582715112473], [28.0816452759191, -26.1622370118295], [28.0873067319494, -26.1615841115266]], [[28.0462174685915, -26.1007787948006], [28.0440506916836, -26.1053986079772], [28.0475439331378, -26.1093665237688], [28.0453770977346, -26.1139860369855], [28.0488705026152, -26.1179536583039], [28.0545308151, -26.117301748055], [28.0566975007694, -26.112682210978], [28.062357677084, -26.1120299584795], [28.0645241544593, -26.1074100975956], [28.0610306053779, -26.1034425130138], [28.0631970243156, -26.098822352259], [28.0597036386256, -26.0948544732616], [28.0618699991259, -26.0902340128004], [28.0583767768161, -26.0862658395608], [28.052717266041, -26.0869181083388], [28.0505507557709, -26.0915385449153], [28.0448911089651, -26.0921904717373], [28.0427243905525, -26.0968105847092], [28.0462174685915, -26.1007787948006]], [[28.2986871823151, -25.6861347574284], [28.3008447211325, -25.6814954676669], [28.2973532925266, -25.6775204075149], [28.2917043927108, -25.6781846162608], [28.2895467016205, -25.6828238829472], [28.2930380625887, -25.6867989639686], [28.2986871823151, -25.6861347574284]], [[28.2256654238824, -26.1062259214577], [28.2291622724635, -26.1101896078132], [28.2269990702718, -26.1148120048083], [28.2304960820524, -26.1187753950442], [28.2361563650531, -26.1181163693324], [28.2383194151742, -26.1134939500464], [28.243979557104, -26.1128345835783], [28.2461423972032, -26.1082118425808], [28.2426452475668, -26.1042484902849], [28.2448080298371, -26.0996254499423], [28.2413110433644, -26.0956618015847], [28.2434737678058, -26.0910384620615], [28.2399769444856, -26.0870745178154], [28.2343174655874, -26.0877338940471], [28.2308208743203, -26.0837696350056], [28.2251614755275, -26.0844286741451], [28.2229984469968, -26.0890519689505], [28.2173389075251, -26.0897106675935], [28.2151756692169, -26.0943336408382], [28.2186721222405, -26.0982979379009], [28.2165088260163, -26.1029206119131], [28.2200054422351, -26.1068846131735], [28.2256654238824, -26.1062259214577]], [[28.1672520474141, -25.784809140895], [28.1694132007906, -25.7801755055761], [28.1659227782018, -25.7762003862551], [28.1602712721957, -25.7768588822253], [28.158109968092, -25.7814924936288], [28.1616003206914, -25.7854676329833], [28.1672520474141, -25.784809140895]], [[28.0046700968032, -26.0181253871931], [28.0081611599801, -26.0220968789924], [28.0059944033402, -26.0267190127799], [28.0094856298616, -26.0306902121055], [28.0151436858532, -26.0300392590867], [28.0173102933856, -26.0254171008306], [28.0138189940643, -26.0214459200562], [28.0159855430451, -26.0168234633998], [28.0124944070509, -26.0128519901807], [28.0068367948628, -26.0135029550434], [28.0033458950192, -26.0095311709446], [27.9976883700602, -26.0101818004389], [27.9955215230442, -26.0148042079927], [27.9990123499132, -26.0187760106537], [28.0046700968032, -26.0181253871931]], [[28.0895343412965, -26.0083389675392], [28.0916992516039, -26.0037148031004], [28.0882068138031, -25.9997446689965], [28.0825495371527, -26.0003986804502], [28.0790573340609, -25.996428234725], [28.0734001422415, -25.9970819106809], [28.0712349319855, -26.0017060272421], [28.0747270634316, -26.0056764918364], [28.0803844768099, -26.0050228209948], [28.0838768431225, -26.0089929739856], [28.0895343412965, -26.0083389675392]], [[28.0565629476861, -26.0558747205112], [28.0543968209341, -26.060496378151], [28.0578895531702, -26.0644654330748], [28.0635484841664, -26.0638128117702], [28.0657144611415, -26.0591911301833], [28.0622216569275, -26.0552220938424], [28.0643875754946, -26.050600113335], [28.0608949345988, -26.0466307834759], [28.0552364471008, -26.047283415518], [28.0530703787856, -26.0519053720403], [28.0565629476861, -26.0558747205112]], [[28.0231606831022, -25.5208632073662], [28.0253221224982, -25.5162223115548], [28.0218387346185, -25.512236077148], [28.016193979637, -25.5128907179416], [28.0140323917193, -25.5175315877397], [28.0175157072746, -25.5215178427631], [28.0231606831022, -25.5208632073662]], [[28.2729808942893, -25.4081958335027], [28.2751362352135, -25.4035469909821], [28.2716497018127, -25.3995631144106], [28.2660078953718, -25.4002280584385], [28.2638524028854, -25.4048768767773], [28.267338868372, -25.4088607752757], [28.2729808942893, -25.4081958335027]], [[28.1063593352116, -25.9495195216597], [28.108523329043, -25.9448929077935], [28.1050314932585, -25.9409213692899], [28.0993757347688, -25.9415764254838], [28.0972115907661, -25.9462030154191], [28.1007033553941, -25.9501745730971], [28.1063593352116, -25.9495195216597]], [[28.0687191460021, -26.0413555308697], [28.0708847979411, -26.0367329290446], [28.0673922484792, -26.0327633245291], [28.0695578420395, -26.0281404242408], [28.0660654558559, -26.0241705265842], [28.060407547972, -26.0248235105046], [28.0582418046277, -26.0294463867831], [28.0617341189209, -26.0334163031566], [28.0595683171692, -26.0380388810098], [28.0630607947581, -26.0420085042131], [28.0687191460021, -26.0413555308697]], [[28.0468356451664, -26.1793499907635], [28.0411737287339, -26.1800011820432], [28.0376794876113, -26.1760352949972], [28.0320176574561, -26.1766861488023], [28.0298498463423, -26.1813028838932], [28.0333440149789, -26.1852687889723], [28.0311761452817, -26.1898852225752], [28.0255139573852, -26.190535727266], [28.0233458795435, -26.1951518354161], [28.0268401391285, -26.1991174626821], [28.0246720026742, -26.2037332690543], [28.0190094571372, -26.2043834243139], [28.0155152703012, -26.2004177791364], [28.009852811761, -26.2010675967157], [28.0076843178248, -26.2056830534286], [28.0111784317714, -26.2096487164711], [28.0168411125742, -26.2089989049301], [28.0203354630135, -26.2129642541069], [28.025998230778, -26.2123141047788], [28.0281664258451, -26.207698600348], [28.0338290580923, -26.2070481073342], [28.0373237174342, -26.2110131245817], [28.0429864361048, -26.2103622937401], [28.0464813314535, -26.214326996779], [28.0521441362608, -26.2136758280359], [28.0543118235782, -26.209059950639], [28.0599744921599, -26.2084084384069], [28.0621419710224, -26.2037922355843], [28.0678045031735, -26.2031403799941], [28.0712997784606, -26.2071047326482], [28.0769623959584, -26.2064525391492], [28.0791295161565, -26.2018359876831], [28.0847919967673, -26.2011834509901], [28.0869589082875, -26.1965665745042], [28.0926212518063, -26.1959136947481], [28.0947879545842, -26.1912964934199], [28.091292464206, -26.187332195135], [28.0934591086028, -26.1827146923835], [28.0899637817038, -26.178750097836], [28.0843018819519, -26.1794029878476], [28.0821350872517, -26.1840204672689], [28.076473050501, -26.1846730144128], [28.0743060471811, -26.1892901690666], [28.0686438736365, -26.1899423732119], [28.0664766617615, -26.1945592029209], [28.060814351628, -26.1952110639365], [28.0573194754063, -26.1912461006715], [28.0594868372749, -26.1866292944839], [28.0651489254021, -26.1859774280341], [28.0673160788093, -26.1813602968505], [28.0638212940844, -26.17739505567], [28.0581594279522, -26.1780469275632], [28.0546648787734, -26.1740813724086], [28.0490030983804, -26.1747329067867], [28.0468356451664, -26.1793499907635]], [[28.2388247423829, -26.1352861624436], [28.2409879082202, -26.1306643425955], [28.2374905010452, -26.1267015640069], [28.2318299969647, -26.1273605863833], [28.2296666789986, -26.1319823840155], [28.2240060340044, -26.1326410654051], [28.2218425061154, -26.1372625408416], [28.225339775226, -26.1412253571619], [28.2310006413582, -26.1405666791971], [28.2331640172115, -26.135945181493], [28.2388247423829, -26.1352861624436]], [[28.1737231866929, -26.2171083656016], [28.1758884728474, -26.212490656874], [28.1723910378086, -26.2085288984603], [28.1667283867373, -26.2091848304218], [28.1645629491772, -26.2138025166185], [28.1680603140635, -26.2177642933902], [28.1737231866929, -26.2171083656016]], [[28.0942683596598, -25.8151991152691], [28.096431272409, -25.8105677522942], [28.0929418106008, -25.8065918756811], [28.0872895072932, -25.8072473423818], [28.0851264447113, -25.8118786809016], [28.0886158352395, -25.8158545771814], [28.0942683596598, -25.8151991152691]], [[28.0358678057787, -26.1456658136397], [28.0337003785076, -26.150283776982], [28.0371941290783, -26.1542505502181], [28.0428553793488, -26.1535993419408], [28.0450226569869, -26.148981354749], [28.0506837713574, -26.1483298036666], [28.0528508407438, -26.143711491933], [28.0493569455168, -26.1397447550744], [28.0436960531311, -26.1403963117431], [28.0402023936396, -26.1364292616505], [28.0345415874203, -26.1370804813048], [28.032374218703, -26.1416987453531], [28.0358678057787, -26.1456658136397]], [[28.0246086677935, -25.5865302568737], [28.0267707219816, -25.5818916987257], [28.0232862680527, -25.5779074284827], [28.0254482639564, -25.5732685807853], [28.0219639726856, -25.569284026468], [28.0163177578405, -25.56993829947], [28.0128337015936, -25.5659534408419], [28.0071875733286, -25.5666073837228], [28.0050252803461, -25.5712461796739], [28.008509264077, -25.575231058668], [28.006346912753, -25.5798695651483], [28.0098310591654, -25.5838541601846], [28.0154776294308, -25.5832002283997], [28.0189620110175, -25.5871845189957], [28.0246086677935, -25.5865302568737]], [[28.3526221959196, -25.8112905297162], [28.3547798694018, -25.8066549451993], [28.3512854093557, -25.8026848979501], [28.345633342571, -25.8033504146816], [28.3434755159535, -25.8079859769848], [28.3469699092257, -25.8119560447759], [28.3526221959196, -25.8112905297162]], [[28.0037037522682, -25.562622220949], [28.0058659869094, -25.5579831356966], [28.0023823285084, -25.5539976893212], [27.9967365081256, -25.5546513078247], [27.9945741251561, -25.559290367029], [27.9980577108675, -25.5632758337836], [28.0037037522682, -25.562622220949]], [[28.1073920208651, -25.8443362698253], [28.1095549580939, -25.8397057653376], [28.1060647734618, -25.8357310664149], [28.1004117226407, -25.8363868523908], [28.098248635371, -25.8410173326287], [28.1017387489328, -25.8449920511462], [28.1073920208651, -25.8443362698253]], [[28.0921897110628, -26.0255257918983], [28.0943547379536, -26.020902223457], [28.0908619737128, -26.0169326752863], [28.0852042540038, -26.0175866767342], [28.08303907702, -26.0222102213574], [28.0865317698077, -26.0261797883565], [28.0921897110628, -26.0255257918983]], [[28.1154881499502, -25.4486394136963], [28.117647044777, -25.4439944728813], [28.1141629621961, -25.4400082072259], [28.108520055433, -25.4406668611626], [28.1063610109997, -25.4453117765393], [28.1098450229058, -25.4492980634233], [28.1154881499502, -25.4486394136963]], [[27.9219707716898, -26.0232403498641], [27.9198022952372, -26.0278610404909], [27.9232918051243, -26.031834176706], [27.9211232698035, -26.036454568526], [27.924612943152, -26.0404274128489], [27.9302712261375, -26.0397798471214], [27.9324396134319, -26.0351594301331], [27.9289498657976, -26.031186604035], [27.9311181942525, -26.0265658882018], [27.9367761222518, -26.0259179733437], [27.9389442437758, -26.0212969336751], [27.9446020388963, -26.0206486767603], [27.9467699534243, -26.0160273134341], [27.9432802210477, -26.0120542321218], [27.9376226481358, -26.0127024957932], [27.9354545854224, -26.0173238340146], [27.9297968796778, -26.0179717557275], [27.9263074589205, -26.0139983460772], [27.9206498428375, -26.0146459326628], [27.9184814252528, -26.0192669219311], [27.9219707716898, -26.0232403498641]], [[28.0339578044549, -26.263786544119], [28.0361263512021, -26.2591728547681], [28.0326309462804, -26.2552093029323], [28.0269670672079, -26.2558594227398], [28.0247983707917, -26.2604730885008], [28.0282937030866, -26.2644366580499], [28.0339578044549, -26.263786544119]], [[28.0975017100216, -26.0598923402086], [28.0996669700806, -26.0552699657449], [28.0961735528261, -26.0513015915299], [28.0905149468648, -26.0519555730721], [28.0883495365972, -26.0565779238693], [28.091842882469, -26.0605463167965], [28.0975017100216, -26.0598923402086]], [[28.005033509951, -26.188519624655], [28.0072018865466, -26.1839035643732], [28.003708263395, -26.1799370142798], [27.9980463366993, -26.1805865065703], [27.9958778109108, -26.1852025427851], [27.9993713609805, -26.1891691107821], [28.005033509951, -26.188519624655]], [[27.9829803143927, -26.2696293745119], [27.9851499336737, -26.265016737096], [27.9816554578585, -26.2610521886639], [27.9759914362532, -26.2617002601343], [27.9738216679535, -26.2663128735422], [27.9773160702472, -26.2702774394935], [27.9829803143927, -26.2696293745119]], [[28.363320279454, -25.8801145043137], [28.3654784113777, -25.8754812702583], [28.3619826503379, -25.8715135600816], [28.3563288239731, -25.8721790636643], [28.3541705386815, -25.8768122758108], [28.3576662330923, -25.8807800062892], [28.363320279454, -25.8801145043137]], [[28.2262847921161, -25.8874238249104], [28.2284457677245, -25.8827930133494], [28.2249525556696, -25.8788223512353], [28.2271134735083, -25.8741912447249], [28.2236204243048, -25.8702202909609], [28.2179665262752, -25.8708804238625], [28.2158054568406, -25.8755115072528], [28.2192984370012, -25.8794824808673], [28.217137309768, -25.8841132693463], [28.2206304527978, -25.8880839512811], [28.2262847921161, -25.8874238249104]], [[28.3916677296898, -25.7847768462923], [28.3938243498751, -25.7801396875033], [28.390329558052, -25.7761697436674], [28.3846782120899, -25.7768369378498], [28.3825214383079, -25.7814740746857], [28.3860161640545, -25.785444039298], [28.3916677296898, -25.7847768462923]], [[28.102616654777, -26.1860257447388], [28.1004501608061, -26.1906432707317], [28.1039458860735, -26.1946072543939], [28.1096081766008, -26.1939536938237], [28.1117745200233, -26.1893361446781], [28.1082787234973, -26.1853721792496], [28.1104450085967, -26.1807543287695], [28.1161069396105, -26.1801004206106], [28.1196028072549, -26.1840643677589], [28.1252648220713, -26.183410121785], [28.1274307474991, -26.1787919239453], [28.1239348088766, -26.1748279951236], [28.1182730157739, -26.1754822458209], [28.1147773115669, -26.1715180023231], [28.1091156023021, -26.1721719153119], [28.1069493755257, -26.1767900669629], [28.1012875286012, -26.1774436373798], [28.0991210929823, -26.1820614646698], [28.102616654777, -26.1860257447388]], [[28.1903512596459, -25.6549791417253], [28.1925106754965, -25.6503404252611], [28.1890218565537, -25.6463619502813], [28.1833736912349, -25.6470221711363], [28.1812141245391, -25.6516608634782], [28.184702873977, -25.6556393590931], [28.1903512596459, -25.6549791417253]], [[28.078010366776, -26.1014843818615], [28.0801764273693, -26.0968638738977], [28.0766827346475, -26.0928963262394], [28.0710230530521, -26.0935492680654], [28.0688568424441, -26.0981697523224], [28.0723504634157, -26.1021373184658], [28.078010366776, -26.1014843818615]], [[28.2030095373763, -25.9601716872844], [28.2051716976098, -25.9555439257113], [28.2016777847253, -25.9515749388804], [28.1960217810541, -25.952233694173], [28.1938594693939, -25.9568614326861], [28.1973533128012, -25.9608304389724], [28.2030095373763, -25.9601716872844]], [[28.246832403285, -26.1867812131908], [28.2489959162719, -26.1821611955979], [28.2454975296419, -26.178200199259], [28.2398356988489, -26.1788592018024], [28.2376720335587, -26.1834791974037], [28.2411703513343, -26.1874402124589], [28.246832403285, -26.1867812131908]], [[28.0189936121237, -25.9989831048676], [28.021159836336, -25.9943597294704], [28.0176689542504, -25.9903876905705], [28.0120119206341, -25.991039008388], [28.0098455473069, -25.9956623592532], [28.0133363566804, -25.9996344168387], [28.0189936121237, -25.9989831048676]], [[28.110640458618, -26.0889739269651], [28.1128057431372, -26.084352426253], [28.1093116015183, -26.0803852474182], [28.1036522465222, -26.081039550658], [28.1014868115856, -26.0856610279061], [28.1049808820322, -26.089628225384], [28.110640458618, -26.0889739269651]], [[27.9932530850797, -25.550665557616], [27.9954154096795, -25.5460262093191], [27.991932149288, -25.5420401758343], [27.9862866371296, -25.5426934702599], [27.9841241643516, -25.5473327923788], [27.9784785186189, -25.5479857512297], [27.9763158393575, -25.5526247580667], [27.9797989538837, -25.5566108322873], [27.9854448207037, -25.5559578793216], [27.98760735188, -25.5513188462558], [27.9932530850797, -25.550665557616]], [[28.0319896262755, -25.9712397532804], [28.0341553180337, -25.9666151386676], [28.0306646174149, -25.9626425537872], [28.0250082974748, -25.9632945646869], [28.022842456472, -25.9679191547935], [28.0263330846236, -25.9718917585123], [28.0319896262755, -25.9712397532804]], [[28.0045490846415, -25.961276022211], [28.0067152237664, -25.9566514813848], [28.003225230749, -25.9526779659379], [27.9975691715152, -25.9533289725384], [27.9954028835126, -25.9579534885906], [27.9988928035911, -25.961927022822], [28.0045490846415, -25.961276022211]], [[28.3252750296258, -26.1907330011052], [28.3274369935965, -26.1861118867247], [28.3239370147057, -26.1821528478122], [28.3182751392979, -26.182814904328], [28.3161130220119, -26.1874359974072], [28.3104510032879, -26.1880977129536], [28.3082886751542, -26.1927184839233], [28.3117885189365, -26.1966775607057], [28.3174507585072, -26.1960158476006], [28.3196129334186, -26.1913950552776], [28.3252750296258, -26.1907330011052]], [[28.0271271545143, -25.5467411683688], [28.0292887686747, -25.5421011382728], [28.0258048930392, -25.5381157533247], [28.0201594754854, -25.538770377954], [28.0166758347361, -25.5347846891197], [28.0110305036174, -25.5354389839855], [28.0088685923636, -25.5400789622011], [28.0123521606842, -25.5440646715419], [28.0179977127175, -25.543410382155], [28.0214815160806, -25.5473957876273], [28.0271271545143, -25.5467411683688]], [[27.9891374726371, -26.0854889804585], [27.9913051452034, -26.0808693125383], [27.987813484223, -26.0768992298252], [27.9821542239363, -26.0775487967906], [27.9799864025223, -26.0821684401903], [27.9834779902123, -26.0861385411507], [27.9891374726371, -26.0854889804585]], [[28.0129871929283, -26.2400027336514], [28.015155921548, -26.2353884860387], [28.0116613167053, -26.2314237116015], [28.0059980561898, -26.2320731670492], [28.0038291782043, -26.2366873908202], [28.0073237100697, -26.2406521829908], [28.0129871929283, -26.2400027336514]], [[28.0188688989215, -25.942124933642], [28.0210345644466, -25.9374994525758], [28.0175445891738, -25.9335256838504], [28.0118890210222, -25.9341773772885], [28.009723206461, -25.9388028336443], [28.0132131090572, -25.9427766212782], [28.0188688989215, -25.942124933642]], [[28.1060148869121, -25.9845612739917], [28.1038504517434, -25.9891863789345], [28.1073430321008, -25.9931564751239], [28.1130001187259, -25.9925014473369], [28.1164929333135, -25.9964712317067], [28.1221501036957, -25.9958158683423], [28.1256431523495, -25.9997853407299], [28.123478959758, -26.0044101954923], [28.1178215680159, -26.0050655542599], [28.1143285902555, -26.0010960628562], [28.1086712822352, -26.0017510859393], [28.1051785386985, -25.997781282571], [28.0995213146862, -25.998435970043], [28.0973566127992, -26.0030604560753], [28.1008492851451, -26.0070302783951], [28.0986845249954, -26.0116544666388], [28.1021773605494, -26.015623995934], [28.1000125421369, -26.0202478862237], [28.1035055409099, -26.0242171223202], [28.1091634292814, -26.0235624492282], [28.1113280973852, -26.0189385352608], [28.1169858482297, -26.0182835215591], [28.1191503076974, -26.0136592859735], [28.1248079208107, -26.013003931794], [28.1269721715781, -26.0083793747687], [28.1326296467558, -26.0077236802434], [28.1347936887586, -26.0030988019574], [28.1404510257966, -26.0024427672183], [28.1426148589706, -25.9978175678505], [28.1391215058187, -25.9938484266883], [28.1334643900585, -25.9945044658191], [28.1299712706512, -25.9905350124945], [28.1321351963602, -25.9859095391547], [28.1286422400904, -25.9819397929226], [28.1308061076526, -25.9773140223043], [28.1273133145093, -25.9733439833389], [28.1294771239248, -25.9687179156078], [28.1259844938967, -25.9647475840837], [28.1281482451657, -25.9601212194055], [28.1338044759267, -25.9594651626215], [28.1359680185117, -25.9548384774997], [28.1324754809035, -25.9508678728186], [28.134638965371, -25.9462408910434], [28.1311465908383, -25.9422699941821], [28.1254908025096, -25.9429260598449], [28.1233271675335, -25.9475530179196], [28.1176712413914, -25.9482087440569], [28.1155073978535, -25.9528353817644], [28.1189996308426, -25.9568063170922], [28.1168357291293, -25.9614326580567], [28.1203281252292, -25.9654033011454], [28.1181641653405, -25.9700293452009], [28.1125076589705, -25.9706847224082], [28.1103434905264, -25.9753104456619], [28.1046868466581, -25.9759654828827], [28.1025224697228, -25.9805908851556], [28.1060148869121, -25.9845612739917]], [[28.1620972543457, -25.8073161176468], [28.1642587322764, -25.8026833863924], [28.1607680540597, -25.7987088259583], [28.162929474048, -25.7940758011535], [28.1594389586455, -25.7901009511713], [28.1537870933355, -25.7907591060434], [28.1502968108649, -25.7867839467027], [28.1524583235452, -25.7821506524817], [28.1489682038842, -25.7781752039146], [28.1433166417987, -25.7788330296053], [28.1411549786058, -25.7834662997694], [28.1355032784331, -25.7841237881758], [28.1333414068205, -25.7887567409255], [28.1368313857701, -25.7927322293828], [28.1424833067879, -25.7920747451634], [28.1459735189903, -25.7960499244429], [28.1438117397973, -25.8006826078276], [28.147302114838, -25.8046574976747], [28.1451402776449, -25.8092898874186], [28.1486308155352, -25.8132644876576], [28.1464689203417, -25.8178965835935], [28.1499596210926, -25.8218708940485], [28.1556122872825, -25.8212130887131], [28.1577740318481, -25.8165809688744], [28.1542832608819, -25.8126066782682], [28.156444947476, -25.807974264583], [28.1620972543457, -25.8073161176468]], [[28.1900347051868, -25.9879339409758], [28.192197399928, -25.9833074128072], [28.1887033000552, -25.9793389733883], [28.183046575132, -25.9799970428408], [28.1808837290921, -25.9846235479221], [28.1752268647583, -25.9852812778561], [28.1730638095397, -25.9899074626236], [28.1674068059991, -25.9905648529066], [28.165243541666, -25.9951907171809], [28.1687374319554, -25.9991592143681], [28.1665741095911, -26.0037847812119], [28.1700681629917, -26.0077529849118], [28.1757256087703, -26.0070956025822], [28.1792198952587, -26.0110634934699], [28.1848774228261, -26.0104057751583], [28.1883719422379, -26.0143733530716], [28.1940295513075, -26.0137152987051], [28.1975243034784, -26.0176825634819], [28.2031819937639, -26.0170241729878], [28.2053447108306, -26.012398514071], [28.2110022610635, -26.0117397838319], [28.2131647686142, -26.0071138045006], [28.2188221785906, -26.006454734649], [28.2209844765614, -26.0018284350825], [28.2266417460774, -26.001169025751], [28.2301369384805, -26.00513591934], [28.2279747923252, -26.0097622415978], [28.2314701477702, -26.0137288410343], [28.2371277183156, -26.013069098847], [28.2392897125334, -26.0084427539875], [28.2357942881735, -26.0044761739113], [28.237956224592, -25.9998495316494], [28.2344609632561, -25.99588265745], [28.2288038344043, -25.9965424061287], [28.2253088050321, -25.9925752185612], [28.2274708355307, -25.9879483017398], [28.2239759691783, -25.9839808203681], [28.2261379418487, -25.9793536065133], [28.2317946290514, -25.9786938513093], [28.2339563920721, -25.9740663178336], [28.2304616197419, -25.9700985623095], [28.2248051533472, -25.9707583207889], [28.2213106130011, -25.9667902523309], [28.2156542269266, -25.9674496751406], [28.212159918729, -25.963481293911], [28.206503613261, -25.9641403811234], [28.2043413951415, -25.9687678460706], [28.2078356340373, -25.9727362467435], [28.2134921603847, -25.9720771630202], [28.2169866315867, -25.9760452509387], [28.2148245071877, -25.9806724419885], [28.2183191414052, -25.9846402364216], [28.2161569591491, -25.989267130476], [28.2104999910094, -25.9899262072465], [28.2083375992314, -25.994552781321], [28.2026804909289, -25.9952115186756], [28.200517889693, -25.999837772591], [28.2040125483008, -26.0038053120278], [28.2018498891495, -26.0084312685266], [28.1961924198817, -26.0090896626724], [28.1926978308019, -26.005122103974], [28.1870404427856, -26.0057801620991], [28.1835460864716, -26.0018122904088], [28.1857090484579, -25.9971863798433], [28.1822148552307, -25.9932182145502], [28.1843777592437, -25.9885920066439], [28.1900347051868, -25.9879339409758]], [[28.1539117848202, -26.1451476859514], [28.1560767571884, -26.1405275918692], [28.1525808627421, -26.1365631445783], [28.1469200663499, -26.1372187728056], [28.1447549429303, -26.1418388439684], [28.1482507669238, -26.145803309829], [28.1539117848202, -26.1451476859514]], [[28.178055841773, -25.9105580114653], [28.1802180150197, -25.9059288158434], [28.176725382169, -25.9019577436815], [28.1710706459224, -25.9026158475788], [28.1689083216374, -25.9072450197709], [28.1632534464008, -25.907902785036], [28.1597611164344, -25.9039313820717], [28.161923591636, -25.8993022333991], [28.1675782459176, -25.8986444641656], [28.1697405122303, -25.8940149964588], [28.1753950275687, -25.8933568886915], [28.1775570849285, -25.8887271021301], [28.1832114611198, -25.8880686559618], [28.1853733094628, -25.8834385507258], [28.1910275463033, -25.8827797662893], [28.1945201555854, -25.8867510907672], [28.2001744736397, -25.8860919717695], [28.2036673152953, -25.890062984944], [28.2093217142773, -25.8894035313123], [28.211483050841, -25.8847730610447], [28.2079901398631, -25.8808020676267], [28.2023359616135, -25.8814615247254], [28.1988432828517, -25.8774902199867], [28.2010047129691, -25.8728594779413], [28.2066586704974, -25.8722000173671], [28.2088198914061, -25.8675689571869], [28.2144737089729, -25.8669091587434], [28.2166347206091, -25.8622777806086], [28.2222883980109, -25.8616176444289], [28.2244492003107, -25.8569859485198], [28.2209564767768, -25.8530144119813], [28.2153030199916, -25.8536745514475], [28.2118105283724, -25.8497027038447], [28.2139714244118, -25.8450707367213], [28.2196246605916, -25.8444105939602], [28.2217853473525, -25.8397783093197], [28.2182929494442, -25.8358061907079], [28.2204535784358, -25.8311736119522], [28.2169613433236, -25.8272012025667], [28.2113085483216, -25.8278613519428], [28.2078165451444, -25.8238886319294], [28.2099772677891, -25.8192557825754], [28.215629842219, -25.8185956298792], [28.2177903556722, -25.8139624633943], [28.2142984461192, -25.8099894729882], [28.2086460922504, -25.8106496290128], [28.205154414646, -25.8066763282699], [28.1995021414896, -25.8073361505867], [28.1973413253712, -25.811969270205], [28.1916889125806, -25.8126287553439], [28.1881975365709, -25.8086551244018], [28.1825452050285, -25.8093142758713], [28.180384028847, -25.8139470546356], [28.1838753352349, -25.8179207055558], [28.1895278874563, -25.8172615577281], [28.1930194262713, -25.8212348985089], [28.1908583432911, -25.82586740706], [28.1852055703795, -25.8265265512544], [28.1830442784283, -25.8311587422622], [28.1773913662427, -25.8318175489136], [28.1738999667753, -25.8278441682837], [28.1682471363026, -25.82850264109], [28.1647559695769, -25.8245289503553], [28.1591032211027, -25.8251870893895], [28.1569414185656, -25.8298189152146], [28.1512885315213, -25.8304767165045], [28.149126520327, -25.8351082243228], [28.1434734949161, -25.8357656877355], [28.1399827016308, -25.8317916474685], [28.1343297590045, -25.8324487771142], [28.1321673887463, -25.8370799427783], [28.1356581115548, -25.8410540027696], [28.1334956832383, -25.8456848740342], [28.1369865689649, -25.8496586438306], [28.1348240825899, -25.8542892205286], [28.1291705600515, -25.8549460034556], [28.1270078651827, -25.8595762614784], [28.1213542048423, -25.8602327060315], [28.1191913015437, -25.8648626451992], [28.1226822088974, -25.8688361638128], [28.1205192474824, -25.8734658079903], [28.1148652284342, -25.8741219095153], [28.1113743919408, -25.8701483713787], [28.113537503605, -25.8655187512459], [28.1100468300936, -25.8615449226496], [28.1122098836126, -25.856915007565], [28.108719373072, -25.8529408886844], [28.1030658800174, -25.8535966653589], [28.1009026764, -25.8582265562706], [28.1043931159054, -25.8622006946864], [28.102229854114, -25.8668302906848], [28.0965760027817, -25.867485724049], [28.0944125327821, -25.8721150007815], [28.0979030641186, -25.8760888683414], [28.095739535916, -25.8807178498656], [28.0992302302696, -25.8846914269063], [28.0970666438638, -25.8893201130555], [28.0914122131045, -25.8899751979711], [28.089248418497, -25.8946035644184], [28.0835938509085, -25.8952583101997], [28.0814298481636, -25.8998863567659], [28.084920562882, -25.9038596817681], [28.0827565018759, -25.9084874325366], [28.0771015763092, -25.9091418340456], [28.0749373072012, -25.9137692646255], [28.0784281134702, -25.9177423179265], [28.0840832604014, -25.9170879214145], [28.0875743012797, -25.9210606643842], [28.085410123751, -25.9256878230583], [28.088901327726, -25.9296602747493], [28.0945567806089, -25.9290055485447], [28.0967208081461, -25.9243783657738], [28.102376124014, -25.923723300041], [28.1045399432337, -25.9190957970561], [28.1101951218825, -25.9184403919272], [28.1123587327205, -25.9138125689075], [28.1180137739462, -25.9131568245147], [28.121505425516, -25.9171289077241], [28.1271605502803, -25.916472828678], [28.1306524356534, -25.9204446010317], [28.1363076436706, -25.919788187259], [28.1397997626831, -25.9237596485939], [28.1376366031116, -25.9283875430586], [28.1411288851597, -25.9323587125922], [28.1467843972497, -25.9317019682753], [28.1489474061552, -25.9270740501748], [28.15460277982, -25.9264169667294], [28.1567655799069, -25.9217887289792], [28.1532731571185, -25.9178175982532], [28.1476180045132, -25.9184746858557], [28.144125815043, -25.9145032439306], [28.1462887078299, -25.9098747338656], [28.1519436393869, -25.9092176420974], [28.1554358991751, -25.9131890645656], [28.1610909131979, -25.9125316380656], [28.1645834061468, -25.9165027493173], [28.1702385023495, -25.9158449880123], [28.172400884607, -25.9112161115012], [28.178055841773, -25.9105580114653]], [[28.1539466670365, -25.847686608241], [28.1595999958232, -25.8470288150164], [28.1617619143036, -25.8423975777199], [28.1674151044268, -25.8417394465536], [28.1709065968806, -25.8457125566105], [28.1687448292363, -25.8503438176048], [28.1630914182719, -25.85100194485], [28.1609294418196, -25.8556328876318], [28.155275892145, -25.8562906768364], [28.151784539841, -25.8523175272735], [28.1539466670365, -25.847686608241]], [[28.1423014474217, -25.8840713552827], [28.1388099099121, -25.8800987480205], [28.140972570463, -25.8754690560227], [28.1466266179389, -25.874811947506], [28.1501182258371, -25.8787845351928], [28.1479557159011, -25.8834142509661], [28.1423014474217, -25.8840713552827]], [[28.0009379296049, -26.1059860191922], [28.0031055704799, -26.1013669265461], [28.0087654501742, -26.1007166993961], [28.0109328832882, -26.09609728251], [28.0074405858599, -26.092128117073], [28.0096079603634, -26.0875084003783], [28.0061158263754, -26.0835389412207], [28.000456390829, -26.0841891804799], [27.9982888672329, -26.0888088728318], [27.9926292970701, -26.0894587697408], [27.9904615658357, -26.0940781379283], [27.9939535537325, -26.0980476336063], [27.9917857638298, -26.1026667018965], [27.9952779152016, -26.1066359037963], [28.0009379296049, -26.1059860191922]], [[28.1131492646719, -26.0493382923771], [28.1153141074782, -26.0447152733774], [28.1118205478781, -26.0407469367272], [28.1061622165442, -26.0414016002766], [28.1039972233426, -26.0460245957125], [28.1074907118399, -26.0499929511685], [28.1131492646719, -26.0493382923771]], [[28.1256797449238, -25.850972214012], [28.1278423817052, -25.8463416612943], [28.1243517295131, -25.8423675816259], [28.1186985112652, -25.8430240350511], [28.116535724199, -25.8476545636987], [28.1200263056352, -25.8516286629969], [28.1256797449238, -25.850972214012]], [[28.1224532231725, -26.1094611724499], [28.1246184736219, -26.1048402474815], [28.1211237710656, -26.1008739715382], [28.1154638890087, -26.101528601966], [28.1132984879618, -26.1061495036351], [28.1167931195388, -26.1101157981814], [28.1224532231725, -26.1094611724499]], [[28.0285764933681, -25.6123952968339], [28.0307387224103, -25.607757608349], [28.0272537804403, -25.6037741913962], [28.0216066816882, -25.6044284426728], [28.0181219747173, -25.6004447208204], [28.0124749624063, -25.601098641544], [28.0089904905973, -25.5971146149568], [28.0111529586049, -25.5924766879257], [28.0076686494997, -25.5884923770249], [28.0020219449772, -25.5891459729045], [27.9985378712026, -25.585161357581], [27.9928912537244, -25.5858146231648], [27.9894074154428, -25.5818297035836], [27.991570121815, -25.5771915386937], [27.9972165182066, -25.576538267359], [27.9993790179161, -25.5718997868481], [27.9958952695281, -25.5679146037259], [27.9902490942117, -25.5685678808202], [27.986765581329, -25.564582393735], [27.9811194934104, -25.5652353408243], [27.9776362161954, -25.5612495499411], [27.9719902159586, -25.5619021671001], [27.9698272718225, -25.5665405691609], [27.9733104759135, -25.5705263803087], [27.9711474733216, -25.5751644928869], [27.9746308401298, -25.5791500204885], [27.9802772826669, -25.5784974152722], [27.983760885293, -25.5824826389462], [27.9815979723226, -25.5871204880341], [27.9759513086182, -25.5877730872921], [27.9724677790817, -25.5837878434148], [27.9668212032394, -25.5844401124933], [27.9646579357507, -25.5890776193859], [27.9681413920585, -25.5930628834183], [27.9659780660848, -25.59770010036], [27.9694616851492, -25.6016850804596], [27.9672983006903, -25.6063220072813], [27.9707820825225, -25.6103067032703], [27.9764293220382, -25.609654452338], [27.9799133398264, -25.6136388439751], [27.9777500449521, -25.6182755066024], [27.9812342255132, -25.6222596138039], [27.9868817739996, -25.6216070382913], [27.9890449206821, -25.6169703496596], [27.9946923354299, -25.6163174376455], [27.9981768246428, -25.620301220084], [28.0038243265804, -25.619647977417], [28.0073090512618, -25.6236314550088], [28.0129566401048, -25.6229778816142], [28.015119283139, -25.6183408250251], [28.0207667375407, -25.6176869153281], [28.0229291736111, -25.6130495427007], [28.0285764933681, -25.6123952968339]], [[27.9864026943544, -25.5997276428167], [27.9920496667805, -25.5990747191458], [27.9955338305055, -25.6030590705113], [27.9933709489358, -25.6076963657019], [27.9877237553545, -25.60834928354], [27.9842396645283, -25.6043649120146], [27.9864026943544, -25.5997276428167]], [[28.1567810823883, -25.7728834536744], [28.1589423285498, -25.7682495492227], [28.1645936138506, -25.7675910493623], [28.168083873665, -25.7715664578495], [28.173735240927, -25.7709076248952], [28.1758961276856, -25.766273379668], [28.1815473560001, -25.7656142098627], [28.1850379181491, -25.7695892889743], [28.1906892278894, -25.7689297860364], [28.1941800223417, -25.7729045557203], [28.1998314132224, -25.7722447195766], [28.2033224398139, -25.7762191796698], [28.2089739115495, -25.7755590102474], [28.2124651701165, -25.7795331605868], [28.2181167224212, -25.7788726578129], [28.2216082127997, -25.7828464982355], [28.2272598453881, -25.7821856620373], [28.230751567414, -25.7861591923802], [28.2285915879575, -25.7907935791298], [28.2229397349238, -25.7914544121806], [28.2207795462062, -25.7960884824184], [28.2242713620421, -25.8000617429344], [28.2221111155844, -25.8046955198546], [28.2256030941655, -25.8086684901538], [28.2234427899676, -25.8133019735891], [28.2269349313049, -25.8172746534957], [28.2325874457412, -25.8166138298372], [28.2360798186989, -25.8205861990815], [28.2417324129902, -25.819925041497], [28.2452250174039, -25.8238970999164], [28.2508776912644, -25.8232356083334], [28.2543705269699, -25.8272073557652], [28.252210620307, -25.8318406149027], [28.2465577260283, -25.832502103586], [28.244397609803, -25.8371350457994], [28.2387445745926, -25.8377961973786], [28.2365842488685, -25.8424288224874], [28.2309310729299, -25.8430896368288], [28.2287705377708, -25.8477219446526], [28.2322633302437, -25.8516934612338], [28.2301027373441, -25.856325474737], [28.2335956926284, -25.8602967000485], [28.2392493096241, -25.8596358918766], [28.2427424964947, -25.8636068057985], [28.2483961931666, -25.862945663165], [28.2518896114591, -25.8669162655349], [28.2575433875212, -25.8662547883672], [28.2597035247982, -25.8616227059689], [28.2562100380391, -25.8576521236076], [28.2583701176625, -25.853019746774], [28.2548767936834, -25.8490488728822], [28.2492234585351, -25.849710355791], [28.2470632269448, -25.8543427097113], [28.2414097507712, -25.8550038553184], [28.2379167267053, -25.8510326499813], [28.2400771101408, -25.8464003190643], [28.2457303658273, -25.8457391704754], [28.2478905397351, -25.841106522325], [28.2535436544431, -25.8404450365331], [28.2557036187594, -25.8358120713299], [28.2613565922856, -25.8351502484684], [28.2648498218586, -25.8391213936001], [28.2705028743463, -25.8384592364881], [28.2726624768842, -25.8338259315647], [28.269169179088, -25.8298548065955], [28.2713287240304, -25.8252212078283], [28.2769814145834, -25.8245587112285], [28.2791407497434, -25.8199247959503], [28.2847932985051, -25.8192619626819], [28.2882867323291, -25.823233047185], [28.2861275494776, -25.8278669852075], [28.2804747804633, -25.8285298159882], [28.2783153877368, -25.8331634375515], [28.2818089163318, -25.8371342510457], [28.2796494660387, -25.841767578727], [28.2831431573599, -25.8457381007806], [28.2887963669124, -25.8450752749506], [28.290955664839, -25.8404419246015], [28.2966087322562, -25.8397787619401], [28.2987678201861, -25.8351450950549], [28.3044207452648, -25.8344815956958], [28.3065796231347, -25.8298476124553], [28.3122324056718, -25.8291837765323], [28.3157265304535, -25.8331539260221], [28.3135678052568, -25.8377879317364], [28.3170620927146, -25.8417577895549], [28.3149033100675, -25.8463915014014], [28.3183977602125, -25.8503610673734], [28.3240510603307, -25.8496969011989], [28.3275457404517, -25.8536661548851], [28.3331991175646, -25.8530016540623], [28.3353575944428, -25.8483678976149], [28.3318628471836, -25.8443986642398], [28.3340212666694, -25.8397646138483], [28.3305266820722, -25.8357950885116], [28.3326850441657, -25.8311607443431], [28.3291906222196, -25.82719092722], [28.3235379053242, -25.8278554339], [28.3200437132105, -25.8238853047645], [28.3222021707697, -25.8192506893559], [28.3187081413032, -25.8152802687546], [28.320866541441, -25.8106453599415], [28.3265188182464, -25.809980849316], [28.3300129149233, -25.8139512494861], [28.3356652686177, -25.8132864046756], [28.3378233056125, -25.8086511578229], [28.3343291418646, -25.804680778131], [28.3364871214961, -25.800045238132], [28.3329931203483, -25.7960745672099], [28.3351510426164, -25.7914387342318], [28.3316572040576, -25.7874677722551], [28.3338150689624, -25.7828316464656], [28.3394666195002, -25.7821664602666], [28.3429605250266, -25.7861374016578], [28.3486121520258, -25.7854718815585], [28.3521062869331, -25.7894425113229], [28.3577579901077, -25.7887766572514], [28.3612523542314, -25.7927469752269], [28.3590949485583, -25.7973831678872], [28.3625894752388, -25.8013531945475], [28.3682414741174, -25.800687007906], [28.3703987264705, -25.7960507931361], [28.3669041332952, -25.7920807871116], [28.3690613284011, -25.7874442795447], [28.3655668977644, -25.7834739822352], [28.3677240356232, -25.7788371820388], [28.3733754507657, -25.7781706570504], [28.3755323780231, -25.7735335422581], [28.3720380435224, -25.7695629745825], [28.3741949135616, -25.7649255674577], [28.3798459646855, -25.764258705921], [28.3820026240893, -25.7596209845113], [28.3785083858167, -25.7556501467528], [28.3728575543806, -25.7563170095891], [28.369363544866, -25.7523458602824], [28.3715203004689, -25.7477078689959], [28.368026453431, -25.7437364291373], [28.3701831518157, -25.7390981460218], [28.3758335439092, -25.7384312805622], [28.3793274572537, -25.7424026995396], [28.3849779246321, -25.741735500571], [28.3884720665843, -25.745706608129], [28.3941226089614, -25.7450390755799], [28.3976169793566, -25.7490098715565], [28.4032675964465, -25.7483420053552], [28.405423623565, -25.743703342181], [28.4019291873176, -25.7397325671658], [28.3962787897738, -25.7404004343692], [28.3927845818117, -25.7364293477561], [28.394940705493, -25.7317904149372], [28.4005908835017, -25.7311225467238], [28.4027467964162, -25.7264833004244], [28.4083968294365, -25.7258150977909], [28.4105525315211, -25.721175538193], [28.4162024193505, -25.7205070012743], [28.4196968245058, -25.7244780247708], [28.4253467863354, -25.7238091544143], [28.4275021235863, -25.7191692598548], [28.4240076529786, -25.7151982574912], [28.4261629332146, -25.7105580718424], [28.4226686249563, -25.7065867791403], [28.4248238481773, -25.7019463025706], [28.4213297022574, -25.6979747197061], [28.4234848684634, -25.6933339523838], [28.4199908848711, -25.689362079533], [28.4221459940621, -25.6847210216264], [28.4186521727863, -25.6807488589657], [28.4130033078148, -25.681417732962], [28.4108480447993, -25.6860587688697], [28.4051990346236, -25.6867273091132], [28.4030435608314, -25.691368032424], [28.4065372509172, -25.6953402375482], [28.4043817200518, -25.6999806701832], [28.39873234543, -25.7006488755965], [28.395238721148, -25.6966766493112], [28.3895894211709, -25.6973445216437], [28.3874335260144, -25.7019846192142], [28.3817840814401, -25.7026521573888], [28.3782907515803, -25.6986795991359], [28.3726413821862, -25.6993468042657], [28.370485123107, -25.7039865663944], [28.3648356095677, -25.7046534371957], [28.3613425747489, -25.7006805472178], [28.3556931369251, -25.7013470850104], [28.3522003310721, -25.69737388452], [28.3465509692497, -25.6980400893757], [28.3443941936159, -25.7026794931543], [28.3387446883499, -25.7033453634759], [28.3352521784784, -25.6993718316823], [28.3296027497491, -25.7000373691035], [28.3261104693296, -25.6960635271391], [28.3204611174225, -25.6967287317319], [28.3183038261514, -25.7013677764078], [28.3126543315026, -25.7020326462614], [28.3091623480048, -25.6980584734162], [28.3035129307136, -25.6987230104782], [28.3000211771538, -25.6947485278042], [28.2943718375057, -25.6954127321468], [28.2908803140482, -25.6914379398068], [28.2852310523288, -25.6921018115023], [28.2817397591377, -25.6881267096589], [28.2838976598588, -25.6834877569477], [28.280406529164, -25.6795123665691], [28.2825643724058, -25.6748731230483], [28.2790734041964, -25.670897444311], [28.2812311899591, -25.666257910149], [28.277740384224, -25.6622819432298], [28.2720918606661, -25.6629454896119], [28.2686012853824, -25.6589692137905], [28.2629528404317, -25.6596324279925], [28.2594624957633, -25.6556558434321], [28.2616205278704, -25.6510160655553], [28.2581303456792, -25.6470391932821], [28.2524821996528, -25.6477020780281], [28.2489922482478, -25.6437248973252], [28.243344181435, -25.6443874501439], [28.23985446098, -25.6404099611745], [28.2342064736658, -25.6410721821384], [28.2320479867334, -25.6457118891993], [28.226399859064, -25.6463737754071], [28.2242411631135, -25.6510131684417], [28.2277307461967, -25.6549906990218], [28.2333790940162, -25.65432881578], [28.2355376385721, -25.6496893989978], [28.2411858459897, -25.6490271809006], [28.2446757289355, -25.6530043824497], [28.2425173358955, -25.6576438228889], [28.2368689083635, -25.6583060381277], [28.234710306184, -25.6629451644625], [28.2290617382034, -25.6636070447466], [28.2269029269479, -25.6682458567953], [28.2212542187215, -25.6689074019907], [28.2177645419888, -25.6649301381886], [28.2199235045752, -25.6602913499002], [28.2164339903867, -25.6563137985861], [28.2107855826154, -25.6569750148796], [28.2072963000118, -25.6529971555135], [28.2016479727729, -25.6536580399211], [28.1994887078889, -25.6582967804171], [28.2029779213016, -25.6622746604526], [28.2086264688195, -25.6616137793171], [28.2121159139741, -25.6655913513176], [28.2099567424679, -25.6702298250867], [28.2043079746599, -25.6708907029585], [28.2008185986785, -25.6669131103192], [28.195169911617, -25.667573656163], [28.1930103802303, -25.6722117912773], [28.1873615538281, -25.6728720016956], [28.183872479215, -25.6688940804645], [28.1860321615044, -25.6642559693947], [28.1825432494844, -25.6602777608832], [28.1768947247711, -25.6609376428903], [28.1734060449772, -25.656959126688], [28.1677576018656, -25.6576186768865], [28.1642691544613, -25.6536398531571], [28.1586207932364, -25.6542990716203], [28.1551325783853, -25.6503199405274], [28.1494842993321, -25.6509788273286], [28.1459963171976, -25.6469993890362], [28.140348120601, -25.6476579442489], [28.1368603713465, -25.6436781989206], [28.1390207483869, -25.6390399189039], [28.1355331617474, -25.6350598872051], [28.1298852684655, -25.6357181150274], [28.1277247412801, -25.6403563704182], [28.1220767104513, -25.6410142626743], [28.1185894274467, -25.6370339037663], [28.112941479929, -25.6376914646546], [28.1107805947912, -25.6423293801136], [28.1051325101793, -25.6429866052684], [28.1016455314254, -25.639005919398], [28.1038065663724, -25.634368028797], [28.1094544302942, -25.6337107992028], [28.1116152574051, -25.629072593335], [28.1081283704047, -25.6250916419527], [28.1024807271618, -25.6257488759947], [28.0989940737009, -25.6217676183795], [28.1011549925367, -25.6171291472078], [28.0976685017056, -25.6131476039863], [28.0920211630813, -25.6138045114798], [28.0885349059591, -25.6098226623365], [28.090695916341, -25.6051839261983], [28.0963430342737, -25.6045270141321], [28.099829362486, -25.6085088427824], [28.1054765644047, -25.6078515998193], [28.1076372174355, -25.6032125237381], [28.1132842824453, -25.6025549454386], [28.1154447276626, -25.5979155546615], [28.1119582576874, -25.5939337671411], [28.114118644907, -25.5892940867609], [28.1106323375045, -25.5853120140507], [28.1127926667266, -25.5806720442366], [28.1093065218857, -25.5766896865141], [28.1114667931104, -25.5720494274355], [28.10798081082, -25.5680667848785], [28.1023346281392, -25.5687243807247], [28.0988488792702, -25.5647414327992], [28.10100924217, -25.560100909745], [28.1066552042966, -25.5594433094911], [28.1088153595268, -25.5548024723915], [28.1053297023044, -25.5508192606991], [28.1074897995376, -25.5461781348432], [28.113135404287, -25.5455201955665], [28.1152952938155, -25.5408787559771], [28.1118097283326, -25.5368952808056], [28.113969559893, -25.5322535527598], [28.1196148071659, -25.5315952747844], [28.1217744309865, -25.5269532333172], [28.118288957336, -25.5229694949546], [28.1204485232173, -25.5183271653313], [28.1169632120271, -25.514343143086], [28.1191227199693, -25.5097005254763], [28.1156375712283, -25.5057162195265], [28.1177970212315, -25.5010733141005], [28.1234414701987, -25.5004146894565], [28.1256007124845, -25.4957714711825], [28.1312450241941, -25.4951125127311], [28.1334040586987, -25.4904689817912], [28.1390482329479, -25.4898096896662], [28.1412070596075, -25.4851658462426], [28.1377218620117, -25.4811813200371], [28.1320779080182, -25.4818406161225], [28.1285929431066, -25.4778557854929], [28.1307518618486, -25.4732116799532], [28.1272670593179, -25.4692265662166], [28.1294259201789, -25.4645821736322], [28.1259412800182, -25.4605967769671], [28.1281000829981, -25.4559520975085], [28.1246156051963, -25.4519664180935], [28.1189723948855, -25.4526253969282], [28.1168134421492, -25.4572700510788], [28.1111700948122, -25.4579286966045], [28.1090109345023, -25.4625730385611], [28.1124952711632, -25.466558760357], [28.1103360529149, -25.4712028153479], [28.1046923484044, -25.4718611231379], [28.1012080825224, -25.4678753802241], [28.1033674503418, -25.4632313506438], [28.0998833468602, -25.4592453250655], [28.1020426567126, -25.454601008559], [28.0985587156202, -25.4506147004948], [28.0929155355978, -25.4512726878109], [28.0894318278537, -25.4472860762767], [28.0915912291318, -25.442641498595], [28.0881076837723, -25.4386546049015], [28.0824648082309, -25.4393122677495], [28.0803052576814, -25.4439568197598], [28.0837887319146, -25.4479437345991], [28.081629123341, -25.4525879999327], [28.0759858913253, -25.4532453247101], [28.07382607552, -25.4578892775136], [28.0773096409076, -25.4618759312284], [28.0751497670492, -25.4665195970539], [28.0695061786587, -25.467176583436], [28.067346097604, -25.4718199364185], [28.0617023734964, -25.4724765888888], [28.0582189510209, -25.4684898931872], [28.0525753119926, -25.4691462165281], [28.0490921236531, -25.4651592175908], [28.043448569988, -25.4658152118768], [28.0412879840644, -25.4704582000702], [28.0356442953833, -25.4711138602434], [28.033483502577, -25.4757565351277], [28.0369665471365, -25.4797435758231], [28.0348056961337, -25.4843859632462], [28.0382889031994, -25.4883727215645], [28.0439330332403, -25.4877170716303], [28.0474164747482, -25.4917035266002], [28.0452557143206, -25.4963456522914], [28.0396113635829, -25.4970012971189], [28.0361279939999, -25.4930148213562], [28.0304837290539, -25.4936701368452], [28.0283226129785, -25.4983119228849], [28.0318059104978, -25.5022984193919], [28.0296447361968, -25.5069399174996], [28.0331281962619, -25.5109261312415], [28.030966963735, -25.5155673412473], [28.034450586357, -25.5195532720455], [28.0322892956043, -25.5241941937796], [28.0357730807942, -25.5281798414558], [28.0414182287789, -25.5275245467405], [28.0449022485424, -25.5315098904954], [28.0505474821794, -25.5308542660093], [28.0540317363538, -25.5348393056781], [28.0596770553592, -25.5341833513467], [28.0618378994531, -25.5295423523877], [28.0674830828707, -25.5288860632803], [28.0696437197238, -25.5242447503314], [28.0752887673505, -25.5235881265813], [28.0787733987196, -25.5275728205428], [28.0844185309319, -25.5269158669409], [28.0879033960737, -25.5309002564518], [28.0857430577861, -25.5355416203288], [28.080097704983, -25.5361985692817], [28.077937159269, -25.5408396192713], [28.0814221157001, -25.5448237456929], [28.0792615119031, -25.549464507044], [28.0736158023655, -25.5501211165485], [28.0701309173032, -25.5461369694363], [28.0644852925306, -25.5467932488392], [28.0610006415477, -25.5428087971639], [28.0553551018242, -25.5434647465393], [28.0531939923846, -25.548105142637], [28.0475483172304, -25.5487607570037], [28.0440639723101, -25.5447759803227], [28.0384183827386, -25.5454312647026], [28.0362569173072, -25.550071320603], [28.0306111927573, -25.5507262698076], [28.0284495203417, -25.5553660109925], [28.0319337212034, -25.5593508287436], [28.0375796666096, -25.5586958847933], [28.0410641021825, -25.5626803981987], [28.0389025202978, -25.5673198760288], [28.0423871184941, -25.5713041054211], [28.0480333705303, -25.57064883648], [28.0515182032689, -25.5746327612144], [28.0571645407832, -25.5739771619625], [28.0606496079014, -25.5779607818743], [28.0584882657841, -25.5826000215168], [28.0528417074606, -25.5832556157476], [28.0493567120937, -25.5792719753513], [28.0437102392134, -25.5799272391633], [28.0415485408749, -25.5845661382455], [28.0359019328318, -25.5852210664847], [28.0337400273941, -25.589859650331], [28.0372248788412, -25.5938433315517], [28.0428717077857, -25.5931884085323], [28.0450334643514, -25.5885497990781], [28.0506801580871, -25.5878945403865], [28.0541653160934, -25.5918778962668], [28.0598120952373, -25.5912223070486], [28.0632974876106, -25.5952053578119], [28.0689443518784, -25.5945494379928], [28.0711056029572, -25.5899104625115], [28.076752331314, -25.5892542072206], [28.0802380293122, -25.5932369322136], [28.0780769275631, -25.5978759329806], [28.0815627881817, -25.6018583730162], [28.07940162832, -25.6064970839985], [28.0828876515702, -25.6104792388992], [28.0807264335956, -25.6151176599276], [28.0842126194885, -25.6190995295159], [28.0898600946153, -25.6184429576251], [28.0933465143737, -25.622424521309], [28.0911853878236, -25.6270626772924], [28.0855376919476, -25.6277192445198], [28.0833763577472, -25.6323570851336], [28.0777285255257, -25.6330133165259], [28.0742422483302, -25.6290317120612], [28.0685945008082, -25.6296876123471], [28.0651084577915, -25.625705702013], [28.067270090759, -25.6210679117475], [28.0729176174506, -25.6204120065911], [28.0750790429537, -25.6157739008537], [28.0715930910894, -25.6117917255254], [28.065945785217, -25.6124476355607], [28.0637842104198, -25.6170857160397], [28.0581367687472, -25.6177412902716], [28.0559749865786, -25.6223790552274], [28.0503274093091, -25.623034293523], [28.0468418351388, -25.6190517719432], [28.0490037663869, -25.6144140323874], [28.0455183549067, -25.610431225728], [28.0398710841256, -25.6110861383336], [28.0377090039196, -25.6157238523991], [28.0320615980407, -25.6163784290011], [28.0298993107135, -25.6210158272602], [28.0333845780998, -25.6249986744643], [28.03903220496, -25.6243441031554], [28.0425177071703, -25.628326645001], [28.0481654198332, -25.6276717427747], [28.0516511567047, -25.6316539790973], [28.0572989548857, -25.6309987458792], [28.0607849262556, -25.6349806765142], [28.0664328096702, -25.6343251122302], [28.0699190153755, -25.6383067370133], [28.0677572660669, -25.6429439463452], [28.0712436344719, -25.6469252853999], [28.0768918236884, -25.6462693948291], [28.0803784262595, -25.6502504277206], [28.0782167681889, -25.6548873714347], [28.0817035334644, -25.6588681182737], [28.0795418172516, -25.6635047710601], [28.0738931862957, -25.6641606519501], [28.070406492458, -25.6601798848841], [28.0647579463461, -25.6608354343107], [28.0625958731804, -25.6654717458625], [28.0660824954408, -25.6694525331076], [28.0717312624744, -25.6687969886162], [28.075218119045, -25.6727774694222], [28.0808669708876, -25.6721215933597], [28.0843540616052, -25.6761017675623], [28.090002997972, -25.6754455598548], [28.0934903226736, -25.6794254272898], [28.0991393432798, -25.6787688878634], [28.1026269018022, -25.6827484483668], [28.1082760063629, -25.6820915771476], [28.1117637985429, -25.6860708305554], [28.1174129867733, -25.6854136274698], [28.1195741620474, -25.6807771665852], [28.1252232129516, -25.6801196272702], [28.1287113092624, -25.6840985531346], [28.1343604433016, -25.6834406819135], [28.1378487727865, -25.6874193003371], [28.1356878977827, -25.6920558102774], [28.1300385430679, -25.692713677317], [28.1278774598693, -25.6973498713154], [28.1222279675321, -25.6980074020605], [28.1200666762027, -25.7026432799362], [28.1144170464466, -25.7033004742538], [28.1122555470504, -25.7079360358259], [28.1066057800787, -25.7085928935829], [28.1031177333482, -25.7046141942409], [28.0974680502256, -25.7052707198823], [28.0953061930024, -25.709905940282], [28.0896563731174, -25.710562129196], [28.0874943080486, -25.7151970328796], [28.0909822125658, -25.7191757723944], [28.0888200893538, -25.7238103839721], [28.0923081566643, -25.727788836019], [28.0979584183757, -25.7271326564503], [28.1001203918276, -25.722498020172], [28.1057705166839, -25.7218415036778], [28.1079322821683, -25.7172065506054], [28.1135822699661, -25.7165496973187], [28.1170707130865, -25.7205278015719], [28.1149090975768, -25.7251627792035], [28.11839770346, -25.7291405957263], [28.1162360298934, -25.7337752811356], [28.1105856004098, -25.7344321255074], [28.1070970653717, -25.7304542889173], [28.1014467196316, -25.7311108008507], [28.0992846880652, -25.7357451448163], [28.0936342054238, -25.7364013197253], [28.090145975309, -25.7324231553227], [28.0844955769461, -25.7330789978333], [28.0823331877517, -25.737712999982], [28.0766826529408, -25.7383685053016], [28.073194728366, -25.7343900133331], [28.0675442783685, -25.7350451862945], [28.0653815319183, -25.7396788462533], [28.0597309459264, -25.7403336818575], [28.0575679918585, -25.7449670242495], [28.0610557731401, -25.7489455559486], [28.0588927608136, -25.7535786055503], [28.0623807049693, -25.7575568494845], [28.060217634384, -25.7621896061282], [28.0545664702893, -25.7628440939253], [28.0524031920931, -25.767476532564], [28.0467518923188, -25.7681306825413], [28.0432640919791, -25.7641523991273], [28.0376128779834, -25.7648062165045], [28.0354492431034, -25.7694383119378], [28.029797893882, -25.7700917913294], [28.027634051613, -25.7747235683467], [28.0311217075789, -25.7787018910495], [28.0289578069357, -25.7833333745934], [28.0324456258565, -25.787311409235], [28.03809741769, -25.7866579407363], [28.0415854717988, -25.7906356675796], [28.0472373495909, -25.7899818662322], [28.0494009519673, -25.7853503327128], [28.0550526941912, -25.7846961932156], [28.0585410552502, -25.7886735924706], [28.0641928828974, -25.7880191200842], [28.0676814786611, -25.7919962111955], [28.0733333914465, -25.7913414058458], [28.0754964872777, -25.7867095043699], [28.0811482637908, -25.7860543610699], [28.0846371655678, -25.7900311241646], [28.0902890266839, -25.7893756478611], [28.0937781626819, -25.793352102467], [28.0916153662791, -25.7979840530973], [28.0951046651767, -25.8019602187949], [28.1007568316654, -25.8013044141123], [28.1029194781712, -25.7966724390397], [28.1085715076372, -25.7960162965079], [28.1107339460087, -25.7913840034289], [28.1163858382483, -25.7907275231805], [28.1185480684213, -25.7860949122752], [28.1150585564681, -25.7821188059524], [28.1172207285547, -25.7774859016894], [28.1228722624486, -25.7768290794552], [28.1250342263015, -25.7721958576751], [28.1306856226083, -25.7715386980886], [28.1341752759011, -25.7755147645908], [28.13982675524, -25.7748572719889], [28.141988360433, -25.7702237086864], [28.1476397017312, -25.769565878899], [28.1511296585935, -25.7735416165165], [28.1567810823883, -25.7728834536744]], [[28.2926048305863, -25.8139645612702], [28.2869524238191, -25.8146277310735], [28.2834591526813, -25.8106563555104], [28.2856182204579, -25.8060218304833], [28.2912704070305, -25.8053586582829], [28.2947637459909, -25.8093300135125], [28.2926048305863, -25.8139645612702]], [[28.1639343945051, -25.6887631340785], [28.1695836377109, -25.6881039307383], [28.1730727356069, -25.6920816054565], [28.1709125204578, -25.69671850391], [28.1652630567288, -25.6973777034905], [28.1617740287024, -25.6934000083716], [28.1639343945051, -25.6887631340785]], [[28.2069683959091, -25.6881210525117], [28.2126176043305, -25.6874601811426], [28.2161075372041, -25.6914368899852], [28.2139481925667, -25.6960744907385], [28.2082987638219, -25.6967353588686], [28.2048089000682, -25.6927586294787], [28.2069683959091, -25.6881210525117]], [[28.1456586564207, -25.682124271435], [28.1513077352811, -25.6814657322061], [28.1547963679601, -25.685444022659], [28.1526358516255, -25.6900808727013], [28.1469865521713, -25.6907394079554], [28.1434979896757, -25.6867610971363], [28.1456586564207, -25.682124271435]], [[28.3414161665245, -25.7205694476754], [28.3470661112846, -25.7199035806679], [28.3505591753489, -25.7238762228391], [28.3484022278861, -25.7285147528737], [28.3427520633625, -25.7291806182361], [28.340594905628, -25.7338188342181], [28.3440880653823, -25.7377912073118], [28.3419308503425, -25.7424291315799], [28.3362803226152, -25.7430946602398], [28.3327872297794, -25.7391222663619], [28.3349445977222, -25.7344843646142], [28.3314516673916, -25.7305116807667], [28.3336089780001, -25.7258734873435], [28.3392590660954, -25.7252079552032], [28.3414161665245, -25.7205694476754]], [[28.3467603850112, -25.755010639632], [28.3432669002497, -25.7510388469447], [28.3454241725949, -25.7464012145584], [28.3510747766783, -25.7457353524621], [28.3545683281827, -25.7497071243788], [28.3602190083363, -25.7490409287742], [28.3637127889281, -25.753012389467], [28.3615558228111, -25.7576500665459], [28.3559049228973, -25.7583162606367], [28.3524112088909, -25.7543447791567], [28.3467603850112, -25.755010639632]], [[28.3223087354214, -25.7272038834665], [28.3166585811575, -25.7278687474197], [28.3131661101676, -25.723895442552], [28.3153237261602, -25.7192572945179], [28.3209736605414, -25.718592428606], [28.3244661987826, -25.7225657126926], [28.3223087354214, -25.7272038834665]], [[28.2805988030162, -25.7364904340277], [28.2840908410271, -25.7404641111711], [28.2819323856895, -25.7451010005556], [28.2762817401706, -25.7457641897646], [28.2727897701259, -25.7417904920459], [28.2749483776037, -25.7371536256992], [28.2805988030162, -25.7364904340277]], [[28.2910753100481, -25.7484108656128], [28.2945677410212, -25.7523839427711], [28.2924093804661, -25.7570205629482], [28.2867584366169, -25.7576840830637], [28.2845998662628, -25.7623203880475], [28.278948780498, -25.7629835723559], [28.275456485246, -25.759010454121], [28.2698054779437, -25.7596733050337], [28.2663134133884, -25.7556998764711], [28.2606624848345, -25.7563623940603], [28.2571706511401, -25.7523886553328], [28.2515198016202, -25.753050839671], [28.2480281989509, -25.7490767909413], [28.2501873773692, -25.7444405783428], [28.2558380066532, -25.7437783912367], [28.2579969756425, -25.7391418632376], [28.2636474638071, -25.7384793403188], [28.2671392031413, -25.7424533480736], [28.2649803860783, -25.7470898992527], [28.2684722880176, -25.7510636174994], [28.2741230751555, -25.7504007640333], [28.2776152077983, -25.7543741720981], [28.2832660734347, -25.7537109853435], [28.2854245862806, -25.7490743880754], [28.2910753100481, -25.7484108656128]], [[28.2722819676088, -25.7199307537492], [28.2779319528415, -25.719267557128], [28.2800902356542, -25.7146297924019], [28.2857400792057, -25.7139662604692], [28.2892318599517, -25.717940495648], [28.2870737293139, -25.7225782834372], [28.2814236657249, -25.7232418129901], [28.2792653254039, -25.7278792861037], [28.2736151200868, -25.728542480246], [28.2701234752053, -25.7245682037479], [28.2722819676088, -25.7199307537492]], [[28.2970397025011, -25.7126385285354], [28.2935478540319, -25.7086643140871], [28.2957057174729, -25.7040259204507], [28.3013552770536, -25.7033617182975], [28.3048471931068, -25.7073359119679], [28.3026894820255, -25.7119743285636], [28.2970397025011, -25.7126385285354]], [[28.2774236906191, -25.697404009952], [28.2752655228227, -25.7020423573986], [28.2696159777257, -25.702705559002], [28.2674576003965, -25.7073435919804], [28.2618079139149, -25.7080064583366], [28.2583168248907, -25.7040312943114], [28.2604753541231, -25.6993932846155], [28.256984427649, -25.6954178319636], [28.2513350402645, -25.6960803683503], [28.2478443446994, -25.6921046065547], [28.2500029681186, -25.6874663290716], [28.2556521353802, -25.6868037899668], [28.2591428993153, -25.6907795310689], [28.2647921456117, -25.6901166594993], [28.2669504078667, -25.6854780442143], [28.2725995128721, -25.6848148375959], [28.2760905756326, -25.6887902487797], [28.2739324653443, -25.693428887334], [28.2774236906191, -25.697404009952]], [[28.2400362039248, -25.6974047733014], [28.2343867551891, -25.6980666418368], [28.2308963593635, -25.6940905504318], [28.2252469904472, -25.6947520865056], [28.2217568260156, -25.6907756863002], [28.2239159616466, -25.6861377706386], [28.2295651103218, -25.6854762315325], [28.2330553435769, -25.689452611126], [28.2387045721072, -25.6887907396658], [28.2421950365993, -25.6927668104418], [28.2400362039248, -25.6974047733014]], [[28.1991595519632, -25.6934191652584], [28.1969998472721, -25.6980564270842], [28.1913503596866, -25.6987166271408], [28.1878607972279, -25.6947395688115], [28.182211390817, -25.6953994365562], [28.1787220605578, -25.6914220699506], [28.180882067106, -25.6867848560716], [28.1865312530758, -25.6861249847739], [28.1900206529083, -25.6901023309139], [28.1956699200882, -25.6894421274117], [28.1991595519632, -25.6934191652584]], [[28.1059176069809, -25.7787988756911], [28.1002660195209, -25.7794550274304], [28.0967769752182, -25.7754783038962], [28.0989394472916, -25.7708454484798], [28.0954505658487, -25.7668684364193], [28.0976129797782, -25.76223528789], [28.1032641252771, -25.7615791269087], [28.1067530777912, -25.7655561190875], [28.112404307178, -25.7648996253114], [28.1158934934485, -25.7688763090949], [28.1137313794483, -25.7735095065481], [28.1080799291218, -25.7741659958064], [28.1059176069809, -25.7787988756911]], [[28.2581834983448, -25.7960934114354], [28.2638354492105, -25.7954312408135], [28.2673280961846, -25.79940352921], [28.2651687240285, -25.8040380085052], [28.2595165528605, -25.8047001764086], [28.2560239741812, -25.8007278677295], [28.2581834983448, -25.7960934114354]], [[28.2950778366276, -25.7742382104711], [28.2972363121414, -25.7696021751072], [28.3028875539741, -25.7689383237903], [28.3063805403304, -25.7729105100666], [28.3042222172867, -25.7775465681724], [28.2985707553864, -25.7782104172656], [28.2950778366276, -25.7742382104711]], [[28.3233344332677, -25.7709172858977], [28.3289856871096, -25.7702524316169], [28.3324792005231, -25.7742239751763], [28.3303213929817, -25.7788603936097], [28.3246699191913, -25.7795252459802], [28.3225119014521, -25.7841613492987], [28.3168602846994, -25.7848258659034], [28.3133669057116, -25.7808542811931], [28.3155250761638, -25.7762182004358], [28.3211764729209, -25.7755536818218], [28.3233344332677, -25.7709172858977]], [[28.0686696149163, -25.480449394423], [28.0708297540529, -25.4758063287194], [28.0764735629558, -25.4751493470456], [28.0799574532155, -25.4791354357807], [28.0777974632507, -25.4837785271395], [28.081281515963, -25.4877643331169], [28.0791214679447, -25.492407136987], [28.0734772179835, -25.4930641092697], [28.0699932366055, -25.489078282368], [28.0643490713698, -25.4897349252309], [28.0608653239526, -25.4857487946332], [28.0630256702502, -25.4811060420853], [28.0686696149163, -25.480449394423]], [[28.0924773302849, -26.139143478129], [28.0946434741456, -26.1345241468127], [28.1003042122605, -26.1338705516231], [28.1024701474238, -26.1292508965783], [28.0989754948487, -26.1252848601332], [28.0933149784619, -26.1259384603041], [28.0898205606634, -26.1219721102285], [28.0919865878216, -26.1173521784509], [28.0884923334065, -26.1133855333525], [28.0906583022138, -26.1087653015907], [28.0871642111709, -26.1047983616428], [28.0815042228653, -26.1054516349884], [28.0793381038921, -26.1100718431702], [28.0828321233601, -26.1140388015921], [28.0806659460071, -26.1186587098275], [28.0841601288648, -26.1226253733712], [28.0819938931318, -26.1272449814957], [28.0854882393905, -26.1312113499878], [28.0833219452774, -26.1358306578371], [28.0868164549482, -26.1397967311044], [28.0924773302849, -26.139143478129]], [[28.0522776395961, -26.2704114949389], [28.0544458866372, -26.2657977586738], [28.0509500096133, -26.2618348368218], [28.0452859578289, -26.2624856334913], [28.0431175608735, -26.2670993463435], [28.0466133655864, -26.2710622859449], [28.0522776395961, -26.2704114949389]], [[28.2422798298591, -25.9905956300582], [28.2444414987066, -25.9859683708624], [28.2409463315729, -25.9820012221796], [28.2352895643723, -25.9826613132327], [28.2331277435524, -25.9872885498028], [28.2366228418753, -25.9912557179512], [28.2422798298591, -25.9905956300582]], [[28.0744452864108, -26.2460372863887], [28.0766128490961, -26.2414222689619], [28.0731169195696, -26.2374591034257], [28.0674534992348, -26.2381109374053], [28.0639578052099, -26.2341474568859], [28.0582944703677, -26.2347989526037], [28.0561266074713, -26.2394139233484], [28.0504631362637, -26.2400650752845], [28.0469677501278, -26.2361012620634], [28.0413043649514, -26.2367520757779], [28.0391361437501, -26.2413666970171], [28.0334726226652, -26.2420171667863], [28.0299775450386, -26.2380530211081], [28.0243141105234, -26.2387031526964], [28.0221455313923, -26.2433174240623], [28.0256405363571, -26.2472815875102], [28.0313041931454, -26.2466314618168], [28.0347994344139, -26.25059531066], [28.0404631777366, -26.2499448466791], [28.0439586551446, -26.2539083807554], [28.049622484715, -26.2532575784133], [28.0531181980983, -26.2572207975606], [28.0587821136294, -26.2565696567838], [28.0609500935793, -26.2519552912904], [28.0666138726519, -26.2513038065369], [28.0687816440018, -26.2466891149883], [28.0744452864108, -26.2460372863887]]]}}