{"type": "Feature", "geometry": {"type": "MultiPolygon", "coordinates": [[[[-53.25316928826499, -24.96546634779116], [-53.24943126832614, -24.958419686774928], [-53.24036389632854, -24.95460907470074], [-53.236321190418074, -24.955155814953404], [-53.23375407628036, -24.95849291422741], [-53.235079351639314, -24.965491039339536], [-53.23920240964719, -24.97136908816425], [-53.24390775371873, -24.974001263456984], [-53.24797648119328, -24.97328234632571], [-53.25316928826499, -24.96546634779116]]], [[[-53.272412931461055, -25.10202958660768], [-53.27250986868967, -25.09787741144535], [-53.26690651486058, -25.092993058486417], [-53.261599531324414, -25.094387015352112], [-53.25834112213335, -25.098273477663806], [-53.25981839372725, -25.104398835934134], [-53.26418236026288, -25.108373266485884], [-53.267529819868365, -25.107640837112307], [-53.272412931461055, -25.10202958660768]]], [[[-53.309888274922784, -25.04053007002679], [-53.30909877586309, -25.036896766689456], [-53.30511487123241, -25.035089322861136], [-53.299478391352004, -25.035950387382954], [-53.29647158148621, -25.040180939687964], [-53.298858891274854, -25.045153525840902], [-53.30347086868119, -25.04699839203201], [-53.30836061401539, -25.04562604969995], [-53.309888274922784, -25.04053007002679]]], [[[-53.321458650667026, -24.992359857950827], [-53.31966574318277, -24.98912257257932], [-53.31639688222464, -24.98822625637932], [-53.30242420753994, -24.991808698923176], [-53.300245192218924, -24.996036989399673], [-53.303581288453216, -25.000100462360756], [-53.30956588783988, -24.99877621608533], [-53.31556707288582, -24.999669136517685], [-53.32012851700797, -24.997553019013285], [-53.321458650667026, -24.992359857950827]]], [[[-53.31515746143011, -25.106701853639386], [-53.317641326990774, -25.103797825650926], [-53.31673508873689, -25.099077438929424], [-53.31398936668406, -25.097454848901688], [-53.30922731992287, -25.09842930196509], [-53.30742809126467, -25.101222753182785], [-53.30815319743194, -25.104502423356685], [-53.31160798501536, -25.106905565315], [-53.31515746143011, -25.106701853639386]]], [[[-53.337328249891485, -25.04702530860248], [-53.34041879835712, -25.043511194748984], [-53.338570100034914, -25.03935549637946], [-53.331592078385796, -25.036502486389594], [-53.32506683135, -25.039432201547942], [-53.32461848536963, -25.04248717749857], [-53.326573569113, -25.045311191023483], [-53.337328249891485, -25.04702530860248]]], [[[-53.34112897496686, -25.13420086542636], [-53.33631430450476, -25.130503112918266], [-53.32797732527678, -25.13174983174588], [-53.32545781198127, -25.140037451041696], [-53.32734651688645, -25.144666042584767], [-53.33295192947189, -25.147005720151117], [-53.337649123006365, -25.145838160501672], [-53.34190964592672, -25.137938967672522], [-53.34112897496686, -25.13420086542636]]], [[[-53.425461835297085, -24.947723579705762], [-53.42704235451733, -24.94509855146671], [-53.42639093008993, -24.939735982048642], [-53.423706599625824, -24.93808251843154], [-53.419400186957006, -24.938729314220524], [-53.41767930342439, -24.941770388422555], [-53.418616034087236, -24.94860578540357], [-53.425461835297085, -24.947723579705762]]], [[[-53.415791284738674, -24.95241082758931], [-53.410168341975655, -24.952236818512695], [-53.40586500597102, -24.956273961987797], [-53.405306540114395, -24.960935276565568], [-53.40855998623997, -24.965205293984056], [-53.412035222660094, -24.964534591268208], [-53.417577966552805, -24.960040233729497], [-53.417983564761336, -24.957112097689254], [-53.415791284738674, -24.95241082758931]]], [[[-53.40635955551773, -24.971350583541735], [-53.39835751358252, -24.973264652273347], [-53.3942446284878, -24.97805519077032], [-53.40260473103395, -24.98816192483191], [-53.408838587384636, -24.985914354411914], [-53.411000806717404, -24.97823903229033], [-53.410379875373344, -24.9743657050322], [-53.40635955551773, -24.971350583541735]]], [[[-53.387654329438504, -24.977921874514553], [-53.38545694957024, -24.97390799364877], [-53.38259665665224, -24.97253828317171], [-53.37788841920121, -24.974471639959955], [-53.37630519901263, -24.97748115955204], [-53.378148398687266, -24.98161407828988], [-53.38100631377648, -24.98299099817783], [-53.38563252198949, -24.98109749438026], [-53.387654329438504, -24.977921874514553]]], [[[-53.432446371082996, -24.99662263427391], [-53.43044493959401, -24.993202058308796], [-53.42242147377557, -24.98817081671138], [-53.419459965676765, -24.98946960220184], [-53.414650029095235, -24.996483455777927], [-53.418304289957995, -25.005195862539257], [-53.421682619546054, -25.006934647489533], [-53.43258795480535, -25.003329841966227], [-53.43383134649459, -25.000226204104234], [-53.432446371082996, -24.99662263427391]]], [[[-53.43671684154089, -24.899275559530537], [-53.4334977815767, -24.900466145699156], [-53.429570774332326, -24.906601680929914], [-53.430700012875235, -24.909876626785152], [-53.43519712710537, -24.912356059541313], [-53.43852204015294, -24.911184584888893], [-53.442453235911984, -24.90496420169642], [-53.44127953352429, -24.901691208211144], [-53.43671684154089, -24.899275559530537]]], [[[-53.47342810889245, -24.98912307626428], [-53.474635691897085, -24.985103036799174], [-53.47068735313031, -24.97996300647479], [-53.4713619723141, -24.973600706982744], [-53.469587896302336, -24.970657748211966], [-53.46081720175206, -24.97011047864263], [-53.45258965119414, -24.960859447409202], [-53.439162788828554, -24.96487718870363], [-53.438658711481146, -24.969229608056594], [-53.442005812790505, -24.97264557601217], [-53.449493828377044, -24.97093323400983], [-53.453913588154165, -24.9730871814724], [-53.460459984676014, -24.973386385041483], [-53.46720907370321, -24.980549848866012], [-53.466962099542656, -24.989140213748104], [-53.47023899866487, -24.990673356224992], [-53.47342810889245, -24.98912307626428]]], [[[-53.45539162943798, -24.990358166127475], [-53.45678084682883, -24.987271064992164], [-53.455436126475185, -24.983919787236598], [-53.45263493687722, -24.982832446497355], [-53.44881691591648, -24.98422047421738], [-53.4477234468947, -24.987142839160573], [-53.44907522883902, -24.99039102461018], [-53.45187289942703, -24.991471102090195], [-53.45539162943798, -24.990358166127475]]], [[[-53.48297198731651, -24.92832252855971], [-53.48168816474709, -24.92508092125817], [-53.478810491029, -24.923799409611874], [-53.467831411391934, -24.927811834301007], [-53.4636695144134, -24.93508310003397], [-53.46791600855651, -24.942607375026235], [-53.47073181433601, -24.943880194340274], [-53.473670047794485, -24.942796054653044], [-53.476727197165125, -24.935221158633432], [-53.481893777390034, -24.931906649711816], [-53.48297198731651, -24.92832252855971]]], [[[-53.49028814333965, -24.91469067067446], [-53.49331621603155, -24.917385298734377], [-53.49899926452789, -24.91644986437687], [-53.50087186566199, -24.91400846938878], [-53.50078528708095, -24.908783874504202], [-53.49828031003042, -24.90684886351185], [-53.49254601015238, -24.906941029553852], [-53.490698399040625, -24.909306571397888], [-53.49028814333965, -24.91469067067446]]], [[[-53.513867008770106, -24.94251199100043], [-53.50648472305512, -24.936373043717445], [-53.50427024992075, -24.93110314366889], [-53.498735183037326, -24.92852746942606], [-53.49471267789067, -24.92969948493007], [-53.49129578098224, -24.936302549243706], [-53.49223955506536, -24.9399713779253], [-53.49739544349514, -24.94218661258084], [-53.50216245267567, -24.94804296072491], [-53.518304046842026, -24.95975293609933], [-53.52208896876633, -24.95987569819517], [-53.52486948245379, -24.95660484605294], [-53.524684117990844, -24.95284280522215], [-53.513867008770106, -24.94251199100043]]], [[[-53.50273925854821, -24.982178940943555], [-53.502050486544974, -24.978367459106295], [-53.49996609113346, -24.976378832413495], [-53.49623050432092, -24.97610468323879], [-53.49386025505704, -24.978260725628616], [-53.494099602465965, -24.983139808019306], [-53.49629909134902, -24.985640499158624], [-53.50064515244563, -24.985318319687305], [-53.50273925854821, -24.982178940943555]]], [[[-53.51626803351501, -25.001060301179955], [-53.523007131505246, -24.997818649132398], [-53.523255747059345, -24.9947503498951], [-53.52097807109476, -24.991909851725946], [-53.517668410016164, -24.991738964370512], [-53.51312995731172, -24.99478199735786], [-53.5130518247622, -24.998254460842443], [-53.51626803351501, -25.001060301179955]]], [[[-53.51537842189285, -24.883666497076902], [-53.51660589190597, -24.887013365818838], [-53.5202960101447, -24.888665524505704], [-53.52331850290622, -24.887096745637766], [-53.524444976308196, -24.883132395910643], [-53.523064017866766, -24.880213405770977], [-53.51952587391535, -24.879055854691664], [-53.51700600377622, -24.880280040778903], [-53.51537842189285, -24.883666497076902]]], [[[-53.531763071715616, -25.02052932446282], [-53.5339408507804, -25.017634772865982], [-53.533106612154256, -25.013213522449274], [-53.530326261324745, -25.011773693319252], [-53.52509481870508, -25.01258615236508], [-53.523685012094674, -25.015368969761454], [-53.52445902771046, -25.021051120177805], [-53.527971831149216, -25.022490934000288], [-53.531763071715616, -25.02052932446282]]], [[[-53.57910729849331, -24.735194903278796], [-53.57275016788147, -24.724658657917608], [-53.56387001024675, -24.723157769473634], [-53.55863445579453, -24.72810853653909], [-53.5502036183397, -24.729433172500094], [-53.547055349065126, -24.74033100429628], [-53.55117857970947, -24.744281970094573], [-53.557805476996094, -24.73976067747752], [-53.562978337304195, -24.74129842068393], [-53.56482516664214, -24.74380260544018], [-53.56499936619459, -24.751521720490626], [-53.56753356403445, -24.754388580986575], [-53.57021297181291, -24.754927398223337], [-53.57354198016803, -24.752263041795093], [-53.57446405526629, -24.743408226785288], [-53.57966802219427, -24.739491503688207], [-53.57910729849331, -24.735194903278796]]], [[[-53.58730706728331, -25.13658722453918], [-53.58482359469546, -25.13323868900635], [-53.58044528287892, -25.13288498977651], [-53.5783581430946, -25.135208336402524], [-53.57775233715026, -25.141009421454996], [-53.58147263311967, -25.144673788263802], [-53.58674663526072, -25.14487929165367], [-53.58960284917048, -25.141066218453073], [-53.58730706728331, -25.13658722453918]]], [[[-53.6060381214728, -24.79336420453278], [-53.60287865086136, -24.794467010257833], [-53.6015543693243, -24.797402154522903], [-53.602725725369254, -24.80030924066038], [-53.60588578702154, -24.801739257183304], [-53.60874953718794, -24.800620161475912], [-53.61007510860205, -24.797684837147955], [-53.6089718734463, -24.79484646671151], [-53.6060381214728, -24.79336420453278]]], [[[-53.653412595867934, -24.82171325245375], [-53.64644118025165, -24.819358343628213], [-53.63971534816199, -24.823666255544772], [-53.637138239509916, -24.829870532669364], [-53.63051737542118, -24.834190569559457], [-53.63086652530128, -24.839318999887855], [-53.63561507785254, -24.840883095309163], [-53.641104611766174, -24.83608162782665], [-53.64734584342158, -24.83631927658841], [-53.657564487791745, -24.831280674260388], [-53.65882330078165, -24.826599217991863], [-53.653412595867934, -24.82171325245375]]]]}, "properties": {}}