{"type": "FeatureCollection", "features": [{"type": "Feature", "properties": {"threshold": 70}, "geometry": {"type": "MultiPolygon", "coordinates": [[[[98.6125008406792, 3.5711615065336066], [98.61159974046119, 3.5759929799604255], [98.61940849762021, 3.5928467582827777], [98.61737257069643, 3.5967002568756423], [98.61940227296975, 3.6073564526051793], [98.63740401321819, 3.6091709045107137], [98.64136458779807, 3.605143669090359], [98.66076449078777, 3.6012214995368903], [98.66662291397809, 3.6091401087276442], [98.66327267232704, 3.617629398141244], [98.65818878845593, 3.6150408542747936], [98.63715851802807, 3.615880046699184], [98.63002638520278, 3.619507078740042], [98.6290016036882, 3.624985577950787], [98.64222293528655, 3.6283870100027245], [98.65220755651971, 3.627604890318065], [98.66084894240326, 3.6318237918528626], [98.65644021872545, 3.6451891700487193], [98.66215742290609, 3.650271477158262], [98.65143770848549, 3.6618751711603705], [98.65162763253171, 3.6648479746676488], [98.6572379826107, 3.6665233391554257], [98.65982790506632, 3.6714010416784646], [98.65334186208678, 3.6737568036197494], [98.65226944115973, 3.6794389480650076], [98.65776741531566, 3.6839898735445358], [98.65998675077903, 3.693315324486327], [98.66832088212453, 3.6961523910524265], [98.67133044488625, 3.70505266986864], [98.6681004228589, 3.709310531805147], [98.66179114109396, 3.7028535420623006], [98.65700223810403, 3.7027892508902824], [98.65557707801423, 3.7093715010940755], [98.6600327478707, 3.7120638048017485], [98.66700514983822, 3.7230464850361265], [98.66652274633542, 3.729113872912689], [98.67509429173671, 3.7371977223946384], [98.67137156247202, 3.7427734702760223], [98.67300286038197, 3.754944740127706], [98.66431564596047, 3.7571554670940315], [98.66220980516368, 3.761291861041095], [98.66257954558719, 3.7652641709907164], [98.67409028505278, 3.7687146035882875], [98.67593675198786, 3.7598431921946935], [98.68215188530776, 3.7555524426370415], [98.68095030912673, 3.7394757975564126], [98.68548848362194, 3.72715002200293], [98.68566204948691, 3.7158482877472965], [98.6911904507597, 3.714085674845905], [98.69464259759107, 3.707939006999953], [98.69426305326876, 3.701688423589496], [98.70011393005862, 3.7001165661267015], [98.70273669157098, 3.6960958087085674], [98.70828632933147, 3.7001962217810633], [98.71125890002978, 3.693821979184682], [98.71206540128446, 3.6865788441485114], [98.70791999343518, 3.685372353714328], [98.70545275278121, 3.6796561544798196], [98.71295020074689, 3.6675209821006973], [98.70945444664102, 3.659635543710452], [98.70390588302426, 3.657922087627556], [98.70319386979484, 3.654551967955135], [98.71948353376351, 3.6522752025203955], [98.72129166024024, 3.644356195687647], [98.71881044329646, 3.635408023526906], [98.72292105566211, 3.627828689633622], [98.72316497371804, 3.61907916845225], [98.73340681880235, 3.615620179005421], [98.7398334658826, 3.6166929443662648], [98.74267404018177, 3.6139795773140704], [98.74288548038501, 3.5981120860440656], [98.73892928504056, 3.595029972949392], [98.73125290007582, 3.596162918343666], [98.72736851940743, 3.591704801597099], [98.7170273752047, 3.591472006481545], [98.70575381205214, 3.580837801063358], [98.69682461809161, 3.5835156597869497], [98.6895947869111, 3.581820509258379], [98.68707974589272, 3.577711388313334], [98.6889255896685, 3.5694442697349325], [98.70227086884509, 3.574107534314501], [98.70781939656742, 3.5721381950506017], [98.7080119188894, 3.5674946929039204], [98.70575886794758, 3.5649650954492045], [98.70015728898196, 3.5649627956367156], [98.69502829430577, 3.5599766788982055], [98.68862883887185, 3.559214636000011], [98.69138995792419, 3.5466041253608656], [98.6882267242482, 3.5440543388765704], [98.67981476090111, 3.550397134977054], [98.67989606197213, 3.5672202530162265], [98.67183437250242, 3.569837628356875], [98.66779994515677, 3.5584220077489377], [98.6606848353293, 3.556556638940564], [98.65819456912477, 3.5587433846696475], [98.6581645082387, 3.5659867542484465], [98.66200718913487, 3.570341709034464], [98.66330146556139, 3.5771353137079362], [98.67109324489581, 3.575906782847202], [98.67338978191273, 3.5778018372352087], [98.6710777376342, 3.583456785554056], [98.66397716630811, 3.586390704915675], [98.66486871768618, 3.5920374536383237], [98.66882421530931, 3.595011116089712], [98.66728151254274, 3.5990506286776367], [98.66209340172422, 3.600085526912239], [98.65953256725237, 3.5943961177487957], [98.65476753818659, 3.592788401924918], [98.64819611097761, 3.5965901262275186], [98.63275425322959, 3.5988757170797743], [98.63057001627374, 3.595096368063945], [98.63149299729552, 3.5856219908330207], [98.62874597343895, 3.581974005858243], [98.62971153791032, 3.5727902274402576], [98.6125008406792, 3.5711615065336066]], [[98.73568010190914, 3.6064658640443428], [98.73871128665691, 3.6115012931693746], [98.73395859656452, 3.614494532015648], [98.73046684532306, 3.609019146259504], [98.73568010190914, 3.6064658640443428]], [[98.67786777578601, 3.614739813396653], [98.68054930802433, 3.604106375366319], [98.69289115752538, 3.603813063454355], [98.69215795934598, 3.592094326880142], [98.70758352898757, 3.592773633409279], [98.70301951092695, 3.600766186122173], [98.7049541337058, 3.622627296570668], [98.69166949205113, 3.6252626660606846], [98.68887217983719, 3.63668379956234], [98.68986418454574, 3.645670246828636], [98.70264053285358, 3.64447346090443], [98.70368780593465, 3.6526244488500867], [98.68678564116733, 3.6523588862720633], [98.67917473562282, 3.6362475377592385], [98.68469251415819, 3.6257413033822457], [98.68350978653062, 3.6227049703810352], [98.67765018376075, 3.620610356928111], [98.67786777578601, 3.614739813396653]], [[98.67050995945019, 3.6838002817273097], [98.67369975404387, 3.6822860736772087], [98.67652911006232, 3.686058646008296], [98.6726231736841, 3.688307828912114], [98.67050995945019, 3.6838002817273097]]], [[[98.6806981868616, 3.769290092132971], [98.68502531700726, 3.7878284073071478], [98.71092156651753, 3.7888643278606957], [98.71745666946178, 3.797029055730885], [98.72110136224947, 3.7959651879048], [98.71698868322834, 3.784248788776635], [98.70840523303062, 3.7739213941147343], [98.69262973114728, 3.7727020951246786], [98.68565629865653, 3.7629289477804018], [98.68152720866708, 3.764051173684868], [98.6806981868616, 3.769290092132971]]], [[[98.69225909992299, 3.7482972299116217], [98.69133812891769, 3.753884944975693], [98.69400385196585, 3.7575931573038255], [98.70099106396553, 3.7585463698070294], [98.70378620236804, 3.754643866941429], [98.70174348953365, 3.748917805675748], [98.70545340695944, 3.7427856244384268], [98.70072518097719, 3.7406251017595484], [98.70378137177758, 3.7335148307164294], [98.69822156764208, 3.7278663714625364], [98.69466055948308, 3.7310862948353316], [98.69751764465988, 3.737400847759972], [98.69703605797754, 3.7452626503607016], [98.69225909992299, 3.7482972299116217]]], [[[98.66157723637691, 3.5127027783940785], [98.66065705136836, 3.5166196898981013], [98.66281448765669, 3.518897911436151], [98.67066005278052, 3.5163342851647674], [98.67806188172585, 3.5189553110828102], [98.67714175162897, 3.5226112178121647], [98.66742828751903, 3.5268575470861707], [98.66946066715926, 3.533102161246444], [98.67757770145634, 3.5322696210979387], [98.68175569376275, 3.5268082471049835], [98.69049985695634, 3.524304902764496], [98.69046698888468, 3.518581537679383], [98.68195663601927, 3.5138357638401874], [98.68138820743138, 3.505362745648456], [98.67758827459176, 3.501492427859144], [98.66849658778906, 3.503236972050047], [98.666873216055, 3.5104828163509727], [98.66157723637691, 3.5127027783940785]]], [[[98.63745129866345, 3.552792924344019], [98.63655035401342, 3.557624439933149], [98.64078555992685, 3.5621704601388555], [98.63989856523345, 3.57023367369503], [98.64596913353665, 3.571521921418455], [98.64897336601497, 3.5649878407103315], [98.64894465341133, 3.5571460047629535], [98.64594644236239, 3.5535304368090803], [98.64801379157981, 3.5452292124822713], [98.64270837476316, 3.543326717559146], [98.63745129866345, 3.552792924344019]]], [[[98.54269962838201, 3.6041117111870875], [98.5493662704486, 3.6040386155305333], [98.55275746808896, 3.6105640630908074], [98.55622815461223, 3.610711280658131], [98.5608114024229, 3.6026232947031502], [98.55990150758149, 3.595384958236795], [98.54797199633055, 3.594202008703268], [98.5409771661817, 3.600387938891501], [98.54269962838201, 3.6041117111870875]]], [[[98.47267606726689, 3.6415786217194075], [98.47203039701752, 3.6455460393110197], [98.47923898320428, 3.6500274656702616], [98.48674167544097, 3.6428389200942886], [98.48677222012876, 3.63726649440817], [98.48273264886386, 3.6298743558350623], [98.48298078654629, 3.619193928209166], [98.47690831792576, 3.6213116636854594], [98.47687132784758, 3.631428304861784], [98.47267606726689, 3.6415786217194075]]], [[[98.45347214612859, 3.606576559699837], [98.45593606495969, 3.6091370870599606], [98.45526289250749, 3.62102363418005], [98.45989319075319, 3.6257306857005225], [98.46815575431768, 3.6223171595496515], [98.4699805532653, 3.617836572174342], [98.47428476746649, 3.6160995345153464], [98.4721794134607, 3.6058215935283], [98.4634532248774, 3.6055709163438916], [98.45696093083369, 3.5998985746482406], [98.4536734742681, 3.6020103678277566], [98.45347214612859, 3.606576559699837]]]]}}, {"type": "Feature", "properties": {"threshold": 80}, "geometry": {"type": "MultiPolygon", "coordinates": [[[[98.86286013346721, 3.5485561267093733], [98.8635329759714, 3.560192424206142], [98.86783938198397, 3.5642587568809936], [98.8670097816485, 3.5696689275634577], [98.87089441326573, 3.5724760470103667], [98.87720514660204, 3.5703386268297996], [98.88222521055518, 3.5748895403382677], [98.88563570290513, 3.574799316626004], [98.88760531986676, 3.568246682350279], [98.8860126112317, 3.56090417773306], [98.89078963721043, 3.5587460613041375], [98.89074171736789, 3.5544138766773425], [98.8765414796194, 3.5501523265390733], [98.87280393430363, 3.5449336717545235], [98.86401093993732, 3.5449797849970066], [98.86286013346721, 3.5485561267093733]]], [[[98.78077856302099, 3.5230698639633657], [98.78352185370282, 3.5256645411889633], [98.7902135348528, 3.5249336890579226], [98.80573750860276, 3.5431308317495067], [98.81434190244696, 3.5411200608833835], [98.8132416723667, 3.533352042718193], [98.8000140175456, 3.5323883014278077], [98.79820870612309, 3.5224465310098547], [98.79110859556681, 3.5234661416579898], [98.78842813293218, 3.5175773951460036], [98.78374681333482, 3.516494082268359], [98.78042532106566, 3.5195164082640344], [98.78077856302099, 3.5230698639633657]]], [[[98.6125008406792, 3.5711615065336066], [98.61159974046119, 3.5759929799604255], [98.61940849762021, 3.5928467582827777], [98.61737257069643, 3.5967002568756423], [98.61940227296975, 3.6073564526051793], [98.63740401321819, 3.6091709045107137], [98.64136458779807, 3.605143669090359], [98.66076449078777, 3.6012214995368903], [98.66662291397809, 3.6091401087276442], [98.66327267232704, 3.617629398141244], [98.65818878845593, 3.6150408542747936], [98.63715851802807, 3.615880046699184], [98.63002638520278, 3.619507078740042], [98.6290016036882, 3.624985577950787], [98.64222293528655, 3.6283870100027245], [98.65220755651971, 3.627604890318065], [98.66084894240326, 3.6318237918528626], [98.65644021872545, 3.6451891700487193], [98.66215742290609, 3.650271477158262], [98.65143770848549, 3.6618751711603705], [98.65162763253171, 3.6648479746676488], [98.6572379826107, 3.6665233391554257], [98.65982790506632, 3.6714010416784646], [98.65334186208678, 3.6737568036197494], [98.65226944115973, 3.6794389480650076], [98.65776741531566, 3.6839898735445358], [98.65998675077903, 3.693315324486327], [98.66832088212453, 3.6961523910524265], [98.67133044488625, 3.70505266986864], [98.6681004228589, 3.709310531805147], [98.66179114109396, 3.7028535420623006], [98.65700223810403, 3.7027892508902824], [98.65557707801423, 3.7093715010940755], [98.6600327478707, 3.7120638048017485], [98.66700514983822, 3.7230464850361265], [98.66652274633542, 3.729113872912689], [98.67509429173671, 3.7371977223946384], [98.67137156247202, 3.7427734702760223], [98.67300286038197, 3.754944740127706], [98.66431564596047, 3.7571554670940315], [98.66220980516368, 3.761291861041095], [98.66257954558719, 3.7652641709907164], [98.67409028505278, 3.7687146035882875], [98.67593675198786, 3.7598431921946935], [98.68215188530776, 3.7555524426370415], [98.68095030912673, 3.7394757975564126], [98.68548848362194, 3.72715002200293], [98.68566204948691, 3.7158482877472965], [98.6911904507597, 3.714085674845905], [98.69464259759107, 3.707939006999953], [98.69426305326876, 3.701688423589496], [98.70011393005862, 3.7001165661267015], [98.70273669157098, 3.6960958087085674], [98.70835984494099, 3.7001613207824624], [98.71181865668032, 3.692048350498839], [98.71541777362808, 3.690481709327508], [98.71521183600323, 3.687145220152915], [98.70831975340087, 3.685682823876901], [98.70591124045293, 3.680858463921266], [98.70697853423897, 3.6778648502793962], [98.7140379466086, 3.67766970978804], [98.71462279376406, 3.675120961391173], [98.70954463789383, 3.65977124840812], [98.70390588302426, 3.657922087627556], [98.70319386979484, 3.654551967955135], [98.71948353376351, 3.6522752025203955], [98.72129166024024, 3.644356195687647], [98.71881044329646, 3.635408023526906], [98.72292105566211, 3.627828689633622], [98.72316497371804, 3.61907916845225], [98.72739009337805, 3.6167419944139416], [98.7398334658826, 3.6166929443662648], [98.74267404018177, 3.6139795773140704], [98.74288548038501, 3.5981120860440656], [98.73892928504056, 3.595029972949392], [98.73125290007582, 3.596162918343666], [98.72736851940743, 3.591704801597099], [98.7170273752047, 3.591472006481545], [98.70575381205214, 3.580837801063358], [98.69682461809161, 3.5835156597869497], [98.6895947869111, 3.581820509258379], [98.68707974589272, 3.577711388313334], [98.6889255896685, 3.5694442697349325], [98.70227086884509, 3.574107534314501], [98.70781939656742, 3.5721381950506017], [98.7080119188894, 3.5674946929039204], [98.70575886794758, 3.5649650954492045], [98.70015728898196, 3.5649627956367156], [98.69502829430577, 3.5599766788982055], [98.68862883887185, 3.559214636000011], [98.69138995792419, 3.5466041253608656], [98.6882267242482, 3.5440543388765704], [98.67981476090111, 3.550397134977054], [98.67989606197213, 3.5672202530162265], [98.67183437250242, 3.569837628356875], [98.66779994515677, 3.5584220077489377], [98.6606848353293, 3.556556638940564], [98.65819456912477, 3.5587433846696475], [98.6581645082387, 3.5659867542484465], [98.66200718913487, 3.570341709034464], [98.66330146556139, 3.5771353137079362], [98.67109324489581, 3.575906782847202], [98.67338978191273, 3.5778018372352087], [98.6710777376342, 3.583456785554056], [98.66397716630811, 3.586390704915675], [98.66486871768618, 3.5920374536383237], [98.66882421530931, 3.595011116089712], [98.66728151254274, 3.5990506286776367], [98.66209340172422, 3.600085526912239], [98.65953256725237, 3.5943961177487957], [98.65476753818659, 3.592788401924918], [98.64819611097761, 3.5965901262275186], [98.63275425322959, 3.5988757170797743], [98.63057001627374, 3.595096368063945], [98.63149299729552, 3.5856219908330207], [98.62874597343895, 3.581974005858243], [98.62971153791032, 3.5727902274402576], [98.6125008406792, 3.5711615065336066]], [[98.67786777578601, 3.614739813396653], [98.68054930802433, 3.604106375366319], [98.69289115752538, 3.603813063454355], [98.69215795934598, 3.592094326880142], [98.70758352898757, 3.592773633409279], [98.70301951092695, 3.600766186122173], [98.7049541337058, 3.622627296570668], [98.69166949205113, 3.6252626660606846], [98.68887217983719, 3.63668379956234], [98.68986418454574, 3.645670246828636], [98.70264053285358, 3.64447346090443], [98.70368780593465, 3.6526244488500867], [98.68678564116733, 3.6523588862720633], [98.67917473562282, 3.6362475377592385], [98.68469251415819, 3.6257413033822457], [98.68350978653062, 3.6227049703810352], [98.67765018376075, 3.620610356928111], [98.67786777578601, 3.614739813396653]], [[98.67050995945019, 3.6838002817273097], [98.67369975404387, 3.6822860736772087], [98.67652911006232, 3.686058646008296], [98.6726231736841, 3.688307828912114], [98.67050995945019, 3.6838002817273097]]], [[[98.6806981868616, 3.769290092132971], [98.68502531700726, 3.7878284073071478], [98.71092156651753, 3.7888643278606957], [98.71745666946178, 3.797029055730885], [98.72110136224947, 3.7959651879048], [98.71698868322834, 3.784248788776635], [98.70840523303062, 3.7739213941147343], [98.69262973114728, 3.7727020951246786], [98.68565629865653, 3.7629289477804018], [98.68152720866708, 3.764051173684868], [98.6806981868616, 3.769290092132971]]], [[[98.69225909992299, 3.7482972299116217], [98.69133812891769, 3.753884944975693], [98.69400385196585, 3.7575931573038255], [98.70099106396553, 3.7585463698070294], [98.70378620236804, 3.754643866941429], [98.70174348953365, 3.748917805675748], [98.70545340695944, 3.7427856244384268], [98.70072518097719, 3.7406251017595484], [98.70378137177758, 3.7335148307164294], [98.69822156764208, 3.7278663714625364], [98.69466055948308, 3.7310862948353316], [98.69751764465988, 3.737400847759972], [98.69703605797754, 3.7452626503607016], [98.69225909992299, 3.7482972299116217]]], [[[98.66157723637691, 3.5127027783940785], [98.66065705136836, 3.5166196898981013], [98.66289102004744, 3.5189254583802017], [98.67041528436927, 3.5163341984221574], [98.67756185091727, 3.518116385506736], [98.67748495340625, 3.522283117568274], [98.66925501257855, 3.5250064004071198], [98.6672843379409, 3.5306000309983574], [98.66961605333171, 3.5331495840069342], [98.67757770145634, 3.5322696210979387], [98.68175569376275, 3.5268082471049835], [98.6904650744002, 3.524378734593779], [98.69037681271216, 3.5184458320782026], [98.6817008851294, 3.5134350980703744], [98.68143932947359, 3.506077173678938], [98.68328257542268, 3.503907676419912], [98.69179455013332, 3.5038357501172706], [98.6930019252041, 3.5002772943487193], [98.68535889367449, 3.494708526085734], [98.68362063718325, 3.489088992594278], [98.67862129667178, 3.488961710283178], [98.67731217177523, 3.4949843383956836], [98.68184057510571, 3.4975289088925874], [98.68181635567913, 3.5012931413332318], [98.66856633000113, 3.503195001806836], [98.666873216055, 3.5104828163509727], [98.66157723637691, 3.5127027783940785]]], [[[98.63745129866345, 3.552792924344019], [98.63655035401342, 3.557624439933149], [98.64078555992685, 3.5621704601388555], [98.63989856523345, 3.57023367369503], [98.64596913353665, 3.571521921418455], [98.64897336601497, 3.5649878407103315], [98.64894465341133, 3.5571460047629535], [98.64594644236239, 3.5535304368090803], [98.64801379157981, 3.5452292124822713], [98.64270837476316, 3.543326717559146], [98.63745129866345, 3.552792924344019]]], [[[98.59931961327565, 3.4952467197866275], [98.60129931518051, 3.499659403258409], [98.61082890856585, 3.4999791660216295], [98.61165322956124, 3.5134150639657458], [98.61633009818355, 3.512851647596273], [98.61989794077161, 3.5038289506662097], [98.61384394522462, 3.493294684261284], [98.60153967388877, 3.488872747238204], [98.59931961327565, 3.4952467197866275]]], [[[98.5412946849473, 3.6040152196213415], [98.54953292765124, 3.605257475973913], [98.55310268770029, 3.61077218700051], [98.56031239927833, 3.6099128064309953], [98.55993623246773, 3.595458817254205], [98.5463825982179, 3.594166292772186], [98.54097883865904, 3.5970463821358183], [98.5412946849473, 3.6040152196213415]]], [[[98.47267606726689, 3.6415786217194075], [98.47203039701752, 3.6455460393110197], [98.47923898320428, 3.6500274656702616], [98.48674167544097, 3.6428389200942886], [98.48677222012876, 3.63726649440817], [98.48273264886386, 3.6298743558350623], [98.48298078654629, 3.619193928209166], [98.47690831792576, 3.6213116636854594], [98.47687132784758, 3.631428304861784], [98.47267606726689, 3.6415786217194075]]], [[[98.45357540272033, 3.6023044435280953], [98.45526289250749, 3.62102363418005], [98.45975000591943, 3.625653681975698], [98.46815575431768, 3.6223171595496515], [98.4699805532653, 3.617836572174342], [98.47420812688942, 3.616243393706112], [98.47232259679822, 3.6058985950252915], [98.4634532248774, 3.6055709163438916], [98.4578927561295, 3.5999181472269735], [98.45357540272033, 3.6023044435280953]]]]}}, {"type": "Feature", "properties": {"threshold": 90}, "geometry": {"type": "MultiPolygon", "coordinates": [[[[98.8579161320986, 3.55301450324732], [98.85943786256492, 3.5603425626842786], [98.86617857996606, 3.564842577541115], [98.8687872784717, 3.571455396776063], [98.88162232381222, 3.577478000562946], [98.88741337656748, 3.5755195683009537], [98.88765876030975, 3.5631662163945257], [98.8908940577647, 3.554700328354569], [98.87767938687885, 3.548869262641255], [98.87815699630066, 3.5409302682627133], [98.86227482083983, 3.5433436235670857], [98.85774223517622, 3.5471001557328465], [98.8579161320986, 3.55301450324732]]], [[[98.8040413037228, 3.6024392036275112], [98.8070079214349, 3.6042174770778432], [98.82303888496126, 3.600982288914324], [98.8320532001908, 3.602532618009442], [98.83603114153804, 3.596542081578373], [98.8328865042948, 3.592545853352972], [98.80429362769242, 3.590033919411413], [98.8040413037228, 3.6024392036275112]]], [[[98.78077856302099, 3.5230698639633657], [98.78352185370282, 3.5256645411889633], [98.7902135348528, 3.5249336890579226], [98.79396506211052, 3.5313418552986806], [98.79856384557392, 3.532492236277831], [98.79874695621616, 3.5386105567411006], [98.80324339451744, 3.5422948909954943], [98.82348714743355, 3.5436280944167184], [98.82238731545908, 3.533353843571348], [98.81438390127941, 3.529031901833162], [98.80102170781507, 3.5330651652864886], [98.79840393782969, 3.522592087253056], [98.78994405677594, 3.5225459087524085], [98.78975341933332, 3.517262967213899], [98.7964736984007, 3.5164305712386117], [98.79938227866502, 3.5127129109096544], [98.79821229565754, 3.505738281094067], [98.78892260191448, 3.503375501680509], [98.78702049264503, 3.506388305671415], [98.78812867805175, 3.5148826330144898], [98.78055035002549, 3.5193069172909923], [98.78077856302099, 3.5230698639633657]]], [[[98.6125008406792, 3.5711615065336066], [98.61159974046119, 3.5759929799604255], [98.61940849762021, 3.5928467582827777], [98.61737257069643, 3.5967002568756423], [98.61940227296975, 3.6073564526051793], [98.63740401321819, 3.6091709045107137], [98.64136458779807, 3.605143669090359], [98.66076449078777, 3.6012214995368903], [98.66662291397809, 3.6091401087276442], [98.66327267232704, 3.617629398141244], [98.65818878845593, 3.6150408542747936], [98.63715851802807, 3.615880046699184], [98.63002638520278, 3.619507078740042], [98.6290016036882, 3.624985577950787], [98.64222293528655, 3.6283870100027245], [98.65220755651971, 3.627604890318065], [98.66084894240326, 3.6318237918528626], [98.65644021872545, 3.6451891700487193], [98.66215742290609, 3.650271477158262], [98.65143770848549, 3.6618751711603705], [98.65162763253171, 3.6648479746676488], [98.6572379826107, 3.6665233391554257], [98.65982790506632, 3.6714010416784646], [98.65334186208678, 3.6737568036197494], [98.65226944115973, 3.6794389480650076], [98.65776741531566, 3.6839898735445358], [98.65998675077903, 3.693315324486327], [98.66832088212453, 3.6961523910524265], [98.67133044488625, 3.70505266986864], [98.6681004228589, 3.709310531805147], [98.66179114109396, 3.7028535420623006], [98.65700223810403, 3.7027892508902824], [98.65557707801423, 3.7093715010940755], [98.6600327478707, 3.7120638048017485], [98.66700514983822, 3.7230464850361265], [98.66652274633542, 3.729113872912689], [98.67509429173671, 3.7371977223946384], [98.67137156247202, 3.7427734702760223], [98.67300286038197, 3.754944740127706], [98.66431564596047, 3.7571554670940315], [98.66220980516368, 3.761291861041095], [98.66257954558719, 3.7652641709907164], [98.67409028505278, 3.7687146035882875], [98.67593675198786, 3.7598431921946935], [98.68215188530776, 3.7555524426370415], [98.68095030912673, 3.7394757975564126], [98.68548848362194, 3.72715002200293], [98.68566204948691, 3.7158482877472965], [98.6911904507597, 3.714085674845905], [98.69464259759107, 3.707939006999953], [98.69426305326876, 3.701688423589496], [98.70011393005862, 3.7001165661267015], [98.70273669157098, 3.6960958087085674], [98.70835984494099, 3.7001613207824624], [98.71181865668032, 3.692048350498839], [98.71541777362808, 3.690481709327508], [98.71521183600323, 3.687145220152915], [98.70831975340087, 3.685682823876901], [98.70591124045293, 3.680858463921266], [98.70697853423897, 3.6778648502793962], [98.7140379466086, 3.67766970978804], [98.71462279376406, 3.675120961391173], [98.70954463789383, 3.65977124840812], [98.70390588302426, 3.657922087627556], [98.70319386979484, 3.654551967955135], [98.71948353376351, 3.6522752025203955], [98.72129166024024, 3.644356195687647], [98.71881044329646, 3.635408023526906], [98.72292105566211, 3.627828689633622], [98.72316497371804, 3.61907916845225], [98.72739009337805, 3.6167419944139416], [98.7398334658826, 3.6166929443662648], [98.74267404018177, 3.6139795773140704], [98.74288548038501, 3.5981120860440656], [98.73892928504056, 3.595029972949392], [98.73125290007582, 3.596162918343666], [98.72736851940743, 3.591704801597099], [98.7170273752047, 3.591472006481545], [98.70575381205214, 3.580837801063358], [98.69682461809161, 3.5835156597869497], [98.6895947869111, 3.581820509258379], [98.68707974589272, 3.577711388313334], [98.6889255896685, 3.5694442697349325], [98.70227086884509, 3.574107534314501], [98.70781939656742, 3.5721381950506017], [98.7080119188894, 3.5674946929039204], [98.70575886794758, 3.5649650954492045], [98.70015728898196, 3.5649627956367156], [98.69502829430577, 3.5599766788982055], [98.68862883887185, 3.559214636000011], [98.69138995792419, 3.5466041253608656], [98.6882267242482, 3.5440543388765704], [98.67981476090111, 3.550397134977054], [98.67989606197213, 3.5672202530162265], [98.67183437250242, 3.569837628356875], [98.66779994515677, 3.5584220077489377], [98.6606848353293, 3.556556638940564], [98.65819456912477, 3.5587433846696475], [98.6581645082387, 3.5659867542484465], [98.66200718913487, 3.570341709034464], [98.66330146556139, 3.5771353137079362], [98.67109324489581, 3.575906782847202], [98.67338978191273, 3.5778018372352087], [98.6710777376342, 3.583456785554056], [98.66397716630811, 3.586390704915675], [98.66486871768618, 3.5920374536383237], [98.66882421530931, 3.595011116089712], [98.66728151254274, 3.5990506286776367], [98.66209340172422, 3.600085526912239], [98.65953256725237, 3.5943961177487957], [98.65476753818659, 3.592788401924918], [98.64819611097761, 3.5965901262275186], [98.63275425322959, 3.5988757170797743], [98.63057001627374, 3.595096368063945], [98.63149299729552, 3.5856219908330207], [98.62874597343895, 3.581974005858243], [98.62971153791032, 3.5727902274402576], [98.6125008406792, 3.5711615065336066]], [[98.67786777578601, 3.614739813396653], [98.68054930802433, 3.604106375366319], [98.69289115752538, 3.603813063454355], [98.69215795934598, 3.592094326880142], [98.70758352898757, 3.592773633409279], [98.70301951092695, 3.600766186122173], [98.7049541337058, 3.622627296570668], [98.69166949205113, 3.6252626660606846], [98.68887217983719, 3.63668379956234], [98.68986418454574, 3.645670246828636], [98.70264053285358, 3.64447346090443], [98.70368780593465, 3.6526244488500867], [98.68678564116733, 3.6523588862720633], [98.67917473562282, 3.6362475377592385], [98.68469251415819, 3.6257413033822457], [98.68350978653062, 3.6227049703810352], [98.67765018376075, 3.620610356928111], [98.67786777578601, 3.614739813396653]], [[98.67050995945019, 3.6838002817273097], [98.67369975404387, 3.6822860736772087], [98.67652911006232, 3.686058646008296], [98.6726231736841, 3.688307828912114], [98.67050995945019, 3.6838002817273097]]], [[[98.6806981868616, 3.769290092132971], [98.68502531700726, 3.7878284073071478], [98.71092156651753, 3.7888643278606957], [98.71745666946178, 3.797029055730885], [98.72110136224947, 3.7959651879048], [98.71698868322834, 3.784248788776635], [98.70840523303062, 3.7739213941147343], [98.69262973114728, 3.7727020951246786], [98.68565629865653, 3.7629289477804018], [98.68152720866708, 3.764051173684868], [98.6806981868616, 3.769290092132971]]], [[[98.69225909992299, 3.7482972299116217], [98.69133812891769, 3.753884944975693], [98.69400385196585, 3.7575931573038255], [98.70099106396553, 3.7585463698070294], [98.70378620236804, 3.754643866941429], [98.70174348953365, 3.748917805675748], [98.70545340695944, 3.7427856244384268], [98.70072518097719, 3.7406251017595484], [98.70378137177758, 3.7335148307164294], [98.69822156764208, 3.7278663714625364], [98.69466055948308, 3.7310862948353316], [98.69751764465988, 3.737400847759972], [98.69703605797754, 3.7452626503607016], [98.69225909992299, 3.7482972299116217]]], [[[98.66157723637691, 3.5127027783940785], [98.66065705136836, 3.5166196898981013], [98.66289102004744, 3.5189254583802017], [98.67041528436927, 3.5163341984221574], [98.67756185091727, 3.518116385506736], [98.67748495340625, 3.522283117568274], [98.66925501257855, 3.5250064004071198], [98.6672843379409, 3.5306000309983574], [98.66961605333171, 3.5331495840069342], [98.67757770145634, 3.5322696210979387], [98.68175569376275, 3.5268082471049835], [98.6904650744002, 3.524378734593779], [98.69037681271216, 3.5184458320782026], [98.6817008851294, 3.5134350980703744], [98.68143932947359, 3.506077173678938], [98.68328257542268, 3.503907676419912], [98.69179455013332, 3.5038357501172706], [98.6930019252041, 3.5002772943487193], [98.68532216001864, 3.494664555444074], [98.68362063718325, 3.489088992594278], [98.67862129667178, 3.488961710283178], [98.67731217177523, 3.4949843383956836], [98.68184057510571, 3.4975289088925874], [98.68181635567913, 3.5012931413332318], [98.66856633000113, 3.503195001806836], [98.666873216055, 3.5104828163509727], [98.66157723637691, 3.5127027783940785]]], [[[98.63745129866345, 3.552792924344019], [98.63655035401342, 3.557624439933149], [98.64078555992685, 3.5621704601388555], [98.63989856523345, 3.57023367369503], [98.64596913353665, 3.571521921418455], [98.64897336601497, 3.5649878407103315], [98.64894465341133, 3.5571460047629535], [98.64594644236239, 3.5535304368090803], [98.64801379157981, 3.5452292124822713], [98.64270837476316, 3.543326717559146], [98.63745129866345, 3.552792924344019]]], [[[98.59931961327565, 3.4952467197866275], [98.60129931518051, 3.499659403258409], [98.61128406743478, 3.5005771673459614], [98.60933886727945, 3.5128487389818703], [98.61633009818355, 3.512851647596273], [98.61989686327586, 3.5064983231155162], [98.61717259869009, 3.4969315026102747], [98.61966556651913, 3.4882846700906267], [98.60138039398532, 3.48890451317328], [98.59931961327565, 3.4952467197866275]]], [[[98.54181661897772, 3.5953551626519547], [98.54207677961799, 3.604814514871817], [98.54953292765124, 3.605257475973913], [98.55318154292887, 3.6107920736860786], [98.56151621996135, 3.6087714292479447], [98.55880023055784, 3.594249319532223], [98.54181661897772, 3.5953551626519547]]], [[[98.48777391529197, 3.577769913045078], [98.48791289177278, 3.5929866761021763], [98.50404963409004, 3.5946663843397144], [98.50410798924524, 3.5877021061694347], [98.4983606324082, 3.5897566209291485], [98.49559140740959, 3.5842541435927995], [98.49604574468059, 3.5635106565729053], [98.50258493018639, 3.560144756665604], [98.5013837225204, 3.5507376414955183], [98.48862041406593, 3.5552492645663465], [98.48853313896328, 3.5649931939382973], [98.49204939603976, 3.5703054368883693], [98.48777391529197, 3.577769913045078]]], [[[98.47267408429502, 3.639944573401411], [98.47187818115412, 3.6452595283297176], [98.47477318235613, 3.6482598222711298], [98.4811448213353, 3.650016586080555], [98.48504198831309, 3.6462533143768128], [98.48680381426762, 3.637426548189426], [98.48343253752613, 3.634015934296861], [98.48305426231732, 3.6192288946305897], [98.47694312114976, 3.621237842576429], [98.47681712184749, 3.631668125694207], [98.47267408429502, 3.639944573401411]]], [[[98.45357540272033, 3.6023044435280953], [98.45526289250749, 3.62102363418005], [98.45975000591943, 3.625653681975698], [98.46815575431768, 3.6223171595496515], [98.4699805532653, 3.617836572174342], [98.47420812688942, 3.616243393706112], [98.47232259679822, 3.6058985950252915], [98.4634532248774, 3.6055709163438916], [98.4578927561295, 3.5999181472269735], [98.45357540272033, 3.6023044435280953]]], [[[98.43440169781336, 3.6783485132829075], [98.43533061004831, 3.683815238424503], [98.43906852095539, 3.686700357339672], [98.44733121146868, 3.6841224995432826], [98.45172781972002, 3.6670985633008937], [98.44264025999823, 3.6719865732376906], [98.43644002069325, 3.67187163341898], [98.43440169781336, 3.6783485132829075]]]]}}, {"type": "Feature", "properties": {"threshold": 95}, "geometry": {"type": "MultiPolygon", "coordinates": [[[[98.8579161320986, 3.55301450324732], [98.85943786256492, 3.5603425626842786], [98.86617857996606, 3.564842577541115], [98.8687872784717, 3.571455396776063], [98.8807908597604, 3.57747789248313], [98.88741337656748, 3.5755195683009537], [98.8908940577647, 3.554700328354569], [98.87767938687885, 3.548869262641255], [98.877325894827, 3.5384239121807526], [98.85964547848516, 3.543433883858461], [98.8579161320986, 3.55301450324732]]], [[[98.8040413037228, 3.6024392036275112], [98.8070079214349, 3.6042174770778432], [98.82345454294114, 3.6014161305878325], [98.8320532001908, 3.602532618009442], [98.83603114153804, 3.596542081578373], [98.8328865042948, 3.592545853352972], [98.80429362769242, 3.590033919411413], [98.8040413037228, 3.6024392036275112]]], [[[98.78077856302099, 3.5230698639633657], [98.78352185370282, 3.5256645411889633], [98.7897910091453, 3.524664010799839], [98.79396506211052, 3.5313418552986806], [98.7983993172166, 3.532302305107385], [98.79702144472897, 3.5409656595297934], [98.8015801799949, 3.5439653592858464], [98.82348714743355, 3.5436280944167184], [98.82515125447708, 3.536995745193303], [98.81490550869468, 3.5283398987280234], [98.80125592806253, 3.533136611263193], [98.79840393782969, 3.522592087253056], [98.78994405677594, 3.5225459087524085], [98.78975341933332, 3.517262967213899], [98.79654719592142, 3.5163956616751006], [98.80021385917404, 3.5118776771303644], [98.79821229565754, 3.505738281094067], [98.78892260191448, 3.503375501680509], [98.78702049264503, 3.506388305671415], [98.78812867805175, 3.5148826330144898], [98.78055035002549, 3.5193069172909923], [98.78077856302099, 3.5230698639633657]]], [[[98.6125008406792, 3.5711615065336066], [98.61159974046119, 3.5759929799604255], [98.61940849762021, 3.5928467582827777], [98.61737257069643, 3.5967002568756423], [98.61940227296975, 3.6073564526051793], [98.63740401321819, 3.6091709045107137], [98.64136458779807, 3.605143669090359], [98.66076449078777, 3.6012214995368903], [98.66662291397809, 3.6091401087276442], [98.66327267232704, 3.617629398141244], [98.65818878845593, 3.6150408542747936], [98.63715851802807, 3.615880046699184], [98.63002638520278, 3.619507078740042], [98.6290016036882, 3.624985577950787], [98.64222293528655, 3.6283870100027245], [98.65220755651971, 3.627604890318065], [98.66084894240326, 3.6318237918528626], [98.65644021872545, 3.6451891700487193], [98.66215742290609, 3.650271477158262], [98.65143770848549, 3.6618751711603705], [98.65162763253171, 3.6648479746676488], [98.6572379826107, 3.6665233391554257], [98.65982790506632, 3.6714010416784646], [98.65334186208678, 3.6737568036197494], [98.65226944115973, 3.6794389480650076], [98.65776741531566, 3.6839898735445358], [98.65998675077903, 3.693315324486327], [98.66832088212453, 3.6961523910524265], [98.67133044488625, 3.70505266986864], [98.6681004228589, 3.709310531805147], [98.66179114109396, 3.7028535420623006], [98.65700223810403, 3.7027892508902824], [98.65557707801423, 3.7093715010940755], [98.6600327478707, 3.7120638048017485], [98.66700514983822, 3.7230464850361265], [98.66652274633542, 3.729113872912689], [98.67509429173671, 3.7371977223946384], [98.67137156247202, 3.7427734702760223], [98.67300286038197, 3.754944740127706], [98.66431564596047, 3.7571554670940315], [98.66220980516368, 3.761291861041095], [98.66257954558719, 3.7652641709907164], [98.67409028505278, 3.7687146035882875], [98.67593675198786, 3.7598431921946935], [98.68215188530776, 3.7555524426370415], [98.68095030912673, 3.7394757975564126], [98.68548848362194, 3.72715002200293], [98.68566204948691, 3.7158482877472965], [98.6911904507597, 3.714085674845905], [98.69464259759107, 3.707939006999953], [98.69426305326876, 3.701688423589496], [98.70011393005862, 3.7001165661267015], [98.70273669157098, 3.6960958087085674], [98.70835984494099, 3.7001613207824624], [98.71181865668032, 3.692048350498839], [98.71541777362808, 3.690481709327508], [98.71521183600323, 3.687145220152915], [98.70831975340087, 3.685682823876901], [98.70591124045293, 3.680858463921266], [98.70697853423897, 3.6778648502793962], [98.7140379466086, 3.67766970978804], [98.71462279376406, 3.675120961391173], [98.70954463789383, 3.65977124840812], [98.70390588302426, 3.657922087627556], [98.70319386979484, 3.654551967955135], [98.71948353376351, 3.6522752025203955], [98.72129166024024, 3.644356195687647], [98.71881044329646, 3.635408023526906], [98.72292105566211, 3.627828689633622], [98.72316497371804, 3.61907916845225], [98.72739009337805, 3.6167419944139416], [98.7398334658826, 3.6166929443662648], [98.74267404018177, 3.6139795773140704], [98.74288548038501, 3.5981120860440656], [98.73892928504056, 3.595029972949392], [98.73125290007582, 3.596162918343666], [98.72736851940743, 3.591704801597099], [98.7170273752047, 3.591472006481545], [98.70575381205214, 3.580837801063358], [98.69682461809161, 3.5835156597869497], [98.6895947869111, 3.581820509258379], [98.68707974589272, 3.577711388313334], [98.6889255896685, 3.5694442697349325], [98.70227086884509, 3.574107534314501], [98.70781939656742, 3.5721381950506017], [98.7080119188894, 3.5674946929039204], [98.70575886794758, 3.5649650954492045], [98.70015728898196, 3.5649627956367156], [98.69502829430577, 3.5599766788982055], [98.68862883887185, 3.559214636000011], [98.69138995792419, 3.5466041253608656], [98.6882267242482, 3.5440543388765704], [98.67981476090111, 3.550397134977054], [98.67989606197213, 3.5672202530162265], [98.67183437250242, 3.569837628356875], [98.66779994515677, 3.5584220077489377], [98.6606848353293, 3.556556638940564], [98.65819456912477, 3.5587433846696475], [98.6581645082387, 3.5659867542484465], [98.66200718913487, 3.570341709034464], [98.66330146556139, 3.5771353137079362], [98.67109324489581, 3.575906782847202], [98.67338978191273, 3.5778018372352087], [98.6710777376342, 3.583456785554056], [98.66397716630811, 3.586390704915675], [98.66486871768618, 3.5920374536383237], [98.66882421530931, 3.595011116089712], [98.66728151254274, 3.5990506286776367], [98.66209340172422, 3.600085526912239], [98.65953256725237, 3.5943961177487957], [98.65476753818659, 3.592788401924918], [98.64819611097761, 3.5965901262275186], [98.63275425322959, 3.5988757170797743], [98.63057001627374, 3.595096368063945], [98.63149299729552, 3.5856219908330207], [98.62874597343895, 3.581974005858243], [98.62971153791032, 3.5727902274402576], [98.6125008406792, 3.5711615065336066]], [[98.67786777578601, 3.614739813396653], [98.68054930802433, 3.604106375366319], [98.69289115752538, 3.603813063454355], [98.69215795934598, 3.592094326880142], [98.70758352898757, 3.592773633409279], [98.70301951092695, 3.600766186122173], [98.7049541337058, 3.622627296570668], [98.69166949205113, 3.6252626660606846], [98.68887217983719, 3.63668379956234], [98.68986418454574, 3.645670246828636], [98.70264053285358, 3.64447346090443], [98.70368780593465, 3.6526244488500867], [98.68678564116733, 3.6523588862720633], [98.67917473562282, 3.6362475377592385], [98.68469251415819, 3.6257413033822457], [98.68350978653062, 3.6227049703810352], [98.67765018376075, 3.620610356928111], [98.67786777578601, 3.614739813396653]], [[98.67050995945019, 3.6838002817273097], [98.67369975404387, 3.6822860736772087], [98.67652911006232, 3.686058646008296], [98.6726231736841, 3.688307828912114], [98.67050995945019, 3.6838002817273097]]], [[[98.6806981868616, 3.769290092132971], [98.68502531700726, 3.7878284073071478], [98.71092156651753, 3.7888643278606957], [98.71745666946178, 3.797029055730885], [98.72110136224947, 3.7959651879048], [98.71698868322834, 3.784248788776635], [98.70840523303062, 3.7739213941147343], [98.69262973114728, 3.7727020951246786], [98.68565629865653, 3.7629289477804018], [98.68152720866708, 3.764051173684868], [98.6806981868616, 3.769290092132971]]], [[[98.69225909992299, 3.7482972299116217], [98.69133812891769, 3.753884944975693], [98.69400385196585, 3.7575931573038255], [98.70099106396553, 3.7585463698070294], [98.70378620236804, 3.754643866941429], [98.70174348953365, 3.748917805675748], [98.70545340695944, 3.7427856244384268], [98.70072518097719, 3.7406251017595484], [98.70378137177758, 3.7335148307164294], [98.69822156764208, 3.7278663714625364], [98.69466055948308, 3.7310862948353316], [98.69751764465988, 3.737400847759972], [98.69703605797754, 3.7452626503607016], [98.69225909992299, 3.7482972299116217]]], [[[98.66157723637691, 3.5127027783940785], [98.66065705136836, 3.5166196898981013], [98.66289102004744, 3.5189254583802017], [98.67041528436927, 3.5163341984221574], [98.67756185091727, 3.518116385506736], [98.67748495340625, 3.522283117568274], [98.66925501257855, 3.5250064004071198], [98.6672843379409, 3.5306000309983574], [98.66961605333171, 3.5331495840069342], [98.67765120395846, 3.532234721412069], [98.68175569376275, 3.5268082471049835], [98.69049985695634, 3.524304902764496], [98.69037681271216, 3.5184458320782026], [98.6817008851294, 3.5134350980703744], [98.68143932947359, 3.506077173678938], [98.68328257542268, 3.503907676419912], [98.69192960284452, 3.5037451392001797], [98.69213689747347, 3.4968615423251137], [98.68566777480443, 3.495012076279737], [98.68348564667187, 3.488998291523505], [98.67854779770198, 3.488996610406752], [98.67731217177523, 3.4949843383956836], [98.68184057510571, 3.4975289088925874], [98.68181635567913, 3.5012931413332318], [98.66856633000113, 3.503195001806836], [98.666873216055, 3.5104828163509727], [98.66157723637691, 3.5127027783940785]]], [[[98.63745129866345, 3.552792924344019], [98.63655035401342, 3.557624439933149], [98.64078555992685, 3.5621704601388555], [98.63989856523345, 3.57023367369503], [98.64596913353665, 3.571521921418455], [98.64897336601497, 3.5649878407103315], [98.64894465341133, 3.5571460047629535], [98.64594644236239, 3.5535304368090803], [98.64801379157981, 3.5452292124822713], [98.64270837476316, 3.543326717559146], [98.63745129866345, 3.552792924344019]]], [[[98.59931961327565, 3.4952467197866275], [98.60129931518051, 3.499659403258409], [98.61128406743478, 3.5005771673459614], [98.60933886727945, 3.5128487389818703], [98.61633009818355, 3.512851647596273], [98.61989686327586, 3.5064983231155162], [98.61988840284991, 3.497900348209077], [98.61741444222307, 3.494830298444606], [98.61966556651913, 3.4882846700906267], [98.60138039398532, 3.48890451317328], [98.59931961327565, 3.4952467197866275]]], [[[98.54181661897772, 3.5953551626519547], [98.54207677961799, 3.604814514871817], [98.54953292765124, 3.605257475973913], [98.55318154292887, 3.6107920736860786], [98.56151621996135, 3.6087714292479447], [98.55880023055784, 3.594249319532223], [98.54181661897772, 3.5953551626519547]]], [[[98.49762739836117, 3.687028279741015], [98.49803037131699, 3.6925484405855564], [98.50546428385356, 3.6917172399549676], [98.50728704799818, 3.6816011475379073], [98.52050714045332, 3.681658893017931], [98.52335653809513, 3.6769537988841376], [98.52244561558922, 3.672221621759751], [98.51074373358448, 3.671791273131758], [98.5076349408961, 3.676234533536584], [98.5005341923614, 3.6760448113658755], [98.50079868026883, 3.6820456350600184], [98.49762739836117, 3.687028279741015]]], [[[98.48438450849244, 3.578421049772489], [98.4888040814314, 3.593877415900019], [98.50410426413364, 3.5946058901387707], [98.50410798924524, 3.5877021061694347], [98.4983606324082, 3.5897566209291485], [98.49559140740959, 3.5842541435927995], [98.49610535002809, 3.563272117632649], [98.50264412728204, 3.5599078430074287], [98.50348054789772, 3.5505558819499576], [98.50048332479841, 3.542348374815635], [98.49690607413415, 3.5436322880852784], [98.4962432398439, 3.551871376247088], [98.48882652530261, 3.553327559995686], [98.48824107871566, 3.558459542459074], [98.48525718425147, 3.5603335289851503], [98.48533191161711, 3.5636206859474475], [98.49194469234271, 3.5699485748722077], [98.48703816938198, 3.5726557620046866], [98.48438450849244, 3.578421049772489]]], [[[98.47267606726689, 3.6415786217194075], [98.47203039701752, 3.6455460393110197], [98.47923898320428, 3.6500274656702616], [98.48674167544097, 3.6428389200942886], [98.48677222012876, 3.63726649440817], [98.48273264886386, 3.6298743558350623], [98.48298078654629, 3.619193928209166], [98.47690831792576, 3.6213116636854594], [98.47687132784758, 3.631428304861784], [98.47267606726689, 3.6415786217194075]]], [[[98.45357540272033, 3.6023044435280953], [98.45526289250749, 3.62102363418005], [98.45975000591943, 3.625653681975698], [98.46815575431768, 3.6223171595496515], [98.4699805532653, 3.617836572174342], [98.47420812688942, 3.616243393706112], [98.47232259679822, 3.6058985950252915], [98.4634532248774, 3.6055709163438916], [98.4578927561295, 3.5999181472269735], [98.45357540272033, 3.6023044435280953]]], [[[98.43440169781336, 3.6783485132829075], [98.43533061004831, 3.683815238424503], [98.43906852095539, 3.686700357339672], [98.44892449568846, 3.684165483855134], [98.44865793730673, 3.676303528786116], [98.45421925206436, 3.6722018398039764], [98.45509561474402, 3.667170690027793], [98.4508780394896, 3.6659087342144963], [98.44264025999823, 3.6719865732376906], [98.43650978504166, 3.6718296840210707], [98.43440169781336, 3.6783485132829075]]]]}}]}