{"type": "FeatureCollection", "features": [{"type": "Feature", "properties": {"threshold": 70}, "geometry": {"type": "MultiPolygon", "coordinates": [[[[-36.053310122747945, -7.905555613396786], [-36.049373599530256, -7.896509442589745], [-36.04464775155189, -7.896557990415998], [-36.03667049968165, -7.90289364117245], [-36.03706973524665, -7.906284652496386], [-36.04509821939005, -7.906495293124514], [-36.04812656191658, -7.908940480047667], [-36.053310122747945, -7.905555613396786]]], [[[-36.062994481859256, -8.010657218425353], [-36.05980384684915, -8.007323145181266], [-36.062607849299404, -7.997753089578866], [-36.057370300326504, -7.994771661368362], [-36.0535009731594, -7.999507360359518], [-36.05648008636148, -8.00666472294799], [-36.052602648586564, -8.014953087520094], [-36.062877243760695, -8.01381134121039], [-36.062994481859256, -8.010657218425353]]], [[[-36.22387320103614, -7.949566486190853], [-36.22317339794994, -7.943881096483106], [-36.21540256944071, -7.931841283549121], [-36.21046699927225, -7.935673244124357], [-36.20381117026487, -7.936366765375682], [-36.199485937412845, -7.930035780928137], [-36.19092213104593, -7.930353150991327], [-36.1926470545648, -7.948544147034782], [-36.18831406983636, -7.951896355232428], [-36.188214920821466, -7.9551692712481215], [-36.20373087346266, -7.964069536253171], [-36.205993930581926, -7.97317431424289], [-36.21004196659293, -7.9732363937261965], [-36.215403464707286, -7.968872700782104], [-36.220587987581816, -7.961211157959029], [-36.22387320103614, -7.949566486190853]]]]}}, {"type": "Feature", "properties": {"threshold": 80}, "geometry": {"type": "MultiPolygon", "coordinates": [[[[-36.053310122747945, -7.905555613396786], [-36.04915012886076, -7.896488929126144], [-36.04457748646891, -7.896599309576213], [-36.035803779900476, -7.904774124725096], [-36.03998948261988, -7.9113972952530665], [-36.046086572669196, -7.911374415661347], [-36.053310122747945, -7.905555613396786]]], [[[-36.06399595205603, -8.012472754780614], [-36.05982617808384, -8.007567027675705], [-36.062607849299404, -7.997753089578866], [-36.057370300326504, -7.994771661368362], [-36.0535009731594, -7.999507360359518], [-36.05648008636148, -8.00666472294799], [-36.052602648586564, -8.014953087520094], [-36.06354945793884, -8.014695155197757], [-36.06399595205603, -8.012472754780614]]], [[[-36.2248883498488, -7.950826036441308], [-36.21988028186973, -7.937203336283598], [-36.21601308619591, -7.935195509221084], [-36.21624821312442, -7.9301830109283], [-36.204056836631715, -7.936368416997186], [-36.199485937412845, -7.930035780928137], [-36.190082054536326, -7.931179427226225], [-36.19300040221612, -7.938181012984059], [-36.18736909784672, -7.956827428083781], [-36.19630253267802, -7.95927949046947], [-36.20390603030289, -7.965552538113196], [-36.20515940772944, -7.973168681738053], [-36.210036324751826, -7.974068315562614], [-36.215403464707286, -7.968872700782104], [-36.2248883498488, -7.950826036441308]]]]}}, {"type": "Feature", "properties": {"threshold": 90}, "geometry": {"type": "MultiPolygon", "coordinates": [[[[-36.053310122747945, -7.905555613396786], [-36.04915012886076, -7.896488929126144], [-36.04457748646891, -7.896599309576213], [-36.035803779900476, -7.904774124725096], [-36.03998948261988, -7.9113972952530665], [-36.046086572669196, -7.911374415661347], [-36.053310122747945, -7.905555613396786]]], [[[-36.06399595205603, -8.012472754780614], [-36.05982617808384, -8.007567027675705], [-36.062607849299404, -7.997753089578866], [-36.057370300326504, -7.994771661368362], [-36.0535009731594, -7.999507360359518], [-36.05648008636148, -8.00666472294799], [-36.052602648586564, -8.014953087520094], [-36.06354945793884, -8.014695155197757], [-36.06399595205603, -8.012472754780614]]], [[[-36.180983802987356, -7.956545789816267], [-36.17806128472597, -7.953958186732237], [-36.17145077297277, -7.957315164392475], [-36.17733864454126, -7.961426708250921], [-36.181294586039286, -7.960257271487642], [-36.180983802987356, -7.956545789816267]]], [[[-36.22889269288358, -7.947937940230054], [-36.22792208892553, -7.941950371586803], [-36.22022652903109, -7.942066947474609], [-36.217037107187444, -7.925993675661334], [-36.213571325585065, -7.926210470204907], [-36.210599722387954, -7.934155098153396], [-36.20430148245805, -7.936346053968074], [-36.199485937412845, -7.930035780928137], [-36.189223548385144, -7.929583274112695], [-36.189152690869676, -7.935964269508821], [-36.19172236716356, -7.9391138821081135], [-36.18823889195801, -7.9447071512469805], [-36.189752648206635, -7.949577281829113], [-36.18736909784672, -7.956827428083781], [-36.19691062053265, -7.959690520353488], [-36.199173700543916, -7.9654957494801], [-36.20435690108229, -7.967756178321404], [-36.20523293670056, -7.973203959140951], [-36.210036324751826, -7.974068315562614], [-36.215348258141795, -7.968932605570495], [-36.2227959494459, -7.953698290117982], [-36.22714357457016, -7.952372294227339], [-36.22889269288358, -7.947937940230054]]]]}}, {"type": "Feature", "properties": {"threshold": 95}, "geometry": {"type": "MultiPolygon", "coordinates": [[[[-36.053310122747945, -7.905555613396786], [-36.04915012886076, -7.896488929126144], [-36.04457748646891, -7.896599309576213], [-36.035803779900476, -7.904774124725096], [-36.03998948261988, -7.9113972952530665], [-36.046086572669196, -7.911374415661347], [-36.053310122747945, -7.905555613396786]]], [[[-36.06399595205603, -8.012472754780614], [-36.05982617808384, -8.007567027675705], [-36.062607849299404, -7.997753089578866], [-36.057370300326504, -7.994771661368362], [-36.0535009731594, -7.999507360359518], [-36.05648008636148, -8.00666472294799], [-36.052602648586564, -8.014953087520094], [-36.06354945793884, -8.014695155197757], [-36.06399595205603, -8.012472754780614]]], [[[-36.180983802987356, -7.956545789816267], [-36.17905874152808, -7.953964968275281], [-36.17189755280635, -7.955673982101762], [-36.1723544606424, -7.9609585655511], [-36.18099334941994, -7.960525745798066], [-36.180983802987356, -7.956545789816267]]], [[[-36.22739420013661, -7.951819526932772], [-36.229065883731906, -7.941498052850894], [-36.22126486932863, -7.940385515383219], [-36.217573933140244, -7.933301718103329], [-36.21712181611948, -7.924365091125586], [-36.213522282194745, -7.926275482306594], [-36.210599722387954, -7.934155098153396], [-36.20430148245805, -7.936346053968074], [-36.199485937412845, -7.930035780928137], [-36.18925893229579, -7.929509975241647], [-36.19032756673559, -7.938441645467885], [-36.18736909784672, -7.956827428083781], [-36.19691062053265, -7.959690520353488], [-36.199173700543916, -7.9654957494801], [-36.20435690108229, -7.967756178321404], [-36.20515940772944, -7.973168681738053], [-36.21030730404156, -7.973890448080539], [-36.22051018294629, -7.961353952375236], [-36.22294362574423, -7.953502543279691], [-36.22739420013661, -7.951819526932772]]]]}}]}