{"type": "FeatureCollection", "features": [{"type": "Feature", "properties": {"threshold": 70}, "geometry": {"type": "MultiPolygon", "coordinates": [[[[-49.08013591475018, -5.304222014275453], [-49.08286958386508, -5.3030766054890215], [-49.08293367937274, -5.297592374877871], [-49.07745385554854, -5.294898215051876], [-49.07619045786782, -5.285595265666725], [-49.06672351089363, -5.284502511558893], [-49.06305087607363, -5.288276941604142], [-49.063969181672654, -5.293986961294987], [-49.07191819953299, -5.296101328602185], [-49.07415074043231, -5.304256501649388], [-49.08013591475018, -5.304222014275453]]], [[[-49.117593751332656, -5.3334267462567215], [-49.112576094061914, -5.325616054861022], [-49.10483147543344, -5.321241831163804], [-49.0882461092818, -5.320433339981484], [-49.083845882494714, -5.323985141222489], [-49.08290461462354, -5.3292738183209565], [-49.076635680825135, -5.330363804672157], [-49.07038867112203, -5.336674183127227], [-49.07043323648388, -5.342311537842294], [-49.075000652583284, -5.3463735881305885], [-49.072007019809696, -5.351340422399415], [-49.076688269899606, -5.355539964667965], [-49.07707181479323, -5.3615853120363], [-49.09238571368899, -5.356024202672659], [-49.09652763710277, -5.349868085493866], [-49.10249934900937, -5.356993960223562], [-49.112362317520144, -5.354418006265248], [-49.11246806407954, -5.347830654605876], [-49.11605462594869, -5.344322471086716], [-49.10943297154218, -5.341392978554432], [-49.10749588192702, -5.335717675668947], [-49.11004571059418, -5.333834339378548], [-49.11627988602175, -5.336204796479592], [-49.117593751332656, -5.3334267462567215]]], [[[-49.154250823559074, -5.383783459454781], [-49.13805679640903, -5.381532233563987], [-49.13754009918298, -5.373430062134546], [-49.12897395557369, -5.365168636504421], [-49.13237277558472, -5.355291390197069], [-49.14217631791751, -5.354585980886775], [-49.14266306168032, -5.351076196263662], [-49.12480533904622, -5.338061067231526], [-49.12196316579534, -5.342320873268423], [-49.12815312264135, -5.344878730391627], [-49.13076274586411, -5.355950429059179], [-49.120997919970705, -5.360918431604765], [-49.107256304875904, -5.362194907148546], [-49.102000095098205, -5.373339951004796], [-49.110672393340586, -5.3803454101782355], [-49.12019851693039, -5.381131130256312], [-49.12352847661962, -5.395022251798217], [-49.12990938814782, -5.399635579792668], [-49.14218838820801, -5.397881031832218], [-49.154048053838025, -5.388578539161707], [-49.154250823559074, -5.383783459454781]]]]}}, {"type": "Feature", "properties": {"threshold": 80}, "geometry": {"type": "MultiPolygon", "coordinates": [[[[-49.08358239698218, -5.299725349421183], [-49.07589278499857, -5.285323135970704], [-49.067103254093276, -5.284367643898414], [-49.06145206345206, -5.287287399745849], [-49.064132002152476, -5.294168167612057], [-49.07247008091171, -5.2967522367088975], [-49.07422039465795, -5.3042986453145], [-49.08249317036085, -5.303490319350992], [-49.08358239698218, -5.299725349421183]]], [[[-49.15063087179525, -5.382399983690617], [-49.13857635180954, -5.381746086644911], [-49.13671298359811, -5.371759395536936], [-49.13011425688087, -5.365694191938464], [-49.13237277558472, -5.355291390197069], [-49.14217631791751, -5.354585980886775], [-49.14270086196668, -5.351378979715352], [-49.12988474708996, -5.338910622012253], [-49.11991702905528, -5.336997729126358], [-49.122166713538974, -5.34350195944114], [-49.128278431854255, -5.345089731882971], [-49.13061741503468, -5.3561565168951475], [-49.11486270509251, -5.35804569389229], [-49.11472205055252, -5.35455201352537], [-49.12023380877959, -5.34866539193622], [-49.1157257641696, -5.343037651076233], [-49.109162181834705, -5.340430484870545], [-49.110868487924265, -5.335982860846341], [-49.118498085651346, -5.335886888990516], [-49.11852744024999, -5.331668600769567], [-49.11238111016281, -5.325470178419377], [-49.1046760888901, -5.321194062305014], [-49.08846637434993, -5.3203297530504425], [-49.083845882494714, -5.323985141222489], [-49.08287344333775, -5.328911272470099], [-49.07740045566333, -5.3295740788529695], [-49.07045133918354, -5.3365238722708], [-49.06867175252199, -5.341141640751734], [-49.07030446859294, -5.345446496931817], [-49.06722295403233, -5.3508376992143845], [-49.07080940116416, -5.354365303893757], [-49.07566259229084, -5.354702052931141], [-49.07767879872845, -5.36195255097569], [-49.088821316739455, -5.361121646141401], [-49.09142529643344, -5.3573164420569785], [-49.09983990213495, -5.354415708007936], [-49.10361901530323, -5.359244146466326], [-49.09779091311019, -5.3642065980239755], [-49.09951393163379, -5.369996000065296], [-49.11059894226165, -5.380310313367998], [-49.12019851693039, -5.381131130256312], [-49.12349391145926, -5.394948420041467], [-49.12718643469926, -5.398710962188953], [-49.13605846252316, -5.399654483693452], [-49.14719184938067, -5.394560011553963], [-49.156705618853984, -5.3857983797920905], [-49.15631096959739, -5.383154849828935], [-49.15063087179525, -5.382399983690617]]]]}}, {"type": "Feature", "properties": {"threshold": 90}, "geometry": {"type": "MultiPolygon", "coordinates": [[[[-49.08450857751361, -5.298171952834568], [-49.08365828464292, -5.292290764867333], [-49.07581934676069, -5.2852880396552395], [-49.06460716102399, -5.284359861878683], [-49.06141704971252, -5.287361012733584], [-49.064129407226815, -5.295002197726927], [-49.07247008091171, -5.2967522367088975], [-49.07429383441131, -5.304333742507484], [-49.08256308419234, -5.303448609407758], [-49.08450857751361, -5.298171952834568]]], [[[-49.156301001747565, -5.383148820892771], [-49.1547262832789, -5.379855663911934], [-49.14772271266132, -5.3785191036609215], [-49.13076594142993, -5.365699881160521], [-49.1322160660758, -5.355480786399814], [-49.14217631791751, -5.354585980886775], [-49.14263588108559, -5.350999325220884], [-49.12988474708996, -5.338910622012253], [-49.11938268578594, -5.335634663501297], [-49.11487743831669, -5.32547782715591], [-49.1046760888901, -5.321194062305014], [-49.085972683496806, -5.319487964729289], [-49.08291683244152, -5.321700570549119], [-49.08304720527165, -5.328738185089407], [-49.07740045566333, -5.3295740788529695], [-49.07045133918354, -5.3365238722708], [-49.07012803846168, -5.345617970936476], [-49.06616788014756, -5.349574836706519], [-49.07312842878723, -5.355450490889771], [-49.076339781082446, -5.362542982482621], [-49.08527349933779, -5.360172410950341], [-49.089650868820634, -5.361958286647985], [-49.09166679395059, -5.357971519637422], [-49.101214634331996, -5.355862259775706], [-49.10172247236897, -5.360899772634457], [-49.09774324708108, -5.3643623462438885], [-49.098684354275164, -5.369159364484707], [-49.11059894226165, -5.380310313367998], [-49.12019851693039, -5.381131130256312], [-49.12349391145926, -5.394948420041467], [-49.12718643469926, -5.398710962188953], [-49.14211846311481, -5.397922746070306], [-49.15649741268186, -5.3861441544011], [-49.156301001747565, -5.383148820892771]], [[-49.123245592665384, -5.356458845009953], [-49.11691077727587, -5.35580198932849], [-49.12020258679473, -5.348505513163454], [-49.116540545819554, -5.3461121091819175], [-49.116327263158205, -5.3423916239021425], [-49.109529802925685, -5.341085611583952], [-49.110652079072786, -5.336097947985317], [-49.11729309974268, -5.336461786441483], [-49.12222683529545, -5.343556912340996], [-49.12815312264135, -5.344878730391627], [-49.13098779369652, -5.355499614016648], [-49.123245592665384, -5.356458845009953]]]]}}, {"type": "Feature", "properties": {"threshold": 95}, "geometry": {"type": "MultiPolygon", "coordinates": [[[[-49.08450857751361, -5.298171952834568], [-49.08283137168054, -5.290620111956673], [-49.07581934676069, -5.2852880396552395], [-49.06460716102399, -5.284359861878683], [-49.06141704971252, -5.287361012733584], [-49.064129407226815, -5.295002197726927], [-49.07247008091171, -5.2967522367088975], [-49.07429383441131, -5.304333742507484], [-49.08256308419234, -5.303448609407758], [-49.08450857751361, -5.298171952834568]]], [[[-49.156301001747565, -5.383148820892771], [-49.1547262832789, -5.379855663911934], [-49.14881946953037, -5.378613261436877], [-49.147108491472096, -5.374751302435041], [-49.14130341304005, -5.374349246120124], [-49.1312025825951, -5.366126132861671], [-49.13116271757102, -5.363196837193858], [-49.13514437527968, -5.3607106195175716], [-49.13451418030246, -5.355700441452055], [-49.142249979896846, -5.354551334737543], [-49.14263588108559, -5.350999325220884], [-49.12988474708996, -5.338910622012253], [-49.11938268578594, -5.335634663501297], [-49.11487743831669, -5.32547782715591], [-49.1046760888901, -5.321194062305014], [-49.085972683496806, -5.319487964729289], [-49.08291683244152, -5.321700570549119], [-49.08304720527165, -5.328738185089407], [-49.07740045566333, -5.3295740788529695], [-49.07045133918354, -5.3365238722708], [-49.07012803846168, -5.345617970936476], [-49.06616788014756, -5.349574836706519], [-49.07312842878723, -5.355450490889771], [-49.07633716898746, -5.363377016780771], [-49.08963529952236, -5.366962530110306], [-49.091038705578946, -5.358401415878713], [-49.10127894500802, -5.35598213919943], [-49.10172247236897, -5.360899772634457], [-49.09774324708108, -5.3643623462438885], [-49.098684354275164, -5.369159364484707], [-49.11059894226165, -5.380310313367998], [-49.12019851693039, -5.381131130256312], [-49.12349391145926, -5.394948420041467], [-49.12718643469926, -5.398710962188953], [-49.14211846311481, -5.397922746070306], [-49.15649741268186, -5.3861441544011], [-49.156301001747565, -5.383148820892771]], [[-49.123245592665384, -5.356458845009953], [-49.11691077727587, -5.35580198932849], [-49.12020258679473, -5.348505513163454], [-49.116540545819554, -5.3461121091819175], [-49.116327263158205, -5.3423916239021425], [-49.109529802925685, -5.341085611583952], [-49.110652079072786, -5.336097947985317], [-49.11729309974268, -5.336461786441483], [-49.12222683529545, -5.343556912340996], [-49.12815312264135, -5.344878730391627], [-49.13098779369652, -5.355499614016648], [-49.123245592665384, -5.356458845009953]]]]}}]}