{"type": "Feature", "properties": {"city": "San Salvador", "country": "El Salvador", "real_area": 219.7}, "geometry": {"type": "MultiLineString", "coordinates": [[[-89.1045924829722, 13.7276013928558], [-89.1087483293911, 13.7297853564933], [-89.1086981177043, 13.7345944009349], [-89.1128544521511, 13.7367786150629], [-89.1170610174389, 13.7341534761599], [-89.1171109127194, 13.7293442280581], [-89.1129545591324, 13.7271603225103], [-89.1130046069046, 13.7223514298274], [-89.1172106918798, 13.7197262391037], [-89.1213670645475, 13.7219098360669], [-89.1213173331733, 13.7267189323291], [-89.1254741938215, 13.7289027797141], [-89.1254246150024, 13.7337122313802], [-89.1295819636902, 13.7358963290718], [-89.1295325374749, 13.7407061360184], [-89.1336903742612, 13.7428904839015], [-89.1378976561381, 13.7402647163094], [-89.14205599989, 13.7424490057727], [-89.1462634720396, 13.739822976326], [-89.1504223226498, 13.7420072072962], [-89.1546299849099, 13.7393809160177], [-89.1546784612203, 13.7345704989982], [-89.1588859781606, 13.7319440512078], [-89.1630453540446, 13.7341279151491], [-89.1629971944792, 13.7389385353343], [-89.1671570584839, 13.7411226490989], [-89.1713651004777, 13.7384958342255], [-89.1755254710184, 13.7406798892776], [-89.1797337026352, 13.7380528126411], [-89.1838945796043, 13.7402368089075], [-89.1838472067269, 13.7450481902025], [-89.1880085718862, 13.7472324359924], [-89.1879613520908, 13.7520441722303], [-89.1837524501405, 13.7546714597444], [-89.1837050664308, 13.7594833478734], [-89.1794960187476, 13.7621104788196], [-89.1753346900278, 13.7599256162782], [-89.171125831956, 13.7625524852072], [-89.1710779673098, 13.7673643219323], [-89.166868963646, 13.769991034008], [-89.1668209350305, 13.7748030221638], [-89.1709822270723, 13.7769885014393], [-89.1709343514801, 13.7818008441031], [-89.1667248668165, 13.7844275042336], [-89.1666768272171, 13.7892399980296], [-89.1624671969662, 13.7918665008509], [-89.1624189933364, 13.7966791455892], [-89.1582092175346, 13.7993054909159], [-89.1581608498513, 13.8041182864067], [-89.1623225750523, 13.8063049399937], [-89.162274360397, 13.8111180895418], [-89.1580641034221, 13.8137443820175], [-89.1580157246753, 13.8185576820192], [-89.162177920058, 13.8207448930338], [-89.1663885127017, 13.8181184957375], [-89.1664365742801, 13.8133049922565], [-89.1706470212731, 13.8106784371094], [-89.1748097422846, 13.8128652805548], [-89.1747619979296, 13.817678987419], [-89.1789252076874, 13.8198660797835], [-89.1788776165217, 13.8246801404409], [-89.1830413150849, 13.8268674816083], [-89.1872526230483, 13.8242404538708], [-89.1914168286426, 13.8264277355103], [-89.1956283261818, 13.8238004449923], [-89.1956752826086, 13.8189859778883], [-89.191511058907, 13.816799004468], [-89.1915581686502, 13.8119848911264], [-89.1957691847204, 13.8093575481016], [-89.1958161304063, 13.8045435855373], [-89.1916523773605, 13.8023571690982], [-89.1916994763285, 13.7975435605299], [-89.1875362119274, 13.7953573929646], [-89.1875834641287, 13.7905441385166], [-89.1917936634922, 13.7879168485806], [-89.1959569459884, 13.7901027078706], [-89.2001673347305, 13.7874751556087], [-89.2002141056828, 13.7826618493827], [-89.1960508051511, 13.7804762983724], [-89.1960977293661, 13.7756633464845], [-89.1919349173131, 13.7734780445111], [-89.1877251991204, 13.7761053861315], [-89.18356289363, 13.7739200249841], [-89.1836102881759, 13.7691076305522], [-89.1878196711089, 13.7664803942647], [-89.1878669017025, 13.7616681514255], [-89.1920761388344, 13.7590407584848], [-89.192123205499, 13.7542286674279], [-89.1963322967934, 13.7516011180194], [-89.2004946565327, 13.7537855541736], [-89.2047039370084, 13.7511577428939], [-89.2088668029708, 13.7533421199315], [-89.2130762724651, 13.7507140468035], [-89.2131225409862, 13.7459017023133], [-89.2173318643975, 13.7432734731033], [-89.2214952542124, 13.7454574826497], [-89.2257047663748, 13.7428289917149], [-89.2257505538382, 13.7380165970712], [-89.2299599197768, 13.7353879503401], [-89.2300055434066, 13.7305757082908], [-89.2342147630852, 13.727946905949], [-89.2383786938637, 13.7301302396751], [-89.2425881019212, 13.7275011758323], [-89.2426332445112, 13.7226888843484], [-89.2468425061679, 13.7200596651808], [-89.2510069598378, 13.7222426313535], [-89.255216409606, 13.7196131508087], [-89.255261071142, 13.7148008103384], [-89.2594703743686, 13.7121711747549], [-89.2636353505354, 13.7143537733359], [-89.2678448416059, 13.7117238764991], [-89.2678890220742, 13.7069114874908], [-89.2637240288072, 13.7047291971734], [-89.2637683628741, 13.6999171635437], [-89.2596038575639, 13.6977351222203], [-89.2553950353272, 13.7003648062489], [-89.2512310351232, 13.6981827057247], [-89.2512758399346, 13.6933712294918], [-89.2471123276243, 13.6911893781697], [-89.2471572858733, 13.6863782575783], [-89.2513654393147, 13.68374878639], [-89.2555289688863, 13.6859303293784], [-89.259737310243, 13.6833005972686], [-89.2639013448029, 13.6854820811679], [-89.2638570208715, 13.6902936054821], [-89.268021543276, 13.6924753385145], [-89.2722304066607, 13.6898452389284], [-89.2763954339495, 13.6920269127066], [-89.2806044848645, 13.6893965521691], [-89.284770016929, 13.6915781666202], [-89.2847264812242, 13.6963904498513], [-89.2888925012007, 13.6985723131348], [-89.2931020736505, 13.6959415849453], [-89.2931452919425, 13.6911291002059], [-89.2973547174288, 13.6884982178366], [-89.301521258718, 13.6906797134147], [-89.3057308712448, 13.688048570165], [-89.3098979169829, 13.6902300061974], [-89.3141077163869, 13.6875986020911], [-89.3141501360578, 13.6827858689252], [-89.3183597882532, 13.6801543110266], [-89.3184020443153, 13.6753417323502], [-89.3142349656995, 13.6731609127157], [-89.3100256474171, 13.6757923635661], [-89.3058590730236, 13.6736114844251], [-89.3059018004359, 13.6687994626672], [-89.3017357137973, 13.6666188323364], [-89.2975269163092, 13.669249915529], [-89.2933613339976, 13.6670692258569], [-89.2934045325303, 13.6622577612688], [-89.2892394379112, 13.6600773206151], [-89.2850311614891, 13.6627080362721], [-89.2808665713013, 13.6605275364422], [-89.2809102407248, 13.6557166292748], [-89.2851181831443, 13.6530860205359], [-89.2851616889989, 13.6482752681288], [-89.2809975695899, 13.6460953258585], [-89.2767899611635, 13.6487258276714], [-89.2767461381667, 13.6535363786712], [-89.272538383082, 13.6561667269148], [-89.2724943965076, 13.6609774325936], [-89.2682864948006, 13.6636076270821], [-89.2641229138017, 13.6614270091183], [-89.2641672174726, 13.6566165050245], [-89.2683747850595, 13.6539864173001], [-89.2684189251441, 13.6491760678041], [-89.272626346177, 13.6465458264096], [-89.2726703226984, 13.6417356317008], [-89.268507195225, 13.6395558798961], [-89.2643001082344, 13.6421860144335], [-89.2601374852874, 13.6400062038021], [-89.2559305859119, 13.6426360779743], [-89.2558859753961, 13.6474458695486], [-89.2600485812121, 13.6496259885756], [-89.2600041240943, 13.6544361364713], [-89.2557967441682, 13.6570659636529], [-89.2516341555425, 13.6548855362341], [-89.24742696344, 13.6575151028491], [-89.2473820257397, 13.6623252034838], [-89.243174687328, 13.6649546160419], [-89.2390126209262, 13.6627738214228], [-89.2348054706054, 13.6654029732902], [-89.2306439092859, 13.6632221199315], [-89.2306894807975, 13.6584124231414], [-89.2265284070795, 13.6562318195619], [-89.222321779425, 13.6588606043358], [-89.2181612108925, 13.6566799421816], [-89.2139547717127, 13.6593084662947], [-89.2139085666083, 13.6641177588552], [-89.2097019815366, 13.6667461285097], [-89.2055419361123, 13.6645650993688], [-89.2013355397823, 13.6671932082387], [-89.1971759998722, 13.6650121206493], [-89.1972228383508, 13.6602032327031], [-89.2014289000935, 13.6575752299818], [-89.2014755749163, 13.6527664959843], [-89.1973165046066, 13.650585967069], [-89.1973633323846, 13.6457775894985], [-89.1932047495444, 13.6435973108685], [-89.193251730229, 13.638789289848], [-89.1890936347998, 13.6366092616181], [-89.18488857676, 13.6392369458451], [-89.1807309868243, 13.6370568595341], [-89.176526117921, 13.6396842832609], [-89.1764785043514, 13.6444918993852], [-89.1722734900731, 13.6471191686075], [-89.1681164240518, 13.644938715677], [-89.1639115991764, 13.6475657242756], [-89.1638635055943, 13.6523732917294], [-89.1596585354845, 13.6550001455382], [-89.1555019937699, 13.6528193260266], [-89.1555504036659, 13.6480119613418], [-89.1513943493942, 13.6458313925744], [-89.1514429118803, 13.6410243845138], [-89.1472873449928, 13.638844066605], [-89.1430832342567, 13.641470448098], [-89.1389281733992, 13.6392900724714], [-89.13472425261, 13.6419161933479], [-89.1305696978896, 13.6397357600761], [-89.1306190451273, 13.634929514647], [-89.126464977721, 13.6327493325316], [-89.122261581993, 13.6353750871256], [-89.1222119187326, 13.6401811294687], [-89.1180083783226, 13.6428067290431], [-89.1179585513827, 13.6476129250104], [-89.1221125808701, 13.6497937245795], [-89.1263164563003, 13.6471680194473], [-89.1304709921441, 13.649348761425], [-89.1346750577872, 13.6467227955533], [-89.1388300998806, 13.648903479867], [-89.1430343555748, 13.6462772532789], [-89.1471899038109, 13.6484578798558], [-89.1471411776558, 13.6532650416757], [-89.1512972133293, 13.6554459190884], [-89.1512486397496, 13.6602534374245], [-89.1554051629192, 13.6624345655583], [-89.1596102782272, 13.6598078667245], [-89.1637673074434, 13.6619889368654], [-89.1679726123629, 13.6593619772076], [-89.1721301475183, 13.661542989283], [-89.176335641887, 13.6589157688244], [-89.1804936828744, 13.6610967227615], [-89.1804462112406, 13.665905205709], [-89.1762403821103, 13.6685325320854], [-89.1761927467805, 13.6733411686301], [-89.180351257126, 13.6755226814363], [-89.1803037746443, 13.6803316740986], [-89.176097465236, 13.6829589512545], [-89.1760498190205, 13.6877680972165], [-89.1718433641423, 13.6903952190571], [-89.1676848904009, 13.6882130891868], [-89.1634786250646, 13.6908399498725], [-89.1593206574989, 13.688657761715], [-89.1593689368111, 13.6838490214301], [-89.155211456971, 13.6816670836262], [-89.1510057163624, 13.6842935775485], [-89.1468487427999, 13.682111581622], [-89.1468974912215, 13.6773034003736], [-89.1427410053203, 13.6751216550075], [-89.1385357897072, 13.677747782289], [-89.1343798101852, 13.6755659789649], [-89.1301747847162, 13.6781918451763], [-89.1260193116805, 13.6760099839672], [-89.1218144765176, 13.6786355890855], [-89.1217647792178, 13.6834431607666], [-89.1259202333047, 13.6856253306235], [-89.1258706884582, 13.690433258403], [-89.1216653732648, 13.6930588129689], [-89.1175099381861, 13.6908763344685], [-89.1133048135074, 13.6935016277417], [-89.1091498852472, 13.6913190913914], [-89.1049449512451, 13.6939441233491], [-89.1048946101372, 13.6987517967634], [-89.1006895315362, 13.7013766724213], [-89.0965351294944, 13.6991937696171], [-89.0923302418361, 13.701818383837], [-89.0922794207283, 13.7066260058051], [-89.0880743886119, 13.7092504634406], [-89.0839205131798, 13.7070671942225], [-89.0839716503851, 13.7022597760694], [-89.0881763469388, 13.6996354233102], [-89.0882273202802, 13.6948281572682], [-89.0840739131157, 13.6926454478059], [-89.0798695521142, 13.6952696956804], [-89.0798182627388, 13.7000767578928], [-89.0756137574513, 13.7027008491686], [-89.0755623042039, 13.7075080634112], [-89.0797156722723, 13.7096913902977], [-89.0796643711802, 13.7144989603726], [-89.0754593859553, 13.7171229995789], [-89.0713060375243, 13.714939363987], [-89.0671012437743, 13.7175631415108], [-89.0670494627137, 13.722370659246], [-89.0712027914478, 13.724554603539], [-89.0754079209534, 13.7219307213865], [-89.0795617572763, 13.7241146079739], [-89.0795104444635, 13.7289226853825], [-89.0753049791918, 13.7315466721553], [-89.0711511625129, 13.7293624768899], [-89.0669458887631, 13.7319862018038], [-89.0627925797855, 13.7298019488142], [-89.0585874977192, 13.7324254118466], [-89.0544346965493, 13.730241101206], [-89.0502298063281, 13.7328643023346], [-89.0501773813425, 13.7376719184756], [-89.0459723471224, 13.740294961982], [-89.0459197581414, 13.7451027291258], [-89.0500725193944, 13.7472876571831], [-89.0542778896306, 13.7446645093813], [-89.0584311589164, 13.7468493797505], [-89.0626367210449, 13.7442259698685], [-89.0626886779147, 13.739417793999], [-89.0668940958722, 13.7367942265087], [-89.0710478928476, 13.7389787304476], [-89.0752535024313, 13.7363549009988], [-89.0794078071142, 13.7385393471219], [-89.0793564825768, 13.7433479313348], [-89.0835112753227, 13.7455326282006], [-89.0877174121579, 13.7429084322124], [-89.0877684204463, 13.7380996439711], [-89.0919744127973, 13.735475290673], [-89.0920252571314, 13.7306666538391], [-89.0962311049616, 13.728042143416], [-89.1003864441055, 13.7302261650702], [-89.1045924829722, 13.7276013928558]], [[-89.1090495192169, 13.7009346417718], [-89.1132547885989, 13.6983095046986], [-89.1174102046097, 13.7004922918384], [-89.1173603321249, 13.7053005246773], [-89.1131547273528, 13.7079257668576], [-89.1089993304694, 13.7057426710827], [-89.1090495192169, 13.7009346417718]], [[-89.2138161458398, 13.6737368540729], [-89.2180230654505, 13.671108378201], [-89.2221841039313, 13.6732895986687], [-89.2221382051075, 13.6780996034373], [-89.2179309509481, 13.6807281855185], [-89.213769930175, 13.6785466566125], [-89.2138161458398, 13.6737368540729]], [[-89.3598061675937, 13.7308579859342], [-89.3597654626317, 13.7356736070786], [-89.3555529526634, 13.738306282427], [-89.3555120839865, 13.7431220572738], [-89.359684043392, 13.7453053576961], [-89.363896887297, 13.7426725752934], [-89.3639374378461, 13.7378565995321], [-89.3681501337857, 13.7352236628591], [-89.3723226130398, 13.7374065948255], [-89.3765354947865, 13.7347733968518], [-89.3807084779702, 13.7369562682579], [-89.3849215453599, 13.7343228090076], [-89.3849612958032, 13.7295065856544], [-89.3891742149822, 13.7268729725222], [-89.3892138017613, 13.7220569033048], [-89.3850407875931, 13.7198746477681], [-89.3850805289404, 13.7150589333532], [-89.3809080029575, 13.7128769252563], [-89.380947898824, 13.7080615657685], [-89.3767758609686, 13.7058798052282], [-89.372563942804, 13.7085130962013], [-89.3683924086433, 13.7063312753265], [-89.3641806761958, 13.7089643053555], [-89.3600096458397, 13.7067824242193], [-89.3557980992732, 13.7094151932801], [-89.355757249295, 13.7142299507076], [-89.3515455549326, 13.7168625659391], [-89.3515045412916, 13.7216774774761], [-89.3472926991694, 13.7243099386924], [-89.3472515218423, 13.7291250041491], [-89.3514225046249, 13.7313078093453], [-89.3556346806655, 13.7286752410591], [-89.3598061675937, 13.7308579859342]], [[-88.937667952639, 13.7219424319768], [-88.937724619056, 13.7171383427243], [-88.9335798923753, 13.7149540466464], [-88.9293785208098, 13.7175735308139], [-88.9293215392854, 13.7223774144561], [-88.9334662444199, 13.7245620195502], [-88.9334094139567, 13.7293662591609], [-88.9375546068694, 13.7315511168034], [-88.9417566517531, 13.7289314258328], [-88.9418131670454, 13.7241269806259], [-88.937667952639, 13.7219424319768]], [[-89.2750783864566, 13.8364629741445], [-89.2792922528157, 13.8338331081786], [-89.2793360422783, 13.8290161099688], [-89.2751662834128, 13.8268291799905], [-89.2752102268613, 13.8220125351533], [-89.2710409569142, 13.8198258528402], [-89.2668277605374, 13.8224555073518], [-89.2626589965366, 13.8202687647751], [-89.2584459882658, 13.8228981567129], [-89.2584014089643, 13.8277143968718], [-89.262570155819, 13.82990144749], [-89.2625257303764, 13.834718041053], [-89.2666949661988, 13.8369053394056], [-89.2666506946641, 13.8417222862478], [-89.2708204195128, 13.8439098322178], [-89.2750344329481, 13.8412801233427], [-89.2750783864566, 13.8364629741445]], [[-89.3761747391538, 13.7781252219575], [-89.3762148353482, 13.7733076758176], [-89.3720409219998, 13.7711233863449], [-89.3678269280948, 13.7737563351517], [-89.36778651351, 13.7785736803597], [-89.3635723715058, 13.7812064742689], [-89.3635317931019, 13.7860239723637], [-89.3677056750878, 13.7882088775719], [-89.3719201512024, 13.78557597681], [-89.3760945375846, 13.7877608210986], [-89.3803091995821, 13.7851276584241], [-89.3803491411331, 13.7803097584003], [-89.3761747391538, 13.7781252219575]], [[-89.2857704230833, 13.5809426516509], [-89.2815648830047, 13.5835734890464], [-89.2815212634519, 13.5883818357489], [-89.2856835008094, 13.5905595461273], [-89.2856400347073, 13.5953682500299], [-89.2898027591929, 13.5975462102116], [-89.2940089665098, 13.5949151580604], [-89.2940521157035, 13.5901062531109], [-89.2898893745024, 13.58792860135], [-89.2899326772099, 13.5831200535855], [-89.2857704230833, 13.5809426516509]], [[-89.2252925220915, 13.7861481465195], [-89.2210815661919, 13.7887764856215], [-89.2210355833309, 13.7935905516678], [-89.2252008738278, 13.7957764812802], [-89.2294121648416, 13.7931480366382], [-89.2294578302305, 13.7883337679333], [-89.2252925220915, 13.7861481465195]], [[-89.2292751477783, 13.8075918535399], [-89.2250633752207, 13.8102202467488], [-89.2250175353603, 13.8150351718891], [-89.2291837856516, 13.8172219065383], [-89.2333958934113, 13.814593407891], [-89.2334414156638, 13.8097782800422], [-89.2292751477783, 13.8075918535399]], [[-89.3383708632184, 13.7873660225274], [-89.3341571322785, 13.789997875401], [-89.3341154351324, 13.7948149223276], [-89.338287787158, 13.7970003177754], [-89.3425018524553, 13.794368358366], [-89.3466747093206, 13.7965536930945], [-89.3508889610984, 13.7939214716002], [-89.3550623226937, 13.7961067455361], [-89.3550214165809, 13.8009245488344], [-89.3591952669661, 13.8031100697618], [-89.363410039308, 13.800477479524], [-89.3634506270033, 13.7956594750505], [-89.359276760788, 13.7934742619807], [-89.3593175030346, 13.7886566111891], [-89.3551441255549, 13.7864716451347], [-89.3509300216993, 13.7891040219999], [-89.3467571488358, 13.7869189951727], [-89.3425432313559, 13.789551110054], [-89.3383708632184, 13.7873660225274]], [[-89.0575633300208, 13.4420943146669], [-89.053368017155, 13.444718506016], [-89.0533158308627, 13.4495158853342], [-89.0574592720139, 13.4516892763057], [-89.0616549192667, 13.4490649787083], [-89.0617067909674, 13.444267396397], [-89.0575633300208, 13.4420943146669]], [[-89.5594982422002, 13.9708512452415], [-89.5552730893899, 13.9734894032324], [-89.5552397409414, 13.9783185613309], [-89.5594318659528, 13.9805097611139], [-89.563657352572, 13.9778714957906], [-89.5636903803574, 13.9730421380263], [-89.5594982422002, 13.9708512452415]], [[-89.1456776659367, 13.797558706028], [-89.141468270566, 13.8001845262982], [-89.1414192688552, 13.8049969146733], [-89.1455799794875, 13.8071836863934], [-89.1455311306776, 13.8119964288562], [-89.141321254227, 13.8146221959213], [-89.1371605623749, 13.8124351158399], [-89.1329508764304, 13.8150606201659], [-89.1329015465091, 13.819873309153], [-89.1370622195215, 13.8220606975909], [-89.1412722413088, 13.819435088676], [-89.1454334218854, 13.8216224180464], [-89.1496436341209, 13.8189965463151], [-89.149692329981, 13.8141834498888], [-89.1539023967751, 13.8115574201071], [-89.1539509285352, 13.8067444740536], [-89.1497897105648, 13.8045577613633], [-89.1498383952894, 13.7997451693823], [-89.1456776659367, 13.797558706028]], [[-89.3493475689972, 13.4837741036469], [-89.3451437519655, 13.4864071623482], [-89.3451025712723, 13.491213663124], [-89.349265524381, 13.4933873051158], [-89.3534696740826, 13.4907541378567], [-89.3535105379921, 13.4859474371731], [-89.3493475689972, 13.4837741036469]], [[-89.1671090518249, 13.745933624381], [-89.1629008643389, 13.7485602827572], [-89.1628526937631, 13.753371409877], [-89.1670130275314, 13.7555560817654], [-89.1712215503052, 13.7529293181088], [-89.1712694040092, 13.7481179878535], [-89.1671090518249, 13.745933624381]]]}}