{"type": "Feature", "properties": {"city": "Manado", "country": "Indonesia", "real_area": 276.74}, "geometry": {"type": "MultiLineString", "coordinates": [[[124.790670792539, 1.20837426115039], [124.786784052362, 1.21162345898787], [124.782141201508, 1.20983631082699], [124.781385018758, 1.20480013555183], [124.785271574804, 1.20155095536176], [124.784515359239, 1.19651482994027], [124.78840195456, 1.19326552895138], [124.793044949545, 1.19505233566881], [124.793801277152, 1.20008861409537], [124.798444535416, 1.20187560605143], [124.799200942251, 1.20691208736187], [124.795313978794, 1.21016142375677], [124.790670792539, 1.20837426115039]], [[124.87180221219, 1.28232456340594], [124.8671554652, 1.280535346928], [124.866398075293, 1.27549649399834], [124.870287320496, 1.27224670521632], [124.869529897866, 1.26720790067765], [124.873419181751, 1.26395799067486], [124.872661726403, 1.25891923474221], [124.876551048946, 1.25566920372391], [124.881198010036, 1.25745791114424], [124.881955577239, 1.26249681927215], [124.886602800615, 1.26428571009466], [124.890492528051, 1.26103552315411], [124.89514008488, 1.26282442767318], [124.895897843042, 1.26786368867861], [124.892007932557, 1.27111389311978], [124.892765658026, 1.27615320270921], [124.888875786063, 1.27940328611785], [124.884228371712, 1.27761404250418], [124.880338721419, 1.28086398732259], [124.881096302348, 1.28590319310072], [124.885743645418, 1.28769260624703], [124.889633478835, 1.2844426440762], [124.894281155398, 1.28623207070846], [124.898171210392, 1.28298196991021], [124.902819220274, 1.28477141001834], [124.903577103989, 1.28981112030744], [124.908225375921, 1.29160074320359], [124.912115835228, 1.28835048648207], [124.916764440204, 1.29014012276706], [124.917522514815, 1.29518018501266], [124.92217138168, 1.29697000385494], [124.922929535392, 1.30201026593404], [124.919038710474, 1.30526055732458], [124.919796831521, 1.31030086723366], [124.924445889251, 1.31209103757136], [124.925204089399, 1.31713154697232], [124.921313120053, 1.32038173416485], [124.916664133316, 1.318591394745], [124.91277338509, 1.3218414431241], [124.913531440795, 1.32688184804758], [124.90964073095, 1.33013177461296], [124.904992148285, 1.32834127915479], [124.90423420438, 1.3233010262768], [124.899585883778, 1.32151071306886], [124.898828019, 1.31647065961159], [124.902718363008, 1.31322076727054], [124.901960465542, 1.30818076129952], [124.897312335883, 1.3063907997884], [124.896554517544, 1.3013509935797], [124.900444717046, 1.29810099681483], [124.899686866016, 1.29306123845836], [124.895038927301, 1.29127162896113], [124.891148910814, 1.29452160844745], [124.886501305489, 1.29273201235922], [124.882611510641, 1.29598185308693], [124.877964238878, 1.29419227041778], [124.87407466582, 1.29744197229296], [124.869427727793, 1.29565240305299], [124.868670291449, 1.29061330153388], [124.872559681255, 1.28736361689982], [124.87180221219, 1.28232456340594]], [[124.780962402536, 1.31853260049774], [124.777075318515, 1.32178064558572], [124.772432135137, 1.31999105442199], [124.771675963604, 1.31495358848938], [124.775562863333, 1.31170556015934], [124.780206118893, 1.31349498101027], [124.784093242233, 1.31024681270316], [124.788736833423, 1.31203624709472], [124.789493229156, 1.31707402003342], [124.785605921615, 1.32032220513563], [124.780962402536, 1.31853260049774]], [[124.808069844911, 1.32423288637926], [124.808826511205, 1.32927121325379], [124.804938612235, 1.33251957183034], [124.800294230968, 1.33072958676775], [124.799537676722, 1.32569141316163], [124.803425391689, 1.3224430713434], [124.802668804638, 1.31740494466789], [124.798024614674, 1.31561531311229], [124.797268106871, 1.31057738682609], [124.80115567698, 1.30732893884542], [124.805799938915, 1.30911840028777], [124.80968773218, 1.30586981261067], [124.808931079532, 1.30083178044116], [124.804286745654, 1.29904248912201], [124.803530172244, 1.29400465764322], [124.807417820678, 1.29075596436195], [124.812062226472, 1.29254508554797], [124.812818911911, 1.29758307014208], [124.817463580834, 1.299372375038], [124.821351636157, 1.29612352526693], [124.82059483871, 1.29108538766127], [124.824482933065, 1.28783641560409], [124.829128008634, 1.28962556406675], [124.829884918068, 1.29466385458015], [124.834530256562, 1.29645318659923], [124.83841875732, 1.29320405816535], [124.843064430342, 1.29499340373084], [124.843821530939, 1.30003204758056], [124.848467466725, 1.30182157647235], [124.849224646512, 1.30686042066412], [124.853870845003, 1.30865013272875], [124.854628103976, 1.31368917707214], [124.850739052526, 1.31693835667225], [124.851496278753, 1.3219774483315], [124.856142668361, 1.32376751304226], [124.856899973774, 1.32880680451183], [124.85301077765, 1.33205587856748], [124.848364459602, 1.33026564423987], [124.844475485815, 1.33351457873126], [124.84523264654, 1.33855376437712], [124.849878893002, 1.3403441683116], [124.850636132924, 1.34538355346608], [124.846747014434, 1.34863238185451], [124.842100839587, 1.34684180832313], [124.838211943556, 1.35009049688553], [124.83896903876, 1.35512977565782], [124.835080181642, 1.35837834094818], [124.835837244079, 1.36341766596114], [124.831948425896, 1.36666610777447], [124.827302729005, 1.36487520799514], [124.826545778563, 1.35983603605228], [124.821900344679, 1.35804531890916], [124.821143473466, 1.35300634625261], [124.816498302649, 1.35121581189935], [124.81574151067, 1.34617703871971], [124.811096602978, 1.34438668730987], [124.810339890239, 1.33934811379763], [124.814227973159, 1.33609973849977], [124.81887295272, 1.33788992003612], [124.822761258585, 1.33464140479946], [124.827406573026, 1.33643159954898], [124.831295101683, 1.33318294446713], [124.830538132137, 1.32814411143779], [124.825892745924, 1.32635408650517], [124.822004401035, 1.32960272479131], [124.817359349632, 1.32781271313847], [124.81660257131, 1.32277423309933], [124.811957783005, 1.32098440469664], [124.808069844911, 1.32423288637926]], [[124.904943895278, 1.56104549900299], [124.904185701937, 1.55600223822977], [124.908077511249, 1.5527545102974], [124.912727696919, 1.55455002786698], [124.913486002134, 1.55959344146054], [124.90959400981, 1.5628411846705], [124.904943895278, 1.56104549900299]], [[124.85370291897, 1.56975509010086], [124.852945397308, 1.56471274843665], [124.856835874905, 1.56146587329046], [124.861484057731, 1.56326132476151], [124.862241691391, 1.56830381987077], [124.858351030232, 1.5715507100702], [124.85370291897, 1.56975509010086]], [[124.876245351467, 1.34100802906723], [124.875487775804, 1.3359681860228], [124.879377599404, 1.33271881617504], [124.884025181875, 1.33450927247014], [124.88478286941, 1.33954926793654], [124.880892862607, 1.34279865469222], [124.876245351467, 1.34100802906723]], [[124.813679989703, 1.27418269141138], [124.812923317914, 1.26914500375544], [124.808279031471, 1.26735640688143], [124.807522438908, 1.26231892055825], [124.811410020773, 1.25906987814075], [124.816054379092, 1.26085830477554], [124.816811083665, 1.26589594406072], [124.821455705042, 1.26768455478801], [124.822212488829, 1.27272239536647], [124.818324539246, 1.27597147230144], [124.813679989703, 1.27418269141138]], [[124.771888020524, 1.25808663422572], [124.771131922641, 1.25305001088282], [124.775018466283, 1.24980142048526], [124.77966129208, 1.25158943619712], [124.783548059304, 1.24834070658767], [124.788191220684, 1.25012873640244], [124.788947542731, 1.25516566634551], [124.785060591332, 1.25841441323188], [124.780417502056, 1.25662621289193], [124.776530774148, 1.25987482052929], [124.771888020524, 1.25808663422572]], [[125.046815365685, 1.3972160282897], [125.042920709005, 1.40046726960318], [125.038266336496, 1.39867450261301], [125.037506550669, 1.39363066199382], [125.041401025843, 1.39037943762983], [125.046055468355, 1.39217203694198], [125.049950162476, 1.38892067397626], [125.054604935345, 1.3907132853779], [125.055364944158, 1.3957574273495], [125.051470068624, 1.39900880730201], [125.046815365685, 1.3972160282897]], [[124.988111994746, 1.53138492495389], [124.987352730066, 1.52634037707909], [124.991246602425, 1.52309112591558], [124.995899921581, 1.52488640687058], [124.996659297927, 1.52993110649881], [124.992765243457, 1.53318037342499], [124.988111994746, 1.53138492495389]], [[124.781824339267, 1.29513434392987], [124.781068069239, 1.29009701995279], [124.784955086968, 1.2868486228025], [124.789598558909, 1.28863753265513], [124.790354941017, 1.29367500999447], [124.786467739109, 1.29692342412522], [124.781824339267, 1.29513434392987]], [[124.860339513237, 1.23518866588454], [124.859582262627, 1.23015056296325], [124.863471074014, 1.22690046407972], [124.868117319334, 1.22868845043857], [124.86887468182, 1.23372670560952], [124.864985687116, 1.23697682217833], [124.860339513237, 1.23518866588454]], [[124.831917067725, 1.16255406715841], [124.831160273059, 1.15751753293231], [124.835047916612, 1.15426719990333], [124.834291089193, 1.1492307168626], [124.838178771664, 1.14598026458518], [124.842823465102, 1.14776627711473], [124.843580404431, 1.15280291242317], [124.848225360526, 1.15458911026717], [124.848982379013, 1.15962594905393], [124.845094329508, 1.16287643777466], [124.840449445003, 1.16109006949908], [124.836561617869, 1.16434042069416], [124.831917067725, 1.16255406715841]], [[125.101831127789, 1.4421676212455], [125.101070455027, 1.43712195734697], [125.096413531688, 1.43532808031319], [125.095652937838, 1.43028261175367], [125.09099627436, 1.42848891333295], [125.087100274337, 1.43174051639897], [125.082443940423, 1.4299468295901], [125.081683536896, 1.42490170687828], [125.08557935587, 1.42165012065244], [125.090235759426, 1.42344364030468], [125.094131796579, 1.42019191547904], [125.09337124917, 1.41514668792192], [125.097267323429, 1.41189484154245], [125.101924126019, 1.41368820577495], [125.102684784803, 1.41873358347953], [125.107341847168, 1.42052712647994], [125.108102584851, 1.42557269982665], [125.11275990693, 1.42736642143954], [125.116656560748, 1.42411440274516], [125.121314211865, 1.42590813593838], [125.125211083306, 1.42265597888996], [125.129869063286, 1.42444972365302], [125.130630102507, 1.4294957922671], [125.135288341934, 1.43128971533099], [125.136049460022, 1.43633597912119], [125.140707958835, 1.43813008033025], [125.144605408753, 1.43487775107868], [125.149264236047, 1.43667186369082], [125.153161903095, 1.43341939619941], [125.157821058693, 1.4352135202041], [125.158582478156, 1.44026027821245], [125.163241892874, 1.44205458005023], [125.167139957134, 1.4388019574221], [125.171799699876, 1.44059627056365], [125.175697980865, 1.43734350984737], [125.180358051458, 1.43913783428219], [125.184256549022, 1.43588493557231], [125.188916947289, 1.43767927128986], [125.192815661273, 1.43442623468103], [125.197476387038, 1.43622058167078], [125.198238330062, 1.44126813143302], [125.202899314469, 1.4430626557868], [125.206798424528, 1.43980946426948], [125.211459736154, 1.44160399980658], [125.212221869079, 1.44665189287915], [125.208322579267, 1.44990510146394], [125.209084679855, 1.4549530397397], [125.205185426331, 1.45820612743884], [125.205947494577, 1.4632541107018], [125.202048277366, 1.46650707730917], [125.197387171733, 1.46471204372773], [125.196625214624, 1.45966420955033], [125.191964367661, 1.45786935302145], [125.188065546575, 1.46112216460378], [125.183405027149, 1.45932731913315], [125.182643260007, 1.45427982823713], [125.177982999415, 1.45248516005355], [125.174084574849, 1.45573781655433], [125.169424642075, 1.45394315951797], [125.165526434207, 1.45719567776131], [125.160866829425, 1.45540103188273], [125.15696883841, 1.45865341177414], [125.152309561797, 1.45685877706396], [125.148411787787, 1.46011101850894], [125.143752839518, 1.45831639497777], [125.139855282668, 1.4615684978819], [125.135196662918, 1.45977388554033], [125.131299323383, 1.46302584980923], [125.132060423057, 1.46807244310759], [125.128163120362, 1.47132428530388], [125.123504898615, 1.46952951753836], [125.12274391026, 1.46448307420718], [125.118085948075, 1.46268848427665], [125.117325038611, 1.45764223551499], [125.121221979996, 1.45439042666939], [125.120461038086, 1.44934422262095], [125.115803266127, 1.44754997746041], [125.111906505479, 1.45080176957552], [125.107249062597, 1.44900753578214], [125.106488310929, 1.44396167673687], [125.101831127789, 1.4421676212455]], [[124.875079948406, 1.44977428437194], [124.874322271396, 1.44473304137411], [124.878212663514, 1.44148470096794], [124.882860915919, 1.44327758751043], [124.886751529915, 1.44002910641961], [124.891400116016, 1.4418220050393], [124.892158016825, 1.44686355353131], [124.888267219647, 1.4501120507149], [124.889025087742, 1.45515364335534], [124.885134329133, 1.45840201583553], [124.88589216451, 1.46344365240911], [124.890540870389, 1.46523706922775], [124.891298784942, 1.47027890230213], [124.895947753151, 1.47207249959978], [124.896705746875, 1.47711452898345], [124.901354977355, 1.47890830660553], [124.905246285296, 1.47565988629122], [124.904488179705, 1.47061770426896], [124.908379526102, 1.46736915902854], [124.907621387815, 1.46232702070077], [124.911512772644, 1.45907835073929], [124.916162478694, 1.46087180309256], [124.920054084823, 1.45762299252151], [124.919295802018, 1.45258074569711], [124.923187446495, 1.44933181074095], [124.927837556582, 1.45112510648463], [124.931729422146, 1.44787603114339], [124.936379865033, 1.44966933876691], [124.94027195153, 1.44642012313422], [124.944922727043, 1.44821344262697], [124.948815034322, 1.44496408679649], [124.953466142288, 1.44675741814785], [124.957358670196, 1.44350792221329], [124.962010110441, 1.44530126541269], [124.965902858824, 1.44205162946781], [124.965143984573, 1.43700866668431], [124.969036770978, 1.43375890721461], [124.968277864105, 1.42871598915587], [124.972170688507, 1.42546610636664], [124.971411749016, 1.42042323324809], [124.975304611393, 1.41717322734469], [124.979956595494, 1.41896607802615], [124.983849678012, 1.41571593259972], [124.983090594246, 1.41067295311242], [124.986983714655, 1.40742268490843], [124.98622459829, 1.40237975085629], [124.990117756566, 1.39912936008014], [124.994770213272, 1.40092188663681], [124.998663591414, 1.39767135669414], [125.003316379523, 1.39946389540278], [125.004075719126, 1.404507132062], [125.000182159017, 1.40775767876767], [125.000941466041, 1.41280096099033], [125.005594444776, 1.41459384772473], [125.006353830825, 1.4196373265705], [125.002460126535, 1.42288776741316], [125.003219480006, 1.42793129145556], [124.99932581347, 1.43118160950363], [124.994672975447, 1.42938838692506], [124.993913733594, 1.4243450142219], [124.989261156643, 1.42255197150038], [124.985367891991, 1.42580213350418], [124.986127022205, 1.43084535476364], [124.982233795429, 1.43409539371031], [124.98299289304, 1.43913865982269], [124.979099704164, 1.44238857550683], [124.974447599881, 1.44059520864319], [124.970554631175, 1.4438449845046], [124.971313584499, 1.44888814357813], [124.967420653777, 1.45213779584053], [124.96817957448, 1.45718099927201], [124.972831537601, 1.45897470218783], [124.976724650609, 1.45572503364477], [124.98137694563, 1.45751874824268], [124.982136057087, 1.46256229932103], [124.978242761848, 1.46581198410788], [124.979001840695, 1.47085557924132], [124.983654326455, 1.47264964125388], [124.984413484366, 1.47769343195052], [124.980520044844, 1.48094300891739], [124.981279170147, 1.48598684330213], [124.977385768542, 1.48923629603676], [124.978144861231, 1.49428017389412], [124.974251497567, 1.49752950219124], [124.969599223497, 1.49573493664034], [124.968840242507, 1.49069121063456], [124.972733423882, 1.48744189832175], [124.971974410268, 1.48239821572459], [124.967322326984, 1.48060399732589], [124.963429327953, 1.48385329361754], [124.958777576783, 1.48205908669974], [124.958018753971, 1.47701575148712], [124.953367264338, 1.47522172411843], [124.952608520623, 1.47017858459019], [124.956501154803, 1.4669293204515], [124.955742378447, 1.4618862247863], [124.951091079648, 1.46009254526657], [124.947198627974, 1.46334179327346], [124.942547661597, 1.46154812546772], [124.938655430674, 1.46479723310853], [124.934004796891, 1.46300357702745], [124.93011278687, 1.46625254420851], [124.930871227937, 1.47129518352141], [124.935521790814, 1.47308900788133], [124.936280311004, 1.47813184315101], [124.932388156529, 1.48138070178141], [124.927737664587, 1.47958670915288], [124.923845731136, 1.48283542706172], [124.924604106857, 1.48787815350138], [124.929254527838, 1.48967231438822], [124.930012982694, 1.49471523648182], [124.92612090476, 1.49796384528128], [124.926879326942, 1.50300681046373], [124.922987287313, 1.50625529404009], [124.923745676816, 1.51129830209599], [124.928396217768, 1.5130929790191], [124.929154686412, 1.51813618223418], [124.93380548928, 1.51993103855282], [124.937697894429, 1.51668252356683], [124.942349030041, 1.51847739112002], [124.943107689614, 1.52352094165883], [124.947759086982, 1.52531598837475], [124.951651895588, 1.52206731660653], [124.956303625424, 1.52386237446835], [124.957062475877, 1.52890627195371], [124.953169484738, 1.53215495937191], [124.948517825674, 1.53035973364843], [124.944625055222, 1.53360827989651], [124.945383761259, 1.53865206743747], [124.941491028985, 1.54190048796035], [124.936839773331, 1.54010510539759], [124.936081179085, 1.53506147023651], [124.931430185274, 1.53326626668182], [124.930671670165, 1.52822282614448], [124.926020938254, 1.526427801753], [124.922128792443, 1.52967604984272], [124.922887195729, 1.53471933785545], [124.927537856654, 1.53651453030939], [124.928296339087, 1.54155801298629], [124.924404048767, 1.54480615062711], [124.92516249852, 1.5498496752281], [124.921270246523, 1.55309768667717], [124.91661972765, 1.55130215812963], [124.915861389741, 1.54625878618092], [124.911211132959, 1.54446343671977], [124.907319285203, 1.54771129110522], [124.902669361725, 1.54591595269981], [124.89877773548, 1.54916366531767], [124.894128145479, 1.54736833797899], [124.893370110503, 1.54232546628125], [124.897261553627, 1.5390777690148], [124.896503485935, 1.53403493920127], [124.891854087019, 1.53223995958929], [124.891096098511, 1.52719732475289], [124.886446961965, 1.52540252477001], [124.882555885245, 1.52865019122286], [124.877907082483, 1.52685540253979], [124.8740162277, 1.53010292724395], [124.874773992354, 1.53514525601278], [124.87088317625, 1.53839265422559], [124.866234778898, 1.53659770831276], [124.865477126202, 1.53155553273384], [124.860828991526, 1.52976076668303], [124.856938581076, 1.5330080076103], [124.857696121793, 1.53805002989526], [124.853805750142, 1.54129714407019], [124.854563258097, 1.5463392081356], [124.859211249697, 1.54813431139013], [124.863101804888, 1.54488718197637], [124.867750130759, 1.54668229641914], [124.871640908162, 1.5434350249025], [124.876289568131, 1.54523015052254], [124.877047379254, 1.55027271610566], [124.881696301781, 1.55206802127806], [124.882454192111, 1.55711078157556], [124.878563047971, 1.56035808353383], [124.879320905566, 1.56540088522101], [124.883970019241, 1.56719653808905], [124.884727956042, 1.57223953414716], [124.880836667227, 1.57548672414691], [124.876187624931, 1.57369090299118], [124.875429800076, 1.56864806012967], [124.870781020365, 1.56685241821683], [124.870023274727, 1.56180976976656], [124.865374757662, 1.5600143072516], [124.864617091247, 1.55497185340446], [124.859968836884, 1.55317657044229], [124.856078320479, 1.55642357282463], [124.851430400458, 1.55462830098403], [124.85067292527, 1.54958619535343], [124.846025268114, 1.54779110329808], [124.845267872168, 1.54274919269445], [124.849158021364, 1.5395022206781], [124.848400592646, 1.53446035179112], [124.843753126748, 1.53266560841619], [124.839863161238, 1.53591256519413], [124.840620477936, 1.54095428057914], [124.836730551347, 1.54420111034388], [124.832083491833, 1.5424062095163], [124.831326287176, 1.53736464773722], [124.835216029987, 1.53411783317353], [124.834458792543, 1.52907631319878], [124.838348574313, 1.52582937169623], [124.837591304085, 1.52078789374102], [124.841481124791, 1.51754082550431], [124.840723821784, 1.51249938978386], [124.836076810098, 1.5107051758123], [124.835319586338, 1.50566393599645], [124.839209262238, 1.50241675669125], [124.838452005698, 1.49737555947673], [124.833805185284, 1.4955816950558], [124.83304800799, 1.49054069408861], [124.828401450605, 1.48874701045717], [124.827644352562, 1.48370620592868], [124.831533699866, 1.48045893155451], [124.830776569036, 1.47541817014514], [124.826130202939, 1.47362483661453], [124.825373151359, 1.4685842719864], [124.820727048365, 1.46679111963088], [124.819970076041, 1.46175075197519], [124.815324236208, 1.45995778094895], [124.81143544059, 1.46320500827379], [124.806789935905, 1.46141204934317], [124.802901363442, 1.4646591351063], [124.798256194078, 1.462866188282], [124.794367844921, 1.46611313239031], [124.789723011049, 1.46432019768301], [124.78583488535, 1.4675670000434], [124.781190387143, 1.46577407746379], [124.7804339425, 1.46073452211727], [124.784321883923, 1.45748773540205], [124.78356540644, 1.45244822358773], [124.778921099676, 1.45065565246423], [124.775033342583, 1.45390242349727], [124.775789707919, 1.45894178132972], [124.771901990197, 1.46218842624128], [124.767258091554, 1.46039569766922], [124.766501838385, 1.45535649392235], [124.761858203528, 1.45356394737335], [124.757970894169, 1.45681043478061], [124.753327595523, 1.45501790053485], [124.752571533874, 1.4499790487617], [124.747928499174, 1.44818669676981], [124.747172516863, 1.4431480429719], [124.742529746167, 1.4413558733876], [124.741773843199, 1.43631741775565], [124.745660598703, 1.43307097739337], [124.750303441853, 1.4348629769506], [124.754190421573, 1.43161639484075], [124.758833601065, 1.43340840692153], [124.75958972845, 1.43844717106665], [124.764233171802, 1.44023936555477], [124.768120560076, 1.43699262599713], [124.772764339499, 1.43878483292125], [124.776651951594, 1.43553795176484], [124.775895599874, 1.43049887952107], [124.779783251332, 1.42725187272674], [124.784427438823, 1.42904392231469], [124.788315313891, 1.42579677414507], [124.792959837039, 1.42758883621424], [124.796847935566, 1.42434154676251], [124.796091326769, 1.41930221122717], [124.799979464514, 1.41605479660308], [124.804624395148, 1.41784670150404], [124.808512756139, 1.41459914582154], [124.813158022015, 1.41639106324915], [124.813914854963, 1.42143070592536], [124.810026309975, 1.4246782776617], [124.810783110121, 1.42971796485815], [124.806894604253, 1.43296541147838], [124.807651371592, 1.43800514298003], [124.812296756871, 1.43979758141042], [124.816185446721, 1.43655011884759], [124.820831167108, 1.43834256958387], [124.824720079931, 1.43509496585082], [124.823963088481, 1.43005492736763], [124.827852040326, 1.42680719857476], [124.82709501609, 1.42176720452474], [124.822449152039, 1.41997509263616], [124.821692207046, 1.41493529654525], [124.817046606101, 1.41314336660151], [124.816289740355, 1.40810376866061], [124.820178363515, 1.40485594730648], [124.824824036294, 1.4066477077342], [124.825581014075, 1.41168745902577], [124.830226949917, 1.41347940147514], [124.834115979737, 1.41023142317719], [124.838762250304, 1.41202337812165], [124.842651502763, 1.4087752591386], [124.847298107882, 1.41056722656768], [124.848055388887, 1.41560748227945], [124.844165952794, 1.41885561746542], [124.844923201037, 1.4238959179535], [124.849569997351, 1.42568823632507], [124.853459617022, 1.42244008497314], [124.852702256807, 1.41739963142193], [124.856591915295, 1.41415135560704], [124.861239117493, 1.41594351714643], [124.861996589661, 1.42098412365682], [124.858106747684, 1.42423241567496], [124.858864187106, 1.42927306687456], [124.863511580451, 1.43106557898156], [124.864269099073, 1.43610642763843], [124.860379112405, 1.4393546112114], [124.861136598282, 1.44439550419115], [124.857246650379, 1.44764356294772], [124.858004103507, 1.45268450003516], [124.862651616495, 1.45447753137955], [124.866541747854, 1.45122945664212], [124.871189594956, 1.45302250001818], [124.871947239232, 1.45806378703646], [124.876595348883, 1.4598570112779], [124.880485885644, 1.45660877965042], [124.879728129448, 1.45156733976904], [124.875079948406, 1.44977428437194]], [[124.87487598585, 1.50668673158238], [124.875633736775, 1.51172878033676], [124.880282348405, 1.51352322059691], [124.884173280475, 1.51027544352461], [124.883415417622, 1.50523324177186], [124.878766734621, 1.50343897008347], [124.87487598585, 1.50668673158238]], [[124.905044700002, 1.53258210645354], [124.908936403188, 1.52933414128303], [124.913586468947, 1.53112914330655], [124.917478393521, 1.52788103662977], [124.916720069388, 1.52283794347315], [124.912069932529, 1.5210431096562], [124.911311687552, 1.51600021154759], [124.906661812815, 1.51420555728162], [124.902770254203, 1.51745363284677], [124.898120712832, 1.51565898992564], [124.894229375792, 1.51890692405924], [124.894987397018, 1.52394951664457], [124.899636867174, 1.52574432791634], [124.900394967578, 1.53078711563033], [124.905044700002, 1.53258210645354]], [[124.903629242485, 1.49403522230618], [124.907520694988, 1.49078691132642], [124.906762542937, 1.48574448989881], [124.902113050245, 1.48395053210697], [124.898221780782, 1.48719882729012], [124.898979820967, 1.4922410960554], [124.903629242485, 1.49403522230618]], [[124.89357262152, 1.48540488113197], [124.892814660507, 1.48036280833306], [124.888165763559, 1.47856904242223], [124.884274898917, 1.48181718071376], [124.885032748032, 1.486859100706], [124.889681573692, 1.48865303521969], [124.89357262152, 1.48540488113197]]]}}