{"type": "FeatureCollection", "features": [{"type": "Feature", "properties": {"threshold": 70}, "geometry": {"type": "MultiPolygon", "coordinates": [[[[-52.42966106537649, -26.87847576228473], [-52.43132717299405, -26.874724205145057], [-52.4257000136946, -26.868110576982254], [-52.41018142622109, -26.862080408780233], [-52.40433614576595, -26.854081547666105], [-52.39697336237946, -26.854059106360705], [-52.395972184371466, -26.86180466836168], [-52.38656905665351, -26.86573206439775], [-52.39064325074842, -26.873033886679707], [-52.389628191727375, -26.87613510326584], [-52.38186550693796, -26.878103643628638], [-52.37828002055161, -26.874787909178252], [-52.37410590426342, -26.874769768485862], [-52.37268048442494, -26.880981396447606], [-52.38270231223912, -26.8857764679505], [-52.38639900601661, -26.89492803892286], [-52.39734695998581, -26.894955068691473], [-52.4009711656037, -26.89054229175548], [-52.40772627542071, -26.888278778764224], [-52.41622196864209, -26.893098630901942], [-52.42966106537649, -26.87847576228473]]], [[[-52.53862775622845, -26.95885834593268], [-52.53561285955461, -26.949593162094605], [-52.52733534270527, -26.948110052536883], [-52.52926452659861, -26.960994836820095], [-52.53534305417312, -26.962716231832704], [-52.53862775622845, -26.95885834593268]]], [[[-52.64922932481658, -27.0940763143479], [-52.64857837539308, -27.089655425674092], [-52.64049816457595, -27.093981886415847], [-52.634992384596664, -27.092674767798208], [-52.62975381414631, -27.084333763366992], [-52.63416575847087, -27.080098662608425], [-52.63855471225156, -27.082670013552576], [-52.64837111596001, -27.082726012510403], [-52.64372730151563, -27.06895786368949], [-52.63583369219962, -27.05913242640708], [-52.62805796341935, -27.06671126698935], [-52.62639182125235, -27.07529059712473], [-52.620559901168576, -27.083864723164606], [-52.613265362830695, -27.078937407428707], [-52.61555925297878, -27.067641888856006], [-52.60755040374401, -27.064975109858274], [-52.60091826175935, -27.073314621700426], [-52.601676373151626, -27.077496996062578], [-52.59811257680512, -27.082362964005014], [-52.58738458726699, -27.08494343432538], [-52.58260849029838, -27.09033040399805], [-52.58927312163893, -27.097215434575677], [-52.58719192515407, -27.103802293524087], [-52.590995963333434, -27.110471312504988], [-52.60013699284114, -27.110352729762457], [-52.603029991094665, -27.112629835735028], [-52.5982937921041, -27.12072111662877], [-52.60695393530788, -27.122358019997744], [-52.609730039477064, -27.118617598090744], [-52.61780739902004, -27.117566992940198], [-52.61803866565326, -27.12142234733766], [-52.61123045395658, -27.124048819645953], [-52.613029542095084, -27.1348829928167], [-52.6209259101311, -27.13273915715405], [-52.6207414717503, -27.122584580962794], [-52.625143510981616, -27.118461765860012], [-52.62498508186867, -27.11015714776482], [-52.63522894018309, -27.110904211207295], [-52.63783830465181, -27.10304765701722], [-52.642259355653366, -27.10696232594217], [-52.64941840554959, -27.106651602935184], [-52.64922932481658, -27.0940763143479]], [[-52.61196572817274, -27.10158689764864], [-52.61113886815018, -27.10603312004997], [-52.60063800189509, -27.106145429765018], [-52.59674063297261, -27.10406488025291], [-52.59653655432776, -27.099919632767136], [-52.59062765760329, -27.098585498213435], [-52.58948061143054, -27.0960211892869], [-52.592044930113445, -27.09356258093868], [-52.59944737215854, -27.094928750585385], [-52.602271882194664, -27.091921158482517], [-52.6087607285715, -27.09175770298383], [-52.61196572817274, -27.10158689764864]]], [[[-52.60709339500533, -27.133388483010286], [-52.599716720738535, -27.131914011322113], [-52.59731757720705, -27.13522215279176], [-52.60367437104186, -27.138911199801758], [-52.60689567443438, -27.137688734208986], [-52.60709339500533, -27.133388483010286]]], [[[-52.63516912358169, -27.03346385136808], [-52.62963520683654, -27.029407500333782], [-52.62850405479367, -27.03677280542491], [-52.63498426323205, -27.038592285152852], [-52.63516912358169, -27.03346385136808]]], [[[-52.6932004581134, -27.096479840561948], [-52.691769508361666, -27.093085621648168], [-52.68082603193029, -27.094808529039057], [-52.677821480621404, -27.09778649508736], [-52.66835385644279, -27.098987737738575], [-52.66631655893743, -27.103823175810188], [-52.67401881531847, -27.109759129543242], [-52.68418061237674, -27.108851207660322], [-52.690741155712196, -27.104525661652637], [-52.6932004581134, -27.096479840561948]]]]}}, {"type": "Feature", "properties": {"threshold": 80}, "geometry": {"type": "MultiPolygon", "coordinates": [[[[-52.430426260781594, -26.878495983452325], [-52.43132717299405, -26.874724205145057], [-52.42763800632336, -26.869047944214373], [-52.420428871606056, -26.865678286247714], [-52.42302523211906, -26.859537375912826], [-52.41863428326709, -26.85859918944518], [-52.41620075885766, -26.862197171205327], [-52.411708317911376, -26.86239742006239], [-52.40384886798797, -26.853204471701908], [-52.395548289295014, -26.854208100815185], [-52.39457724730897, -26.862062103780435], [-52.38573681108079, -26.864025220264356], [-52.389161158274476, -26.876441697251604], [-52.38186550693796, -26.878103643628638], [-52.37834451160894, -26.87404028300879], [-52.37426403366812, -26.87395172252903], [-52.37176688978972, -26.877959974431644], [-52.37301115915045, -26.881641909128245], [-52.38270231223912, -26.8857764679505], [-52.38695078601545, -26.895057542223746], [-52.398541906904136, -26.89490665043049], [-52.40772627542071, -26.888278778764224], [-52.41703175495263, -26.893909916606248], [-52.430426260781594, -26.878495983452325]]], [[[-52.53862775622845, -26.95885834593268], [-52.53561285955461, -26.949593162094605], [-52.52733534270527, -26.948110052536883], [-52.52926452659861, -26.960994836820095], [-52.53534305417312, -26.962716231832704], [-52.53862775622845, -26.95885834593268]]], [[[-52.65743801450152, -27.100647413814958], [-52.65811488356031, -27.096965787904303], [-52.65067390582768, -27.096040768740682], [-52.64898076915215, -27.089778993406565], [-52.638963798670204, -27.093929548358883], [-52.634188959860275, -27.092100102181828], [-52.6298558838354, -27.084546493523238], [-52.63416575847087, -27.080098662608425], [-52.63855471225156, -27.082670013552576], [-52.64837111596001, -27.082726012510403], [-52.64368956644131, -27.06888878778225], [-52.63494399994318, -27.058356310273897], [-52.626412268031274, -27.06786911583833], [-52.621711296001926, -27.0663741566474], [-52.61723774410572, -27.068761401118856], [-52.608103718594684, -27.064299323233985], [-52.60091826175935, -27.073314621700426], [-52.601676373151626, -27.077496996062578], [-52.59811257680512, -27.082362964005014], [-52.58469806454341, -27.086586225815804], [-52.5791494240445, -27.094301669021355], [-52.58040863899672, -27.098902421344448], [-52.58691669238589, -27.100021534653912], [-52.591118862728266, -27.110578543561168], [-52.60013699284114, -27.110352729762457], [-52.603029991094665, -27.112629835735028], [-52.601938293428, -27.117520299656068], [-52.59795700683207, -27.11925593278059], [-52.60028260492873, -27.13035552778392], [-52.59731757720705, -27.13522215279176], [-52.60165999474997, -27.138945483986515], [-52.620796640062984, -27.132937892693935], [-52.6207414717503, -27.122584580962794], [-52.625143510981616, -27.118461765860012], [-52.62519439018784, -27.11000771774902], [-52.63507862833789, -27.11097837432131], [-52.63863905682804, -27.104433190789504], [-52.643149498415944, -27.107738371073708], [-52.64813236133854, -27.107705901699436], [-52.65058690723936, -27.103390602544984], [-52.65743801450152, -27.100647413814958]], [[-52.61196572817274, -27.10158689764864], [-52.61113886815018, -27.10603312004997], [-52.60063800189509, -27.106145429765018], [-52.59674063297261, -27.10406488025291], [-52.59653655432776, -27.099919632767136], [-52.59062765760329, -27.098585498213435], [-52.58948061143054, -27.0960211892869], [-52.592044930113445, -27.09356258093868], [-52.59944737215854, -27.094928750585385], [-52.602271882194664, -27.091921158482517], [-52.6087607285715, -27.09175770298383], [-52.61196572817274, -27.10158689764864]], [[-52.60854095389773, -27.122357751575485], [-52.61123774860153, -27.126542947360484], [-52.60854875168775, -27.128931897987226], [-52.60318833410598, -27.124643306738665], [-52.60854095389773, -27.122357751575485]], [[-52.61826810428486, -27.1186925890648], [-52.61679360867684, -27.12216591214363], [-52.61169450303702, -27.12071229462051], [-52.614643599558256, -27.116594908214363], [-52.61826810428486, -27.1186925890648]]], [[[-52.63516912358169, -27.03346385136808], [-52.62948248457958, -27.02870814733807], [-52.628623887387214, -27.038472076371836], [-52.63512564099665, -27.038505297648037], [-52.63516912358169, -27.03346385136808]]], [[[-52.64968412744186, -27.188179412420368], [-52.646626874619265, -27.18486881545566], [-52.641157018725984, -27.186241791739704], [-52.64625573704948, -27.194237345766435], [-52.649903612277825, -27.193027538230922], [-52.64968412744186, -27.188179412420368]]], [[[-52.69421042540337, -27.098932443575624], [-52.6917576909705, -27.092299319220764], [-52.675093047870796, -27.098087664510004], [-52.67081457300299, -27.091021588861366], [-52.66487348041007, -27.09109210107063], [-52.663514707307094, -27.094038630378265], [-52.66638433537242, -27.103964291884783], [-52.67410243515908, -27.109776817973273], [-52.68433829144502, -27.108790532021843], [-52.69421042540337, -27.098932443575624]]], [[[-52.70278561793516, -26.91008052430353], [-52.703489188410735, -26.90446711604051], [-52.69698353987362, -26.903650373535584], [-52.696072346227226, -26.909482963813968], [-52.70278561793516, -26.91008052430353]]]]}}, {"type": "Feature", "properties": {"threshold": 90}, "geometry": {"type": "MultiPolygon", "coordinates": [[[[-52.430426260781594, -26.878495983452325], [-52.428549932568124, -26.86831816813246], [-52.421805200003675, -26.865165265600005], [-52.42313536856934, -26.85965502389671], [-52.41863428326709, -26.85859918944518], [-52.415518462658305, -26.862163874165596], [-52.411201869228435, -26.860634693189297], [-52.409206900044246, -26.855794603198024], [-52.410815317366776, -26.849689099556173], [-52.40566356171687, -26.84768071304385], [-52.40154131088093, -26.854071190825227], [-52.39261698256789, -26.852946119653847], [-52.39224668582264, -26.859661800547933], [-52.38565307181472, -26.864242579748662], [-52.38820740030669, -26.87541452289723], [-52.382275434560704, -26.87772872207628], [-52.3782704826893, -26.87400146658612], [-52.374096395288404, -26.87398332450945], [-52.37091696860174, -26.88021198249392], [-52.38253656955347, -26.885608450748887], [-52.38639900601661, -26.89492803892286], [-52.3982240712937, -26.894946388129927], [-52.40772627542071, -26.888278778764224], [-52.41710887322547, -26.893876261005538], [-52.430426260781594, -26.878495983452325]]], [[[-52.53862775622845, -26.95885834593268], [-52.53561285955461, -26.949593162094605], [-52.52733534270527, -26.948110052536883], [-52.52926452659861, -26.960994836820095], [-52.53534305417312, -26.962716231832704], [-52.53862775622845, -26.95885834593268]]], [[[-52.65743801450152, -27.100647413814958], [-52.65810329925688, -27.09617947238204], [-52.651011999162144, -27.096112511101612], [-52.64898076915215, -27.089778993406565], [-52.638963798670204, -27.093929548358883], [-52.634188959860275, -27.092100102181828], [-52.6298558838354, -27.084546493523238], [-52.63416575847087, -27.080098662608425], [-52.63855471225156, -27.082670013552576], [-52.64837111596001, -27.082726012510403], [-52.64548402214832, -27.06893731602649], [-52.64158374652097, -27.06744774579509], [-52.63513518391952, -27.05651311796677], [-52.628708866433676, -27.066185066825597], [-52.61749202115889, -27.068803647469057], [-52.608103718594684, -27.064299323233985], [-52.59770516290157, -27.08229557237394], [-52.5881677948964, -27.083401182596262], [-52.58015037770364, -27.089151275736427], [-52.5791494240445, -27.094301669021355], [-52.58041968215251, -27.09968876701653], [-52.58691669238589, -27.100021534653912], [-52.59200870077324, -27.111354927037436], [-52.5998818650853, -27.110309726048705], [-52.603029991094665, -27.112629835735028], [-52.601938293428, -27.117520299656068], [-52.59795700683207, -27.11925593278059], [-52.60028260492873, -27.13035552778392], [-52.59730388622651, -27.135146240582973], [-52.60168241650768, -27.140518149725196], [-52.606716022215345, -27.140286519079748], [-52.610203767628725, -27.13471054732677], [-52.62084694148787, -27.132875545173206], [-52.6207414717503, -27.122584580962794], [-52.625143510981616, -27.118461765860012], [-52.62498508186867, -27.11015714776482], [-52.63491503593084, -27.11102487062104], [-52.64023579496653, -27.106556609814522], [-52.64813236133854, -27.107705901699436], [-52.65058690723936, -27.103390602544984], [-52.65743801450152, -27.100647413814958]], [[-52.61196572817274, -27.10158689764864], [-52.61113886815018, -27.10603312004997], [-52.60063800189509, -27.106145429765018], [-52.59674063297261, -27.10406488025291], [-52.59653655432776, -27.099919632767136], [-52.59062765760329, -27.098585498213435], [-52.58948061143054, -27.0960211892869], [-52.592044930113445, -27.09356258093868], [-52.59944737215854, -27.094928750585385], [-52.602271882194664, -27.091921158482517], [-52.6087607285715, -27.09175770298383], [-52.61196572817274, -27.10158689764864]], [[-52.60854095389773, -27.122357751575485], [-52.61123774860153, -27.126542947360484], [-52.60854875168775, -27.128931897987226], [-52.60318833410598, -27.124643306738665], [-52.60854095389773, -27.122357751575485]], [[-52.61826810428486, -27.1186925890648], [-52.61679360867684, -27.12216591214363], [-52.61169450303702, -27.12071229462051], [-52.614643599558256, -27.116594908214363], [-52.61826810428486, -27.1186925890648]]], [[[-52.63518588324061, -27.05610031960621], [-52.63741817628633, -27.05367894835634], [-52.63720819429736, -27.040081850792056], [-52.63523693032766, -27.031237152805435], [-52.6298644698812, -27.028540908054126], [-52.62752497405582, -27.035781147915262], [-52.62874673847327, -27.03857927740813], [-52.63448401346802, -27.04036796663668], [-52.63209723801386, -27.049673746476827], [-52.63518588324061, -27.05610031960621]]], [[[-52.65336048146848, -27.002388208342836], [-52.6512701624859, -26.997047364424475], [-52.645836974546405, -26.996187498274313], [-52.641103595039375, -26.99977980164734], [-52.639531260979666, -27.009904979754488], [-52.64335342868001, -27.010182120374548], [-52.64818930876718, -27.003376965613278], [-52.65336048146848, -27.002388208342836]]], [[[-52.69421042540337, -27.098932443575624], [-52.695085612622975, -27.095873661023916], [-52.69086735858624, -27.091523590265922], [-52.67709856672943, -27.097951707739174], [-52.67296065246346, -27.097287264782103], [-52.66896460917559, -27.09023121542331], [-52.66465489465315, -27.09121291275214], [-52.663514707307094, -27.094038630378265], [-52.66638433537242, -27.103964291884783], [-52.67410243515908, -27.109776817973273], [-52.681725840953575, -27.110394725162], [-52.690634067820106, -27.104645694227596], [-52.69421042540337, -27.098932443575624]]], [[[-52.70439682924862, -26.90680978939428], [-52.69902442843309, -26.902695236436987], [-52.69590757538336, -26.909215294009464], [-52.702279763013465, -26.910447463142027], [-52.70439682924862, -26.90680978939428]]]]}}, {"type": "Feature", "properties": {"threshold": 95}, "geometry": {"type": "MultiPolygon", "coordinates": [[[[-52.44093420354498, -26.884575934736066], [-52.43984015185555, -26.88207883352242], [-52.43166488562811, -26.879380588049585], [-52.428505023043556, -26.868252656947988], [-52.421805200003675, -26.865165265600005], [-52.422138568591755, -26.85875977027451], [-52.41573273344849, -26.86069638676779], [-52.41067615716156, -26.859298251745393], [-52.410880374857825, -26.84991153949831], [-52.4082857280549, -26.84530164460973], [-52.403288582609534, -26.85308594544842], [-52.39854946423671, -26.850110854993904], [-52.392660250160205, -26.852879728061804], [-52.39224668582264, -26.859661800547933], [-52.38567299617038, -26.864167781558695], [-52.38619762100457, -26.87629373072462], [-52.38202165683768, -26.877686029139188], [-52.3782704826893, -26.87400146658612], [-52.37417934882269, -26.87396383080209], [-52.370905143469095, -26.878620134350736], [-52.37131706249986, -26.880917639914358], [-52.38270231223912, -26.8857764679505], [-52.38680044790781, -26.89505239914815], [-52.398541906904136, -26.89490665043049], [-52.40772627542071, -26.888278778764224], [-52.41695132876642, -26.893936632615755], [-52.423641002383, -26.883891197499878], [-52.428630296885544, -26.882222736354567], [-52.4357438658401, -26.88747335853592], [-52.44078354705418, -26.887305031865566], [-52.44093420354498, -26.884575934736066]]], [[[-52.53862775622845, -26.95885834593268], [-52.535671251736424, -26.949649508064386], [-52.528265081569664, -26.947261838638994], [-52.526246293000995, -26.951112269514997], [-52.529614409762765, -26.95475138717041], [-52.52920613131722, -26.9609384883963], [-52.53534305417312, -26.962716231832704], [-52.53862775622845, -26.95885834593268]]], [[[-52.69421042540337, -27.098932443575624], [-52.695085612622975, -27.095873661023916], [-52.69086735858624, -27.091523590265922], [-52.67709856672943, -27.097951707739174], [-52.67296065246346, -27.097287264782103], [-52.66896460917559, -27.09023121542331], [-52.66465489465315, -27.09121291275214], [-52.663514707307094, -27.094038630378265], [-52.66638433537242, -27.103964291884783], [-52.67410243515908, -27.109776817973273], [-52.681725840953575, -27.110394725162], [-52.690634067820106, -27.104645694227596], [-52.69421042540337, -27.098932443575624]]], [[[-52.658401429169196, -27.09582855600963], [-52.648651997907685, -27.08887939027683], [-52.642196503447934, -27.093124148053025], [-52.63504771681381, -27.092340960688052], [-52.6298558838354, -27.084546493523238], [-52.63416575847087, -27.080098662608425], [-52.63855471225156, -27.082670013552576], [-52.64837111596001, -27.082726012510403], [-52.64548402214832, -27.06893731602649], [-52.641662116743035, -27.067050465795358], [-52.63513518391952, -27.05651311796677], [-52.628708866433676, -27.066185066825597], [-52.61749202115889, -27.068803647469057], [-52.608103718594684, -27.064299323233985], [-52.59660661374564, -27.082522716020478], [-52.58831810468452, -27.083327069615176], [-52.57997332867575, -27.08949751515825], [-52.58029680436019, -27.099581525013225], [-52.58660407787798, -27.09965209803604], [-52.5920783614574, -27.111399947312407], [-52.60013699284114, -27.110352729762457], [-52.60326370696872, -27.11329111559691], [-52.60178557768115, -27.117696849994534], [-52.597968534036596, -27.11917973323307], [-52.60004180241485, -27.131253715540396], [-52.588769361910245, -27.13539864819531], [-52.590487922387055, -27.140300960964485], [-52.59581988461542, -27.142933030292795], [-52.59885443490786, -27.139886631573702], [-52.608394257556974, -27.139526647458915], [-52.61044155185965, -27.134619213637315], [-52.61887336903833, -27.134687431351665], [-52.6208605810541, -27.12213454883536], [-52.6251633110946, -27.118386941184966], [-52.624793790254216, -27.11032480615697], [-52.63499810841603, -27.111005218472325], [-52.64023579496653, -27.106556609814522], [-52.64821287520509, -27.10767905032525], [-52.65058690723936, -27.103390602544984], [-52.65724518178066, -27.10105432129571], [-52.658401429169196, -27.09582855600963]], [[-52.61196572817274, -27.10158689764864], [-52.61113886815018, -27.10603312004997], [-52.60063800189509, -27.106145429765018], [-52.59674063297261, -27.10406488025291], [-52.59653655432776, -27.099919632767136], [-52.59062765760329, -27.098585498213435], [-52.58948061143054, -27.0960211892869], [-52.592044930113445, -27.09356258093868], [-52.59944737215854, -27.094928750585385], [-52.602271882194664, -27.091921158482517], [-52.6087607285715, -27.09175770298383], [-52.61196572817274, -27.10158689764864]], [[-52.60854095389773, -27.122357751575485], [-52.61123774860153, -27.126542947360484], [-52.60854875168775, -27.128931897987226], [-52.60318833410598, -27.124643306738665], [-52.60854095389773, -27.122357751575485]], [[-52.61826810428486, -27.1186925890648], [-52.61679360867684, -27.12216591214363], [-52.61169450303702, -27.12071229462051], [-52.614643599558256, -27.116594908214363], [-52.61826810428486, -27.1186925890648]]], [[[-52.63518588324061, -27.05610031960621], [-52.64086944031687, -27.05026320298772], [-52.637417979632325, -27.046031059731277], [-52.63526325379526, -27.03051989995561], [-52.6298644698812, -27.028540908054126], [-52.62752497405582, -27.035781147915262], [-52.62874673847327, -27.03857927740813], [-52.63448401346802, -27.04036796663668], [-52.63209723801386, -27.049673746476827], [-52.63518588324061, -27.05610031960621]]], [[[-52.60881118065127, -27.15566952931003], [-52.607476779020836, -27.15307845333696], [-52.60065724658362, -27.15321520179079], [-52.600391268877566, -27.159783930156348], [-52.606867035776226, -27.160818055128846], [-52.60881118065127, -27.15566952931003]]], [[[-52.65336048146848, -27.002388208342836], [-52.6512701624859, -26.997047364424475], [-52.645836974546405, -26.996187498274313], [-52.641103595039375, -26.99977980164734], [-52.639531260979666, -27.009904979754488], [-52.642486957160976, -27.010978694706143], [-52.64818930876718, -27.003376965613278], [-52.65336048146848, -27.002388208342836]]]]}}]}