{"type": "Feature", "properties": {"city": "Alagoinhas", "country": "Brazil", "real_area": 32.73}, "geometry": {"type": "LineString", "coordinates": [[-38.3928881925337, -12.1281295035521], [-38.3938181363095, -12.123056215564], [-38.3988143816664, -12.121338499586], [-38.3997442855767, -12.1162649921781], [-38.4047405324124, -12.1145470680076], [-38.4088069616821, -12.1179027022355], [-38.4138032961896, -12.1161846209357], [-38.4147331151151, -12.1111108545249], [-38.4197294508307, -12.1093925652853], [-38.4237960538252, -12.1127480932686], [-38.4287924768018, -12.111029646974], [-38.4328592121226, -12.1143850574773], [-38.4378557221129, -12.112666454119], [-38.438785410694, -12.1075923896444], [-38.4437819214582, -12.1058735786821], [-38.4478488296215, -12.1092288827366], [-38.4469191863183, -12.1143029865847], [-38.4509861856967, -12.1176581617463], [-38.450056547661, -12.1227320861103], [-38.4541236382338, -12.126087132165], [-38.4531940054721, -12.1311608768349], [-38.4481972368114, -12.1328795362133], [-38.447267563998, -12.1379530617956], [-38.451334705165, -12.141307967193], [-38.4504050376202, -12.1463813127247], [-38.4544722699851, -12.1497360885282], [-38.4535426077152, -12.1548092537993], [-38.4485456677494, -12.1565276041014], [-38.4476159654241, -12.1616005497899], [-38.442619026056, -12.1633186918814], [-38.4385518750231, -12.1599639389649], [-38.4394816226363, -12.1548910325074], [-38.4354145628914, -12.1515361498783], [-38.4304177963637, -12.1532541851487], [-38.4294880035117, -12.1583270522564], [-38.4244912379091, -12.1600448791508], [-38.4204243513356, -12.1566898898003], [-38.4154276729867, -12.1584075591089], [-38.4144977950019, -12.1634801667976], [-38.4095011178487, -12.1651976274775], [-38.4054344049979, -12.1618425315101], [-38.4063643280926, -12.1567699634637], [-38.4022977067719, -12.1534147381883], [-38.3973012036723, -12.1551320923511], [-38.3963712355168, -12.1602046206364], [-38.3913747339404, -12.1619217660052], [-38.387308287004, -12.1585664343127], [-38.3882383001712, -12.1534939459069], [-38.3932347152752, -12.1517767493041], [-38.3941646885925, -12.1467040407818], [-38.3900982918118, -12.1433485687954], [-38.3910282702846, -12.1382756802461], [-38.3869619651408, -12.1349200795341], [-38.3878919487627, -12.1298470111677], [-38.3928881925337, -12.1281295035521]]}}