{"type": "Feature", "properties": {"city": "Sheikhupura", "country": "Pakistan", "real_area": 626.69}, "geometry": {"type": "MultiLineString", "coordinates": [[[74.406211721335, 31.3233866690097], [74.4068261196433, 31.3184995348231], [74.4122580889437, 31.3165346330303], [74.4170761551532, 31.3194565289474], [74.4164625170361, 31.3243437282476], [74.4110300524964, 31.3263089665509], [74.406211721335, 31.3233866690097]], [[74.1572050286594, 31.4037970126514], [74.1578388780789, 31.3989068287643], [74.1632863293184, 31.3969505091318], [74.168100433062, 31.3998840398229], [74.1674673445691, 31.4047742934721], [74.162019391383, 31.4067309467016], [74.1572050286594, 31.4037970126514]], [[74.4449453593469, 31.5943236704301], [74.4455593797397, 31.5894242905822], [74.4510124162401, 31.5874521362538], [74.4558519308049, 31.5903790244284], [74.4552386770728, 31.5952784685536], [74.4497851420932, 31.597250960261], [74.4449453593469, 31.5943236704301]], [[74.5373052697388, 32.490969032658], [74.5379207086746, 32.4860306548142], [74.5434456232419, 32.484036397366], [74.5483556090625, 32.4869801780978], [74.5477409585055, 32.4919186180797], [74.5422155337266, 32.4939132152261], [74.5373052697388, 32.490969032658]], [[74.3414758238806, 31.3841011717961], [74.3420956513242, 31.379211436379], [74.3475349528998, 31.3772479252141], [74.3523549245967, 31.3801738136834], [74.3517358584648, 31.3850636154075], [74.346296059302, 31.3870274623891], [74.3414758238806, 31.3841011717961]], [[74.4154180679555, 31.2501027763865], [74.41603109165, 31.2452189473949], [74.4214566794793, 31.243255210426], [74.4262697375254, 31.2461749659719], [74.4256574723688, 31.2510588599326], [74.4202313906063, 31.253022933412], [74.4154180679555, 31.2501027763865]], [[74.3802773622461, 31.3234340163382], [74.3796609256255, 31.3283213166638], [74.3742268177571, 31.3302851271011], [74.3694096426436, 31.3273613011081], [74.3700268393859, 31.3224740665858], [74.3754604511421, 31.3205105922195], [74.3760771296215, 31.3156236545311], [74.381509959237, 31.3136600752353], [74.3821261196483, 31.308773434574], [74.3875581672129, 31.3068097505901], [74.3923745499826, 31.3097323711043], [74.3917591494293, 31.3146190773469], [74.396576269784, 31.3175417243208], [74.3959611113515, 31.322428793201], [74.3905280724853, 31.3243931496414], [74.3857106877369, 31.3214701009084], [74.3802773622461, 31.3234340163382]], [[74.4480854495123, 31.5277230835044], [74.4426372695141, 31.5296938753889], [74.4420235878725, 31.534590584761], [74.4365746198065, 31.5365612690507], [74.4317398312561, 31.5336349068033], [74.4323542780839, 31.5287382619819], [74.4378027482978, 31.5267679148232], [74.4384166744974, 31.5218715640407], [74.4438643568827, 31.5199011093508], [74.4486986106593, 31.5228266682828], [74.454146002681, 31.5208557690467], [74.4589807309323, 31.5237809477458], [74.4583683349048, 31.5286774272125], [74.4529204454846, 31.530648663769], [74.4480854495123, 31.5277230835044]], [[74.3097412605536, 31.6337668400102], [74.3103658415938, 31.6288660079266], [74.3158270019134, 31.6268986455398], [74.3206640832626, 31.6298317794794], [74.3200402692044, 31.6347326783748], [74.3145786067925, 31.6367003765527], [74.3097412605536, 31.6337668400102]], [[74.3190917188775, 31.3968439491693], [74.319713347533, 31.3919536900435], [74.3251545008265, 31.3899908354099], [74.3299745237171, 31.3929179043723], [74.3293536565687, 31.397808230221], [74.3239120050004, 31.3997714204181], [74.3190917188775, 31.3968439491693]], [[73.1419472584976, 31.3773300297652], [73.142656897664, 31.3724443624688], [73.1481364426525, 31.3705308269204], [73.1529068718775, 31.3735026378882], [73.1521979876491, 31.3783883939546], [73.1467179192306, 31.3803022503163], [73.1419472584976, 31.3773300297652]], [[73.0763958253317, 33.6620232935056], [73.0771358334239, 33.6570427088998], [73.0828128791665, 33.6550912046346], [73.0877504796789, 33.658119962765], [73.0870112808874, 33.6631006371549], [73.0813336722525, 33.6650524636645], [73.0763958253317, 33.6620232935056]], [[74.0900019133397, 31.6799479497422], [74.0906435003331, 31.6750456213003], [74.096116282071, 31.6730864696624], [74.1009479844667, 31.6760293133425], [74.1003071645099, 31.6809317127231], [74.0948338750973, 31.6828911975187], [74.0900019133397, 31.6799479497422]], [[73.1270203562625, 31.4799789417854], [73.127732222506, 31.4750887423729], [73.1332208182665, 31.4731738741868], [73.1379980731408, 31.4761488846955], [73.1372869641092, 31.4810391731515], [73.1317978429642, 31.4829543620883], [73.1270203562625, 31.4799789417854]], [[74.1927765569189, 32.1771602710346], [74.1921377882952, 32.1820847251717], [74.1866256992297, 32.1840580715787], [74.181752892255, 32.1811066288686], [74.1823924401912, 32.1761822437664], [74.177520391258, 32.1732308146178], [74.1781601836128, 32.1683067780439], [74.1732888925519, 32.1653553626906], [74.1739289291847, 32.1604316748165], [74.1794394780055, 32.1584593330605], [74.1843105035563, 32.1614103443911], [74.1898207655903, 32.1594375434247], [74.1946922830327, 32.1623881646166], [74.2002022579057, 32.1604149044922], [74.2008402023912, 32.1554913582285], [74.2063493770257, 32.1535179741468], [74.2112211198545, 32.1564678012148], [74.2167300067981, 32.1544939582099], [74.2216022406247, 32.1574433949174], [74.2209658540257, 32.162367078368], [74.2154564545972, 32.1643412566504], [74.2148195339874, 32.1692652201449], [74.2196927919698, 32.1722150738024], [74.2190561164694, 32.177139385664], [74.2135454036405, 32.1791137753763], [74.21290819386, 32.1840383669909], [74.2073966800526, 32.1860126325439], [74.2025228890556, 32.1830619712433], [74.2031608782941, 32.1781374482686], [74.2086718790951, 32.1761635179207], [74.2093093339181, 32.1712392745848], [74.2044365672137, 32.168289030286], [74.1989260793907, 32.1702626254911], [74.1982878453177, 32.1751868001038], [74.1927765569189, 32.1771602710346]], [[73.8308433892776, 31.7443359420892], [73.8315051483677, 31.7394315176033], [73.8369923198767, 31.7374819341975], [73.8418182466564, 31.7404364452887], [73.8411572548213, 31.7453409455782], [73.8356695689267, 31.7472908590065], [73.8308433892776, 31.7443359420892]], [[74.2713154760501, 31.6896887522602], [74.2658474985472, 31.6916555473133], [74.2610080370679, 31.6887187882359], [74.2616368170957, 31.6838156371224], [74.2671042905796, 31.6818491773414], [74.2719434880319, 31.6847855334357], [74.2774106758339, 31.6828186246353], [74.2822503554358, 31.6857545992936], [74.2816231115701, 31.6906578856342], [74.2761554199635, 31.6926251298343], [74.2713154760501, 31.6896887522602]], [[73.0620977968317, 31.3541797096645], [73.0628131525344, 31.3492954086633], [73.0682933475499, 31.3473856640355], [73.0730587115824, 31.3503599006855], [73.0723441098107, 31.3552442919457], [73.0668633900482, 31.3571543563298], [73.0620977968317, 31.3541797096645]], [[74.2128581936492, 31.6171998621627], [74.2134899153654, 31.6122999985363], [74.2189531372876, 31.6103370013184], [74.2237851414593, 31.6132735331782], [74.2231541858936, 31.6181734654487], [74.2176904599828, 31.6201367972491], [74.2128581936492, 31.6171998621627]], [[74.2091898262141, 31.282576424377], [74.2098186121617, 31.2776915877608], [74.2152541979008, 31.2757356303543], [74.2200614966292, 31.2786641755423], [74.2194334690466, 31.2835490809846], [74.2139973843481, 31.2855053724465], [74.2091898262141, 31.282576424377]], [[74.2100017938066, 31.3568490254233], [74.2106312298077, 31.3519608266626], [74.2160729327351, 31.3500032965947], [74.2208856997091, 31.3529336311464], [74.2202570237928, 31.3578218986933], [74.214814820795, 31.359779762936], [74.2100017938066, 31.3568490254233]], [[74.2087845296266, 31.2454591400136], [74.2094129910463, 31.2405759893181], [74.2148455233449, 31.2386208199959], [74.2196500926066, 31.2415484674077], [74.2190223886943, 31.2464316869491], [74.2135893579904, 31.2483871902664], [74.2087845296266, 31.2454591400136]], [[74.3027648412077, 31.4027316401298], [74.3033877517106, 31.3978411532188], [74.3088299729118, 31.3958788490204], [74.3136497823124, 31.3988066963932], [74.3130276333798, 31.4036972503319], [74.307584913454, 31.4056598899038], [74.3027648412077, 31.4027316401298]], [[74.1663638389457, 32.0974349730115], [74.1670037364594, 32.0925142218878], [74.1725088104866, 32.0905435167499], [74.177374499453, 32.0934932281195], [74.1767353791863, 32.0984140485997], [74.1712297926826, 32.1003850883878], [74.1663638389457, 32.0974349730115]], [[72.6487160813154, 32.0870929899839], [72.6494706771976, 32.0821784050015], [72.6550256713879, 32.0802727921215], [72.659826615109, 32.0832814490694], [72.6590727875532, 32.0881961320442], [72.6535172479199, 32.0901020601118], [72.6487160813154, 32.0870929899839]], [[74.1803529882345, 31.2650003441326], [74.1809837664216, 31.2601163752559], [74.1864189131927, 31.2581619679874], [74.1912237810785, 31.2610911959521], [74.190593760718, 31.2659752342013], [74.1851581146224, 31.2679299751469], [74.1803529882345, 31.2650003441326]], [[74.4222463533854, 31.4436171315419], [74.4228606719015, 31.4387245407364], [74.4283020170625, 31.4367564617345], [74.433129540385, 31.4396806366877], [74.4385705964513, 31.4377121146842], [74.4433985935147, 31.4406359112754], [74.4427858011639, 31.4455286314177], [74.4373442486117, 31.447497490431], [74.4325159849182, 31.4445732922584], [74.4270741430577, 31.4465417081444], [74.4222463533854, 31.4436171315419]], [[74.1871071246334, 32.099392277443], [74.1877454675803, 32.0944713878034], [74.1932499693385, 32.0924997669429], [74.1981166401678, 32.0954487008471], [74.1974790746132, 32.1003696594491], [74.1919740608135, 32.1023416152186], [74.1871071246334, 32.099392277443]], [[74.1875053423265, 32.1367947022082], [74.1881440202507, 32.1318722028384], [74.1936516569449, 32.1298998238273], [74.1985211283097, 32.1328496092588], [74.2040284779674, 32.130876771713], [74.2088984403619, 32.1338261674217], [74.2082613190784, 32.1387488044774], [74.2027534570202, 32.140721977114], [74.1978832286696, 32.1377721775701], [74.1923750793569, 32.1397448915425], [74.1875053423265, 32.1367947022082]], [[74.5188761239147, 32.5117678630201], [74.5194931676177, 32.5068286515566], [74.5250205203775, 32.5048347659412], [74.5299313403727, 32.507779752325], [74.5293150854707, 32.5127190262692], [74.5237872217498, 32.5147132513833], [74.5188761239147, 32.5117678630201]], [[74.1675242030755, 32.209677968895], [74.1681651119266, 32.2047523986888], [74.1736796035361, 32.202779427352], [74.1785537004837, 32.2057316914501], [74.1779135715587, 32.2106573309513], [74.1723985657362, 32.2126306370935], [74.1675242030755, 32.209677968895]], [[71.5040042706463, 30.1745056836627], [71.5048208818063, 30.1696841973527], [71.5102500380882, 30.1678611384402], [71.5148631202014, 30.1708592681792], [71.5140472260573, 30.1756808730452], [71.5086175327522, 30.1775042296475], [71.5040042706463, 30.1745056836627]], [[74.2359705676137, 31.5995475353075], [74.23534066181, 31.6044468874793], [74.2298785105743, 31.6064104457173], [74.2250467686729, 31.6034743170368], [74.2195843338922, 31.6054374275304], [74.2147530745453, 31.6025009196523], [74.2153845120514, 31.597601704513], [74.2105539973648, 31.5946652208452], [74.2111856756352, 31.5897663645209], [74.2063559054442, 31.5868299052922], [74.2069878243418, 31.581931407949], [74.2124487480421, 31.5799693010237], [74.2172782564879, 31.5829053570151], [74.2166471030016, 31.5878039231353], [74.2214773557681, 31.590740003585], [74.2269385000154, 31.5887771147101], [74.2317692350637, 31.5917128162383], [74.2372300958276, 31.5897494799258], [74.23785971828, 31.5848507768342], [74.2433197921688, 31.5828873279786], [74.2481507466097, 31.5858222474056], [74.2475218897796, 31.5907210186916], [74.2420613128635, 31.5926848023899], [74.2414319316451, 31.5975838642172], [74.2359705676137, 31.5995475353075]], [[73.0308402053292, 31.4253358548285], [73.0315586734873, 31.4204484943485], [73.0267899927577, 31.4174708767073], [73.0275086777654, 31.412583885168], [73.032995288359, 31.4106744203213], [73.03371343512, 31.4057877068922], [73.0391992789179, 31.4038781099757], [73.0439675021912, 31.4068549070696], [73.0494531052902, 31.4049448588045], [73.0501699590642, 31.4000583330019], [73.0556547952732, 31.3981481530844], [73.0604233035058, 31.4011241793455], [73.065907898483, 31.3992135482915], [73.0666234596146, 31.394327210738], [73.061855180698, 31.3913515945835], [73.0625709591841, 31.3864656262356], [73.0578034230025, 31.3834900596339], [73.0523198791561, 31.3854000512928], [73.0475528565524, 31.3824241243331], [73.0482696067543, 31.3775386158809], [73.0537526250958, 31.3756289438263], [73.0544688379002, 31.3707437143718], [73.059951089976, 31.3688339112964], [73.0647176544855, 31.3718090180329], [73.0701996653946, 31.369898764434], [73.0749667429115, 31.3728735109273], [73.0804485122885, 31.3709628068443], [73.0852161025331, 31.3739371929429], [73.0906976300124, 31.3720260384151], [73.0954657327051, 31.3750000639675], [73.1009470179212, 31.3730884590345], [73.1057156327821, 31.3760621238893], [73.1050031927022, 31.3809478035032], [73.1097725499845, 31.3839215173103], [73.1152541168408, 31.382009141669], [73.1159658021187, 31.3771233725964], [73.1214466017121, 31.3752108669722], [73.1221577504996, 31.3703253777892], [73.1276377829037, 31.3684127424262], [73.1324071903229, 31.3713852757321], [73.1316967963033, 31.3762708540674], [73.1262162400695, 31.3781838099775], [73.1255053096789, 31.3830696683175], [73.1302756904676, 31.3860426598568], [73.1357567705707, 31.3841293833375], [73.1405276626922, 31.387102013516], [73.1398177060064, 31.3919883298524], [73.1343361019946, 31.3939019270432], [73.1295649786046, 31.390928887193], [73.1240831308335, 31.3928420338315], [73.1233718823317, 31.3977285408875], [73.1281432368705, 31.4007019904535], [73.1336256087896, 31.3987885232146], [73.1383974749511, 31.4017616111525], [73.1376872005347, 31.4066485759982], [73.1322043044281, 31.4085623638997], [73.1314934932246, 31.4134496082952], [73.136266333807, 31.4164231537855], [73.1417497541407, 31.4145090451593], [73.1465231063551, 31.4174822286029], [73.1458132699082, 31.4223699303136], [73.1505873654044, 31.4253431611749], [73.1498777481384, 31.4302312310762], [73.1546525870865, 31.4332045091317], [73.1601368112314, 31.4312893076512], [73.1649121615395, 31.4342622230898], [73.1642035199918, 31.4391507495635], [73.1587187717024, 31.4410662720885], [73.1580095931911, 31.4459550778869], [73.1627859195535, 31.4489284496601], [73.1620769606159, 31.4538176231647], [73.1668540309409, 31.4567910414611], [73.1661452917083, 31.4616805825103], [73.1606587251867, 31.4635966167906], [73.159949448648, 31.4684864367934], [73.1544621122259, 31.4704023403085], [73.1496845770729, 31.467428102761], [73.1441969956194, 31.4693435543105], [73.1394199726929, 31.4663689535519], [73.1401307632606, 31.4614793109828], [73.1353544846241, 31.4585047569287], [73.1298671836108, 31.4604194357126], [73.1250914174777, 31.4574445188085], [73.1196038723674, 31.4593587456797], [73.1148286190191, 31.4563834660772], [73.1093408301785, 31.4582972409958], [73.1086277692079, 31.4631866159767], [73.1031392112978, 31.465100259262], [73.1024256122269, 31.4699899124186], [73.0969362851736, 31.4719034238256], [73.0921610831649, 31.468926961755], [73.0866715130814, 31.4708400208225], [73.0818968249921, 31.4678631962409], [73.0826119374753, 31.4629737226655], [73.0778379938165, 31.4599969458231], [73.0785533244181, 31.4551078401548], [73.0737801250189, 31.4521311112753], [73.074495673608, 31.4472423736757], [73.0697232182976, 31.4442656929825], [73.0704389847438, 31.4393773236128], [73.0656672733513, 31.4364006913294], [73.0663832575239, 31.431512690351], [73.0616122898786, 31.4285361067007], [73.0561251084641, 31.4304471139086], [73.0554083685365, 31.4353350245054], [73.0601795657509, 31.4383120183091], [73.0594630433444, 31.443200297373], [73.0539745678217, 31.4451114921692], [73.0532575069871, 31.4500000491176], [73.0580296777272, 31.4529775017243], [73.0573128344691, 31.4578664268932], [73.0518230642449, 31.4597778089514], [73.0470506640126, 31.4567999461173], [73.0477682634692, 31.4519111114853], [73.0429966074795, 31.4489332972431], [73.0437144243071, 31.4440448309075], [73.0389435123887, 31.4410670654807], [73.0396615464569, 31.4361789676025], [73.0348913784391, 31.4332012512143], [73.0294029474495, 31.4351112224251], [73.0286841576805, 31.4399992294235], [73.0231949592704, 31.4419090679315], [73.0184250776811, 31.4389305801097], [73.0191446230642, 31.4340426641826], [73.0246332944501, 31.432133144973], [73.0253523011238, 31.427245506669], [73.0308402053292, 31.4253358548285]], [[73.0761612736844, 31.4002781316249], [73.0809308088158, 31.4032534361808], [73.0864149202313, 31.4013419029721], [73.0911849683921, 31.4043168464479], [73.0966688374778, 31.402404862221], [73.0973821333883, 31.3975182546806], [73.0926123154, 31.3945437211384], [73.0871289713014, 31.3964553852361], [73.082359666057, 31.3934804906715], [73.0768760798282, 31.3953917038845], [73.0761612736844, 31.4002781316249]], [[73.1422624984128, 31.4468116759975], [73.141552026097, 31.4517006721464], [73.1463280728315, 31.4546748164804], [73.1518143598867, 31.4527595549564], [73.1525240755559, 31.4478704700338], [73.1477482608436, 31.4448967353758], [73.1422624984128, 31.4468116759975]], [[73.1052793694706, 31.450432591706], [73.1107666328451, 31.448519137218], [73.1114793745884, 31.4436304085397], [73.106705609289, 31.4406552238561], [73.1012188713407, 31.4425683579755], [73.1005053732929, 31.4474569971139], [73.1052793694706, 31.450432591706]], [[74.1855887289813, 32.1515634586957], [74.1862276967135, 32.1466403301979], [74.1917366457717, 32.1446677400483], [74.1966071399672, 32.1476179434742], [74.1959689508616, 32.1525411409446], [74.1904594889102, 32.1545140660505], [74.1855887289813, 32.1515634586957]], [[74.4741527830291, 31.4855698949297], [74.4747635895871, 31.480675312473], [74.4802065469178, 31.4787042176964], [74.480816834223, 31.4738099306418], [74.4862590043647, 31.4718387300336], [74.4910913831211, 31.4747614788771], [74.4904818599321, 31.4796558295917], [74.4850391938489, 31.4816273678367], [74.4844291515409, 31.4865220140646], [74.4789856980301, 31.4884934464149], [74.4741527830291, 31.4855698949297]], [[74.1951671419486, 31.310916176103], [74.195797250314, 31.3060300897329], [74.201235673594, 31.304074121406], [74.2060444881836, 31.3070039055569], [74.2054151387729, 31.3118900610067], [74.1999762157953, 31.3138463632597], [74.1951671419486, 31.310916176103]], [[74.191384515059, 31.3402373037311], [74.1920151882997, 31.3353499006779], [74.1974561714418, 31.3333934813238], [74.202266981547, 31.3363241311336], [74.201637067921, 31.3412116033279], [74.1961955845523, 31.3431683566049], [74.191384515059, 31.3402373037311]], [[73.1438796029108, 31.3998476932281], [73.1445893407339, 31.3949610081325], [73.1500707006206, 31.3930469604296], [73.154842846405, 31.3960192769886], [73.1541338640489, 31.4009060508171], [73.1486519804144, 31.4028204193867], [73.1438796029108, 31.3998476932281]], [[74.3507635147293, 31.3107781728707], [74.3513819543102, 31.30589173011], [74.3568148594007, 31.3039293685625], [74.3616298211615, 31.3068531139892], [74.3610121412363, 31.3117396229096], [74.3555787398726, 31.3137023202772], [74.3507635147293, 31.3107781728707]], [[74.164424349012, 31.3079896315463], [74.1650567338212, 31.3031037535707], [74.1602498364926, 31.3001724788772], [74.1608824589699, 31.2952869652458], [74.1663212202539, 31.2933326565363], [74.1711278593374, 31.2962635280085], [74.1704959954047, 31.3011491113779], [74.1753033724831, 31.3040800136486], [74.1746717464183, 31.3089659612816], [74.1692319845079, 31.3109209370202], [74.164424349012, 31.3079896315463]], [[74.2468360908289, 31.3529179312993], [74.2474627257534, 31.3480298214278], [74.252902803095, 31.3460708552691], [74.2577167446904, 31.3489996643968], [74.2570908699288, 31.3538878423642], [74.2516502933864, 31.3558471431417], [74.2468360908289, 31.3529179312993]], [[73.0673353788725, 31.496139433691], [73.068051889515, 31.4912487599995], [73.0735437669689, 31.4893360985579], [73.0742597386142, 31.484445702122], [73.0694845898547, 31.4814680573276], [73.0702007795993, 31.4765780284661], [73.0654263756012, 31.4736004313832], [73.0661427833143, 31.4687107702577], [73.0716328383567, 31.4667986159884], [73.0764070122456, 31.4697758029291], [73.0756913612289, 31.4746655542482], [73.0804662797137, 31.4776427889141], [73.0797508468712, 31.4825329078933], [73.084526510123, 31.4855101900609], [73.0838112955856, 31.4904006765384], [73.0783196606609, 31.4923137908399], [73.0776039072457, 31.4972045546886], [73.0721115028837, 31.4991175361312], [73.0673353788725, 31.496139433691]], [[74.4613046760968, 31.5884064242585], [74.4619174085626, 31.5835072733905], [74.4570781622848, 31.5805807868242], [74.4516259152323, 31.5825530495515], [74.4467871442054, 31.5796261815037], [74.4474008883195, 31.574727452391], [74.4425628606678, 31.5718006046992], [74.4431768497656, 31.566902233343], [74.4486281004131, 31.5649306453134], [74.453465860131, 31.5678570913563], [74.4528526371572, 31.5727555270438], [74.4576911400737, 31.575681993463], [74.46314259777, 31.5737096225803], [74.4679815756552, 31.5766357075865], [74.4734327418472, 31.5746628912222], [74.4782721944052, 31.577588594675], [74.4837230687299, 31.5756153328834], [74.4885629956646, 31.5785406546425], [74.487952317253, 31.5834396395823], [74.4927929875067, 31.586364980862], [74.4982440669551, 31.5843909358135], [74.5030852112748, 31.5873158950505], [74.5024755455834, 31.5922153006358], [74.4970239687569, 31.5941896836305], [74.4921825550217, 31.5912643230597], [74.4867306855342, 31.5932382604297], [74.486119732186, 31.5981378962194], [74.4806670725673, 31.6001117256673], [74.4800555981586, 31.6050116548536], [74.4746021483166, 31.6069853761357], [74.4697606709782, 31.6040588305041], [74.470372912383, 31.5991589651231], [74.4655321788943, 31.5962324389506], [74.4661446658987, 31.5913329307426], [74.4613046760968, 31.5884064242585]], [[73.9582725860631, 31.6896400403269], [73.9589241947485, 31.6847376484195], [73.9540975935845, 31.6817890506697], [73.9547494387825, 31.6768870176038], [73.9602271187537, 31.6749335087555], [73.9650534642026, 31.6778817015298], [73.970530869212, 31.6759277417041], [73.97118141829, 31.6710259206815], [73.9766580377235, 31.6690718416007], [73.9814846183019, 31.672019251903], [73.9869609622508, 31.6700647220725], [73.9917880334931, 31.6730117546868], [73.9972641015906, 31.6710567741561], [74.0020916632039, 31.6740034289374], [74.001443413427, 31.6789054689493], [74.0062717220874, 31.6818521504211], [74.0056237097075, 31.6867545490364], [74.0104527655816, 31.6897012569699], [74.0159295767162, 31.6877451616046], [74.0207591226531, 31.69069149114], [74.0262356567792, 31.6887349449153], [74.0310656924857, 31.6916808959078], [74.030419451693, 31.6965837976568], [74.0352502347643, 31.6995297744618], [74.0407270007633, 31.6975724449841], [74.0413724744188, 31.6926694711786], [74.0468484534269, 31.6907120233846], [74.051679467792, 31.6936572168575], [74.051034761347, 31.698560262525], [74.0455582733027, 31.7005180428913], [74.0449130379301, 31.7054213747238], [74.0394357626532, 31.7073790367074], [74.0346042320505, 31.704433034319], [74.0291266789738, 31.706390245235], [74.0284801470039, 31.711293790945], [74.0230018067628, 31.7132508830536], [74.0181705082475, 31.7103040971084], [74.0126918907292, 31.7122607379206], [74.0120440617763, 31.7171644968877], [74.0065646571623, 31.719121018468], [74.005916298427, 31.7240250627766], [74.0107481119411, 31.7269726580489], [74.0100999910153, 31.7318770601236], [74.0149325527591, 31.7348246809042], [74.0142846697798, 31.739729440578], [74.0191179799203, 31.7426770866376], [74.0184703350247, 31.7475822037437], [74.0129886117655, 31.7495396023626], [74.0123404366869, 31.7544450043538], [74.0068579254326, 31.7564022830484], [74.0020241000407, 31.7534538275504], [74.0026730434491, 31.7485484981342], [73.9978399668033, 31.7456000678775], [73.9984891480231, 31.740695095889], [73.9936568199562, 31.737746691103], [73.9943062388504, 31.732842076709], [73.9894746591954, 31.7298936976229], [73.9839934036878, 31.731849528119], [73.9833432169474, 31.7367540695809], [73.9778611742408, 31.7387097799285], [73.9730298294227, 31.7357606169966], [73.9675475107971, 31.737715875233], [73.9668960256477, 31.7426206280845], [73.9614129198932, 31.7445757657476], [73.9565818108902, 31.7416258189381], [73.9572340638672, 31.7367211395217], [73.952403703472, 31.733771219025], [73.9530561933044, 31.7288668975274], [73.9482265813496, 31.7259170035726], [73.9427442237492, 31.7278710260431], [73.9379151044526, 31.7249207537347], [73.9324324722489, 31.7268743240759], [73.9276038459036, 31.7239236735594], [73.9282581070662, 31.7190198579249], [73.9337402273301, 31.717066618787], [73.9385685983469, 31.7200168641141], [73.9440504442189, 31.7180631729765], [73.9447034073521, 31.7131595678164], [73.9501844669779, 31.7112057561285], [73.9508368995477, 31.7063024356282], [73.9563171730129, 31.7043485036357], [73.9569690752172, 31.6994454679947], [73.9624485626076, 31.6974914159434], [73.9630999346439, 31.6925886653607], [73.9582725860631, 31.6896400403269]], [[73.9994980801692, 31.6936128779048], [74.0001466219314, 31.6887101934926], [73.9953180564134, 31.6857631073058], [73.9898406923629, 31.6877183008033], [73.985012617494, 31.6847708365082], [73.9856621632238, 31.6798685835295], [73.9808348355835, 31.6769211461164], [73.9753577059029, 31.6788755568703], [73.9747073936094, 31.6837777367391], [73.9795349775362, 31.6867255789976], [73.9788849021638, 31.6916281175463], [73.9837132334932, 31.6945759866683], [73.9891913837585, 31.692620912381], [73.9940202060228, 31.6955684033294], [73.9994980801692, 31.6936128779048]], [[74.0571551686906, 31.6916993183538], [74.0577993464057, 31.68679655905], [74.0632742602456, 31.6848385426546], [74.0681055049291, 31.687782952829], [74.0674620943669, 31.6926857836869], [74.0722940862161, 31.6956302190623], [74.0716509144118, 31.70053340787], [74.0661749833778, 31.7024920898633], [74.0613427327835, 31.699547250185], [74.0619866719446, 31.6946441328501], [74.0571551686906, 31.6916993183538]], [[73.0940790958034, 31.4914644388619], [73.0947935531468, 31.4865738625345], [73.0900173756837, 31.4835969431457], [73.090732051538, 31.4787067342406], [73.0962221478082, 31.476793354957], [73.1009980944236, 31.4797698643333], [73.1064879474634, 31.4778560325764], [73.1112644077223, 31.48083217908], [73.1105512461029, 31.4857225672619], [73.1050608670369, 31.4876367194307], [73.1043471669737, 31.4925273854162], [73.0988560182098, 31.4944414053186], [73.0940790958034, 31.4914644388619]], [[74.204864627112, 31.6387646543953], [74.2054971588004, 31.6338638534548], [74.2109624597416, 31.6319007490695], [74.2115944658585, 31.6270002374885], [74.2170589792401, 31.6250370192734], [74.2218919907384, 31.6279739780933], [74.2212607511067, 31.632874558349], [74.2157957334685, 31.634838111144], [74.2151639683973, 31.6397389808718], [74.2096981629589, 31.6417024197717], [74.204864627112, 31.6387646543953]], [[74.2168935204254, 31.4243215252903], [74.2175230856405, 31.4194302704237], [74.2127055785909, 31.4164981823822], [74.2072582458519, 31.4184569461831], [74.2024412189831, 31.4155244828834], [74.1969936050963, 31.4174828025328], [74.1921770586996, 31.4145499641173], [74.1928083861638, 31.4096592092286], [74.1879925802463, 31.4067263990479], [74.1825451871262, 31.4086839405809], [74.1777298619822, 31.4057507556348], [74.178362189478, 31.4008604324166], [74.1735476046599, 31.3979272761404], [74.1741801707828, 31.3930373154621], [74.1693663261272, 31.3901041880827], [74.1699991307417, 31.3852145901084], [74.1651860260853, 31.3822814918525], [74.1658190690557, 31.3773922567463], [74.1712644562397, 31.3754360502432], [74.1718969771653, 31.3705471084689], [74.1773415834118, 31.3685907921268], [74.1779735824877, 31.3637021438793], [74.1731617354749, 31.3607698815284], [74.173793972901, 31.3558815964787], [74.1792372973576, 31.3539255042698], [74.1840488853048, 31.3568573634143], [74.1894919299378, 31.3549008281206], [74.1943039978559, 31.3578323135297], [74.19367328051, 31.3627207373394], [74.188229735148, 31.36467760649], [74.1875984962775, 31.369566324133], [74.1924115630218, 31.3724982418615], [74.1978556091403, 31.3705410387914], [74.2026691558356, 31.3734725823687], [74.2020389161273, 31.378361732086], [74.196594369225, 31.3803192691383], [74.1959636078626, 31.3852087125232], [74.2007781540562, 31.3881406879297], [74.2001476316515, 31.3930304939395], [74.1947018022234, 31.3949882554242], [74.189886996272, 31.3920558768852], [74.1844408863288, 31.3940131945995], [74.1838090810728, 31.3989032247349], [74.1886241466744, 31.4018360064537], [74.1940707579047, 31.3998783548236], [74.1988863039987, 31.402810761843], [74.2043326345031, 31.4008526663154], [74.2049629178144, 31.395962497845], [74.210408466366, 31.3940042926408], [74.2110382278938, 31.389114417672], [74.2164829945804, 31.3871561030335], [74.221298500344, 31.3900873291634], [74.2206694997633, 31.3949772728983], [74.2152242324492, 31.396935921771], [74.2145947102156, 31.4018261591193], [74.2194112164208, 31.4047578163134], [74.2248569843894, 31.4027988331442], [74.2254857454755, 31.3979085271111], [74.2309307311907, 31.3959494346213], [74.2315589707546, 31.3910594223134], [74.2267429856428, 31.3881285710346], [74.2273714647659, 31.3832389211079], [74.2225562194292, 31.3803080979306], [74.2231849379755, 31.3754188105493], [74.2286281411954, 31.3734602777691], [74.2292563385437, 31.3685712844735], [74.2244420931801, 31.3656408925482], [74.2250705298803, 31.360752262045], [74.2305124516119, 31.3587939549213], [74.2311403673735, 31.3539056187812], [74.2263271215808, 31.3509756583243], [74.226955276623, 31.3460876852232], [74.2323959174563, 31.3441296040636], [74.2330235518192, 31.3392419256026], [74.2282113051955, 31.3363123968302], [74.2288391787676, 31.3314250816547], [74.2240276707484, 31.328495581946], [74.2246557833941, 31.3236086302197], [74.219845013817, 31.3206791598008], [74.2144058716891, 31.3226362382389], [74.2095955806819, 31.3197063944146], [74.2102246914899, 31.3148198751073], [74.2156633341034, 31.3128631307846], [74.2204733654007, 31.3157925716874], [74.2259117272902, 31.3138353853457], [74.2307222368776, 31.3167644529092], [74.2300946445878, 31.3216511096361], [74.2349058924443, 31.324580206508], [74.2342785392924, 31.3294672267667], [74.2390905255805, 31.3323963527207], [74.2384634117021, 31.3372837363475], [74.2432761365842, 31.3402128911574], [74.2426492621149, 31.3451006379884], [74.2372089028472, 31.3470591616732], [74.2365815078292, 31.351947203256], [74.2413952321498, 31.3548767894764], [74.2407680766123, 31.3597651940169], [74.2353264365075, 31.3617239439704], [74.2346987601621, 31.3666126429856], [74.2395134843233, 31.3695426604003], [74.23888604753, 31.3744317221266], [74.2334431259979, 31.3763906980412], [74.2328151681373, 31.3812800539651], [74.2376308925415, 31.3842105023575], [74.2430743140142, 31.3822511919536], [74.2437015111195, 31.3773617676802], [74.249144150603, 31.3754023486826], [74.2497708267717, 31.3705132187184], [74.2449556241041, 31.367583575956], [74.2455825400251, 31.3626948086216], [74.2510238981426, 31.3607356158897], [74.2558388397815, 31.3636648559086], [74.2612799155512, 31.3617052204497], [74.2660953351251, 31.3646340857411], [74.2654699402608, 31.3695229891349], [74.2600283652371, 31.3714829593377], [74.2594024497623, 31.3763721573467], [74.2642188700517, 31.3793014530384], [74.2635931946653, 31.3841910134316], [74.2684103545239, 31.3871203366195], [74.273852928135, 31.3851596967411], [74.2744778425581, 31.3802700685775], [74.2799196337315, 31.3783093206398], [74.284737009555, 31.3812378659037], [74.2841128561643, 31.3861275616445], [74.2889309715345, 31.3890561339887], [74.2883070587687, 31.3939461917864], [74.2931259138481, 31.396874790984], [74.2925022418436, 31.4017652106741], [74.2870589533044, 31.4037269637862], [74.2822398359404, 31.4007979620538], [74.2828642693778, 31.3959076097779], [74.278045891897, 31.3929786348798], [74.2726028189524, 31.3949396096899], [74.2719776241512, 31.3998298943585], [74.276796263636, 31.4027592718581], [74.2761713093316, 31.4076499184179], [74.2809906888735, 31.4105793227328], [74.2803659752023, 31.4154703310191], [74.2851860949641, 31.4183997619222], [74.2906306660674, 31.4164377819417], [74.2954512636856, 31.4193668366613], [74.3008955506001, 31.4174044131201], [74.3057166257825, 31.4203330915149], [74.3050936768797, 31.4252245958947], [74.3099154924216, 31.428153300234], [74.3153599938009, 31.4261900977492], [74.3201822866029, 31.4291184254144], [74.3256265028588, 31.4271547793466], [74.3304492726281, 31.4300827301964], [74.3358932033993, 31.428118640598], [74.3365138657887, 31.423226935871], [74.3419570123362, 31.4212627386082], [74.3425771543893, 31.4163713285569], [74.3377549120247, 31.4134441822121], [74.3383752959127, 31.4085531333969], [74.343817160212, 31.4065891645267], [74.3444370240229, 31.4016984106645], [74.3498781045155, 31.3997343346779], [74.3504974484448, 31.394843875963], [74.3559377452202, 31.3928796931022], [74.3565565694633, 31.3879895297288], [74.3619960826112, 31.3860252402358], [74.3626143873635, 31.381135372398], [74.3577939403696, 31.3782098601331], [74.358412487074, 31.3733203540272], [74.3638507195467, 31.3713562941501], [74.3644687470189, 31.3664670838564], [74.3596493030884, 31.3635419994905], [74.3602675724395, 31.358653151176], [74.3657045248271, 31.3566893212205], [74.370523704716, 31.3596140036066], [74.375960370857, 31.3576497318012], [74.3807800252033, 31.3605740381845], [74.386216404738, 31.3586093245817], [74.3910365332494, 31.361533254822], [74.3904205468491, 31.3664223004766], [74.3849836708644, 31.3683873503376], [74.3801632777519, 31.3654630182521], [74.3747261149485, 31.3674276261901], [74.3741088485921, 31.372316902375], [74.3686709024303, 31.3742814044065], [74.3680531169735, 31.3791709765148], [74.372874038972, 31.3820961124346], [74.3722564956672, 31.386986046193], [74.3668172688944, 31.3889507781448], [74.3661992062309, 31.39384100755], [74.3710211319653, 31.3967665708759], [74.3704033115271, 31.4016571616839], [74.3752259768748, 31.4045827501993], [74.3746083987986, 31.4094737022452], [74.3794318039216, 31.4123993157228], [74.3788144683441, 31.4172906288418], [74.3836386134045, 31.4202162670541], [74.3830215204625, 31.4251079410812], [74.3775795200584, 31.4270739112261], [74.3769619073091, 31.4319658803747], [74.3715191220877, 31.4339317435702], [74.3709009893354, 31.4388240076458], [74.3654574192067, 31.4407897636496], [74.3648387662556, 31.4456823224578], [74.3696644462558, 31.4486091911403], [74.3751085143882, 31.4466430989454], [74.3799346701588, 31.4495695898326], [74.3853784509363, 31.4476030540652], [74.3859955781303, 31.4427103637616], [74.3811696874814, 31.4397842748425], [74.3817870575215, 31.4348919450338], [74.3872295554528, 31.4329256385709], [74.3920551808742, 31.4358513255698], [74.391438573614, 31.440743720918], [74.3962649394592, 31.4436694319686], [74.3956485752453, 31.4485621877296], [74.4004756816764, 31.4514879226042], [74.4059188866602, 31.449520499851], [74.4065344878265, 31.4446276788263], [74.4119769072207, 31.442660149355], [74.4168042225777, 31.4455851042472], [74.4161893845263, 31.4504779903421], [74.410746467981, 31.4524458565084], [74.4101311101984, 31.4573390376984], [74.4149594322542, 31.4602644177436], [74.4204028459755, 31.4582962148197], [74.425231642614, 31.4612212162992], [74.430674767322, 31.4592525698896], [74.4312885984071, 31.4543592589178], [74.4367309369918, 31.4523905060851], [74.4415599412184, 31.455314727249], [74.4470019902811, 31.4533455311634], [74.4476145385849, 31.4484524510201], [74.4530558014679, 31.4464831489331], [74.4578850123221, 31.4494065898253], [74.4633259851749, 31.4474368447182], [74.4681556691682, 31.4503599067602], [74.467544647697, 31.4552531153006], [74.472375072182, 31.4581761997095], [74.4717642952953, 31.4630697679204], [74.4765954604339, 31.465992874468], [74.4759849282691, 31.4708868021837], [74.4705424670943, 31.472857559449], [74.4699314157392, 31.4777517826499], [74.4644881675224, 31.479722433904], [74.4638765967808, 31.4846169523957], [74.4687090384178, 31.4875408836321], [74.4680977124106, 31.4924357612964], [74.4626531804273, 31.4944066436819], [74.457820471106, 31.4914823109841], [74.4584325614305, 31.4865874973961], [74.4536005934522, 31.4836631865485], [74.4481562677243, 31.4856332877931], [74.4433247736995, 31.4827085974744], [74.4439378726082, 31.4778142074946], [74.4391071197781, 31.4748895394627], [74.4336630010708, 31.4768588598268], [74.4330491381789, 31.4817531852599], [74.4378801579556, 31.4846782549095], [74.4372665391971, 31.4895729397631], [74.4318211365233, 31.4915424903427], [74.4312069977185, 31.4964374698754], [74.4360390258827, 31.4993629634377], [74.4354251312859, 31.5042583021416], [74.4402579011585, 31.5071838177224], [74.4396442509072, 31.5120795154316], [74.4341970661103, 31.5140496329896], [74.4335828954904, 31.5189456250163], [74.4281349231038, 31.5209156351063], [74.4233016191615, 31.5179893161297], [74.423916554566, 31.5130933888189], [74.4293640291501, 31.5111237157349], [74.4299784440525, 31.5062280826301], [74.4251461489766, 31.5033021873738], [74.4196991721702, 31.5052715235143], [74.4148673521859, 31.502345248723], [74.4094200861685, 31.504314140462], [74.4045887415703, 31.5013874862762], [74.4052049293167, 31.4964923422151], [74.400374326467, 31.4935657106731], [74.394927269781, 31.4955338213283], [74.3943103177863, 31.5004289001206], [74.3888624744328, 31.5023969028966], [74.3882450015996, 31.5072922756438], [74.3827963714881, 31.5092601702977], [74.3779657128651, 31.5063323557313], [74.3725167947773, 31.5082998056444], [74.3676866127051, 31.505371612038], [74.3622374070032, 31.5073386171575], [74.3616178843098, 31.5122341520987], [74.3664483316748, 31.5151627478342], [74.3718980364624, 31.5131954064656], [74.3767289606599, 31.5161236230933], [74.3821783776198, 31.5141558368047], [74.3870097783554, 31.5170836741837], [74.3924589071253, 31.5151154430283], [74.3972907841045, 31.5180429010177], [74.3966737983676, 31.5229389921026], [74.3912241709141, 31.5249075598222], [74.3863920279031, 31.521979699859], [74.3809421120457, 31.5239478225855], [74.3803238402985, 31.5288441417419], [74.374873137263, 31.5308121557962], [74.3742543440242, 31.5357087682383], [74.3790870187804, 31.5386374322927], [74.3845382209779, 31.5366690818017], [74.3851562492351, 31.5317724037267], [74.3906066640154, 31.5298039444998], [74.3954395494645, 31.5327318268187], [74.3948222862569, 31.5376285703324], [74.3893713725285, 31.5395973661223], [74.3887535878989, 31.5444944029498], [74.3935874822264, 31.5474227093775], [74.3990388949281, 31.5454535769621], [74.399655914307, 31.5405564747783], [74.4051065392035, 31.5385872337428], [74.4099406434583, 31.5415147581731], [74.4153909791603, 31.5395450719453], [74.4160067120655, 31.5346481981364], [74.4111728744758, 31.5317210755719], [74.4117888514741, 31.5268245604342], [74.4069557562965, 31.5238974598081], [74.4075719772502, 31.5190013035077], [74.413020528553, 31.5170321827782], [74.4178533571357, 31.5199588815663], [74.4172379010326, 31.5248551028882], [74.4220714718514, 31.5277818236346], [74.4214562599047, 31.5326784037113], [74.4262905731223, 31.5356051461875], [74.4256756054696, 31.5405020848528], [74.4305106612486, 31.54342884883], [74.4298959380277, 31.5483261459176], [74.4347317365308, 31.5512529311669], [74.4341172578797, 31.5561505865106], [74.4286662150489, 31.5581213919477], [74.4280512152497, 31.5630193407725], [74.4328880241151, 31.5659465488025], [74.4322732689604, 31.5708448556331], [74.4371108210517, 31.573772084457], [74.4364963106795, 31.5786707491267], [74.4413346061595, 31.5815979985155], [74.440720340708, 31.5864970208577], [74.4352670133623, 31.5884687292905], [74.4346522263762, 31.5933680446667], [74.4291981096393, 31.5953396442767], [74.4285828009212, 31.6002392524912], [74.4231278947017, 31.6022107430348], [74.4182887963715, 31.5992822882672], [74.4189048717496, 31.5943827448307], [74.4140665173376, 31.5914543105672], [74.4086118202972, 31.5934250178648], [74.4037739425884, 31.5904962024052], [74.3983189559414, 31.5924664634662], [74.3977013474465, 31.5973658767631], [74.402539492101, 31.6002950942], [74.4019221279337, 31.6051948650828], [74.3964658524315, 31.6071653532838], [74.3916274409375, 31.6042357338218], [74.392245571763, 31.5993360282178], [74.38740790439, 31.5964064296579], [74.3819518396124, 31.5983761346426], [74.3813329421967, 31.6032757747732], [74.3758760884408, 31.6052453697279], [74.3752566683635, 31.6101453018576], [74.3697990255386, 31.6121147865383], [74.3649613033012, 31.6091840026264], [74.3595033720446, 31.6111530404242], [74.3546661282456, 31.6082218755357], [74.3492079089214, 31.6101904663974], [74.3443711438563, 31.6072589206739], [74.3389126368285, 31.6092270645466], [74.3340763507925, 31.6062951381296], [74.3286175564254, 31.6082628349603], [74.3237817497139, 31.6053305279914], [74.3183226683715, 31.6072977777273], [74.3134873412795, 31.6043650903482], [74.308027973326, 31.6063318929367], [74.3074034306874, 31.6112317186011], [74.3019432744736, 31.6131984095933], [74.3013182079798, 31.6180985261916], [74.3061540642549, 31.6210320188082], [74.3055292404189, 31.6259324932325], [74.3000677935749, 31.6278994079856], [74.2994424456218, 31.6328001730628], [74.2939802100974, 31.6347669756663], [74.2933543378297, 31.6396680311997], [74.2981914681096, 31.642602351282], [74.2975658385085, 31.6475037643055], [74.2921023114261, 31.6494707900496], [74.2914761572482, 31.6543724932477], [74.2860118410651, 31.6563394062886], [74.2853851621127, 31.6612413994642], [74.279920056739, 31.6632081995573], [74.2792928528145, 31.6681104825133], [74.2738269581604, 31.6700771694138], [74.2689887709637, 31.6671412379845], [74.2696167424655, 31.6622390225966], [74.2647793012244, 31.6593031131261], [74.2654075149957, 31.6544012550566], [74.2708724026565, 31.6524352387733], [74.2715000913878, 31.6475336704565], [74.2769641902499, 31.6455675411106], [74.2775913541387, 31.6406662627436], [74.2727551862272, 31.6377311813089], [74.2672915905808, 31.639696975375], [74.2624559042963, 31.6367615134774], [74.2630840772832, 31.6318606604674], [74.2685471697407, 31.6298952016188], [74.2691748180148, 31.6249946387278], [74.2643401404883, 31.6220596024361], [74.2588775511928, 31.6240247261297], [74.2540433553157, 31.6210893097941], [74.2485804813192, 31.6230539855923], [74.2479512998469, 31.6279544127199], [74.242487637925, 31.6299189754709], [74.2418579314751, 31.6348196924927], [74.2363934815384, 31.6367841419519], [74.2315592419044, 31.6338475395204], [74.2321897149804, 31.6289468907844], [74.2273562206652, 31.6260103116478], [74.2279869350548, 31.6211100210613], [74.233450377359, 31.6191462412098], [74.2340805667038, 31.6142462404896], [74.2395432214744, 31.6122823474765], [74.2401728859717, 31.6073826368196], [74.2456347532978, 31.6054186308892], [74.2504674594255, 31.6083540007468], [74.2559290424774, 31.6063895471757], [74.2607622302767, 31.6093245374082], [74.26622352869, 31.6073596362486], [74.2710571978663, 31.6102942467136], [74.2765182112764, 31.6083288980174], [74.2813523615352, 31.6112631285728], [74.2868130895775, 31.6092973323923], [74.291647720624, 31.612231182896], [74.2971081629343, 31.6102649392834], [74.2977334719483, 31.6053651806776], [74.2928991049806, 31.6024317329036], [74.2935246563771, 31.597532332457], [74.288691033817, 31.5945989074477], [74.2893168274585, 31.5896998653267], [74.284483949142, 31.5867664633111], [74.2851099848909, 31.5818677796821], [74.2802778506539, 31.578934400889], [74.2809041283729, 31.5740360759183], [74.2760727380515, 31.5711027205763], [74.2766992576032, 31.5662047544301], [74.2718686110334, 31.563271422768], [74.2724953722804, 31.5583738156124], [74.2676654692984, 31.5554405078587], [74.2622085420204, 31.5574044044473], [74.257379119611, 31.5544707179639], [74.2580068873083, 31.5495735377923], [74.2634633125455, 31.5476099762428], [74.2640905567716, 31.5427130875664], [74.2592621404735, 31.5397798283148], [74.2598896259835, 31.5348832991269], [74.2653447632559, 31.5329199613596], [74.2659717255561, 31.528023723947], [74.2611443149632, 31.5250908921466], [74.2617715184749, 31.520195014472], [74.2569448506397, 31.5172622075128], [74.2575722952259, 31.5123666897419], [74.2527463699846, 31.5094339078518], [74.2472927378749, 31.5113962408701], [74.242467292979, 31.5084630813617], [74.243095742255, 31.5035679917842], [74.2382710398004, 31.5006348577818], [74.2388997296759, 31.4957401285207], [74.2340757694988, 31.4928070202521], [74.2347046998372, 31.4879126514727], [74.229881481774, 31.4849795691656], [74.2305106524385, 31.4800855610332], [74.2359622780409, 31.4781245668049], [74.2365909259483, 31.4732308510339], [74.2317687112228, 31.470298197908], [74.2263175871798, 31.4722588575951], [74.2214958528537, 31.4693258278944], [74.2221255037611, 31.4644325415512], [74.2173045110581, 31.4614995384949], [74.2118536064935, 31.4634594187383], [74.2070330944927, 31.4605260394579], [74.2015819082363, 31.462485474685], [74.1967618772297, 31.4595517193225], [74.1913104096441, 31.4615107094822], [74.1864908599237, 31.45857657818], [74.1871230379602, 31.4536838599805], [74.1925740034062, 31.4517252038556], [74.193205658487, 31.4468327779319], [74.1883871102774, 31.4438990773747], [74.1890190046003, 31.4390070130855], [74.1842011975438, 31.4360733402717], [74.1787512362948, 31.4380313285148], [74.1739339105547, 31.4350972803868], [74.1745668057138, 31.4302056473344], [74.1697502209732, 31.4272716273854], [74.1703833549012, 31.4223803563778], [74.1758323120634, 31.4204230357666], [74.1806486373043, 31.423356652412], [74.186097314193, 31.4213988873693], [74.1909141204787, 31.424332128975], [74.1902825096799, 31.4292235388271], [74.1951000567817, 31.432156808422], [74.1944686851537, 31.4370485801566], [74.199286973235, 31.4399818775137], [74.2047363727309, 31.43802299995], [74.2095551415453, 31.4409559217083], [74.2089247712965, 31.4458481241306], [74.2137442812436, 31.4487810732155], [74.2191939007708, 31.4468214167769], [74.2198235088773, 31.4419291455782], [74.2150042596215, 31.4389965995608], [74.2156341074369, 31.4341046899173], [74.2210824425193, 31.4321452575928], [74.225901430976, 31.4350774005901], [74.225272345172, 31.4399693788982], [74.2300920745772, 31.4429015490325], [74.2355406287285, 31.4409413378713], [74.2361689524511, 31.436049291092], [74.2313494841264, 31.4331175239114], [74.2319780478235, 31.4282258386892], [74.2271593202734, 31.4252940986646], [74.2217117680969, 31.4272536409232], [74.2168935204254, 31.4243215252903]], [[74.4304284501598, 31.5855410781567], [74.4310434820034, 31.5806421203691], [74.426205662366, 31.5777144897799], [74.4207525434228, 31.5796854151991], [74.4201367452546, 31.5845843082377], [74.4249748323322, 31.5875123406401], [74.4304284501598, 31.5855410781567]], [[74.3875177407643, 31.5542891283431], [74.3826835802657, 31.5513604198856], [74.3772310911334, 31.5533289978327], [74.3766122630696, 31.5582266207011], [74.3814466896333, 31.5611557312361], [74.3868996782178, 31.5591868167913], [74.3875177407643, 31.5542891283431]], [[74.2464366712086, 31.4370203613325], [74.2458091096371, 31.4419124763896], [74.2403608379911, 31.4438731319806], [74.2397327543793, 31.4487655401522], [74.2445537047429, 31.4516973609628], [74.2500024772052, 31.4497363706999], [74.250629798465, 31.444843894332], [74.2560777872439, 31.4428827943628], [74.2567045865946, 31.4379906112212], [74.2518841594098, 31.4350595960996], [74.2464366712086, 31.4370203613325]], [[74.3463722782248, 31.5504436526436], [74.3518256307825, 31.5484764118296], [74.3524462327741, 31.5435792794531], [74.3476142473414, 31.5406494541014], [74.3421613948521, 31.5426163588596], [74.3415400277495, 31.5475134249915], [74.3463722782248, 31.5504436526436]], [[74.368549295616, 31.4163302472747], [74.369167393373, 31.4114389999416], [74.3643444634971, 31.4085130094279], [74.3589031714196, 31.4104778642349], [74.3582843115509, 31.4153690455888], [74.3631075058493, 31.4182954381487], [74.368549295616, 31.4163302472747]], [[74.3388549098265, 31.445723066892], [74.3340306588977, 31.4427950656683], [74.3285854449588, 31.444759383046], [74.3279639830905, 31.4496520373626], [74.3327884979115, 31.4525804408719], [74.3382342107307, 31.4506157877453], [74.3388549098265, 31.445723066892]], [[74.2449805254671, 31.4888840279555], [74.2504323696038, 31.4869222538289], [74.2510600139024, 31.4820281091518], [74.2462365773048, 31.4790958067432], [74.2407852345424, 31.4810572461391], [74.240156827026, 31.4859513226406], [74.2449805254671, 31.4888840279555]], [[74.4657110342376, 31.4699340515162], [74.4663223302521, 31.4650401877371], [74.4614916382248, 31.462116701923], [74.4621031787612, 31.4572231977312], [74.4572732274013, 31.454299734264], [74.4518314682215, 31.4562693735489], [74.4512191641021, 31.4611628135278], [74.4560493827237, 31.4640866784684], [74.455437322926, 31.4689804781173], [74.4602682823908, 31.4719043653848], [74.4657110342376, 31.4699340515162]], [[74.3602513562306, 31.5641314712809], [74.3650855711248, 31.5670613640873], [74.3705396360233, 31.565093004957], [74.3711589860995, 31.5601950893615], [74.3663250368817, 31.5572655987483], [74.3608714718891, 31.5592336215713], [74.3602513562306, 31.5641314712809]], [[74.2800091852988, 31.4996194618515], [74.2854606788681, 31.4976560169775], [74.2860857917629, 31.4927613086976], [74.291536500066, 31.4907977539103], [74.2921610907973, 31.4859033384681], [74.287335736744, 31.48297254518], [74.281885528966, 31.4849357647291], [74.2770606538371, 31.4820045939483], [74.2716101617694, 31.4839673685368], [74.2709840441157, 31.4888616489839], [74.2758091819336, 31.4917932224706], [74.275183305411, 31.4966878632378], [74.2800091852988, 31.4996194618515]]]}}