{"type": "Feature", "geometry": {"type": "MultiPolygon", "coordinates": [[[[-97.80370929704183, 22.192835394322163], [-97.80646982766658, 22.196764063155097], [-97.80370770177946, 22.20107747539051], [-97.79384750786267, 22.201158061636455], [-97.78948764043322, 22.198030396013614], [-97.78941685974267, 22.19409951224032], [-97.79169836308641, 22.19168269596237], [-97.80370929704183, 22.192835394322163]]], [[[-97.86879295867008, 22.214538400465866], [-97.86724385486366, 22.21735183980752], [-97.8617388564548, 22.22051017716531], [-97.86253892945065, 22.226742487092466], [-97.86097433092455, 22.229697855876474], [-97.85284732435922, 22.231165659049992], [-97.84521592599175, 22.230412203468816], [-97.83734341708869, 22.242397059651374], [-97.83029208607681, 22.243216087945388], [-97.82536320012319, 22.247237728745837], [-97.82472471419793, 22.257120942371444], [-97.82260727626326, 22.263394970303402], [-97.8270718639987, 22.271521036650807], [-97.83110234926018, 22.27550531142903], [-97.83083722690489, 22.281120161972684], [-97.81612847788082, 22.28963601607184], [-97.81035195236693, 22.288880438019078], [-97.80548301102844, 22.284745412527126], [-97.7996621193209, 22.286280883659643], [-97.7967667891256, 22.285114148995827], [-97.79501443497672, 22.281026321219304], [-97.79828788165464, 22.274428481728492], [-97.78970251584956, 22.254872813545276], [-97.79092411379992, 22.249868493521053], [-97.79870660600888, 22.244902215162586], [-97.8013386846527, 22.246307882858424], [-97.80397670901976, 22.250774960455878], [-97.80716747254054, 22.25184794415284], [-97.81585555538669, 22.246527075445332], [-97.81931488966396, 22.23643869765879], [-97.82560763844826, 22.234763971538126], [-97.82751739587167, 22.2327920946372], [-97.83067208531824, 22.222130807240323], [-97.83077974677089, 22.21595363755184], [-97.84109234909752, 22.21243190655851], [-97.84477268755292, 22.204853131801592], [-97.85322926907521, 22.20495249585914], [-97.86316319960628, 22.208272175854336], [-97.86793463691485, 22.210689003869007], [-97.86879295867008, 22.214538400465866]]], [[[-97.81166989951006, 22.1159873732562], [-97.81202141332768, 22.119504759649708], [-97.80908227849571, 22.122395660507514], [-97.79755633986855, 22.12108377419824], [-97.79372967977103, 22.11870247936301], [-97.79175916186107, 22.11480774619263], [-97.79330361399546, 22.105904872257284], [-97.79965643035028, 22.103636647386402], [-97.80844199651945, 22.107009191647403], [-97.81166989951006, 22.1159873732562]]], [[[-97.8248426657037, 22.16491667553771], [-97.82122977277933, 22.159066232916842], [-97.82341813555765, 22.154798120998805], [-97.82822869156412, 22.153294183360366], [-97.83857925715577, 22.157922607951946], [-97.83832696893924, 22.163589560698718], [-97.83627523379896, 22.165955660538497], [-97.8248426657037, 22.16491667553771]]], [[[-97.85350375949376, 22.117891472152245], [-97.8483798090636, 22.119687708193936], [-97.84134724677509, 22.117491263994534], [-97.83949658369339, 22.11480032414703], [-97.83964962826032, 22.109578965335494], [-97.84670461053528, 22.10712051298384], [-97.8554411879456, 22.109319461195824], [-97.85739105113697, 22.113582033794216], [-97.85615319138905, 22.116482749167535], [-97.85350375949376, 22.117891472152245]]], [[[-97.85900894747533, 22.254962870908937], [-97.85725542571076, 22.25781040716421], [-97.85424457840082, 22.258626752172407], [-97.85047756795197, 22.25693953641489], [-97.84948522122099, 22.25363223007939], [-97.85231969893493, 22.24854519507002], [-97.85624503970367, 22.247791104091192], [-97.85951416476219, 22.250409419247113], [-97.85900894747533, 22.254962870908937]]], [[[-97.9170605009085, 22.46118563812732], [-97.91755250305138, 22.466402059907892], [-97.91306634294861, 22.470427132123664], [-97.91041051908437, 22.478882701892196], [-97.91062313102589, 22.488339271573167], [-97.9083515171622, 22.493371911225704], [-97.9105063665598, 22.498271270346738], [-97.91048164939265, 22.50530742788464], [-97.90815311977879, 22.50866160751677], [-97.90253226257809, 22.50827656517514], [-97.89946368826475, 22.502455526954424], [-97.89581927800226, 22.499961928986032], [-97.88518176577824, 22.498638572220436], [-97.88362101641307, 22.495397590525112], [-97.88425910729028, 22.489899570774547], [-97.88225974337334, 22.487510042579697], [-97.87353208540544, 22.48934032047423], [-97.8628349801124, 22.48857132299449], [-97.86003662388968, 22.486602370450527], [-97.85893542799423, 22.475922230223954], [-97.86615523379135, 22.470558641610673], [-97.8660941799238, 22.463477074540393], [-97.86831043163696, 22.460842296737628], [-97.87346610463305, 22.460277400729744], [-97.87794399494638, 22.465804794462205], [-97.88438729032055, 22.46600752849014], [-97.8911775554728, 22.469684823122968], [-97.89582517245519, 22.47704866978807], [-97.89832872790532, 22.478381229424713], [-97.90245463589113, 22.47689076346539], [-97.90421134333178, 22.470106317601633], [-97.90760716325529, 22.46594729534708], [-97.90599614927446, 22.461763456063608], [-97.89627807618467, 22.460275927147304], [-97.88577376257585, 22.451703335530524], [-97.88417360940431, 22.445484306865055], [-97.88037624905918, 22.441188374936416], [-97.87872810240289, 22.434289864646573], [-97.87925080622064, 22.428753338895035], [-97.87317546917178, 22.423898011150705], [-97.8731044835027, 22.411779833052307], [-97.87895404773397, 22.408513351329848], [-97.88325929587192, 22.402561045374842], [-97.89760368107065, 22.401550601049472], [-97.90077841831116, 22.403612797365952], [-97.89951514406987, 22.417772102103847], [-97.90427825564932, 22.425006098994476], [-97.90297508789367, 22.42895193795512], [-97.8980646867765, 22.431749015900195], [-97.8974114414639, 22.435049419686013], [-97.90000098496864, 22.439431477082625], [-97.90981153547466, 22.442355017343957], [-97.9180422426051, 22.450420572468214], [-97.91880882841541, 22.453312148080805], [-97.91644186455866, 22.458243275644193], [-97.9170605009085, 22.46118563812732]]], [[[-97.87954179108362, 22.34474640874827], [-97.88172446819284, 22.35206612410896], [-97.87700051896432, 22.357201983395456], [-97.86876384654857, 22.35843910056505], [-97.86082972569703, 22.35383970099449], [-97.85928997957265, 22.345738862809387], [-97.86154630894809, 22.34027208124526], [-97.86803336767116, 22.336220903671837], [-97.86805897334482, 22.328286294831678], [-97.86627715508845, 22.32376977118214], [-97.86867397480808, 22.32012398586928], [-97.87685584095208, 22.319566085290916], [-97.87984884599396, 22.32187868724968], [-97.87684743161037, 22.33513326461397], [-97.87954179108362, 22.34474640874827]]], [[[-97.89904187679467, 22.286603257233665], [-97.89919704554215, 22.290494275242054], [-97.89698740085088, 22.293622854147632], [-97.88828340226259, 22.29453672607228], [-97.87634312149696, 22.301699020857104], [-97.87320225682603, 22.30179315321179], [-97.8703127766388, 22.298081965934138], [-97.87109603223736, 22.282104120197033], [-97.86681875244142, 22.27764661122431], [-97.86643130914169, 22.274218848655757], [-97.86840245265707, 22.271962021668447], [-97.87727535892857, 22.268395029981793], [-97.8873012561123, 22.265758953768685], [-97.89111127523697, 22.26646306926621], [-97.89618024305015, 22.271818456791692], [-97.89904187679467, 22.286603257233665]]], [[[-97.90227546741947, 22.36732320952023], [-97.90735251334986, 22.373346761646197], [-97.90419679822493, 22.38185831499692], [-97.89700791812741, 22.38932335527752], [-97.88890302890518, 22.388446201956285], [-97.88498182988828, 22.37591402461312], [-97.89017523910695, 22.3653920150842], [-97.89275811392115, 22.36359047168992], [-97.89774141267415, 22.364009150446122], [-97.90227546741947, 22.36732320952023]]], [[[-97.94426782234603, 22.218620064179042], [-97.93770423655643, 22.21804318207859], [-97.93338744464768, 22.22149477984117], [-97.92220302608601, 22.223978004155974], [-97.91309844919097, 22.217657760912278], [-97.91004385272647, 22.217174550358692], [-97.90755765530056, 22.21901380954638], [-97.90600357982949, 22.223297715372208], [-97.90166503325449, 22.22651001542792], [-97.9014740187445, 22.233075866927976], [-97.8995808059351, 22.236360891190383], [-97.89311815919245, 22.236441311092328], [-97.88986432697652, 22.23128608366962], [-97.89067789079951, 22.21969344200559], [-97.89373703603363, 22.21269637348189], [-97.90345753529652, 22.211901441786186], [-97.90768926691185, 22.216104946434694], [-97.91105587601741, 22.216615002549563], [-97.91359559462371, 22.214346954157037], [-97.91457532111441, 22.207081432919438], [-97.91858604813103, 22.204871175131647], [-97.92191060431298, 22.205599032493645], [-97.92525262781157, 22.210354308536274], [-97.93341406495509, 22.212504642053727], [-97.93640958002912, 22.21087622405106], [-97.93927900512678, 22.204699166919617], [-97.94824742352932, 22.204338524499352], [-97.95029056711975, 22.20713842497936], [-97.94996778472152, 22.213272596021838], [-97.94426782234603, 22.218620064179042]]], [[[-97.95930733982301, 22.5287106721527], [-97.95756989717637, 22.53210437209485], [-97.95234398405586, 22.534669201336335], [-97.94718996452444, 22.533994000500034], [-97.94502871354483, 22.53098510298486], [-97.94717374775713, 22.524792762258183], [-97.95440015679524, 22.522011587452162], [-97.95914145673862, 22.52430463338998], [-97.95930733982301, 22.5287106721527]]], [[[-97.95834777031891, 22.418302628935255], [-97.95390306582505, 22.41935692101151], [-97.94989966368732, 22.416435498650568], [-97.94998696309702, 22.412020797639165], [-97.95410244461304, 22.40818079451206], [-97.95754883040829, 22.408329816463453], [-97.96208669581961, 22.412433643216765], [-97.96177049513231, 22.41609413590319], [-97.95834777031891, 22.418302628935255]]], [[[-97.99102072190531, 22.44796934047904], [-97.99272846880812, 22.450827342144546], [-97.99193551869973, 22.456960744661433], [-97.98853506119528, 22.4600948166204], [-97.98220584962432, 22.458852525383893], [-97.98014944329663, 22.45319738832333], [-97.97738148361935, 22.451264832470592], [-97.9657354440979, 22.45751913816437], [-97.95850148901984, 22.456405333748183], [-97.95611795527077, 22.45321034766072], [-97.95717307529456, 22.44728369214794], [-97.9625311102196, 22.444264683506336], [-97.96448405246582, 22.43817362638691], [-97.9673062369664, 22.436202397882823], [-97.97022498567597, 22.43685182678404], [-97.97485853148466, 22.44126296820318], [-97.97591223277914, 22.44694889631936], [-97.97779293033835, 22.44891877247651], [-97.98087984900721, 22.44911711503851], [-97.98510595074718, 22.446783586205562], [-97.99102072190531, 22.44796934047904]]], [[[-98.00560146459397, 22.219090267608504], [-98.00096859358042, 22.21923437163791], [-97.99744661656625, 22.216271563019713], [-97.9982936544241, 22.20969182038438], [-98.00054587439139, 22.20721398369029], [-98.00389268335927, 22.20731905127906], [-98.00928113487593, 22.21162893715591], [-98.00926125590865, 22.215004729819373], [-98.00560146459397, 22.219090267608504]]], [[[-98.0238001162582, 22.441207509231006], [-98.02291154180753, 22.44401653502551], [-98.02024614725654, 22.445468394234247], [-98.00166693166106, 22.44288801227487], [-97.99952027993785, 22.439396649686117], [-98.00115152298385, 22.429687070064073], [-98.0050309902757, 22.42755073947562], [-98.01329478945713, 22.430158755102795], [-98.02210462594732, 22.430780282701797], [-98.02420179379912, 22.433606933290143], [-98.0238001162582, 22.441207509231006]]], [[[-98.05411178243162, 22.167561600392606], [-98.05670185845354, 22.171839494632682], [-98.05475217875095, 22.175543141501386], [-98.04750668447453, 22.176654069012532], [-98.04272275652329, 22.173941298804365], [-98.0425209637967, 22.16951541797408], [-98.04562184810979, 22.166465835125166], [-98.05052603328635, 22.16583465660983], [-98.05411178243162, 22.167561600392606]]]]}, "properties": {}}