{"type": "Feature", "geometry": {"type": "MultiPolygon", "coordinates": [[[[-76.48731195152757, 7.767058466866294], [-76.48378587260522, 7.769721169849667], [-76.47909998264446, 7.767988496375949], [-76.47819385968262, 7.7651030213443795], [-76.47965008648193, 7.758765256322555], [-76.47758662605861, 7.756490882888543], [-76.47304867913644, 7.755388488449004], [-76.4700407608716, 7.752017319011098], [-76.46921993072205, 7.749099352339661], [-76.47067835554068, 7.74644355340967], [-76.47448711374504, 7.744709526270722], [-76.4777107520851, 7.746087197403654], [-76.48006585829417, 7.750900222920038], [-76.47944402927723, 7.7568156387151435], [-76.4871360102909, 7.760771282304], [-76.48731195152757, 7.767058466866294]]], [[[-76.52536295634697, 8.03892751580214], [-76.52295795432356, 8.04374391790145], [-76.51505887980832, 8.044370329235702], [-76.50999862058863, 8.035689101402706], [-76.5109213106369, 8.029798721710875], [-76.51619490280565, 8.027096802747575], [-76.52344085192215, 8.031099987575326], [-76.52522615371646, 8.03357396437884], [-76.52536295634697, 8.03892751580214]]], [[[-76.53950370668083, 7.904830215465626], [-76.54257742707972, 7.906710944837475], [-76.54318956616052, 7.910852792107341], [-76.54017685662402, 7.914237268939687], [-76.53551427111606, 7.914474146347338], [-76.53293646501756, 7.911395545211302], [-76.53291359268354, 7.908242981738195], [-76.53950370668083, 7.904830215465626]]], [[[-76.56104692800517, 7.743340665557778], [-76.56117883799241, 7.7474290863710396], [-76.55722441249819, 7.750474504486697], [-76.55262004709336, 7.749710409627618], [-76.54979349096178, 7.745827226056878], [-76.5502846157132, 7.742379213885394], [-76.55332629332159, 7.740282313989569], [-76.55828006144293, 7.741047458365402], [-76.56104692800517, 7.743340665557778]]], [[[-76.56787113858303, 7.883360955893379], [-76.56649589469235, 7.887659731137396], [-76.56254102042453, 7.889184488428541], [-76.55823110679718, 7.887689844605313], [-76.55688351363042, 7.88340368854807], [-76.55807517908386, 7.880290758802992], [-76.56106080584807, 7.878897154245515], [-76.56606857049245, 7.879724512785612], [-76.56787113858303, 7.883360955893379]]], [[[-76.56304296157447, 8.04775408377889], [-76.56630544570547, 8.047487780825147], [-76.56862681915067, 8.04960804344593], [-76.56874781549853, 8.052794251260492], [-76.56651030175662, 8.055245805107221], [-76.56298996477132, 8.055376626140772], [-76.56076162509025, 8.053226490182011], [-76.5607836405035, 8.049922579761528], [-76.56304296157447, 8.04775408377889]]], [[[-76.6071434536272, 7.92305107125466], [-76.6045094837358, 7.926718578995289], [-76.60060613494824, 7.926649073222306], [-76.59755889256984, 7.923186630503424], [-76.59732006861246, 7.917117021482097], [-76.6004768840081, 7.914755854405168], [-76.60388325343132, 7.915216067686945], [-76.60744325379804, 7.9196048024553685], [-76.6071434536272, 7.92305107125466]]], [[[-76.60824237094005, 7.865883162448951], [-76.60637983034403, 7.87164563032953], [-76.61098883249045, 7.875559659311722], [-76.61198590401175, 7.8783532427432155], [-76.6106031103283, 7.8814839979605145], [-76.60773071863932, 7.882546660636535], [-76.60405575841742, 7.880426410388822], [-76.60409062053765, 7.873106508375436], [-76.59887028891501, 7.868947668778582], [-76.59741310258923, 7.864578186312739], [-76.60141545360105, 7.8596009664641375], [-76.60688785024989, 7.85723421509128], [-76.61076496147352, 7.860927422433378], [-76.60824237094005, 7.865883162448951]]], [[[-76.60626390790277, 7.990005532100808], [-76.60338346428462, 7.991899169519025], [-76.59956637874157, 7.991024032447602], [-76.5981333254252, 7.98799147838167], [-76.59947822926807, 7.984428668791273], [-76.60256289323421, 7.98280377927371], [-76.60588329469462, 7.983803671308148], [-76.60736149726495, 7.986583069363924], [-76.60626390790277, 7.990005532100808]]], [[[-76.60136273575507, 8.025501929879477], [-76.60467293749248, 8.024931992861891], [-76.60822015515782, 8.027102518389858], [-76.60882204968003, 8.030309299799658], [-76.60682389882322, 8.03330326177714], [-76.6035040861775, 8.033938835724198], [-76.59988445399394, 8.031803110596256], [-76.59923640334915, 8.028604426153596], [-76.60136273575507, 8.025501929879477]]], [[[-76.61286875617688, 8.001908296371198], [-76.61641925795227, 8.004606241259472], [-76.61562296391924, 8.009426226083534], [-76.60624672304533, 8.01387046941832], [-76.6026234792348, 8.012924609741155], [-76.60093314665596, 8.008438390480244], [-76.60206433670199, 8.005278972095205], [-76.61286875617688, 8.001908296371198]]], [[[-76.63187323386731, 7.927818669324483], [-76.62888666462268, 7.934355378998919], [-76.62190601733874, 7.936809989069628], [-76.61817684698923, 7.934592194058061], [-76.6176663340026, 7.926822895490876], [-76.62473469777795, 7.922002482746238], [-76.6276457786382, 7.921167523371927], [-76.63112185566227, 7.922402217594771], [-76.63257381197229, 7.925011623699254], [-76.63187323386731, 7.927818669324483]]], [[[-76.64826845040068, 7.991955997063842], [-76.65034062731904, 7.995629282350347], [-76.6497551749309, 8.00358757228725], [-76.64767855816734, 8.006254708531921], [-76.6359903747582, 8.005295970874005], [-76.63058983014896, 8.00719905743527], [-76.62514576212394, 8.003938071458936], [-76.62368459339521, 7.996274223871518], [-76.6338780627035, 7.982627421237105], [-76.6406571276633, 7.983027024385085], [-76.64459103280284, 7.990285920513268], [-76.64826845040068, 7.991955997063842]]], [[[-76.67080775189179, 7.870250267279608], [-76.66962241641637, 7.874129406523605], [-76.67247352480979, 7.88081697509659], [-76.67017530432386, 7.883929425879008], [-76.66658062669892, 7.8840972564985945], [-76.66378668856191, 7.8811655839836465], [-76.664391159809, 7.874331784067012], [-76.65994145672701, 7.870846046358086], [-76.66045539230156, 7.863948936926753], [-76.66630117800159, 7.8577295423684905], [-76.67004366080596, 7.858357069091872], [-76.67432833073647, 7.863816275905865], [-76.67405632562878, 7.867175192970743], [-76.67080775189179, 7.870250267279608]]], [[[-76.6561182829212, 7.872645763281864], [-76.6523817594771, 7.884546567368048], [-76.65516789612424, 7.891664684054857], [-76.65091721867438, 7.898289061891547], [-76.64403200371768, 7.898671421948037], [-76.63605950993704, 7.901924226163238], [-76.62588859578729, 7.898382518209037], [-76.62499213129708, 7.895812982324838], [-76.62618630214352, 7.8920548119964], [-76.63087519137139, 7.889614411335369], [-76.6336408657528, 7.885791861705738], [-76.64053510438565, 7.883563347970032], [-76.64402952320904, 7.876100475226674], [-76.64162951296136, 7.871707261468931], [-76.63571476591315, 7.872343639211619], [-76.6320185269094, 7.870607734669167], [-76.63097696570179, 7.8663135806750795], [-76.63283437032976, 7.862950135111442], [-76.63564493867457, 7.861971849105225], [-76.63915615306549, 7.863279621849215], [-76.64076837620715, 7.86965631695526], [-76.64289380700404, 7.871874461004045], [-76.65041895367908, 7.869824277715288], [-76.6561182829212, 7.872645763281864]]], [[[-76.66526900844617, 7.75546597614289], [-76.66240887786883, 7.767138873662928], [-76.64904990155837, 7.768619123523187], [-76.64128364096565, 7.762145070427247], [-76.63612900290332, 7.76022453401454], [-76.63493115782207, 7.752930299253856], [-76.63666326760517, 7.749950985865408], [-76.64185685240379, 7.748899189814521], [-76.64864777735372, 7.742374851108174], [-76.65149359536541, 7.741482769856791], [-76.65921299295512, 7.743130090131575], [-76.66241382136786, 7.745463821925568], [-76.66629520297825, 7.750663064411912], [-76.66526900844617, 7.75546597614289]]], [[[-76.64958339872157, 7.818718471646946], [-76.65644651113311, 7.821071762974836], [-76.6555002158243, 7.829421873559607], [-76.65169991696752, 7.83092037742166], [-76.64691603383922, 7.828760444228926], [-76.63978382828681, 7.828168095199024], [-76.6381864668881, 7.8239716752985], [-76.63968450647481, 7.82059247126475], [-76.64359956842021, 7.818280597209124], [-76.64958339872157, 7.818718471646946]]], [[[-76.6624959294386, 8.032823537914707], [-76.66325574735473, 8.038734854940614], [-76.65921900674235, 8.041358926260548], [-76.65441393511963, 8.040469083202789], [-76.65006924074, 8.034763238401695], [-76.64165080001666, 8.035341462698497], [-76.63938493518928, 8.031541886717864], [-76.64074437612067, 8.028092489654137], [-76.64461421551447, 8.026415861093541], [-76.65106026944085, 8.029967722582965], [-76.65884153905488, 8.027542034231029], [-76.6624959294386, 8.032823537914707]]], [[[-76.65981965956311, 7.793919901460539], [-76.66442151066106, 7.799589042070657], [-76.66388910159615, 7.804453557681397], [-76.66018837265655, 7.807203429983225], [-76.64989493570731, 7.807534637983415], [-76.64388882728511, 7.8012100342134145], [-76.64508984961832, 7.795037775166195], [-76.642400590914, 7.786762872441338], [-76.64513687123855, 7.7843458503097445], [-76.65389818009581, 7.783739097068105], [-76.65981965956311, 7.793919901460539]]], [[[-76.66618983541639, 8.066158370994154], [-76.66406410124434, 8.072012325623188], [-76.65782676673317, 8.072802440880476], [-76.65406561923497, 8.068664798118178], [-76.65394673937328, 8.060657995203318], [-76.65625531533887, 8.058471909159913], [-76.66162825897153, 8.0577889269045], [-76.66567668630654, 8.062012159999377], [-76.66618983541639, 8.066158370994154]]], [[[-76.6922699104089, 7.675113240478195], [-76.68723632087926, 7.678626005788481], [-76.67906740253153, 7.678628232656143], [-76.66789072365583, 7.672084195490599], [-76.6650794628536, 7.666932957712353], [-76.66712734147484, 7.656824452902901], [-76.67241585344071, 7.651796559106918], [-76.68493473733126, 7.65208926432627], [-76.687693116886, 7.65770237682981], [-76.69523058399136, 7.664343218909389], [-76.69532387770478, 7.669519088486418], [-76.6922699104089, 7.675113240478195]]], [[[-76.69260615387901, 7.7390765384796705], [-76.6941803844403, 7.74384172210757], [-76.69179824056805, 7.747191692938965], [-76.68605121960671, 7.747674573418913], [-76.68233794053894, 7.743493229660578], [-76.68255402413646, 7.739627185226252], [-76.68638497546974, 7.736899003114307], [-76.68932990008666, 7.736776220399394], [-76.69260615387901, 7.7390765384796705]]], [[[-76.73717639930832, 7.749547611174028], [-76.73518312027673, 7.752769597981797], [-76.72919215611749, 7.754642613424052], [-76.72628186965554, 7.753611910976408], [-76.72449137752673, 7.750386462497443], [-76.72630419427797, 7.745446738139049], [-76.73227190541105, 7.742894685115569], [-76.73656970870992, 7.744976922093058], [-76.73717639930832, 7.749547611174028]]], [[[-76.71759186420101, 7.7510074231072155], [-76.71423974597228, 7.755531896350886], [-76.70745755113343, 7.7544101586876835], [-76.70462216295454, 7.7477939488252625], [-76.7056301771212, 7.743876852706043], [-76.70867146391474, 7.7419007871255054], [-76.71212313511833, 7.742541091405971], [-76.71759186420101, 7.7510074231072155]]], [[[-76.72764920142448, 7.9356597402395], [-76.72843900468004, 7.938659202362019], [-76.72684551593146, 7.941320284061798], [-76.71718173203489, 7.943065427266034], [-76.71185394510114, 7.9417418844297165], [-76.70618457451418, 7.936613626586508], [-76.7052918741417, 7.933748550309289], [-76.70918602891085, 7.928673159140099], [-76.71649509051602, 7.926831941447757], [-76.72290465089908, 7.929771766971444], [-76.72764920142448, 7.9356597402395]]], [[[-76.71805250573148, 7.820702097473155], [-76.71642185079993, 7.823907089218406], [-76.7124058143291, 7.82485173711495], [-76.7088553706574, 7.82244102129256], [-76.70804956112892, 7.81779707480001], [-76.71026024133212, 7.81474037789281], [-76.71463225493682, 7.814292291100309], [-76.71776576977649, 7.817587454718743], [-76.71805250573148, 7.820702097473155]]], [[[-76.75109733545932, 7.856843443342762], [-76.7505418875352, 7.863842021766492], [-76.74789513755675, 7.865458872347319], [-76.7449690365406, 7.8647547532282385], [-76.73791442485927, 7.853304119620577], [-76.73061724906596, 7.850610137302158], [-76.73070979581964, 7.843052364475383], [-76.73824671685152, 7.839578931269888], [-76.74165899236546, 7.840097737962479], [-76.74876087176914, 7.849841925790453], [-76.75109733545932, 7.856843443342762]]], [[[-76.74160772666679, 7.907135864546314], [-76.73920715531104, 7.910728691324958], [-76.73640608895232, 7.911709597632568], [-76.73271917855871, 7.9100654116527815], [-76.73162612028709, 7.906702654277351], [-76.73459560708753, 7.901430596868943], [-76.7391408470272, 7.89921894232816], [-76.74319572078656, 7.902608312107699], [-76.74160772666679, 7.907135864546314]]], [[[-76.76346859656836, 7.698602688188271], [-76.76116160591155, 7.701159448712801], [-76.75815169841185, 7.7013232497347115], [-76.75545695257848, 7.698938312696615], [-76.75526459644873, 7.695820306988192], [-76.75734897790083, 7.693492485537266], [-76.76067335871865, 7.693354960945531], [-76.76321334473178, 7.695431849168354], [-76.76346859656836, 7.698602688188271]]], [[[-76.7758410018226, 7.789682683856988], [-76.77285687017397, 7.78549185625865], [-76.76534337016118, 7.783125952898416], [-76.76484072265373, 7.779764016549546], [-76.76739324470805, 7.776504182437195], [-76.77148146422037, 7.776288972644633], [-76.77557616245375, 7.781527335033752], [-76.78351814305832, 7.78473356365151], [-76.78402925968929, 7.7881008748691585], [-76.78153905695962, 7.791299793556218], [-76.77840677091422, 7.791767757256418], [-76.7758410018226, 7.789682683856988]]]]}, "properties": {}}