{"type": "Feature", "geometry": {"type": "MultiPolygon", "coordinates": [[[[73.2643158686266, 49.93445445616579], [73.27196214616652, 49.94174955998697], [73.2890224260858, 49.94679598688178], [73.30752637515218, 49.93842446995555], [73.30960090521826, 49.93492548657877], [73.30579569468628, 49.93008880657612], [73.28886712336478, 49.92723213080871], [73.28432261891484, 49.92277264417832], [73.2749802563382, 49.92100217366286], [73.2713013491173, 49.921409778524755], [73.26410664443043, 49.92561174627275], [73.26180246032585, 49.93084075842819], [73.2643158686266, 49.93445445616579]]], [[[73.23667445465883, 49.857191061388576], [73.23916661550992, 49.85894613817122], [73.24947930542666, 49.86008894166199], [73.25390147753002, 49.86766863909873], [73.2541421108338, 49.87582970634866], [73.25693492049126, 49.878234166888234], [73.26614326749994, 49.877352044316886], [73.27134576810919, 49.87357194394254], [73.28417348880228, 49.87272574521218], [73.28704689706355, 49.86974829982026], [73.28425942821626, 49.85616255770946], [73.27017594593828, 49.84562122276695], [73.25285278003074, 49.84123959354994], [73.2352156593411, 49.842669955422394], [73.23402059161545, 49.84584204463876], [73.23667445465883, 49.857191061388576]]], [[[73.17606428525242, 49.94161355662809], [73.17299066919638, 49.943147000221124], [73.1649542073945, 49.94191803436178], [73.16197364759411, 49.94424753456405], [73.16278033434844, 49.95154194749816], [73.16680051227738, 49.962965376542854], [73.18130153881518, 49.96603775463847], [73.19589886518742, 49.976894433297765], [73.2051492793411, 49.98086532242301], [73.21998166131958, 49.992867142329175], [73.24717783519081, 49.99564832447565], [73.25209950490003, 49.9944906253375], [73.25808374182941, 49.99780377188702], [73.26471559449854, 49.996525295225666], [73.26699812669122, 49.99316068357708], [73.2660581413129, 49.97759493979229], [73.27100220522298, 49.969736371179096], [73.27445444462617, 49.9674476451503], [73.28041711196693, 49.96665324914192], [73.28243122176885, 49.96388605743693], [73.28270241685253, 49.95988872472768], [73.2807733704987, 49.956829993006956], [73.26295017620527, 49.94814065266915], [73.25485529687683, 49.94790921699275], [73.24675380684727, 49.949807019362886], [73.24144878280424, 49.95431780205325], [73.23795934525587, 49.95435321487849], [73.22455302221161, 49.93844720739935], [73.17887300976143, 49.94018464333838], [73.17606428525242, 49.94161355662809]]], [[[73.22194955581003, 49.78793034071946], [73.22278995119191, 49.792967073271036], [73.23373764678809, 49.80065440217105], [73.23637508852069, 49.80694381481892], [73.23907108198227, 49.80877117635528], [73.24508442232793, 49.809037954486286], [73.2497165524423, 49.80239029259621], [73.25978972029094, 49.79899311449761], [73.26188808290912, 49.79632479517201], [73.26064938846622, 49.79243456123205], [73.24627044345667, 49.78257462192971], [73.23796069764924, 49.78640048067518], [73.23360531142632, 49.784109435871514], [73.23068292127019, 49.77965865125909], [73.22545373640685, 49.77925320744953], [73.22276826138439, 49.78152643251511], [73.22194955581003, 49.78793034071946]]], [[[73.1538396408577, 49.87800141751983], [73.15373498186666, 49.88211767160972], [73.14771050439359, 49.88724962163552], [73.14902601436418, 49.89164719814664], [73.16481782214268, 49.899502595666924], [73.17578541013208, 49.901728048634226], [73.18209893674964, 49.90862537067298], [73.189592261768, 49.90880992271187], [73.20357334203975, 49.91577347604102], [73.20685820419824, 49.91524174500885], [73.21168134753749, 49.91031766421713], [73.22506268880889, 49.90495014727185], [73.2284207916809, 49.8980787611948], [73.23280614658788, 49.89830921326078], [73.23548757817886, 49.90288174843578], [73.23538423892165, 49.90588356664285], [73.22910129936031, 49.909292383441986], [73.22268836240485, 49.92020152568794], [73.22327985334559, 49.9249662510773], [73.22765352485438, 49.928206039315015], [73.23488035793422, 49.928543595047415], [73.24033538112351, 49.924814656496174], [73.24742805416221, 49.92483023249414], [73.25640183247397, 49.91730392789206], [73.25611837417925, 49.912186340757586], [73.25827047474567, 49.90799047905067], [73.25903040002926, 49.900634932678756], [73.25805639858416, 49.89707775777853], [73.24994057996373, 49.88830646196189], [73.24367803921102, 49.88694478352804], [73.24051867561191, 49.88181101100567], [73.23545753288555, 49.88027016912986], [73.23129913115177, 49.876616217635714], [73.2232245062103, 49.8761740837074], [73.21568513527127, 49.88024941135129], [73.21111641143803, 49.875636029975645], [73.20695865397782, 49.87383434638987], [73.20310173526305, 49.86365091520985], [73.20567912665031, 49.857811778818444], [73.204760566402, 49.84602012177809], [73.19120033545497, 49.82973846799316], [73.18667069058831, 49.82657005379396], [73.17895506984908, 49.8247357428171], [73.17288041831316, 49.827758589684876], [73.16982765406783, 49.83336614784361], [73.1751274553198, 49.839647664220735], [73.17480613256093, 49.843738514193], [73.17042206679453, 49.84764399286453], [73.15845242893168, 49.8496099293154], [73.15605691836447, 49.85345454132559], [73.15786955609899, 49.85920893886995], [73.16396422536974, 49.864779101747445], [73.16969358484938, 49.86424445434463], [73.17600117779924, 49.860780590157134], [73.1804134364806, 49.86232124720446], [73.18352250178525, 49.87207480419861], [73.18768398651262, 49.8781935435332], [73.18738797242598, 49.88167343399377], [73.18462522766247, 49.88383118918658], [73.1816426552506, 49.88358016577182], [73.17647151300254, 49.87945757794392], [73.17390635186446, 49.873468021632014], [73.16509952259202, 49.87251070945327], [73.16220419125392, 49.87011147024994], [73.15561098891045, 49.87152246605233], [73.15350507304039, 49.87470142701099], [73.1538396408577, 49.87800141751983]]], [[[73.18131297488611, 49.716426071759756], [73.17262694417862, 49.73103236345777], [73.17313267935748, 49.73525100052569], [73.19149941610365, 49.74580812684914], [73.20512944349004, 49.74527523856377], [73.20835236886084, 49.741542725416856], [73.20469424243247, 49.731390015779006], [73.20578135160878, 49.72780186068405], [73.24591019323698, 49.71473044645468], [73.25023566785028, 49.701581172621076], [73.24857953398474, 49.699029227526246], [73.2456068709523, 49.69838232904676], [73.21064095223694, 49.70915885767752], [73.20393574903741, 49.703761883953405], [73.1983112517113, 49.70350265864333], [73.18641103413142, 49.70769641829137], [73.18279277316587, 49.711330580618935], [73.18131297488611, 49.716426071759756]]], [[[73.19709382025334, 49.618158675892076], [73.1966527494077, 49.62472288845875], [73.19830689931574, 49.62743338438381], [73.2102428040161, 49.626935398816734], [73.21480206627153, 49.6137033152874], [73.22300290965765, 49.60421504394274], [73.22831572717018, 49.59512097205614], [73.2277760974372, 49.590715231066746], [73.22118151348826, 49.588707870481045], [73.21499311068094, 49.590166019629805], [73.21131361260717, 49.59315203018682], [73.20901281952082, 49.59865948468232], [73.20444118962537, 49.600983344025906], [73.20216399860199, 49.604285290756394], [73.19709382025334, 49.618158675892076]]], [[[73.2027246643847, 50.01342817892357], [73.19783424241099, 50.01774540567356], [73.19610145641408, 50.025448648031066], [73.19858645308429, 50.02837532990564], [73.20662538633563, 50.029420974282175], [73.21525879249155, 50.02138959410428], [73.21947236890412, 50.01177476947178], [73.21688113605305, 50.00834841516587], [73.2075555987065, 50.00731558146433], [73.20474905168545, 50.008724977465114], [73.2027246643847, 50.01342817892357]]], [[[73.19593251561935, 49.67529879488754], [73.19278088806583, 49.67201766625871], [73.17452933163922, 49.67110701200785], [73.17189728734724, 49.67364181072868], [73.17071290043212, 49.68261959686781], [73.17377498288877, 49.68540993078297], [73.19175454940526, 49.68625660572093], [73.19435505841012, 49.68387106028509], [73.19593251561935, 49.67529879488754]]], [[[72.93696993175143, 49.773264366042355], [72.94512046896259, 49.7829123287159], [72.96379561954868, 49.79072129306325], [72.96799430324664, 49.79602355131072], [72.97480732092541, 49.79830352617334], [72.98011507834148, 49.79740236101605], [72.98962142932922, 49.799376977618614], [72.9973511981629, 49.788170433966876], [73.00204057996996, 49.787473068256986], [73.00428801049637, 49.79129437909855], [73.00195155365043, 49.800305103933795], [73.00286397974173, 49.80325863163061], [73.0184862143895, 49.80923092996795], [73.02522164347357, 49.815331240298505], [73.03589319851963, 49.82154751519294], [73.03775449014901, 49.825084576591706], [73.03771598208863, 49.83095257197864], [73.0405122078159, 49.83455085750027], [73.04700491617128, 49.83386341349279], [73.05247517929571, 49.829164739371166], [73.06063886378308, 49.831149285767694], [73.0658643872118, 49.82917997690078], [73.07032707790874, 49.83035326563567], [73.07297828551538, 49.83392051650573], [73.07311823484875, 49.83936498859755], [73.07791351971154, 49.850621487238705], [73.07196113262539, 49.860020935595806], [73.07237930805188, 49.86810131180722], [73.06940847848385, 49.87106647511962], [73.0596193045946, 49.8668603741013], [73.05098753557495, 49.86776671462722], [73.04863708603399, 49.86462671835501], [73.04844848686443, 49.8593352502456], [73.04472610890598, 49.85547214049114], [73.01749472138204, 49.849221745162794], [73.0115114199289, 49.84269217577395], [73.00797617459969, 49.841297055389816], [72.9947229637648, 49.845798761642996], [72.98389175731546, 49.84254093349568], [72.9808026155532, 49.84493721124362], [72.98015456144928, 49.84790876938063], [72.99469164993008, 49.86505503569003], [72.98612571885592, 49.87889768012351], [72.98775740762679, 49.885001469883214], [73.00593780986443, 49.88463544092988], [73.01047280060826, 49.872021527243156], [73.01316033732125, 49.86981360400718], [73.03386256153381, 49.87467733525797], [73.03720675928514, 49.88142152364364], [73.0343674178116, 49.8905543413991], [73.03619548550924, 49.892917447127736], [73.04316840014502, 49.89608987293241], [73.044473579395, 49.900837256851986], [73.04227659226085, 49.90675426232425], [73.04588752682331, 49.915485867699914], [73.05243909074497, 49.920880534954115], [73.06356178284743, 49.92369441377887], [73.06710595880983, 49.92731002921416], [73.07261708973222, 49.92913793319422], [73.07894158747693, 49.92891768829337], [73.08236478889957, 49.93260907622848], [73.08750104192231, 49.934959300514066], [73.11061723837639, 49.918986735410584], [73.11835797218728, 49.9122948670267], [73.11942520525974, 49.90955619415201], [73.11862324486664, 49.90598894565128], [73.10949050967254, 49.89331784820161], [73.10547142496698, 49.89063542357985], [73.10119013779223, 49.88296759788891], [73.09522790684903, 49.88037161754617], [73.09069336337511, 49.8731755455172], [73.08439364160677, 49.86900806729837], [73.08376835031473, 49.86303848152168], [73.08853325338234, 49.85903462437909], [73.09319413791856, 49.84925283754874], [73.09138018495047, 49.84450114597025], [73.08649993470263, 49.83867738120065], [73.0876459261953, 49.83253647187824], [73.09051072849988, 49.83082155724629], [73.09715835620003, 49.831303854295086], [73.10287834921365, 49.83491651575488], [73.11310313618546, 49.83574969331822], [73.11672769325016, 49.8388636674351], [73.11785835559601, 49.84469654163956], [73.11433225882352, 49.8509037611426], [73.10959678174513, 49.8534416723166], [73.10331600755845, 49.85426626199724], [73.10143053039215, 49.86012075019037], [73.09809765801118, 49.86362114080533], [73.09789933575598, 49.866589470801806], [73.10138039593566, 49.87350427095392], [73.10486192336275, 49.87509017916223], [73.11564016572103, 49.87305194814644], [73.1253472718213, 49.87719214978809], [73.1287928985159, 49.87684789778218], [73.131961412231, 49.87161833513055], [73.12704597406811, 49.863784392937525], [73.12635160565401, 49.85508907522527], [73.12817015252416, 49.851082811390114], [73.13078224026131, 49.84936065041512], [73.13801991462317, 49.85025388551838], [73.14087466529271, 49.84904639443533], [73.14467358819404, 49.839667616223124], [73.14457439494373, 49.83234477269618], [73.1526989981464, 49.826329621574594], [73.15770624962728, 49.82562912956227], [73.16049665826198, 49.82328516354345], [73.15918971861416, 49.81642201468916], [73.16083866093412, 49.80967671875574], [73.1692036870595, 49.805143054708786], [73.17213634576912, 49.79935435784426], [73.17808726052006, 49.797000456433416], [73.17966941325874, 49.78692307084854], [73.18920609322282, 49.785376504890365], [73.19162073187037, 49.78171263932827], [73.18975625167661, 49.771712203274795], [73.18607557333674, 49.76782022572139], [73.18454963495846, 49.76160347277437], [73.179741218925, 49.760701929033374], [73.1754835678009, 49.763834592480855], [73.16947678277891, 49.764685953063115], [73.16636437283464, 49.76140501383547], [73.16607470763148, 49.7548076901335], [73.1594227318367, 49.75091480465097], [73.15282964817172, 49.75380111837549], [73.14535374480336, 49.75350562813004], [73.13003133719305, 49.76459897021533], [73.12261918407756, 49.763423601494445], [73.11551434712844, 49.76506431209201], [73.10941129975828, 49.77004885646067], [73.08927562343182, 49.76433392660479], [73.0819034755165, 49.769231062840596], [73.07915756183198, 49.77354011121654], [73.07362036517922, 49.77601395448455], [73.06435181403116, 49.77023829833497], [73.05434210994936, 49.77545610295742], [73.04881876211095, 49.77369468862889], [73.0375641597321, 49.77367008916993], [73.0241454502192, 49.768283548896086], [73.02109685510746, 49.76490909916805], [73.01770695986576, 49.76376499940215], [73.01324672736138, 49.76684562920111], [73.01168476144336, 49.773284045721425], [73.00444101086231, 49.776309288240306], [73.00152811620504, 49.78108447892622], [72.99833668832781, 49.782257945144785], [72.98193795778165, 49.777226282139004], [72.98050755087705, 49.77491618802649], [72.98064427210088, 49.76979216016617], [72.97863818408626, 49.76748503747191], [72.9550684150592, 49.76182087260035], [72.9378317953882, 49.76718601677292], [72.9359874674284, 49.770000019089025], [72.93696993175143, 49.773264366042355]], [[73.13175166950715, 49.79897086103384], [73.13167906131491, 49.79601836195605], [73.13384121669966, 49.7933557533271], [73.13731349736456, 49.79295351055649], [73.13970767204718, 49.794917701431665], [73.13998221560442, 49.798002299305004], [73.13752675121623, 49.80173495373354], [73.13406308343777, 49.80179914100225], [73.13175166950715, 49.79897086103384]], [[73.13534109086406, 49.83342263046526], [73.13246055654464, 49.83251078735527], [73.1310186533523, 49.82945782870792], [73.13214424243567, 49.82665390555669], [73.13495442656567, 49.82540730034727], [73.13777383459032, 49.82645577698009], [73.13908049632094, 49.829203137920715], [73.13810297436184, 49.832057583991336], [73.13534109086406, 49.83342263046526]]], [[[73.0045123538119, 49.68297014590802], [73.01392514921726, 49.703051375737964], [73.01973940947374, 49.70719944963538], [73.01968726511396, 49.713254631412674], [73.02356401196838, 49.72066950525415], [73.02902807554726, 49.72283741521795], [73.03671481618522, 49.72178754872622], [73.0420827446306, 49.72503771161377], [73.05466736142257, 49.723915616701426], [73.06278122792446, 49.73157777263159], [73.06339352209068, 49.73455786090385], [73.06156564985064, 49.73727827782834], [73.05404944380858, 49.737200668533404], [73.04959701926623, 49.74162488739005], [73.05349577824678, 49.75465491416986], [73.05771130736744, 49.75549664819968], [73.07256338382524, 49.75071851231395], [73.08580475400979, 49.74898506161694], [73.1000142619782, 49.75102640400479], [73.10693339973396, 49.74708929666758], [73.10904667309752, 49.740652628399616], [73.10787424116396, 49.737460975524414], [73.08871649008199, 49.72865714665114], [73.07550314375301, 49.72699171030109], [73.06770214535038, 49.72027508630953], [73.06869360888693, 49.71257635291885], [73.06672882591971, 49.70958561462754], [73.06314723987086, 49.708092440959426], [73.04410116439281, 49.70918071937216], [73.03866219172474, 49.699858706258475], [73.01222782676413, 49.68027615225587], [73.00679313684802, 49.67388544244513], [73.00291313034364, 49.674670994846934], [73.00107694223198, 49.677112712145515], [73.00150196280211, 49.6801380927265], [73.0045123538119, 49.68297014590802]]], [[[72.9392944968113, 49.99234532418728], [72.93783098207493, 49.99597999049951], [72.94052812768119, 50.00392317527065], [72.9568236435438, 50.00861707250322], [72.96081839703533, 50.006906729132155], [72.96187085264668, 49.996403315939546], [72.96016411259349, 49.993447808431974], [72.94999763117981, 49.989538593111114], [72.9392944968113, 49.99234532418728]]], [[[72.8786660991086, 49.74627721190168], [72.87400371951762, 49.74959428829412], [72.87360948241059, 49.75349693961598], [72.88564938902677, 49.76278663554331], [72.88903883436357, 49.76318312430672], [72.8983643460904, 49.758592877769736], [72.89851548376129, 49.75455007957849], [72.89340169612387, 49.74905946898771], [72.8786660991086, 49.74627721190168]]]]}, "properties": {}}