{"type": "Feature", "properties": {"city": "Tanta", "country": "Egypt", "real_area": 316.49}, "geometry": {"type": "MultiLineString", "coordinates": [[[31.3229715860642, 29.9871018874101], [31.3204298879147, 29.9823889846222], [31.323842188494, 29.9780969428471], [31.329795893053, 29.978517642513], [31.3323378279914, 29.9832303162627], [31.3289258216366, 29.9875225193854], [31.3229715860642, 29.9871018874101]], [[31.376394589045, 30.0860458230946], [31.3738485860593, 30.0813353830886], [31.3772612182441, 30.0770421673723], [31.3832195576343, 30.0774592312269], [31.3857657967949, 30.0821694422002], [31.3823534604452, 30.0864628183523], [31.376394589045, 30.0860458230946]], [[31.6257431528068, 30.1123203876672], [31.6231877432374, 30.1076173423384], [31.626587584698, 30.1033197513701], [31.6325425349151, 30.1037250474296], [31.6350981757996, 30.1084278618943], [31.6316986352067, 30.112725611164], [31.6257431528068, 30.1123203876672]], [[31.0089038013911, 29.9781409663171], [31.0063735040265, 29.9734191469941], [31.0098025143728, 29.9691326809599], [31.015761534168, 29.9695678703807], [31.0182920745103, 29.9742894631426], [31.0148633521346, 29.9785760930458], [31.0089038013911, 29.9781409663171]], [[31.6456302657329, 31.4349585528283], [31.6421873574946, 31.4392574531098], [31.636155086619, 31.438869335891], [31.633566270066, 31.4341822451263], [31.6370094872112, 31.4298834967149], [31.6344208673011, 31.4251963081836], [31.637863735121, 31.4208975353168], [31.643894914038, 31.4212857990769], [31.6464837710094, 31.4259727624269], [31.6525150746168, 31.4263605514737], [31.6551043651984, 31.4310471918791], [31.6516621153213, 31.4353462684624], [31.6456302657329, 31.4349585528283]], [[31.6921711914654, 30.1711620288385], [31.6896120153193, 30.1664614886254], [31.6930101250877, 30.1621626193936], [31.698967108553, 30.1625641329012], [31.7015265149457, 30.1672644419949], [31.6981287076812, 30.1715634687007], [31.6921711914654, 30.1711620288385]], [[31.2336474029543, 29.9807590748296], [31.2311090247128, 29.9760435869901], [31.2345259702112, 29.9717531262882], [31.240481001575, 29.9721779913385], [31.243019618351, 29.9768932508222], [31.2396029652834, 29.9811838736121], [31.2336474029543, 29.9807590748296]], [[31.6955260375327, 30.1351640362521], [31.6929676304202, 30.1304632311112], [31.6963643790031, 30.1261643917669], [31.7023192323934, 30.1265661999408], [31.7048778695258, 30.1312667737793], [31.7014814233027, 30.1355657707467], [31.6955260375327, 30.1351640362521]], [[31.4896364794751, 30.0304910866634], [31.4870878461338, 30.0257833388713], [31.490492474884, 30.0214882934852], [31.4964454392913, 30.0219008360906], [31.4989943062998, 30.0266083537208], [31.4955899752884, 30.0309035589082], [31.4896364794751, 30.0304910866634]], [[31.091579277055, 29.9614730329903], [31.08904642643, 29.9567533718458], [31.0924704294136, 29.9524654700728], [31.0984269935596, 29.952897066142], [31.1009600854478, 29.9576164999861], [31.0975363719814, 29.9619045650625], [31.091579277055, 29.9614730329903]], [[31.6800018744332, 31.3603207127918], [31.6774134882404, 31.355633844584], [31.6808516313491, 31.3513342312627], [31.6868778513978, 31.35172133427], [31.68946647345, 31.3564079766666], [31.6860286396508, 31.3607077418678], [31.6800018744332, 31.3603207127918]], [[31.1788174047862, 30.0811344123942], [31.1762785310116, 30.0764183296059], [31.1797017445092, 30.0721286036528], [31.185663539925, 30.07255479846], [31.1882026537843, 30.0772706537619], [31.1847797321979, 30.0815605417438], [31.1788174047862, 30.0811344123942]], [[31.4624153499879, 30.0331330564134], [31.4590088051516, 30.0374276462424], [31.4530542221484, 30.037013576209], [31.450506715522, 30.0323048465627], [31.4539135574184, 30.0280104167967], [31.4598676089359, 30.0284245566145], [31.4632738123586, 30.0241299746921], [31.4692274596669, 30.0245437325623], [31.4717754349405, 30.0292520024237], [31.4777292091748, 30.0296653084274], [31.480277608645, 30.0343732862915], [31.4768719998604, 30.0386681881343], [31.470917694134, 30.038254952199], [31.468369528739, 30.0335467443531], [31.4624153499879, 30.0331330564134]], [[30.9619471116358, 29.9973902946457], [30.9594180322165, 29.9926673439065], [30.962850204076, 29.9883816773289], [30.9688111682657, 29.9888187973506], [30.9713404916818, 29.993541521992], [30.9679086069661, 29.9978273527105], [30.9619471116358, 29.9973902946457]], [[31.4741542548272, 30.2559529472457], [31.4767080787417, 30.2606587785635], [31.4732948565516, 30.2649541228583], [31.4673275117486, 30.2645434770002], [31.4647739230017, 30.2598374167106], [31.4681874438353, 30.2555422312503], [31.4656340460112, 30.2508361032995], [31.4690472240144, 30.246540920361], [31.4750135012881, 30.2469517065024], [31.4775671342219, 30.2516576054357], [31.4741542548272, 30.2559529472457]], [[31.3994588425331, 30.0332744331652], [31.3969133155663, 30.028564140512], [31.4003229610704, 30.0242706499546], [31.4062778376079, 30.0246872915404], [31.4088236000512, 30.0293973547509], [31.4054142505352, 30.0336910058189], [31.3994588425331, 30.0332744331652]], [[31.0900169251178, 30.8862348651262], [31.0874614599515, 30.8815249152437], [31.081451155474, 30.8811037126533], [31.0788961263471, 30.8763934583618], [31.0823511558609, 30.872104629923], [31.0883609200675, 30.8725258968476], [31.090916194975, 30.8772359278755], [31.0969261005286, 30.8776567315535], [31.0994818113272, 30.8823664581266], [31.0960273709961, 30.8866556043323], [31.0900169251178, 30.8862348651262]], [[31.4870675875992, 30.0574991410464], [31.4845183833906, 30.0527915803516], [31.4879240358723, 30.0484965108941], [31.4938785947742, 30.0489088424427], [31.4964280328224, 30.0536161731128], [31.4930226781838, 30.0579114022595], [31.4870675875992, 30.0574991410464]], [[31.0652228106445, 30.8618397323019], [31.0617671927558, 30.8661282426068], [31.0557573140597, 30.8657056506299], [31.0532035934175, 30.8609944844283], [31.0566595051905, 30.8567061333279], [31.0626688437775, 30.8571287892257], [31.0661241115618, 30.8528402624006], [31.0721330522159, 30.8532625195041], [31.0746872650986, 30.8579732393627], [31.0712322913677, 30.8622619253364], [31.0652228106445, 30.8618397323019]], [[31.7494792016255, 30.3289262135095], [31.7469141352123, 30.3242289657389], [31.7503142468301, 30.3199287713736], [31.7562791203729, 30.3203256685424], [31.7588444165812, 30.325022685445], [31.7554446095066, 30.3293230360472], [31.7494792016255, 30.3289262135095]], [[31.0094709364878, 30.0326242862157], [31.0120027822206, 30.0373454672289], [31.0085716462526, 30.0416321237267], [31.0026083763027, 30.0411974356016], [31.0000767739662, 30.036476028348], [31.0035081981284, 30.0321895354588], [31.000976782292, 30.0274680686739], [31.0044078614236, 30.023181578931], [31.001876632062, 30.0184600528361], [31.0053073662296, 30.0141735664695], [31.0112690416833, 30.0146084425158], [31.0138005143215, 30.0193297422786], [31.0103700682842, 30.0236163923282], [31.0129017274571, 30.0283376328269], [31.0094709364878, 30.0326242862157]], [[31.089796501473, 29.9794880010766], [31.0872632769511, 29.9747684566203], [31.0906879677551, 29.9704805434753], [31.0966455935537, 29.970912011559], [31.0991790594573, 29.9756313288065], [31.0957546582353, 29.9799194051802], [31.089796501473, 29.9794880010766]], [[31.3542348021641, 30.0980898801727], [31.3567805216656, 30.1028007149659], [31.3533659279338, 30.1070936313301], [31.3474053192636, 30.1066755523345], [31.3439900873337, 30.1109683130459], [31.3465357594354, 30.115679313281], [31.3431201846234, 30.1199720786761], [31.3456660461975, 30.1246830154172], [31.342250128437, 30.1289757852664], [31.3362880537602, 30.1285574578266], [31.3337424293536, 30.1238462925528], [31.3371586424014, 30.1195536832509], [31.334613207409, 30.1148424544373], [31.3286517966275, 30.1144236064374], [31.3261067882785, 30.1097120857715], [31.3201455091959, 30.109292785324], [31.3176009275519, 30.104580973026], [31.3116397804265, 30.1041612202584], [31.3090956255492, 30.0994491165484], [31.3125123801949, 30.0951569940486], [31.3099684144523, 30.0904448275451], [31.3040079317025, 30.0900245551425], [31.3014643927036, 30.0853120976225], [31.2955040423767, 30.0848913732926], [31.2920866989941, 30.0891831737878], [31.2946300001537, 30.0938958596607], [31.2912123136197, 30.0981876648331], [31.2852510317642, 30.0977666230275], [31.2827079686484, 30.0930537088927], [31.2767468198336, 30.0926322151392], [31.2742041838145, 30.0879190102988], [31.2776224583659, 30.0836275274276], [31.2835830750808, 30.0840490882007], [31.2870007125369, 30.079757448847], [31.2929609301829, 30.0801786249765], [31.2963779304805, 30.0758868293881], [31.2938350072267, 30.0711740188497], [31.2972516645055, 30.0668822283977], [31.2947089301656, 30.0621693558581], [31.2981252444918, 30.057877570772], [31.29558269904, 30.0531646364521], [31.29899867048, 30.0488728569615], [31.304956893291, 30.049293850594], [31.3074996763481, 30.0540065563778], [31.3134580313792, 30.0544270986349], [31.3160012408424, 30.059139514103], [31.3219597278355, 30.0595596048572], [31.3253744735609, 30.0552673477656], [31.3228310268424, 30.0505551609697], [31.3262454299149, 30.0462629098209], [31.3237021722598, 30.041550661382], [31.3271162327457, 30.0372584164055], [31.3330732563183, 30.0376782588377], [31.3364866796943, 30.0333858591949], [31.3424433029873, 30.0338053182076], [31.345856089191, 30.0295127641463], [31.351812311938, 30.0299318398964], [31.3543562799594, 30.0346434016363], [31.3509437887038, 30.0389361166172], [31.3449870344241, 30.0385171089379], [31.3415739058338, 30.042809669556], [31.3441178264504, 30.0475213987349], [31.3500751123549, 30.0479403383519], [31.3534879459632, 30.0436476168515], [31.3594448309717, 30.0440661730702], [31.3619894139922, 30.0487773825883], [31.3585768755621, 30.053070264878], [31.3611216479309, 30.0577814124943], [31.3577087671158, 30.0620743010367], [31.3602537288591, 30.0667853865302], [31.3568405055931, 30.071078281096], [31.3593856567368, 30.0757893042458], [31.3653442676685, 30.0762072038875], [31.3678898447642, 30.0809179355754], [31.3644765744575, 30.0852109965195], [31.3585174315238, 30.0847931651905], [31.3559720909536, 30.0800822046053], [31.3500130786918, 30.0796639211367], [31.3465988750111, 30.0839566664203], [31.3491439788516, 30.088667855812], [31.3551035231573, 30.0890860711143], [31.3576490531801, 30.093796968914], [31.3542348021641, 30.0980898801727]], [[31.3151292563639, 30.0681439694544], [31.3125858578697, 30.063431615896], [31.3066269710473, 30.0630111411153], [31.3032109508901, 30.0673030873617], [31.3057541118663, 30.0720156694556], [31.3117135305723, 30.0724360767684], [31.3151292563639, 30.0681439694544]], [[31.3142571181233, 30.0771483681961], [31.3108410494466, 30.0814404808016], [31.3133848260804, 30.0861527098777], [31.3193449088763, 30.0865725978143], [31.3227606829571, 30.0822803242713], [31.3202166688927, 30.07756832373], [31.3142571181233, 30.0771483681961]], [[31.3711916025154, 30.1400665405622], [31.3686444615673, 30.1353564813583], [31.3720591494391, 30.1310632347674], [31.3695121982168, 30.1263531115443], [31.3729265433086, 30.1220598695256], [31.3788875436717, 30.1224765904809], [31.3814347313598, 30.1271864849001], [31.3780206822738, 30.1314798871686], [31.3805680597458, 30.1361897176145], [31.377153667914, 30.140483124418], [31.3711916025154, 30.1400665405622]], [[31.6121583163026, 30.1612150911932], [31.6096021802563, 30.1565121422453], [31.6130043672836, 30.1522146669496], [31.6189623895265, 30.1526199824305], [31.6215187573774, 30.1573227008323], [31.6181168712357, 30.1616203342997], [31.6121583163026, 30.1612150911932]], [[30.8335544029556, 30.8181441104823], [30.8310099167666, 30.8134261169339], [30.8344762715799, 30.8091419262913], [30.8404868235187, 30.809575568035], [30.8430315601703, 30.8142933400384], [30.8395654944766, 30.8185776918444], [30.8335544029556, 30.8181441104823]], [[31.2079571327145, 30.0288031253862], [31.2113770645623, 30.024512945753], [31.2173355449737, 30.0249382482516], [31.2207548412318, 30.0206479120779], [31.2182159493704, 30.0159324354558], [31.2216349023754, 30.0116421049832], [31.2275924548962, 30.0120670891396], [31.2301315857308, 30.0167823376804], [31.2360892728404, 30.0172068714761], [31.2386288307157, 30.021921831512], [31.2352104627081, 30.0262124858801], [31.2377502088804, 30.030927385363], [31.2437085617977, 30.031351402306], [31.2462487350342, 30.0360660128878], [31.2522072220768, 30.0364895790751], [31.2547478223165, 30.041203900535], [31.260706443227, 30.0416270158385], [31.263247470409, 30.0463410479557], [31.2598296382849, 30.050632192988], [31.2623708540431, 30.055346163805], [31.2683301402853, 30.0557687613272], [31.2708717830093, 30.0604824424054], [31.2768312026551, 30.0609045886496], [31.2793732722836, 30.0656179797684], [31.2853328250752, 30.0660396746066], [31.287875321547, 30.0707527755454], [31.2844580272096, 30.0750444099552], [31.2784979425025, 30.0746227821538], [31.275955684103, 30.0699094529068], [31.2699957325926, 30.0694873735614], [31.2674539011821, 30.0647737541797], [31.2614940831263, 30.0643512234182], [31.258952678766, 30.0596373141225], [31.2529929944225, 30.059214332073], [31.2495741826394, 30.063505325934], [31.2521153484317, 30.068219463356], [31.2486961933297, 30.0725104620802], [31.2427355792571, 30.0720871618142], [31.240194652237, 30.0673727963573], [31.2342341724945, 30.0669490447834], [31.2308140878905, 30.0712397249881], [31.2248532108506, 30.0708155884172], [31.2214324899318, 30.075106111422], [31.2154712158628, 30.0746815896979], [31.2129311946932, 30.0699664789338], [31.2069700558301, 30.0695415060106], [31.2035484062247, 30.0738317097418], [31.19758687091, 30.0734063514994], [31.1950475171704, 30.0686907237755], [31.1890861176283, 30.0682649144532], [31.1865471918486, 30.0635489977058], [31.1899694257351, 30.0592591179038], [31.1874306880095, 30.0545431399321], [31.1908525781456, 30.0502532645646], [31.1883140284483, 30.0455372255898], [31.1917355749004, 30.0412473548866], [31.1891972132058, 30.0365312551298], [31.1926184160403, 30.0322413893206], [31.1985776886811, 30.0326674611468], [31.2019982560543, 30.0283774383018], [31.2079571327145, 30.0288031253862]], [[31.3789940182405, 30.0590346861422], [31.3755820707554, 30.0633278897316], [31.3696243932878, 30.0629103052917], [31.3670791951355, 30.058199448787], [31.3704914381912, 30.0539064058009], [31.3679464294715, 30.0491954872192], [31.3713583302425, 30.044902450678], [31.3773149442515, 30.0453201720787], [31.3807262073013, 30.041026981534], [31.3866824195738, 30.0414443198616], [31.3892279003828, 30.0461547801023], [31.3951842422518, 30.046571666737], [31.3985945716583, 30.0422781619076], [31.404550511217, 30.0426946656377], [31.4070966529635, 30.0474046052813], [31.4036866196136, 30.0516982705465], [31.4062329510509, 30.0564081480752], [31.402822575685, 30.060701820095], [31.3968655727364, 30.0602854541869], [31.3943194769494, 30.0555753473529], [31.3883626033892, 30.0551585294871], [31.3849512938874, 30.0594518872164], [31.3789940182405, 30.0590346861422]], [[31.2137087650952, 30.0926923609617], [31.2111683672839, 30.0879773739192], [31.2145900681709, 30.0836870042688], [31.2205518742579, 30.0841114599655], [31.2230925115133, 30.088826219293], [31.2196711032924, 30.0931167506396], [31.2137087650952, 30.0926923609617]], [[31.2409780720812, 30.0900973951015], [31.2384367680145, 30.0853831535334], [31.2418569031436, 30.0810923072648], [31.2478180492039, 30.0815155410719], [31.2503595921603, 30.0862295546966], [31.2469397502214, 30.0905205624583], [31.2409780720812, 30.0900973951015]], [[31.0201098832529, 30.949293643999], [31.01755538379, 30.9445824615884], [31.0210160331048, 30.9402947839598], [31.0270308882986, 30.9407181296564], [31.0295856351041, 30.9454290895856], [31.0261252794294, 30.9497169263007], [31.0201098832529, 30.949293643999]], [[31.3345464156117, 30.1465648280314], [31.3320004122988, 30.1418537904997], [31.3354173115103, 30.1375611729035], [31.3413799187345, 30.1379794323667], [31.3439261593318, 30.1426902414574], [31.3405095554755, 30.1469830195266], [31.3345464156117, 30.1465648280314]], [[31.4545918396223, 30.2093001550978], [31.4520400569191, 30.2045931674947], [31.4554524606123, 30.2002983152555], [31.4614163489879, 30.2007102914136], [31.4639683668635, 30.2054170499044], [31.4605562612461, 30.2097120613501], [31.4545918396223, 30.2093001550978]], [[31.7426202439697, 30.3058364435295], [31.7400559872663, 30.3011387530416], [31.7434557213013, 30.2968387230239], [31.74089165778, 30.2921409623301], [31.7442910509491, 30.2878409366638], [31.7502542034569, 30.2882385152493], [31.7528184967523, 30.2929360449806], [31.7494194078207, 30.2972362270892], [31.7519838943547, 30.3019336866604], [31.7485844645937, 30.3062338730833], [31.7426202439697, 30.3058364435295]], [[30.9417416489141, 30.8259046414613], [30.9391930381968, 30.8211897824152], [30.9426538041806, 30.8169035587367], [30.9486628895821, 30.8173320338195], [30.9512117486274, 30.822046670481], [30.9477512739992, 30.8263330544455], [30.9417416489141, 30.8259046414613]], [[31.3051083438311, 29.9858383249672], [31.3025673085519, 29.9811249043639], [31.3059805392835, 29.9768331779014], [31.3119345114827, 29.9772547105468], [31.3144757839002, 29.9819679022479], [31.3110628470348, 29.9862597902065], [31.3051083438311, 29.9858383249672]], [[31.3162182748032, 29.9639577062858], [31.3136773797867, 29.9592443953165], [31.317089290078, 29.9549525309189], [31.323041801479, 29.9553738159759], [31.3255829333135, 29.9600868978605], [31.3315355761213, 29.9605077329326], [31.3340771333741, 29.9652205262097], [31.3306658112012, 29.9695127135452], [31.3247126375638, 29.9690919461803], [31.3221713169835, 29.9643789237735], [31.3162182748032, 29.9639577062858]], [[31.2787492921238, 29.979435575901], [31.2753344959881, 29.9837268321772], [31.2778746301498, 29.9884409988685], [31.2744594914241, 29.9927322622296], [31.2685039252998, 29.9923091971437], [31.2659640290331, 29.9875948018687], [31.2693794609411, 29.9833037002626], [31.2668397530701, 29.9785892452354], [31.2702548423548, 29.9742981507514], [31.2677153228537, 29.9695836361932], [31.2711300695812, 29.9652925490611], [31.2685907384241, 29.960577975193], [31.2720051426605, 29.9562868956423], [31.2779585850264, 29.9567102280934], [31.2804981539031, 29.9614245732405], [31.2770840427489, 29.9657158146583], [31.2796238000281, 29.9704301005414], [31.2855779060906, 29.9708529162411], [31.2881180894309, 29.9755669139184], [31.2847039291307, 29.9798583246171], [31.2787492921238, 29.979435575901]], [[31.3644246325283, 31.0500243479125], [31.3609790788544, 31.0543183543956], [31.3549638384585, 31.0539121116007], [31.3523946938462, 31.0492117936012], [31.3463795867066, 31.0488050833768], [31.343810876287, 31.0441044540267], [31.3472570317351, 31.0398107595197], [31.353271596873, 31.0402175383293], [31.3567171025186, 31.0359236698254], [31.3541483438337, 31.0312231785827], [31.3575935005309, 31.0269292923453], [31.3636071150511, 31.0273357413388], [31.3670516219848, 31.0230416815487], [31.3730648275203, 31.0234477322906], [31.3756340678864, 31.0281477739308], [31.3721898620377, 31.0324419896765], [31.3747592954737, 31.0371419448963], [31.3713147408146, 31.0414361430665], [31.3738843673474, 31.0461360116473], [31.3704394638099, 31.0504301920129], [31.3644246325283, 31.0500243479125]], [[31.0509252418652, 29.9176910992794], [31.0483949063733, 29.9129698999808], [31.0518196661163, 29.9086828287688], [31.057774472936, 29.9091167930187], [31.0611986004023, 29.9048295646091], [31.0671530166461, 29.9052631445562], [31.069683835665, 29.909983889443], [31.0662599968329, 29.9142712816358], [31.0603050502931, 29.9138377651576], [31.0568805790199, 29.9181250002073], [31.0509252418652, 29.9176910992794]], [[31.8006705000337, 31.4312781882007], [31.7980760631137, 31.4265958480668], [31.8015098574597, 31.4222941169781], [31.8075377766381, 31.4226745754607], [31.8101324472667, 31.4273566891914], [31.8066989650652, 31.4316585708433], [31.8006705000337, 31.4312781882007]], [[31.1850045104664, 30.0180925599261], [31.1824669522976, 30.0133760513433], [31.1765084829532, 30.0129490134777], [31.1730870404402, 30.0172385495667], [31.1671281760415, 30.0168111269313], [31.164591285551, 30.0120941029749], [31.168013019384, 30.0078047293225], [31.1739713524422, 30.0082322171907], [31.1773924514044, 30.0039426865297], [31.1833503894487, 30.004369789775], [31.1867708534757, 30.0000801023529], [31.1927283962375, 30.000506821131], [31.1952660061775, 30.005223161804], [31.1918458337979, 30.0095130115526], [31.1943836316382, 30.0142292923284], [31.1909631158399, 30.0185191476602], [31.1850045104664, 30.0180925599261]], [[31.517706826635, 30.0188412895158], [31.5151574929041, 30.0141342324793], [31.5185602050254, 30.0098387337678], [31.5245119527112, 30.0102501324606], [31.5270615194974, 30.0149569590654], [31.523659105597, 30.0192526174097], [31.517706826635, 30.0188412895158]], [[31.2028800666728, 30.0193714882624], [31.2003418413803, 30.0146554954579], [31.203761721916, 30.0103654834752], [31.2097195357584, 30.0107913021562], [31.2122580003733, 30.0155070670164], [31.2088384118781, 30.0197972411408], [31.2028800666728, 30.0193714882624]], [[30.9307062288788, 29.9497166237727], [30.9281794274485, 29.9449923654676], [30.9316117105632, 29.940707368883], [30.9375705089025, 29.9411464659861], [30.9400975547243, 29.945870498244], [30.9366655578699, 29.9501556594471], [30.9307062288788, 29.9497166237727]], [[31.7315823846514, 30.3277340627748], [31.7290179716521, 30.3230362826221], [31.7324190328677, 30.3187363973118], [31.7383842029507, 30.3191341357657], [31.7409488460996, 30.3238316851818], [31.737548089071, 30.3281317268808], [31.7315823846514, 30.3277340627748]], [[31.6385491748005, 30.1675365143325], [31.6359919602267, 30.1628343894221], [31.6393929031361, 30.1585364463292], [31.6453507592368, 30.1589404702199], [31.6479082051151, 30.1636423644078], [31.644507563643, 30.1679404654279], [31.6385491748005, 30.1675365143325]], [[30.965020525807, 30.0565998282739], [30.962489899098, 30.0518775169852], [30.9659238553604, 30.0475916685679], [30.9718881508553, 30.048027967614], [30.9744190217774, 30.0527500530329], [30.9709853530464, 30.0570360652767], [30.965020525807, 30.0565998282739]], [[31.4052334704713, 30.1605674613189], [31.4026846245599, 30.1558585752418], [31.4060981270918, 30.151564688359], [31.4120601787632, 30.1519795277139], [31.4146092606123, 30.1566881848541], [31.4111960549071, 30.160982231577], [31.4052334704713, 30.1605674613189]], [[31.048999539022, 30.8425720097784], [31.0464466342852, 30.8378603797098], [31.0404381206667, 30.8374367348137], [31.0378856521004, 30.8327248017812], [31.0413414506981, 30.8284367367687], [31.0473494245035, 30.8288604453305], [31.0499021394682, 30.8335721552379], [31.0559102558276, 30.833995401468], [31.058463406815, 30.8387068083653], [31.0550081952485, 30.842995192205], [31.048999539022, 30.8425720097784]], [[31.3916749157177, 30.1143059769578], [31.3891276815845, 30.1095962477263], [31.3925404067303, 30.1053027001712], [31.3985000697679, 30.1057187216731], [31.4010475398996, 30.1104282218739], [31.39763511105, 30.1147219296042], [31.3916749157177, 30.1143059769578]], [[31.0238052922696, 30.7320178319763], [31.021256025661, 30.7273042098183], [31.0247092047019, 30.723016475616], [31.0307113579256, 30.7234422034793], [31.0332608707648, 30.7281556021912], [31.0298079842057, 30.732443496487], [31.0238052922696, 30.7320178319763]], [[31.6533986877508, 31.4490183074382], [31.6508090035636, 31.444331863034], [31.6542516026918, 31.4400328109759], [31.6602835767508, 31.4404200516399], [31.6628734977517, 31.4451062708234], [31.6594312079368, 31.4494054745643], [31.6533986877508, 31.4490183074382]], [[31.0213961647798, 30.0334929515788], [31.0188640758546, 30.0287719968984], [31.0222942335644, 30.0244851832576], [31.0282561917292, 30.0249191607987], [31.0307885236425, 30.0296398890537], [31.0273586544576, 30.033926866194], [31.0213961647798, 30.0334929515788]], [[30.9368341221371, 30.7847554433553], [30.9342867036717, 30.7800399697215], [30.9377463580247, 30.7757538411102], [30.9437531398748, 30.7761830256135], [30.9463008065691, 30.7808982767257], [30.9428414432405, 30.7851845658575], [30.9368341221371, 30.7847554433553]], [[31.0093208555638, 30.8760268596659], [31.0067685587872, 30.8713144985376], [31.0007573786764, 30.8708893835205], [30.9982055188356, 30.8661767192662], [31.0016645916926, 30.861889392692], [31.0076752316432, 30.8623145707627], [31.010227338841, 30.8670270123528], [31.016238122722, 30.8674517277781], [31.0187906667077, 30.8721638661958], [31.0153321796595, 30.8764515119], [31.0093208555638, 30.8760268596659]], [[31.2254332240116, 30.1569991436888], [31.2228908389763, 30.152285115162], [31.2263140176356, 30.147994402921], [31.2322792881253, 30.148417557919], [31.2348219126673, 30.1531313589144], [31.2313990272679, 30.1574222324441], [31.2254332240116, 30.1569991436888]], [[31.2536876732741, 30.1136668393778], [31.2562302097889, 30.1183803749043], [31.2528096305842, 30.122671555789], [31.2468462213226, 30.1222490398574], [31.2434250049136, 30.1265400629384], [31.2374611975317, 30.1261171612962], [31.2349191390626, 30.1214031701581], [31.2383406487953, 30.1171123084217], [31.2443039237284, 30.1175352764796], [31.2477247964203, 30.1132442568839], [31.2451826875242, 30.1085304306128], [31.2486032165654, 30.1042394147322], [31.2460612963417, 30.0995255257889], [31.2494814817986, 30.0952345138528], [31.2554432941136, 30.0956572294975], [31.2579854531402, 30.1003708904977], [31.2545655611037, 30.1046620637971], [31.2571079088615, 30.1093756621709], [31.2536876732741, 30.1136668393778]], [[31.0449531674279, 30.792435792897], [31.0424016470286, 30.7877234637352], [31.0458556959727, 30.7834353212531], [31.0518609721219, 30.7838593482952], [31.0544127386145, 30.7885714541021], [31.0509589829206, 30.7928597562229], [31.0449531674279, 30.792435792897]], [[30.9029350137887, 30.8503319161901], [30.9003872098375, 30.8456162477895], [30.9038508947201, 30.8413307524399], [30.9098620929027, 30.8417607650205], [30.9133251358737, 30.837475091449], [30.9193359411998, 30.8379047038955], [30.9218842433926, 30.8426199282681], [30.9184214912992, 30.8469057622559], [30.9124101460792, 30.8464762114535], [30.9089467519039, 30.8507618672748], [30.9029350137887, 30.8503319161901]], [[31.0674733131621, 30.7487044931988], [31.0649220593409, 30.7439922982577], [31.0683734246384, 30.7397037507765], [31.0743757503578, 30.7401272385664], [31.0769272496116, 30.7448392097845], [31.0734761777695, 30.7491279169368], [31.0674733131621, 30.7487044931988]], [[31.0100849129304, 30.5678416430032], [31.0126298533018, 30.5725573619237], [31.0186235095245, 30.5729854159819], [31.0211688841756, 30.5777008377832], [31.0177203569019, 30.5819884295238], [31.0117261635311, 30.5815604385514], [31.0091810346379, 30.5768447927538], [31.0031869843569, 30.5764163436602], [31.0006422898898, 30.5717004007899], [31.0040913997436, 30.5674131309618], [31.001546893712, 30.5626971151429], [31.0049956549678, 30.5584098353598], [31.002451337346, 30.5536937468125], [31.0058997500715, 30.5494064573044], [31.0118921893495, 30.5498350952701], [31.0144367527542, 30.5545509597758], [31.0109886311536, 30.5588384103585], [31.0135333830288, 30.5635542021818], [31.0100849129304, 30.5678416430032]], [[30.9695355823449, 30.0115584608574], [30.9670058866848, 30.0068358532095], [30.9704381164917, 30.0025500189659], [30.9763997546406, 30.002986628359], [30.9789296942135, 30.0077090099079], [30.9848914749248, 30.0081451704983], [30.9874218444863, 30.0128672671183], [30.9839901896224, 30.0171534292948], [30.9780278775721, 30.0167173309296], [30.9754977517795, 30.0119950081638], [30.9695355823449, 30.0115584608574]], [[29.9104338339518, 31.1798474192308], [29.9079148198979, 31.1751083038043], [29.9114425983599, 31.1708426090594], [29.9174891189175, 31.1713158633471], [29.9200084037145, 31.1760547664518], [29.9164808972677, 31.180320627593], [29.9104338339518, 31.1798474192308]], [[31.0124977040389, 29.9421075073471], [31.009968151819, 29.9373854574283], [31.0133957843057, 29.9330990118009], [31.0193526812239, 29.9335344520751], [31.0218824761826, 29.9382562752496], [31.0184551315389, 29.9425428848952], [31.0124977040389, 29.9421075073471]], [[31.3993178496334, 30.1284344516813], [31.3967699997274, 30.1237250790231], [31.4001827710557, 30.119431366144], [31.4061430958178, 30.1198468658789], [31.4086911816338, 30.1245560095075], [31.4052787068325, 30.1288498824314], [31.3993178496334, 30.1284344516813]], [[31.3127326789247, 29.9999778888434], [31.3101910290027, 29.995264817295], [31.3136043081916, 29.9909729219418], [31.3195589432611, 29.9913939367719], [31.3221008302341, 29.9961067794187], [31.3186878451412, 30.0003988361377], [31.3127326789247, 29.9999778888434]], [[31.3824688496019, 31.051241014138], [31.3798987892406, 31.0465414572139], [31.3833430425778, 31.0422471032165], [31.3893570548089, 31.0426521504095], [31.3919273556648, 31.0473514824444], [31.3884834038514, 31.0516459921762], [31.3824688496019, 31.051241014138]], [[31.418187317068, 30.0255197407239], [31.4156413193524, 30.0208099070464], [31.4096868453061, 30.0203936479151], [31.4071412724752, 30.0156835232525], [31.4105499384214, 30.0113898872994], [31.4165038811376, 30.0118062155174], [31.4190496891831, 30.0165161106012], [31.4250037604728, 30.0169319874353], [31.4284114923748, 30.0126380384181], [31.4258654493187, 30.0079283730034], [31.4199119093166, 30.0075124269363], [31.4173662909152, 30.0028024706671], [31.4207739775085, 29.9985086901794], [31.4267269863151, 29.998924705488], [31.4292728396693, 30.0036344320422], [31.4352259766922, 30.004049996116], [31.437772254555, 30.0087594317712], [31.4343651606428, 30.0130535331126], [31.4369116282914, 30.0177629074529], [31.4428654245673, 30.0181779506483], [31.445412316746, 30.0228870336945], [31.4420051779853, 30.0271813033042], [31.4360508503226, 30.0267663296176], [31.4335041928621, 30.0220570168131], [31.4275499932569, 30.0216415914894], [31.4241419197375, 30.0259355483334], [31.418187317068, 30.0255197407239]], [[31.4358356472078, 30.2170647434113], [31.4332843354646, 30.2123572978543], [31.4366980201934, 30.2080627573631], [31.4426627189688, 30.2084755031106], [31.4452142662946, 30.2131827197357], [31.4511790932944, 30.21359501085], [31.4537310666458, 30.2183019320231], [31.450317977617, 30.2225967910589], [31.4443526172333, 30.2221845696953], [31.4418008793173, 30.2174774195459], [31.4358356472078, 30.2170647434113]], [[29.9416850783964, 31.2277031576249], [29.939163708511, 31.2229654732721], [29.9331144755691, 31.2224937881151], [29.9305935582863, 31.217755807736], [29.9341216033733, 31.2134897248501], [29.940170293083, 31.2139614563152], [29.942691480881, 31.2186992243557], [29.9487403502684, 31.2191704938511], [29.9512619905253, 31.2239079658138], [29.9477344910802, 31.2281743806735], [29.9416850783964, 31.2277031576249]], [[31.3737937841638, 30.1130564452872], [31.3712472123145, 30.1083461946885], [31.3746608720449, 30.1040529625024], [31.3721144898429, 30.099342648547], [31.375527806992, 30.0950494216214], [31.3814872104944, 30.0954663482906], [31.3840338289876, 30.1001764333048], [31.3806208077419, 30.1044698205917], [31.3831676159406, 30.1091798422951], [31.3797542521477, 30.1134732348052], [31.3737937841638, 30.1130564452872]], [[31.6801189608292, 31.4552507942808], [31.6766772902503, 31.4595503011063], [31.670644521833, 31.4591640845542], [31.6680539702778, 31.4544782873664], [31.6714959505763, 31.4501789320364], [31.6689055960116, 31.445493036397], [31.6723472271334, 31.4411936564719], [31.6697570695313, 31.436507662598], [31.6731983515448, 31.4322082583062], [31.6706083908774, 31.4275221664149], [31.664577384682, 31.4271352534593], [31.6619878574048, 31.4224488383666], [31.6654290997828, 31.4181495616301], [31.6714595600902, 31.4185365482931], [31.6740493238507, 31.4232227379845], [31.6800799079405, 31.4236092498461], [31.6826701049377, 31.4282951162935], [31.6887008125403, 31.4286811532334], [31.6921407771979, 31.4243813977167], [31.6981710621034, 31.4247670337427], [31.7007619282346, 31.4294523511571], [31.6973222735531, 31.4337522581211], [31.6912914427075, 31.4333666962228], [31.6878511291526, 31.4376664277594], [31.6904419564002, 31.4423518726061], [31.6964733332823, 31.4427373603877], [31.6990645937198, 31.4474224813913], [31.7050960936246, 31.4478074938749], [31.7076877871852, 31.4524922908217], [31.7042477449699, 31.4567923008112], [31.6982156988831, 31.4564073625696], [31.6947749974174, 31.4607071968041], [31.6887425281737, 31.4603218572227], [31.6861513066815, 31.4556366093129], [31.6801189608292, 31.4552507942808]], [[30.9868800715251, 30.7384594825962], [30.9843319808436, 30.7337448904472], [30.9877873770522, 30.7294578391243], [30.9937905722241, 30.7298852196001], [30.9963389099082, 30.7345995886265], [30.9928838054736, 30.7388868003009], [30.9868800715251, 30.7384594825962]], [[31.4598390546181, 30.0601419748488], [31.4572907432959, 30.0554336618963], [31.4606979711573, 30.0511390569419], [31.4666532130706, 30.0515526050456], [31.4692017587873, 30.0562606881979], [31.4657948282509, 30.0605554530472], [31.4598390546181, 30.0601419748488]], [[30.8051167475468, 30.8296929419724], [30.8025730139986, 30.8249742843483], [30.8060412903282, 30.8206906317734], [30.8120530116558, 30.8211254754956], [30.815520647551, 30.8168416433156], [30.8215319793621, 30.8172760862225], [30.8240762148797, 30.8219943012228], [30.8206088677621, 30.8262782946763], [30.8231532912035, 30.830996431325], [30.8196855922896, 30.835280406466], [30.813673181069, 30.8348460837192], [30.81112900857, 30.8301277257578], [30.8051167475468, 30.8296929419724]], [[30.9566769123502, 30.7680390254404], [30.9541291864248, 30.7633239192349], [30.9575872073486, 30.7590374228899], [30.9635926629225, 30.7594658723058], [30.9661406365983, 30.7641807557583], [30.9721462372403, 30.7646087444048], [30.97469464737, 30.7693233273957], [30.9807003928182, 30.7697508551437], [30.9841571889835, 30.7654638624926], [30.981608531459, 30.7607495023939], [30.9850649775331, 30.75646249473], [30.9910697893161, 30.7568896869226], [30.9936186940268, 30.7616038240367], [30.9996236499832, 30.7620305553487], [31.0030791621543, 30.7577432124343], [31.0090837229493, 30.7581695457637], [31.0116333105899, 30.7628831589793], [31.01763801498, 30.7633090313084], [31.0210925926402, 30.7590213535955], [31.0185427583776, 30.7543079635957], [31.0125385930207, 30.7538820280918], [31.0099891945628, 30.7491683372243], [31.0134437148447, 30.7448808051213], [31.0194473412621, 30.74530680381], [31.0229012194767, 30.7410190973927], [31.0289044502189, 30.7414446985608], [31.0314543415905, 30.7461579428124], [31.0280007559231, 30.7504458092511], [31.0305508365994, 30.7551589759427], [31.027096901276, 30.7594468281082], [31.0296471712829, 30.7641599170201], [31.0261928862353, 30.7684477546826], [31.0287433455986, 30.7731607655949], [31.0347483363926, 30.7735857155374], [31.0382023286259, 30.769297718017], [31.0356516229354, 30.7645849304132], [31.0391052654774, 30.7602969183538], [31.0451093207829, 30.7607215340971], [31.0476602725922, 30.7654340983003], [31.0536644703363, 30.7658582528049], [31.056215857621, 30.7705705154338], [31.0527628012464, 30.7748588470061], [31.0467580643467, 30.7744347562377], [31.0433043651291, 30.7787229135245], [31.0372992315263, 30.7782984249679], [31.0338448895337, 30.7825864077196], [31.0278393595043, 30.7821615212176], [31.0243843748044, 30.7864493291847], [31.0269352129577, 30.7911621834386], [31.0329412823163, 30.7915870065102], [31.0354925564138, 30.7962995589348], [31.0414987686893, 30.7967239203446], [31.0440504786704, 30.8014361707199], [31.0405957300691, 30.8057242829033], [31.0431476296577, 30.8104364542724], [31.0396925311257, 30.8147245509619], [31.0422446203477, 30.8194366431051], [31.0387891718169, 30.823724724071], [31.0327813408281, 30.8233005533057], [31.0302294980913, 30.8185882380376], [31.0242218101818, 30.8181636051972], [31.0207654253604, 30.8224513510162], [31.0233170214033, 30.827163889317], [31.0198602863813, 30.8314516190245], [31.0224120719612, 30.8361640777879], [31.0284208393743, 30.8365885838582], [31.0309730613332, 30.8413007399237], [31.0275162691188, 30.845588612861], [31.0215069618129, 30.8451641701606], [31.0180495261849, 30.849451866956], [31.012039822451, 30.8490270251173], [31.0094880943337, 30.8443144232624], [31.0129458228689, 30.8400268860936], [31.010394284253, 30.8353142044358], [31.0043852642188, 30.8348888371433], [31.0009272429784, 30.839176214594], [30.9949178271502, 30.8387504481446], [30.9914591629034, 30.8430376490925], [30.9854493515588, 30.8426114833287], [30.9828987443803, 30.8378980538201], [30.9863577009608, 30.8336110127374], [30.9838072830482, 30.8288975037271], [30.977798156176, 30.8284708131814], [30.9752481751192, 30.8237570022262], [30.9787070732629, 30.8194701044783], [30.9761572813592, 30.8147562144148], [30.9701488390187, 30.8143289994815], [30.9666896489779, 30.8186157371456], [30.9606808121113, 30.8181881230189], [30.9581317049469, 30.8134737088347], [30.9521230134765, 30.813045633111], [30.9495743433486, 30.8083309176428], [30.9435657975366, 30.8079023804512], [30.9410175645053, 30.8031873639194], [30.9350091646139, 30.8027583653892], [30.9315484582752, 30.8070444453629], [30.9340964428929, 30.8117596842785], [30.9306353857558, 30.8160457475799], [30.9246260529937, 30.8156164114959], [30.9220783169983, 30.8109009502891], [30.9160691307908, 30.8104711528493], [30.9135218322462, 30.805755390893], [30.9075127928554, 30.8053251322268], [30.9040505125081, 30.8096106970547], [30.8980410806939, 30.8091800386904], [30.8945781589065, 30.8134654258236], [30.8971249592859, 30.8181816319899], [30.9031349306958, 30.8186122289658], [30.9056821688202, 30.8233281344764], [30.9022191863419, 30.8276136650251], [30.8962086752423, 30.8271831294276], [30.8936616863668, 30.8224670019043], [30.8876513227736, 30.8220360049257], [30.8851047717899, 30.8173195767936], [30.8885683349476, 30.8130343676046], [30.8860219723727, 30.8083178610032], [30.8800122961268, 30.8078863416708], [30.8765484429329, 30.8121713900435], [30.8705383751384, 30.8117394706919], [30.8679927001173, 30.8070224420046], [30.8714568431451, 30.8027375545393], [30.8689113563581, 30.7980204477304], [30.8723751481585, 30.7937355431537], [30.8783841369998, 30.7941675844441], [30.8809298734144, 30.7988844693354], [30.8869390101752, 30.7993160497802], [30.8894851843667, 30.8040326346311], [30.8954944687851, 30.8044637541006], [30.8989570395093, 30.8001783499786], [30.9049659318215, 30.8006090697417], [30.9084278612058, 30.7963234881189], [30.9144363611332, 30.796753808332], [30.9178976491079, 30.7924680494579], [30.9239057563721, 30.7928979702774], [30.9264531150303, 30.7976135882748], [30.9324613687392, 30.7980430480143], [30.9359217243478, 30.7937569515982], [30.9419295847983, 30.7941860121094], [30.9453892986883, 30.789899738996], [30.9513967656025, 30.7903284004355], [30.9548558377048, 30.7860419508742], [30.9608629108049, 30.7864702133986], [30.9643213410502, 30.7821835876389], [30.9703280200585, 30.7826114514052], [30.9737858083779, 30.7783246496963], [30.9712372093105, 30.7736101445411], [30.9652310695322, 30.7731822183397], [30.9626829070058, 30.7684674125491], [30.9566769123502, 30.7680390254404]], [[31.0216704036499, 30.8134509875786], [31.0251264383388, 30.8091632258779], [31.0225752212922, 30.8044505291612], [31.0165682162812, 30.8040253711115], [31.013111888816, 30.8083129730422], [31.0156628590822, 30.8130258927913], [31.0216704036499, 30.8134509875786]], [[31.1378425305814, 30.952996871666], [31.1352836870846, 30.9482890837782], [31.1387380508244, 30.943999214426], [31.1361793982128, 30.9392913434753], [31.1396334118753, 30.935001456363], [31.1456457822008, 30.9354192820233], [31.1482046797363, 30.9401269295278], [31.1542171897246, 30.9405442906379], [31.1567765229812, 30.9452516316337], [31.1627891723683, 30.9456685280667], [31.1653489412841, 30.9503755623351], [31.1713617298059, 30.9507919939642], [31.173921934319, 30.9554987212864], [31.1704691058892, 30.9597892405635], [31.1730295016091, 30.9644958843492], [31.1790429701436, 30.9649117852306], [31.1816038014857, 30.9696181216783], [31.1876174086798, 30.9700335573652], [31.1901786755821, 30.9747395862564], [31.1961924211715, 30.9751545566224], [31.1987541235717, 30.9798602777385], [31.1953018363478, 30.9841512521628], [31.1892875494158, 30.9837363478787], [31.1858346149971, 30.9880271465084], [31.1798199251294, 30.9876118427], [31.1763663435821, 30.9919024652846], [31.1703512510549, 30.9914867617929], [31.1668970224454, 30.9957772080823], [31.160881527535, 30.9953611047484], [31.1583208027571, 30.9906544894878], [31.1523054472478, 30.9902379206624], [31.1497451585642, 30.9855309978085], [31.1531999804642, 30.9812408671325], [31.1506398829185, 30.976533860212], [31.1540943546037, 30.9722437110161], [31.1515344481696, 30.9675366202481], [31.1549885697084, 30.9632464527619], [31.1524288543597, 30.9585392783654], [31.1464152623126, 30.9581220480542], [31.143855982859, 30.9534145668026], [31.1378425305814, 30.952996871666]], [[31.2723663098187, 30.137654774494], [31.2698227292978, 30.1329418845371], [31.273242720937, 30.128650381352], [31.2792059990737, 30.1290716071133], [31.2817498180776, 30.1337842690826], [31.2783301205166, 30.1380759332789], [31.2723663098187, 30.137654774494]], [[31.3712586482752, 31.0731175821357], [31.368688442291, 31.0684179747841], [31.3721340437893, 31.0641238307147], [31.3781495499011, 31.0645291382771], [31.3807199967097, 31.0692285209216], [31.3772746966385, 31.0735228207117], [31.3712586482752, 31.0731175821357]], [[31.1202014907101, 30.8566302388403], [31.1176456701311, 30.8519207973659], [31.1210977716274, 30.8476312523819], [31.1271053986275, 30.8480509901324], [31.1296614640899, 30.8527602079301], [31.1262096577249, 30.8570499116551], [31.1202014907101, 30.8566302388403]], [[30.9449668217818, 29.9870686472858], [30.9424386027512, 29.9823451282469], [30.9364775374131, 29.9819067249538], [30.9339497486649, 29.9771829220992], [30.9373827807719, 29.9728977484933], [30.9348551777927, 29.9681738879554], [30.9288947872236, 29.9677349751127], [30.9263676145002, 29.9630108311577], [30.9204073679759, 29.9625714704381], [30.916973763357, 29.9668563149391], [30.9110131303143, 29.9664165676003], [30.908486632764, 29.9616919146356], [30.9119205233428, 29.9574072348241], [30.9093942113062, 29.9526825247036], [30.9128277566401, 29.9483978489079], [30.9187873281366, 29.9488377185071], [30.9213138849719, 29.9535622027664], [30.9272736007151, 29.954001624759], [30.9298005877795, 29.9587258259999], [30.9357604475138, 29.9591648002542], [30.9391927893858, 29.9548796346866], [30.9451522620587, 29.9553182226298], [30.9476799236017, 29.9600419145808], [30.9536395397006, 29.9604800546613], [30.957070963443, 29.9561945644955], [30.9630301918999, 29.9566323184262], [30.9655585273719, 29.9613555006775], [30.9621273904812, 29.9656411551875], [30.9646559119025, 29.9703642798931], [30.9612244300888, 29.9746499386558], [30.9552641399158, 29.9742123084049], [30.9518320261976, 29.9784978069204], [30.9543604895126, 29.9832210999555], [30.9509280307066, 29.9875066023006], [30.9449668217818, 29.9870686472858]], [[31.1053541007806, 30.9144918600325], [31.1027973827758, 30.9097826832689], [31.1062522282939, 30.9054934124045], [31.103695700774, 30.9007841537098], [31.1071501962173, 30.896494865687], [31.1131609241071, 30.896914677742], [31.1157176970235, 30.9016237130815], [31.1122634967099, 30.9059131597223], [31.1148204601721, 30.9106221131767], [31.1208318692523, 30.9110413965903], [31.1233892685953, 30.9157500445852], [31.1199350136054, 30.9200396325227], [31.1139230638511, 30.9196204139735], [31.111365909817, 30.9149115426236], [31.1053541007806, 30.9144918600325]], [[31.3975875488931, 30.1464404447566], [31.3950393191081, 30.1417312005242], [31.3890775263374, 30.1413154543931], [31.3865297226779, 30.1366059169441], [31.3899434755613, 30.1323123545189], [31.3959047357601, 30.1327281694799], [31.3984527755925, 30.1374374780355], [31.4044141653211, 30.1378528398094], [31.4069626311323, 30.1425618551037], [31.4035494712436, 30.1468557375629], [31.3975875488931, 30.1464404447566]], [[31.2438973118531, 29.9678873755532], [31.2413588832198, 29.9631720568437], [31.2447748507747, 29.9588814482926], [31.2507289544569, 29.9593059963816], [31.2541442868273, 29.9550152331868], [31.2600979934343, 29.9554393981943], [31.2626368984082, 29.9601542598265], [31.2592218587613, 29.9644451850363], [31.2532676213623, 29.9640210865981], [31.249851946368, 29.9683118572194], [31.2438973118531, 29.9678873755532]], [[31.1841994188466, 30.4849949275472], [31.1816504667615, 30.4802831115435], [31.1756651603372, 30.4798615522572], [31.1731166397788, 30.4751494388747], [31.1765531835924, 30.4708591105207], [31.1740048524781, 30.4661469256771], [31.1774410497015, 30.4618565915388], [31.1748929080053, 30.4571443354543], [31.1783287587058, 30.4528539957615], [31.1843124571275, 30.4532757519688], [31.186860840701, 30.4579877822183], [31.1834252840309, 30.4622782820964], [31.1859738570824, 30.4669902411509], [31.1919582285898, 30.4674114744477], [31.1945072329352, 30.4721231362522], [31.20049174136, 30.4725439121603], [31.2030411769381, 30.4772552764949], [31.1996058625038, 30.4815460908026], [31.1936208179736, 30.4811253808106], [31.1901848625535, 30.4854160292968], [31.1841994188466, 30.4849949275472]], [[31.141643015621, 30.0013742255127], [31.1391074089002, 29.9966563399099], [31.1331490924229, 29.9962271180028], [31.1306139137457, 29.9915089456277], [31.1340368108912, 29.9872202226443], [31.1399945962356, 29.9876495092314], [31.1434168591661, 29.9833606290196], [31.1493742507312, 29.9837895309476], [31.1527958793816, 29.9795004937548], [31.1587528768987, 29.9799290111794], [31.1612887767637, 29.9846465008224], [31.1578674389742, 29.988935700711], [31.1604035264012, 29.9936531311587], [31.1663611917196, 29.9940811340037], [31.1688977068404, 29.9987982773656], [31.1654763165911, 30.0030876455527], [31.159518120076, 30.0026597078108], [31.1569818450616, 29.9979423367797], [31.1510237853465, 29.9975139492935], [31.1476014694639, 30.0018029977958], [31.141643015621, 30.0013742255127]]]}}