{"type": "FeatureCollection", "features": [{"type": "Feature", "properties": {"threshold": 70}, "geometry": {"type": "MultiPolygon", "coordinates": [[[[107.1372151977556, -6.818752941605392], [107.14398414805973, -6.817974867728304], [107.14412667343203, -6.824139976021756], [107.13712520584642, -6.82428610134745], [107.1372151977556, -6.818752941605392]]], [[[107.1269712216176, -6.8509512334491935], [107.1299274679619, -6.845399419901336], [107.14018156442722, -6.845803037695452], [107.13561459762548, -6.856903135678236], [107.13066444147765, -6.8560154879792155], [107.1269712216176, -6.8509512334491935]]], [[[107.07735265856321, -6.730190549898862], [107.07836014449762, -6.724134729920071], [107.08369859055715, -6.725060053595898], [107.08277659074469, -6.731229980235046], [107.07735265856321, -6.730190549898862]]], [[[107.06786919321583, -6.874856668275886], [107.06712094516024, -6.87187173919675], [107.07093355012555, -6.8689533265334495], [107.07565979459211, -6.868960314701654], [107.07865017293832, -6.871972156304861], [107.07644860407554, -6.876348791722555], [107.06786919321583, -6.874856668275886]]], [[[107.06412524607966, -6.733699130320217], [107.06541748242243, -6.729848035338614], [107.07140282439248, -6.732140795024754], [107.07129210500356, -6.735263260626109], [107.06826912658494, -6.736461978669415], [107.06412524607966, -6.733699130320217]]], [[[107.02721277595366, -6.720090816773516], [107.02645838985461, -6.715439664876857], [107.03480763630282, -6.7066421113491685], [107.03213724127177, -6.698152272597454], [107.03752573614489, -6.690062816716499], [107.04824296553195, -6.692482470753804], [107.05269764771273, -6.696439297444593], [107.06075784233184, -6.6965951378796404], [107.06535369597279, -6.7002833591958515], [107.06324448705548, -6.704783903821762], [107.06414847768818, -6.710338869841698], [107.06883268374445, -6.715491874994175], [107.06689971363039, -6.720468494461252], [107.06129674581204, -6.721509514580916], [107.05666278567142, -6.719139921974327], [107.03992917523318, -6.72310639725471], [107.04057384617309, -6.725971937077227], [107.04720869356711, -6.729664735334009], [107.0471358942363, -6.736680627417008], [107.04979037396363, -6.7399521941103275], [107.0477128134261, -6.747295554807714], [107.04019393217919, -6.747285197868144], [107.03822533422033, -6.739838214009656], [107.03080519666098, -6.7371647074429], [107.03074215762527, -6.73367827696422], [107.03731632313666, -6.727054351846955], [107.02721277595366, -6.720090816773516]]], [[[107.0545220395693, -6.774130327231463], [107.06107781740693, -6.7723962530123005], [107.0632160634075, -6.777636554519449], [107.05964031793073, -6.779766906906573], [107.05430478315783, -6.777050264027491], [107.0545220395693, -6.774130327231463]]], [[[107.0346067949576, -6.868649265263948], [107.03606633939387, -6.864073004112081], [107.04448919566843, -6.867280793762776], [107.04125471748435, -6.869867924242904], [107.0346067949576, -6.868649265263948]]], [[[106.96223499785438, -6.698177500436991], [106.96247274232559, -6.69124301595077], [106.9694642684935, -6.693110144334825], [106.9675934476313, -6.69926717124173], [106.96223499785438, -6.698177500436991]]], [[[106.91989195184831, -6.912281040207609], [106.92515111753181, -6.907391009282516], [106.92595687661426, -6.9012416118674365], [106.932427649781, -6.901215439226723], [106.93619508621114, -6.905740992744554], [106.93429342609447, -6.920516374892676], [106.93807041028248, -6.933696639482125], [106.93385854804208, -6.937449335484556], [106.93058601137463, -6.93432429047699], [106.92383392145878, -6.93616533915119], [106.92066995334008, -6.933244214810044], [106.92263470833892, -6.921059561003492], [106.91989195184831, -6.912281040207609]]], [[[106.93371003940443, -6.939356244624532], [106.9372796604709, -6.9471092288401515], [106.93214068376248, -6.9486154178095], [106.9297997496773, -6.94348367319805], [106.93371003940443, -6.939356244624532]]], [[[106.90815464056314, -6.953616770427101], [106.91023621467968, -6.948824230394129], [106.9155334890607, -6.949976655402443], [106.91188253160345, -6.956113088829982], [106.90815464056314, -6.953616770427101]]], [[[106.90137072113833, -6.918542660900626], [106.9028219142639, -6.913783234701141], [106.9067102981798, -6.913849740865353], [106.90881295315181, -6.916910610291544], [106.90567676565733, -6.921231475534637], [106.90137072113833, -6.918542660900626]]], [[[106.89234644839978, -6.9630551539424], [106.89351954166807, -6.955597773005464], [106.90051521089744, -6.957464878008608], [106.89863330703503, -6.961122950629155], [106.89234644839978, -6.9630551539424]]], [[[106.88973099182228, -6.908396992393548], [106.88881045336728, -6.903582229958631], [106.89163624556343, -6.901455668538962], [106.89779745576774, -6.903326342803437], [106.89592558613455, -6.909483530046694], [106.88973099182228, -6.908396992393548]]], [[[106.86401803488265, -6.966288848242019], [106.86451611736803, -6.9639670371694935], [106.87090781139194, -6.963081263599962], [106.87398672532159, -6.969102817964083], [106.86712660383412, -6.972182593929415], [106.86401803488265, -6.966288848242019]]], [[[106.82120931255454, -6.698305649570217], [106.82527468628739, -6.688315151450237], [106.83083103863162, -6.689209674358859], [106.83397161618753, -6.692699271741661], [106.84543406888925, -6.693057624348767], [106.8445395727039, -6.698612825587948], [106.84104676256618, -6.699981495136071], [106.83899622890753, -6.705721272290147], [106.82768664160746, -6.706549404602476], [106.82120931255454, -6.698305649570217]]], [[[106.77203583523392, -6.887383126051857], [106.77465813950842, -6.877908220081046], [106.78045975627766, -6.876766004393354], [106.78413269303978, -6.886154951419419], [106.79153180945156, -6.8906507555319525], [106.8032547516711, -6.894447910887912], [106.80717924641084, -6.88832943095973], [106.8164110337944, -6.893663219323884], [106.82986838297496, -6.894955131254054], [106.8303783320584, -6.89838131981803], [106.82618951528171, -6.904067143456336], [106.81843793758856, -6.899877414426631], [106.80849683274378, -6.902429602993481], [106.80375025517893, -6.8979248680679355], [106.79211714792862, -6.900030841417391], [106.78283366768528, -6.89717083126049], [106.77772158411422, -6.90006573676944], [106.77293990560628, -6.897920786831307], [106.77203583523392, -6.887383126051857]]], [[[106.79214774537613, -6.7601002201518146], [106.79426063262265, -6.754473104947769], [106.79961475646274, -6.752748658260544], [106.80170264689536, -6.738616392359308], [106.80874093555641, -6.738134750554818], [106.81845494989895, -6.727620613226249], [106.82367043911837, -6.727704425652122], [106.82643418610576, -6.732385259326261], [106.82290994440517, -6.74720958792481], [106.81033456727846, -6.745113922815882], [106.80228583570056, -6.753961841709189], [106.8012406379878, -6.76317405933528], [106.79380917257745, -6.764187318028595], [106.79214774537613, -6.7601002201518146]]], [[[106.80546892494787, -6.695965316791671], [106.80468820244405, -6.693053194247773], [106.8076265460672, -6.690093797017212], [106.81455208048163, -6.692183765695634], [106.81079205469484, -6.698280903669437], [106.80546892494787, -6.695965316791671]]], [[[106.78979887271365, -6.712166168854954], [106.79259956669208, -6.702680491980612], [106.80289999317228, -6.705482901089885], [106.80276456940507, -6.70812791791471], [106.79775913416786, -6.708852667245192], [106.79509094248401, -6.714133034422112], [106.78979887271365, -6.712166168854954]]], [[[106.79672362234878, -7.02903291579081], [106.79812937151218, -7.025847043101877], [106.80313138659572, -7.026868320683657], [106.80232774080132, -7.034710215461233], [106.79672362234878, -7.02903291579081]]], [[[106.76593234087781, -6.757914438677567], [106.7711310973538, -6.751955115815235], [106.78898420560141, -6.773850011478725], [106.78287162614812, -6.790825271998255], [106.77674268284363, -6.789673872162696], [106.77816009136468, -6.778554299236758], [106.77002022242196, -6.7747021087086665], [106.77178694336139, -6.767865135609978], [106.76593234087781, -6.757914438677567]]], [[[106.76265991713365, -6.867645532957936], [106.76199335707184, -6.858928286856515], [106.76894508772985, -6.856895670522846], [106.7709881630556, -6.866342827527936], [106.76875821587475, -6.868440169872505], [106.76265991713365, -6.867645532957936]]]]}}, {"type": "Feature", "properties": {"threshold": 80}, "geometry": {"type": "MultiPolygon", "coordinates": [[[[107.1372151977556, -6.818752941605392], [107.14398414805973, -6.817974867728304], [107.14412667343203, -6.824139976021756], [107.13712520584642, -6.82428610134745], [107.1372151977556, -6.818752941605392]]], [[[107.1269712216176, -6.8509512334491935], [107.1299274679619, -6.845399419901336], [107.14018156442722, -6.845803037695452], [107.13562573105182, -6.859401940670752], [107.1288824451738, -6.858419046319182], [107.1269712216176, -6.8509512334491935]]], [[[107.11824800391997, -6.9148208701184695], [107.12180852945639, -6.910440887241981], [107.1262679547205, -6.910761712113262], [107.12426229373085, -6.927754818251368], [107.11984104683015, -6.9273254018412675], [107.11824800391997, -6.9148208701184695]]], [[[107.10863771494147, -6.8350105627409485], [107.10782961458995, -6.832475029894669], [107.11125606577329, -6.831293939146511], [107.11989447521391, -6.8355734561627335], [107.12017721407584, -6.838953570034019], [107.10863771494147, -6.8350105627409485]]], [[[107.07735265856321, -6.730190549898862], [107.07836014449762, -6.724134729920071], [107.08369859055715, -6.725060053595898], [107.08277659074469, -6.731229980235046], [107.07735265856321, -6.730190549898862]]], [[[107.06786919321583, -6.874856668275886], [107.06708641908673, -6.871945518158418], [107.07085333324596, -6.868148127684397], [107.07944497954963, -6.869393076548574], [107.07652521730962, -6.876321019957434], [107.06786919321583, -6.874856668275886]]], [[[107.06394092701001, -6.7357642126296575], [107.06505350036329, -6.730022021737086], [107.0703885031769, -6.7301145039443915], [107.07112925622387, -6.7354444208421285], [107.06394092701001, -6.7357642126296575]]], [[[107.02721277595366, -6.720090816773516], [107.02645838985461, -6.715439664876857], [107.03480763630282, -6.7066421113491685], [107.03213724127177, -6.698152272597454], [107.03752573614489, -6.690062816716499], [107.04907265503984, -6.6916460112690155], [107.05269764771273, -6.696439297444593], [107.06534318091649, -6.697784424863135], [107.0638396104446, -6.70937509420748], [107.06881255440872, -6.715412951024201], [107.06695984845094, -6.7204135418529924], [107.06129674581204, -6.721509514580916], [107.0564187675403, -6.719164984623042], [107.03984442176665, -6.723332450272049], [107.04720869356711, -6.729664735334009], [107.0471358942363, -6.736680627417008], [107.04979037396363, -6.7399521941103275], [107.0477128134261, -6.747295554807714], [107.04019393217919, -6.747285197868144], [107.03822533422033, -6.739838214009656], [107.03080519666098, -6.7371647074429], [107.03074215762527, -6.73367827696422], [107.03731632313666, -6.727054351846955], [107.02721277595366, -6.720090816773516]]], [[[107.0545220395693, -6.774130327231463], [107.06107781740693, -6.7723962530123005], [107.0632160634075, -6.777636554519449], [107.05964031793073, -6.779766906906573], [107.05430478315783, -6.777050264027491], [107.0545220395693, -6.774130327231463]]], [[[107.0219790073897, -6.864186955978114], [107.02862332345842, -6.8631026121756324], [107.02773479314989, -6.869490599122018], [107.02384284700011, -6.872428871798712], [107.0219790073897, -6.864186955978114]]], [[[107.03362271614651, -6.866991878470514], [107.03872952690226, -6.864061687596733], [107.04449344850079, -6.8682764800857665], [107.03942497423138, -6.869875716948019], [107.03362271614651, -6.866991878470514]]], [[[106.96223499785438, -6.698177500436991], [106.96247274232559, -6.69124301595077], [106.9694642684935, -6.693110144334825], [106.9675934476313, -6.69926717124173], [106.96223499785438, -6.698177500436991]]], [[[106.91989195184831, -6.912281040207609], [106.92526198475103, -6.907163088279045], [106.92573485229681, -6.898035511762001], [106.93773736330681, -6.897268929831182], [106.93429342609447, -6.920516374892676], [106.93807041028248, -6.933696639482125], [106.93385854804208, -6.937449335484556], [106.93058601137463, -6.93432429047699], [106.92383392145878, -6.93616533915119], [106.92066995334008, -6.933244214810044], [106.92263470833892, -6.921059561003492], [106.91989195184831, -6.912281040207609]]], [[[106.93371003940443, -6.939356244624532], [106.9372796604709, -6.9471092288401515], [106.93214068376248, -6.9486154178095], [106.9297997496773, -6.94348367319805], [106.93371003940443, -6.939356244624532]]], [[[106.90815464056314, -6.953616770427101], [106.91023621467968, -6.948824230394129], [106.9155334890607, -6.949976655402443], [106.91188253160345, -6.956113088829982], [106.90815464056314, -6.953616770427101]]], [[[106.90137072113833, -6.918542660900626], [106.9028219142639, -6.913783234701141], [106.9067102981798, -6.913849740865353], [106.90881295315181, -6.916910610291544], [106.90567676565733, -6.921231475534637], [106.90137072113833, -6.918542660900626]]], [[[106.89234644839978, -6.9630551539424], [106.89351954166807, -6.955597773005464], [106.90051521089744, -6.957464878008608], [106.89863330703503, -6.961122950629155], [106.89234644839978, -6.9630551539424]]], [[[106.88973099182228, -6.908396992393548], [106.89080264325926, -6.901458973828516], [106.89779745576774, -6.903326342803437], [106.89592558613455, -6.909483530046694], [106.88973099182228, -6.908396992393548]]], [[[106.86401803488265, -6.966288848242019], [106.86444255972994, -6.96400215565513], [106.87090450973446, -6.962248196639584], [106.87394049938798, -6.964379002226333], [106.87398672532159, -6.969102817964083], [106.86712660383412, -6.972182593929415], [106.86401803488265, -6.966288848242019]]], [[[106.83899558084832, -6.720315084975434], [106.83834895189456, -6.716764432604579], [106.84516365915367, -6.715024084070272], [106.84709827813516, -6.725332236883008], [106.84010795428219, -6.723921397560778], [106.83899558084832, -6.720315084975434]]], [[[106.82120931255454, -6.698305649570217], [106.82527468628739, -6.688315151450237], [106.83083103863162, -6.689209674358859], [106.83397161618753, -6.692699271741661], [106.84543406888925, -6.693057624348767], [106.8445395727039, -6.698612825587948], [106.83899622890753, -6.705721272290147], [106.82768664160746, -6.706549404602476], [106.82120931255454, -6.698305649570217]]], [[[106.77203583523392, -6.887383126051857], [106.77465813950842, -6.877908220081046], [106.78045975627766, -6.876766004393354], [106.78413269303978, -6.886154951419419], [106.79153180945156, -6.8906507555319525], [106.8032547516711, -6.894447910887912], [106.80559711810099, -6.888562591587272], [106.8096801024603, -6.88831996667964], [106.81706212858685, -6.893171509504597], [106.82720513905045, -6.893251890802044], [106.84155190148599, -6.898242588212608], [106.84206194115349, -6.901668740741852], [106.82450219055289, -6.904066591988385], [106.8186822744892, -6.899900523840057], [106.80865665592464, -6.902460743394181], [106.80423663789645, -6.897994258269005], [106.79211714792862, -6.900030841417391], [106.78307994734769, -6.897169450097054], [106.77772158411422, -6.90006573676944], [106.77293990560628, -6.897920786831307], [106.77203583523392, -6.887383126051857]]], [[[106.76593234087781, -6.757914438677567], [106.76967390917838, -6.751836459859558], [106.78074838382929, -6.750951039083985], [106.78807723153486, -6.753858381577577], [106.78241678052562, -6.761296018930912], [106.78349351449536, -6.769007190845713], [106.78908694363834, -6.774302300033324], [106.78287162614812, -6.790825271998255], [106.77674268284363, -6.789673872162696], [106.77816009136468, -6.778554299236758], [106.77002022242196, -6.7747021087086665], [106.77178694336139, -6.767865135609978], [106.76593234087781, -6.757914438677567]]], [[[106.79156148989944, -6.757870178202141], [106.79950639343306, -6.752960143730117], [106.80176282216874, -6.738561463623516], [106.80918767377982, -6.737879563338417], [106.81859821573744, -6.727543371512153], [106.82539516530142, -6.728591458099415], [106.82810374491521, -6.735021055154028], [106.8242936976639, -6.737634322094459], [106.8228497710219, -6.7472645192301135], [106.80991512319308, -6.745367367441328], [106.80228583570056, -6.753961841709189], [106.80319570034466, -6.760107152391487], [106.80095545895037, -6.763327796023176], [106.79198865508056, -6.76329863169358], [106.79156148989944, -6.757870178202141]]], [[[106.80546892494787, -6.695965316791671], [106.80468820244405, -6.693053194247773], [106.8076265460672, -6.690093797017212], [106.81455208048163, -6.692183765695634], [106.81079205469484, -6.698280903669437], [106.80546892494787, -6.695965316791671]]], [[[106.78909070525454, -6.709508693876633], [106.79274971517506, -6.702617669435709], [106.80296283364248, -6.70563301237356], [106.79494079143441, -6.714195858429709], [106.78916642068167, -6.712398044211308], [106.78909070525454, -6.709508693876633]]], [[[106.79672362234878, -7.02903291579081], [106.79812937151218, -7.025847043101877], [106.80313138659572, -7.026868320683657], [106.80232774080132, -7.034710215461233], [106.79672362234878, -7.02903291579081]]], [[[106.76044206891281, -6.864624507476817], [106.76136443822091, -6.8586802207349065], [106.76919635588723, -6.8571002210469185], [106.77108757870792, -6.865889790767571], [106.76912245743559, -6.868266348383438], [106.76411013452534, -6.868410064447345], [106.76044206891281, -6.864624507476817]]]]}}, {"type": "Feature", "properties": {"threshold": 90}, "geometry": {"type": "MultiPolygon", "coordinates": [[[[107.1372151977556, -6.818752941605392], [107.14398414805973, -6.817974867728304], [107.14412667343203, -6.824139976021756], [107.13712520584642, -6.82428610134745], [107.1372151977556, -6.818752941605392]]], [[[107.1269712216176, -6.8509512334491935], [107.1299274679619, -6.845399419901336], [107.14018156442722, -6.845803037695452], [107.13562573105182, -6.859401940670752], [107.1288824451738, -6.858419046319182], [107.1269712216176, -6.8509512334491935]]], [[[107.12371144567877, -6.87356810927626], [107.12405759000893, -6.869657857801895], [107.13020726826964, -6.869026578692887], [107.12835721493565, -6.879348465970237], [107.12391572261863, -6.878371685264589], [107.12371144567877, -6.87356810927626]]], [[[107.11880795799114, -6.897408306400859], [107.11714275774797, -6.893539523073846], [107.12028165184594, -6.890374634556977], [107.1250729104798, -6.890477266140337], [107.12794735621623, -6.895157399066281], [107.12399132825266, -6.901981623269735], [107.12080124539375, -6.901823379597822], [107.11880795799114, -6.897408306400859]]], [[[107.11824800391997, -6.9148208701184695], [107.12203763141908, -6.910357815127381], [107.12794240353784, -6.912420141669506], [107.12516934366707, -6.9277159393069185], [107.11987622279692, -6.9273988720995705], [107.11824800391997, -6.9148208701184695]]], [[[107.10863771494147, -6.8350105627409485], [107.10793232942777, -6.832348811756809], [107.11208943342736, -6.83129028597202], [107.11995509427918, -6.8356278857002675], [107.12017721407584, -6.838953570034019], [107.10863771494147, -6.8350105627409485]]], [[[107.07735265856321, -6.730190549898862], [107.07836014449762, -6.724134729920071], [107.08369859055715, -6.725060053595898], [107.08277659074469, -6.731229980235046], [107.07735265856321, -6.730190549898862]]], [[[107.06786919321583, -6.874856668275886], [107.06716254075464, -6.87180169776391], [107.07251663213351, -6.867307952618367], [107.07944497954963, -6.869393076548574], [107.07652521730962, -6.876321019957434], [107.06786919321583, -6.874856668275886]]], [[[107.02721277595366, -6.720090816773516], [107.02645838985461, -6.715439664876857], [107.03480763630282, -6.7066421113491685], [107.03213724127177, -6.698152272597454], [107.03727620300646, -6.6902692972439475], [107.04899583585717, -6.691618891328393], [107.05269764771273, -6.696439297444593], [107.06534318091649, -6.697784424863135], [107.06387947220459, -6.709626616870065], [107.06885259319402, -6.715715057539863], [107.06562585628892, -6.723051569775033], [107.07139533794776, -6.735042642141926], [107.06413126430357, -6.7361919871124405], [107.06411145994596, -6.729785681108099], [107.05781641035121, -6.71940081210445], [107.04127267816953, -6.721784848908624], [107.03998803205147, -6.725211251042033], [107.04710360368765, -6.729444991851037], [107.0471358942363, -6.736680627417008], [107.04979037396363, -6.7399521941103275], [107.04790790002609, -6.7471496419934915], [107.042084632653, -6.748214426092998], [107.03904983970881, -6.74608449012607], [107.03822533422033, -6.739838214009656], [107.03063117801969, -6.736800811716699], [107.037083726248, -6.726337549606751], [107.02721277595366, -6.720090816773516]]], [[[107.0545220395693, -6.774130327231463], [107.06107781740693, -6.7723962530123005], [107.0632160634075, -6.777636554519449], [107.05964031793073, -6.779766906906573], [107.05430478315783, -6.777050264027491], [107.0545220395693, -6.774130327231463]]], [[[107.01784892217866, -6.864750223443845], [107.01804112632058, -6.8602232528614095], [107.02303234817275, -6.85916186093987], [107.02849805699185, -6.862803946209772], [107.02862287324838, -6.867670504729886], [107.02177270195847, -6.872417824547737], [107.01877217211945, -6.8703614594414555], [107.01784892217866, -6.864750223443845]]], [[[107.03362271614651, -6.866991878470514], [107.03872952690226, -6.864061687596733], [107.04449344850079, -6.8682764800857665], [107.03942497423138, -6.869875716948019], [107.03362271614651, -6.866991878470514]]], [[[106.96223499785438, -6.698177500436991], [106.96247274232559, -6.69124301595077], [106.9694642684935, -6.693110144334825], [106.9675934476313, -6.69926717124173], [106.96223499785438, -6.698177500436991]]], [[[106.93623003491867, -6.888736015518204], [106.93755258048984, -6.882867534365744], [106.94531469902378, -6.884951326473731], [106.94322288942847, -6.891042613765346], [106.93623003491867, -6.888736015518204]]], [[[106.91989195184831, -6.912281040207609], [106.92515111753181, -6.907391009282516], [106.92546857519312, -6.898437268973383], [106.9282254794863, -6.895526289052741], [106.93773397671612, -6.896435893223514], [106.93429342609447, -6.920516374892676], [106.93807041028248, -6.933696639482125], [106.93385854804208, -6.937449335484556], [106.93058601137463, -6.93432429047699], [106.92383392145878, -6.93616533915119], [106.92066995334008, -6.933244214810044], [106.92263470833892, -6.921059561003492], [106.91989195184831, -6.912281040207609]]], [[[106.93371003940443, -6.939356244624532], [106.9372796604709, -6.9471092288401515], [106.93214068376248, -6.9486154178095], [106.9297997496773, -6.94348367319805], [106.93371003940443, -6.939356244624532]]], [[[106.90815464056314, -6.953616770427101], [106.91023621467968, -6.948824230394129], [106.9155334890607, -6.949976655402443], [106.91188253160345, -6.956113088829982], [106.90815464056314, -6.953616770427101]]], [[[106.90137072113833, -6.918542660900626], [106.9028219142639, -6.913783234701141], [106.9067102981798, -6.913849740865353], [106.90881295315181, -6.916910610291544], [106.90567676565733, -6.921231475534637], [106.90137072113833, -6.918542660900626]]], [[[106.89234644839978, -6.9630551539424], [106.89351954166807, -6.955597773005464], [106.90051521089744, -6.957464878008608], [106.89863330703503, -6.961122950629155], [106.89234644839978, -6.9630551539424]]], [[[106.88973099182228, -6.908396992393548], [106.89080264325926, -6.901458973828516], [106.89779745576774, -6.903326342803437], [106.89592558613455, -6.909483530046694], [106.88973099182228, -6.908396992393548]]], [[[106.86401803488265, -6.966288848242019], [106.86444255972994, -6.96400215565513], [106.87090450973446, -6.962248196639584], [106.87394049938798, -6.964379002226333], [106.87398672532159, -6.969102817964083], [106.86712660383412, -6.972182593929415], [106.86401803488265, -6.966288848242019]]], [[[106.83899558084832, -6.720315084975434], [106.83834895189456, -6.716764432604579], [106.84516365915367, -6.715024084070272], [106.84709827813516, -6.725332236883008], [106.84010795428219, -6.723921397560778], [106.83899558084832, -6.720315084975434]]], [[[106.8400308988279, -6.99023477585526], [106.83926214396237, -6.985133610594295], [106.84542700773638, -6.9833282702040815], [106.84473584218678, -6.990330867135342], [106.8400308988279, -6.99023477585526]]], [[[106.82120931255454, -6.698305649570217], [106.82527468628739, -6.688315151450237], [106.83083103863162, -6.689209674358859], [106.83397161618753, -6.692699271741661], [106.84543406888925, -6.693057624348767], [106.8445395727039, -6.698612825587948], [106.83899622890753, -6.705721272290147], [106.82768664160746, -6.706549404602476], [106.82120931255454, -6.698305649570217]]], [[[106.77203583523392, -6.887383126051857], [106.77465813950842, -6.877908220081046], [106.78045975627766, -6.876766004393354], [106.78413269303978, -6.886154951419419], [106.79177748621606, -6.890744406881935], [106.80349528113317, -6.894399151968166], [106.80544635392224, -6.887092599521537], [106.80800339922831, -6.885826980479839], [106.81798076893726, -6.890699245296487], [106.83152602403395, -6.892449474210784], [106.83362589144708, -6.895528928101293], [106.84168936020379, -6.896652574572645], [106.84288912173334, -6.899999355767527], [106.83974781807567, -6.903162960048832], [106.82464502644429, -6.904073056617316], [106.8186822744892, -6.899900523840057], [106.80849683274378, -6.902429602993481], [106.80375025517893, -6.8979248680679355], [106.79211714792862, -6.900030841417391], [106.78283366768528, -6.89717083126049], [106.77772158411422, -6.90006573676944], [106.77293990560628, -6.897920786831307], [106.77203583523392, -6.887383126051857]]], [[[106.76593234087781, -6.757914438677567], [106.76967390917838, -6.751836459859558], [106.78158177756914, -6.75094799352782], [106.78807723153486, -6.753858381577577], [106.78241678052562, -6.761296018930912], [106.78349351449536, -6.769007190845713], [106.78908694363834, -6.774302300033324], [106.78287162614812, -6.790825271998255], [106.77674268284363, -6.789673872162696], [106.77816009136468, -6.778554299236758], [106.77002022242196, -6.7747021087086665], [106.77178694336139, -6.767865135609978], [106.76593234087781, -6.757914438677567]]], [[[106.79083875971187, -6.756240822320276], [106.79950639343306, -6.752960143730117], [106.80182809366039, -6.738512695505574], [106.80918767377982, -6.737879563338417], [106.81867483465172, -6.727515642795172], [106.82423372697961, -6.7275223830117525], [106.82878664179083, -6.731143535503085], [106.82796922945911, -6.735401369621271], [106.82413031342561, -6.7380962450950515], [106.82462493929653, -6.745476599790658], [106.81905161201301, -6.747470139241795], [106.80991512319308, -6.745367367441328], [106.80228583570056, -6.753961841709189], [106.8031987890054, -6.760940258003894], [106.8011753636451, -6.763222828327127], [106.79191860375053, -6.763257009530304], [106.79083875971187, -6.756240822320276]]], [[[106.80546892494787, -6.695965316791671], [106.80468820244405, -6.693053194247773], [106.8076265460672, -6.690093797017212], [106.81455208048163, -6.692183765695634], [106.81079205469484, -6.698280903669437], [106.80546892494787, -6.695965316791671]]], [[[106.78909070525454, -6.709508693876633], [106.79274971517506, -6.702617669435709], [106.80296283364248, -6.70563301237356], [106.79494079143441, -6.714195858429709], [106.78916642068167, -6.712398044211308], [106.78909070525454, -6.709508693876633]]], [[[106.79672362234878, -7.02903291579081], [106.79812937151218, -7.025847043101877], [106.80313138659572, -7.026868320683657], [106.80232774080132, -7.034710215461233], [106.79672362234878, -7.02903291579081]]], [[[106.79363728311293, -6.8749183988232145], [106.79655673266275, -6.870956109055596], [106.80018282860779, -6.871283273417538], [106.80026633300434, -6.8769139211500585], [106.79737348253465, -6.879915259557635], [106.79363728311293, -6.8749183988232145]]], [[[106.77469830545687, -6.930695752924631], [106.77562356720227, -6.926291316332526], [106.77843917725218, -6.925218640149004], [106.78036821406722, -6.933860909690475], [106.77595209365387, -6.934148355776022], [106.77469830545687, -6.930695752924631]]], [[[106.76044039029388, -6.8637895072041175], [106.76136443822091, -6.8586802207349065], [106.7684917987252, -6.856796307482244], [106.77191501015211, -6.86422047813505], [106.76898740895876, -6.86835725534284], [106.76448962201155, -6.868474870362134], [106.760444502102, -6.866516970928774], [106.76044039029388, -6.8637895072041175]]], [[[106.73506269840607, -7.12441395451276], [106.73844846566976, -7.1218828060251935], [106.74448829391373, -7.1215803357211955], [106.74312931183614, -7.129285858177356], [106.734909852443, -7.126713232174927], [106.73506269840607, -7.12441395451276]]], [[[106.71604881900758, -6.9745673712750555], [106.72359040737979, -6.973743143485363], [106.72384212353839, -6.979892518934084], [106.72019219203756, -6.9809680223613], [106.71578088745406, -6.977422463207071], [106.71604881900758, -6.9745673712750555]]]]}}, {"type": "Feature", "properties": {"threshold": 95}, "geometry": {"type": "MultiPolygon", "coordinates": [[[[107.1372151977556, -6.818752941605392], [107.14398414805973, -6.817974867728304], [107.14412667343203, -6.824139976021756], [107.13712520584642, -6.82428610134745], [107.1372151977556, -6.818752941605392]]], [[[107.12371144567877, -6.87356810927626], [107.12368564182569, -6.860946126113901], [107.12881521463608, -6.8561968179569375], [107.12702181128704, -6.847453732502561], [107.13980399359525, -6.8453903828824565], [107.13607313174167, -6.858950790030722], [107.13275188064269, -6.860640421986218], [107.1304570674013, -6.866958381966917], [107.12842245569118, -6.879299657996166], [107.12391572261863, -6.878371685264589], [107.12371144567877, -6.87356810927626]]], [[[107.11824800391997, -6.9148208701184695], [107.12195866212592, -6.910377956952424], [107.12790019167937, -6.912350471400539], [107.12535580321372, -6.918194580109019], [107.12690611875821, -6.927666296180677], [107.11991843592847, -6.927468543355994], [107.11824800391997, -6.9148208701184695]]], [[[107.11716858874769, -6.902961833983649], [107.1172654296765, -6.893239800055653], [107.1202026857407, -6.890394775036754], [107.1250729104798, -6.890477266140337], [107.12782985564566, -6.896613881094483], [107.12256459644634, -6.904404795497791], [107.11716858874769, -6.902961833983649]]], [[[107.10863771494147, -6.8350105627409485], [107.10793232942777, -6.832348811756809], [107.11208943342736, -6.83129028597202], [107.11995509427918, -6.8356278857002675], [107.12017721407584, -6.838953570034019], [107.10863771494147, -6.8350105627409485]]], [[[107.07735265856321, -6.730190549898862], [107.07836014449762, -6.724134729920071], [107.08369859055715, -6.725060053595898], [107.08277659074469, -6.731229980235046], [107.07735265856321, -6.730190549898862]]], [[[107.06786919321583, -6.874856668275886], [107.06716254075464, -6.87180169776391], [107.07251663213351, -6.867307952618367], [107.07944497954963, -6.869393076548574], [107.07652521730962, -6.876321019957434], [107.06786919321583, -6.874856668275886]]], [[[107.02721277595366, -6.720090816773516], [107.02645838985461, -6.715439664876857], [107.03480763630282, -6.7066421113491685], [107.03213724127177, -6.698152272597454], [107.03727620300646, -6.6902692972439475], [107.04899583585717, -6.691618891328393], [107.05269764771273, -6.696439297444593], [107.06534318091649, -6.697784424863135], [107.06387947220459, -6.709626616870065], [107.06885259319402, -6.715715057539863], [107.06562585628892, -6.723051569775033], [107.07139533794776, -6.735042642141926], [107.06413126430357, -6.7361919871124405], [107.06411145994596, -6.729785681108099], [107.05781641035121, -6.71940081210445], [107.04127267816953, -6.721784848908624], [107.03998803205147, -6.725211251042033], [107.04710360368765, -6.729444991851037], [107.0471358942363, -6.736680627417008], [107.04979037396363, -6.7399521941103275], [107.04790790002609, -6.7471496419934915], [107.042084632653, -6.748214426092998], [107.03904983970881, -6.74608449012607], [107.03822533422033, -6.739838214009656], [107.03063117801969, -6.736800811716699], [107.037083726248, -6.726337549606751], [107.02721277595366, -6.720090816773516]]], [[[107.0545220395693, -6.774130327231463], [107.06107781740693, -6.7723962530123005], [107.0632160634075, -6.777636554519449], [107.05964031793073, -6.779766906906573], [107.05430478315783, -6.777050264027491], [107.0545220395693, -6.774130327231463]]], [[[107.01701193848609, -6.8639207330393175], [107.018931238683, -6.8593317961373765], [107.02303234817275, -6.85916186093987], [107.02849805699185, -6.862803946209772], [107.02862287324838, -6.867670504729886], [107.02177270195847, -6.872417824547737], [107.01701193848609, -6.8639207330393175]]], [[[107.03362271614651, -6.866991878470514], [107.03872952690226, -6.864061687596733], [107.04449344850079, -6.8682764800857665], [107.03942497423138, -6.869875716948019], [107.03362271614651, -6.866991878470514]]], [[[106.96223499785438, -6.698177500436991], [106.96247274232559, -6.69124301595077], [106.9694642684935, -6.693110144334825], [106.9675934476313, -6.69926717124173], [106.96223499785438, -6.698177500436991]]], [[[106.93623003491867, -6.888736015518204], [106.93755258048984, -6.882867534365744], [106.94531469902378, -6.884951326473731], [106.94322288942847, -6.891042613765346], [106.93623003491867, -6.888736015518204]]], [[[106.91989195184831, -6.912281040207609], [106.92526198475103, -6.907163088279045], [106.92544908965712, -6.8985163631212165], [106.92822211037314, -6.894693247686483], [106.93773397671612, -6.896435893223514], [106.93429342609447, -6.920516374892676], [106.93807041028248, -6.933696639482125], [106.93385854804208, -6.937449335484556], [106.93058601137463, -6.93432429047699], [106.92383392145878, -6.93616533915119], [106.92066995334008, -6.933244214810044], [106.92263470833892, -6.921059561003492], [106.91989195184831, -6.912281040207609]]], [[[106.93371003940443, -6.939356244624532], [106.9372796604709, -6.9471092288401515], [106.93214068376248, -6.9486154178095], [106.9297997496773, -6.94348367319805], [106.93371003940443, -6.939356244624532]]], [[[106.90815464056314, -6.953616770427101], [106.91023621467968, -6.948824230394129], [106.9155334890607, -6.949976655402443], [106.91188253160345, -6.956113088829982], [106.90815464056314, -6.953616770427101]]], [[[106.90137072113833, -6.918542660900626], [106.9028219142639, -6.913783234701141], [106.9067102981798, -6.913849740865353], [106.90881295315181, -6.916910610291544], [106.90567676565733, -6.921231475534637], [106.90137072113833, -6.918542660900626]]], [[[106.89234644839978, -6.9630551539424], [106.89351954166807, -6.955597773005464], [106.90051521089744, -6.957464878008608], [106.89863330703503, -6.961122950629155], [106.89234644839978, -6.9630551539424]]], [[[106.88973099182228, -6.908396992393548], [106.89080264325926, -6.901458973828516], [106.89779745576774, -6.903326342803437], [106.89592558613455, -6.909483530046694], [106.88973099182228, -6.908396992393548]]], [[[106.86401803488265, -6.966288848242019], [106.86444255972994, -6.96400215565513], [106.87090450973446, -6.962248196639584], [106.87394049938798, -6.964379002226333], [106.87398672532159, -6.969102817964083], [106.86712660383412, -6.972182593929415], [106.86401803488265, -6.966288848242019]]], [[[106.83899558084832, -6.720315084975434], [106.83834895189456, -6.716764432604579], [106.84516365915367, -6.715024084070272], [106.84709827813516, -6.725332236883008], [106.84010795428219, -6.723921397560778], [106.83899558084832, -6.720315084975434]]], [[[106.8400308988279, -6.99023477585526], [106.83926214396237, -6.985133610594295], [106.84542700773638, -6.9833282702040815], [106.84473584218678, -6.990330867135342], [106.8400308988279, -6.99023477585526]]], [[[106.82120931255454, -6.698305649570217], [106.82527468628739, -6.688315151450237], [106.83083103863162, -6.689209674358859], [106.83397161618753, -6.692699271741661], [106.84543406888925, -6.693057624348767], [106.8445395727039, -6.698612825587948], [106.83899622890753, -6.705721272290147], [106.82768664160746, -6.706549404602476], [106.82120931255454, -6.698305649570217]]], [[[106.77203583523392, -6.887383126051857], [106.77456818062296, -6.878043858803293], [106.77785820098427, -6.876756709852324], [106.7826630816712, -6.878777023127917], [106.78527628347965, -6.887123514091489], [106.80252083639589, -6.894450682017155], [106.80514326285753, -6.893037094166994], [106.8067667076482, -6.885851449844605], [106.81308105904877, -6.884994433728834], [106.81730166120649, -6.890421149056444], [106.82266173226652, -6.891146857918994], [106.83134445119423, -6.885738130671346], [106.8332972298062, -6.893081025490191], [106.84168936020379, -6.896652574572645], [106.84288912173334, -6.899999355767527], [106.83974781807567, -6.903162960048832], [106.82464502644429, -6.904073056617316], [106.8186822744892, -6.899900523840057], [106.80849683274378, -6.902429602993481], [106.80375025517893, -6.8979248680679355], [106.79211714792862, -6.900030841417391], [106.78283366768528, -6.89717083126049], [106.77772158411422, -6.90006573676944], [106.77293990560628, -6.897920786831307], [106.77203583523392, -6.887383126051857]]], [[[106.76593234087781, -6.757914438677567], [106.76967390917838, -6.751836459859558], [106.78158177756914, -6.75094799352782], [106.78807723153486, -6.753858381577577], [106.78241678052562, -6.761296018930912], [106.78349351449536, -6.769007190845713], [106.78908694363834, -6.774302300033324], [106.78287162614812, -6.790825271998255], [106.77674268284363, -6.789673872162696], [106.77816009136468, -6.778554299236758], [106.77002022242196, -6.7747021087086665], [106.77178694336139, -6.767865135609978], [106.76593234087781, -6.757914438677567]]], [[[106.79083875971187, -6.756240822320276], [106.79950639343306, -6.752960143730117], [106.80182809366039, -6.738512695505574], [106.80918767377982, -6.737879563338417], [106.81867483465172, -6.727515642795172], [106.82423372697961, -6.7275223830117525], [106.82878664179083, -6.731143535503085], [106.82796922945911, -6.735401369621271], [106.82413031342561, -6.7380962450950515], [106.82462493929653, -6.745476599790658], [106.81905161201301, -6.747470139241795], [106.80991512319308, -6.745367367441328], [106.80228583570056, -6.753961841709189], [106.8031987890054, -6.760940258003894], [106.8011753636451, -6.763222828327127], [106.79191860375053, -6.763257009530304], [106.79083875971187, -6.756240822320276]]], [[[106.82088163513737, -6.9743685473679955], [106.82210122549132, -6.971602889690296], [106.82834390034333, -6.972392068515312], [106.82901009484785, -6.975864861258471], [106.82303962347456, -6.978206358302007], [106.82088163513737, -6.9743685473679955]]], [[[106.80546892494787, -6.695965316791671], [106.80468820244405, -6.693053194247773], [106.8076265460672, -6.690093797017212], [106.81455208048163, -6.692183765695634], [106.81079205469484, -6.698280903669437], [106.80546892494787, -6.695965316791671]]], [[[106.78909070525454, -6.709508693876633], [106.79274971517506, -6.702617669435709], [106.80296283364248, -6.70563301237356], [106.79494079143441, -6.714195858429709], [106.78916642068167, -6.712398044211308], [106.78909070525454, -6.709508693876633]]], [[[106.79672362234878, -7.02903291579081], [106.79812937151218, -7.025847043101877], [106.80313138659572, -7.026868320683657], [106.80232774080132, -7.034710215461233], [106.79672362234878, -7.02903291579081]]], [[[106.79300580374083, -6.877830744979451], [106.79386696511042, -6.872777538601153], [106.80003689557746, -6.871088158623021], [106.8011194429796, -6.876831690630881], [106.79840859564183, -6.881432487149234], [106.79319214566887, -6.881555304929915], [106.79300580374083, -6.877830744979451]]], [[[106.78249343755489, -6.965350738676708], [106.7832492119278, -6.95875445857084], [106.78751484494504, -6.958405183023075], [106.79143920156459, -6.967756824263589], [106.78290124738807, -6.9683425110822945], [106.78249343755489, -6.965350738676708]]], [[[106.78272500860339, -7.014454907562211], [106.78883770681675, -7.0118723173325135], [106.78981982741297, -7.020534897199994], [106.78280438165523, -7.018177327547665], [106.78272500860339, -7.014454907562211]]], [[[106.7602543166149, -6.866089018031052], [106.7614994866181, -6.8585893161396045], [106.77186394713284, -6.85809019111423], [106.77572547506894, -6.853503300240478], [106.78094505352539, -6.8538595827355016], [106.78064230660928, -6.864148472799124], [106.77426417586123, -6.860625766929006], [106.76891385346546, -6.868392357118682], [106.7602543166149, -6.866089018031052]]], [[[106.77469830545687, -6.930695752924631], [106.77562356720227, -6.926291316332526], [106.77843917725218, -6.925218640149004], [106.78036821406722, -6.933860909690475], [106.77595209365387, -6.934148355776022], [106.77469830545687, -6.930695752924631]]], [[[106.73495051121452, -7.124463112646514], [106.73844846566976, -7.1218828060251935], [106.74448829391373, -7.1215803357211955], [106.74312931183614, -7.129285858177356], [106.7349799631123, -7.126754850034704], [106.73495051121452, -7.124463112646514]]], [[[106.71604881900758, -6.9745673712750555], [106.72359040737979, -6.973743143485363], [106.72384212353839, -6.979892518934084], [106.72019219203756, -6.9809680223613], [106.71578088745406, -6.977422463207071], [106.71604881900758, -6.9745673712750555]]]]}}]}