{"type": "Feature", "geometry": {"type": "MultiPolygon", "coordinates": [[[[-78.29189362594983, -0.0441365094040601], [-78.28798294672215, -0.04018476346346417], [-78.28176454068411, -0.03954814652974087], [-78.27614983245304, -0.04445729903327584], [-78.27078646892419, -0.04601300399398985], [-78.26939443502073, -0.05077964090578327], [-78.27363672938732, -0.05426257604548804], [-78.2810209025426, -0.05364164488314166], [-78.28697407271305, -0.0551556010159366], [-78.2901465651201, -0.05227389906846033], [-78.29189362594983, -0.0441365094040601]]], [[[-78.32115000414613, -0.10396334786245512], [-78.32015335216313, -0.10009987190953201], [-78.31643475401883, -0.09735881655211354], [-78.30751258186248, -0.09437179143244978], [-78.29999880184936, -0.09518348888449917], [-78.29108902509181, -0.10128897860503941], [-78.28920543109948, -0.10639096260157228], [-78.28306269892614, -0.1118161483191923], [-78.28259963817042, -0.11489355103928513], [-78.28512169070032, -0.11779725063153966], [-78.29670745665679, -0.12086589474432997], [-78.30698894177551, -0.10887592999759735], [-78.31650728145343, -0.10831110083544887], [-78.32115000414613, -0.10396334786245512]]], [[[-78.34920607018502, -0.07714607107429158], [-78.34620125605757, -0.07226167336505877], [-78.33825250814833, -0.06621920682396223], [-78.33460658509067, -0.06774908283695365], [-78.33088706998468, -0.07544890957356155], [-78.33738744173175, -0.08715638089671489], [-78.34027233633026, -0.08885784365579659], [-78.35042411677752, -0.08352881225782947], [-78.35117956360226, -0.08026193489621972], [-78.34920607018502, -0.07714607107429158]]], [[[-78.38110100320448, -0.3620876609410678], [-78.38004464251169, -0.35838567790868103], [-78.37684590628453, -0.3568594324719743], [-78.3684626318722, -0.35934717786636367], [-78.36627939308045, -0.36181634233431315], [-78.36928788292857, -0.38319931094073], [-78.37205348171823, -0.38611818021008837], [-78.3755085769103, -0.3858819130222146], [-78.37788701890108, -0.3833045632412709], [-78.38110100320448, -0.3620876609410678]]], [[[-78.57689425364964, -0.36319743670652954], [-78.57867770235937, -0.35885041876110463], [-78.57695242664404, -0.3545860499207367], [-78.57421396033627, -0.35245384572964417], [-78.55805583088714, -0.3548572736438702], [-78.55197980705627, -0.35780406742890275], [-78.5478295360694, -0.35485630231630794], [-78.54866300299747, -0.34993053653118894], [-78.55175441995222, -0.34568055710297596], [-78.56394284252492, -0.3426480596388351], [-78.56629930813776, -0.33962317248440044], [-78.5636774524284, -0.3328323134660359], [-78.56508859817413, -0.32247344417936635], [-78.55959685732171, -0.317627263400368], [-78.5567818897103, -0.3120216610366112], [-78.55797618293437, -0.3091377788844223], [-78.56411610380087, -0.30509254794966006], [-78.56374215889538, -0.3002733486458302], [-78.55952619710911, -0.2903701365507381], [-78.5644769022817, -0.28530231433118947], [-78.56523493060894, -0.28234828622144575], [-78.56048090818412, -0.2646401114471796], [-78.55346077178741, -0.2588140402392015], [-78.54765198126198, -0.25715483869598105], [-78.53822361930064, -0.2449270828685017], [-78.53583705004284, -0.23202732963763587], [-78.53071678286662, -0.22762344640922585], [-78.52957007511871, -0.2211398473545036], [-78.52710795711991, -0.21746351159610225], [-78.52812958469865, -0.2097932551603629], [-78.52360105621771, -0.202506525643229], [-78.51673630274499, -0.19896701955102464], [-78.51716425844015, -0.19473176162812572], [-78.52299514226249, -0.1896633748940254], [-78.52342465961846, -0.17680730223355437], [-78.52012769200054, -0.17463343120196095], [-78.51344002994578, -0.176526116602981], [-78.51081749949529, -0.17581893922428796], [-78.50794207539862, -0.16767432133504556], [-78.50433745545467, -0.16362663113221348], [-78.50396063119247, -0.15593610319197856], [-78.50889672653497, -0.14955529472883689], [-78.5166538095688, -0.14768366857957355], [-78.51939731531714, -0.13804518497137042], [-78.51404424976698, -0.13430458074737955], [-78.50860424540133, -0.138659268901587], [-78.49965102980299, -0.14165844900729882], [-78.48978117200473, -0.14115635253938935], [-78.48878927592098, -0.14886713432052842], [-78.48582449599566, -0.15130177207709467], [-78.47731783108595, -0.14902949163338716], [-78.47517772057388, -0.14640524451129786], [-78.47560490989476, -0.14340508312132244], [-78.47914791146546, -0.13885417445034423], [-78.4874267511458, -0.1383560498861479], [-78.48845706059333, -0.1334519262340725], [-78.49480473238985, -0.12553684458836947], [-78.50392475547876, -0.12585390375786895], [-78.51155470030513, -0.12059658314401565], [-78.51296754978782, -0.1173666846304964], [-78.51177405181855, -0.11356441107620605], [-78.5126072044499, -0.108395331624955], [-78.50869720404474, -0.0993715450437736], [-78.50575947619404, -0.09898231501869299], [-78.50110891912387, -0.10115282908018548], [-78.49645976533021, -0.10553742728699857], [-78.49135280431554, -0.10596760438876272], [-78.48880033985378, -0.10431603316890563], [-78.48978819440819, -0.09579892560066024], [-78.48497274680662, -0.08542541640115424], [-78.48152316257206, -0.08080817084044452], [-78.4769290058563, -0.07795372707046855], [-78.47683158429555, -0.07016266811795495], [-78.47339529715265, -0.0647557642617908], [-78.46687315146048, -0.061022928908178786], [-78.46677745127734, -0.05279636962615388], [-78.46065145066945, -0.04754975881858827], [-78.46501880667012, -0.03689896188404087], [-78.46378629496068, -0.034141821283889165], [-78.45850665697068, -0.032254765391661944], [-78.4567555816995, -0.02932094229373302], [-78.45889489214377, -0.020625500791255694], [-78.45770743070098, -0.011287362659904888], [-78.4593561814838, 0.0012834844637882085], [-78.46216676314938, 0.003913829117237592], [-78.46668184767074, 0.003579893457258168], [-78.47093340888257, 0.006004111881324095], [-78.48005979324437, 0.007010143242768518], [-78.48454221431216, 0.018502536376439022], [-78.48372561502683, 0.021772820761075656], [-78.48087196489385, 0.023348713834403397], [-78.47188291926687, 0.02152858196893616], [-78.46156934194983, 0.010998504347827391], [-78.4611543942459, 0.005277988059199928], [-78.4589992390333, 0.002660096481041854], [-78.44677412375724, -0.00039531756311622515], [-78.44051102352749, 0.0037418319903436913], [-78.43241731187241, 0.0029623103720302826], [-78.428948855354, -0.011430497500357644], [-78.42968287780093, -0.01557261856626942], [-78.43594920888837, -0.021866359563323022], [-78.43468763819543, -0.02791868108336776], [-78.43556288846314, -0.03315041587785821], [-78.44194908034038, -0.04355286218437617], [-78.44369840582117, -0.05263935261602163], [-78.44782890864843, -0.05826394949630403], [-78.45322831885798, -0.060126044341168305], [-78.46157418767086, -0.068154146425634], [-78.46328273592512, -0.07482977166051842], [-78.46205406960259, -0.07920877654471893], [-78.46307269697225, -0.09223435376749112], [-78.46055704493537, -0.09800940124855734], [-78.45660202000744, -0.10000776806516788], [-78.45083691827446, -0.09649663332036197], [-78.44958016006579, -0.08395298510664842], [-78.44478417530702, -0.07945358209002082], [-78.43604759062818, -0.0806400443238147], [-78.42746636303704, -0.07469388843567486], [-78.42112730924853, -0.07374908268565733], [-78.41203152964863, -0.07564257043605534], [-78.40565097326386, -0.09181276233786642], [-78.40711125264417, -0.09505854520364593], [-78.413955341171, -0.09943977532200494], [-78.41717130906083, -0.10594289510752541], [-78.42019170421231, -0.1065022508506269], [-78.42565973275264, -0.10422928717414265], [-78.4338978254329, -0.10907194091847557], [-78.43698122690772, -0.1235186882419059], [-78.44095132853046, -0.1262345254745001], [-78.44521098744457, -0.12474756913381402], [-78.4482253192981, -0.1199728510153005], [-78.45577801228391, -0.11735085365350954], [-78.45661695587611, -0.1141210202778816], [-78.45408409175592, -0.10655828871529388], [-78.45663572766566, -0.10265324869419674], [-78.46080410362072, -0.10245273834818325], [-78.46527853634204, -0.10529722527586477], [-78.47056895146702, -0.11172591454755722], [-78.46795728137491, -0.11878311514066899], [-78.46846265816791, -0.12559372171111102], [-78.46580071701904, -0.12937127825670924], [-78.46001129852041, -0.13022927793247702], [-78.4541146240273, -0.13487987216963832], [-78.45112552042512, -0.14210333505233536], [-78.44292309776229, -0.14130859870672807], [-78.43104514714292, -0.14631925807324295], [-78.42974255148842, -0.15068732999369416], [-78.43268857919882, -0.1575713561897276], [-78.42476079583707, -0.17247911494090348], [-78.41749299782963, -0.17334712187529083], [-78.41265810989887, -0.17701943871686818], [-78.40760478056556, -0.17703290918243247], [-78.4002952777112, -0.18041761197246894], [-78.39595666644978, -0.18511570742833547], [-78.38807009598074, -0.18414955286727494], [-78.3836664628299, -0.1901963808271894], [-78.3715401946662, -0.19530539317640633], [-78.37012747820799, -0.20002593541813554], [-78.37371718063471, -0.2061700882342], [-78.37117424434064, -0.2132409708274767], [-78.37636067159143, -0.21867968635238852], [-78.37605238281328, -0.22710220691554905], [-78.39161353303834, -0.2372367104538595], [-78.39706954186315, -0.2354650802128136], [-78.39844278755233, -0.22871797894665144], [-78.40195087119704, -0.22646680893340165], [-78.40870546122522, -0.22910985288178032], [-78.41368887122924, -0.23329475868223323], [-78.42183221521574, -0.23004828951937414], [-78.42663383587664, -0.2323932611178403], [-78.43459499314307, -0.23282711145898696], [-78.43876083168621, -0.23519560366304182], [-78.44844985897845, -0.23387726918501286], [-78.45194400509523, -0.23140131850238252], [-78.45588574606592, -0.22158414816203506], [-78.45219643350296, -0.20925687992353692], [-78.4591570694222, -0.20098004676519166], [-78.45537447578175, -0.1941121179069323], [-78.4574087389459, -0.18725301690999768], [-78.45457565531204, -0.1822879801423975], [-78.45439145754163, -0.17548867541338492], [-78.46099828707233, -0.1711651904943835], [-78.46474599756917, -0.17174288859026376], [-78.47256272308098, -0.19004723727742734], [-78.4724009096894, -0.19581546624803492], [-78.47853201505717, -0.20293581770438723], [-78.47833183051632, -0.2102381677876601], [-78.48437674328272, -0.2141274177348315], [-78.48476349236572, -0.22002632406309058], [-78.4864687360868, -0.2227528971139208], [-78.49901249863532, -0.22424557803977924], [-78.50180701608734, -0.22608186096967553], [-78.50196068549826, -0.24440120055410938], [-78.50334736142113, -0.24917717344345175], [-78.50903756501322, -0.2539826633853046], [-78.51240455319193, -0.2606749865080967], [-78.51952726846825, -0.26315866454975834], [-78.52362578755589, -0.2766515531559425], [-78.53140588833836, -0.28189457959469183], [-78.530040040411, -0.2908058756379059], [-78.53436730814711, -0.2942425802647384], [-78.53893801249923, -0.30160241327782206], [-78.53602346890573, -0.30828949610938466], [-78.53466250856759, -0.32546676085013615], [-78.53681267100391, -0.3283753537728139], [-78.5426833524665, -0.3297913655749077], [-78.54405626426205, -0.33330778493842167], [-78.53816828841923, -0.34375754186406443], [-78.53163352399224, -0.34771455279325253], [-78.53233508569008, -0.3528787245846354], [-78.53723579377603, -0.35610407214609907], [-78.53813827217935, -0.35933763196433904], [-78.53460066595535, -0.3639000497821569], [-78.53343427320375, -0.3692839414584616], [-78.52935657815922, -0.37274017247171043], [-78.52740482597042, -0.3807424298022266], [-78.52868567588816, -0.38520298823897553], [-78.53446173891935, -0.3922304931688373], [-78.54279621454947, -0.3956196618187315], [-78.54466871672649, -0.39808976623457515], [-78.54050556575967, -0.40953881756068417], [-78.54232895204325, -0.415397921769289], [-78.53939018750113, -0.423872395804808], [-78.54178967123009, -0.4285560211275118], [-78.54863328272499, -0.42774764771299173], [-78.56251022650282, -0.4174427868874032], [-78.56205817075384, -0.4131118897732924], [-78.55527619076551, -0.4052970719910929], [-78.54719005632883, -0.3998959059702726], [-78.54623279619189, -0.39596061761005336], [-78.55252414684097, -0.39004926149136415], [-78.55533549683624, -0.38472145869476954], [-78.56938029954794, -0.38045601529786294], [-78.57274939064659, -0.37787943729103424], [-78.5765937689328, -0.3724179812652468], [-78.5751571066676, -0.36641550562340314], [-78.57689425364964, -0.36319743670652954]]], [[[-78.42297619150756, -0.296961743718116], [-78.42384634337989, -0.2930030818170537], [-78.42012743011688, -0.28839810995396487], [-78.41935481728964, -0.280774284299588], [-78.41558640657072, -0.2793473998038281], [-78.40940652892267, -0.2808037222744195], [-78.40195824631587, -0.2748666491145578], [-78.40042489883605, -0.27084804760922926], [-78.40229798398077, -0.26563276446027423], [-78.40096211813142, -0.2619344310616119], [-78.39503047701018, -0.25991778919738845], [-78.38120281154218, -0.26263469699158587], [-78.3803158018239, -0.26634979511083023], [-78.38502856941305, -0.271863401701973], [-78.38454572257359, -0.2799715133207801], [-78.38611595467115, -0.28310495488903276], [-78.39277432234722, -0.28444766015227313], [-78.39708823674788, -0.28952189602765466], [-78.40360265155873, -0.2899989619291289], [-78.40766689483078, -0.29448114612235715], [-78.4092433982846, -0.30029598117612477], [-78.41282698338075, -0.303085858831502], [-78.41957077104826, -0.3017928808869402], [-78.42297619150756, -0.296961743718116]]], [[[-78.40059377359131, -0.10644795624705661], [-78.39566521539092, -0.10122048274175895], [-78.38986417400872, -0.10176144999466502], [-78.38580158048244, -0.111675353172589], [-78.38183890993007, -0.11530979436582292], [-78.38219011142715, -0.11915178267589696], [-78.38943549270807, -0.1236028995499079], [-78.39528179605102, -0.12170720581994365], [-78.39832289205285, -0.11528473965766897], [-78.40264557194355, -0.11147298327371254], [-78.40257197381503, -0.1085689419474046], [-78.40059377359131, -0.10644795624705661]]], [[[-78.50087598388207, -0.2824534658873392], [-78.49676051532992, -0.27671990763843435], [-78.49098262940967, -0.2763117031457505], [-78.48542817664503, -0.28177665298105403], [-78.48398285865058, -0.2869946098416258], [-78.47921693471378, -0.2898165853151234], [-78.47662007423294, -0.29448330877068574], [-78.47211750486052, -0.2960633515132235], [-78.46727664445011, -0.2942618396419109], [-78.46538884174096, -0.2918038869711598], [-78.46563670948184, -0.28908635111421294], [-78.47147144223294, -0.285805907530863], [-78.47289470613363, -0.2830752610176337], [-78.46984195581541, -0.264165541196116], [-78.46249910526262, -0.2588071873389193], [-78.45233221950015, -0.25756569457454886], [-78.45008435510066, -0.25999218133564544], [-78.44960270611017, -0.2652262155115535], [-78.44528743685024, -0.2707074416943977], [-78.44941027301275, -0.2776138723905828], [-78.44901825197131, -0.2810662114649136], [-78.44403906712157, -0.2836446462783738], [-78.43824262957102, -0.28310799822717], [-78.4357996828273, -0.28560483722169633], [-78.43518716283131, -0.2930632484330506], [-78.43881655880563, -0.2989560297176602], [-78.43643564131584, -0.3098012591458222], [-78.43036337026044, -0.31406559341363793], [-78.4269246651452, -0.322799937126458], [-78.42132458069658, -0.3244984196346613], [-78.41361256567248, -0.32104475889290424], [-78.40790326164044, -0.3254688322912647], [-78.4075572589474, -0.32847823995029757], [-78.41003174986848, -0.33306877332208845], [-78.414479545403, -0.3355481079112459], [-78.41676417926479, -0.33988885847854367], [-78.42264845297815, -0.3438986823938239], [-78.42262996861317, -0.34696040454469984], [-78.417992230718, -0.3553352514251823], [-78.42160923670028, -0.36416048987193966], [-78.42808011294535, -0.366052931217764], [-78.43577687116614, -0.35853444925522976], [-78.43850265550306, -0.35825967940730274], [-78.44098233138018, -0.36013893020809257], [-78.44185916737393, -0.3689838425627056], [-78.44579636552426, -0.3743484326627368], [-78.44444847859843, -0.3829430368196205], [-78.44654831410499, -0.3862478548366526], [-78.45175849334683, -0.3872441012577489], [-78.45447415462958, -0.3861761077671055], [-78.45766794461287, -0.37996730514756893], [-78.46195694829888, -0.37647698891340353], [-78.46498769921365, -0.36941994998014727], [-78.47293170366879, -0.37101227465451564], [-78.47760629682689, -0.3683918676289545], [-78.47838549936422, -0.3621159742398428], [-78.4819007941933, -0.3556658891767226], [-78.47416974004692, -0.3481490294523109], [-78.4701071029749, -0.33718830508581804], [-78.47265756093357, -0.33357821332379756], [-78.47358910963219, -0.32811440866877667], [-78.47896314122562, -0.3251952443267851], [-78.4829686230791, -0.32601719363659454], [-78.48526473043195, -0.3319508920448], [-78.48810607721968, -0.33367064268019825], [-78.49202743225952, -0.3327014077480635], [-78.49719495330415, -0.32738508973308006], [-78.49790409659539, -0.31980542913763227], [-78.49543008162661, -0.3141312182953286], [-78.49668078876377, -0.3072177216353445], [-78.49165628450832, -0.3030097578448638], [-78.49061181691921, -0.3001036139322922], [-78.49409702934005, -0.29269080672370423], [-78.49941725513828, -0.29164370162382475], [-78.50331651949563, -0.28894143140162404], [-78.50360747951169, -0.2854532979130584], [-78.50087598388207, -0.2824534658873392]], [[-78.4581321392528, -0.33780531320985924], [-78.45713524042476, -0.3429879240165257], [-78.4530963606683, -0.3444901949288427], [-78.45007458735088, -0.34779942581471235], [-78.44130822082698, -0.3508858168605697], [-78.43290642718252, -0.3462289291292897], [-78.4303245204604, -0.3428453092724066], [-78.43223738212335, -0.3387498136534034], [-78.43964517267564, -0.3373108464324873], [-78.44253132248029, -0.3352183407771817], [-78.44560383347499, -0.32806700802143574], [-78.44816103070416, -0.3262967479864228], [-78.45585396431122, -0.3303222866176835], [-78.4581321392528, -0.33780531320985924]], [[-78.45256620283655, -0.3185584156659484], [-78.44953431763261, -0.31969766018271156], [-78.44682216179471, -0.31840912148181855], [-78.4457574158645, -0.31538913792707046], [-78.44703093329142, -0.3125796694844581], [-78.44992479598152, -0.31151171897178803], [-78.45281817730815, -0.3127821531966445], [-78.4539279147681, -0.31564600353387495], [-78.45256620283655, -0.3185584156659484]]], [[[-78.5214404738375, -0.008058317753055022], [-78.52499644323215, -0.0010563202826268043], [-78.52205778536297, 0.003719271755757157], [-78.51557461715477, 0.006482501483825756], [-78.50929858562846, 0.006276185329834649], [-78.50384579389701, 0.010921396985554449], [-78.49424245630806, 0.007251012403000453], [-78.49387796605576, 0.003041868814878451], [-78.49555260611251, -7.560075113649165e-05], [-78.50040211181988, -0.0034253095259430474], [-78.50093990120345, -0.011387539714895022], [-78.5027632188242, -0.013944094183810447], [-78.50605238540494, -0.014439797559598653], [-78.51059305901276, -0.012676242985061138], [-78.51823221911047, -0.013538964353651003], [-78.5209680790344, -0.011236621716449874], [-78.5214404738375, -0.008058317753055022]]]]}, "properties": {}}