{"type": "FeatureCollection", "features": [{"type": "Feature", "properties": {"threshold": 70}, "geometry": {"type": "MultiPolygon", "coordinates": [[[[27.98128235446215, -32.953256831867776], [27.980791914494343, -32.9472230587333], [27.991427555570827, -32.9490516451712], [27.994074824924613, -32.94703456589894], [27.98739238072432, -32.937410618339875], [27.9906173554533, -32.930477989178996], [27.998288801593812, -32.92966189071778], [27.999943330411284, -32.93287462311932], [28.005157402406653, -32.934411780735594], [28.010922108409854, -32.931095303679705], [28.01768011351575, -32.93933511042432], [28.023199880276387, -32.94204270755136], [28.022929776426814, -32.94968425064606], [28.011773389619503, -32.951414716620235], [28.006505486704043, -32.94935809363143], [28.00432787624686, -32.95578200075446], [27.99326261126365, -32.96058871676693], [27.982647251197122, -32.95982323623501], [27.98128235446215, -32.953256831867776]]], [[[27.910545475524316, -32.954547507454286], [27.909946179573854, -32.95161636198872], [27.919260168227247, -32.94837163705702], [27.932640831680786, -32.95047415153521], [27.939754867254408, -32.94672698648359], [27.946623584478395, -32.94670000422369], [27.949883996946237, -32.95520874041705], [27.94129956350013, -32.95809937589823], [27.94004181144486, -32.962152206054675], [27.946609367515688, -32.96503112379551], [27.958574025750384, -32.96102438904033], [27.958354355210556, -32.967265553696826], [27.96352159922593, -32.97398054499764], [27.956917040591797, -32.9804473047852], [27.9489889120467, -32.98053937463238], [27.936009752675478, -32.972113991618876], [27.93547135389769, -32.962966117033204], [27.92807392097001, -32.959335850931986], [27.91913798965506, -32.9656300435385], [27.91367219215411, -32.965588210767045], [27.910545475524316, -32.954547507454286]]], [[[27.826039291501385, -32.994036970261824], [27.82644710988725, -32.992076486301144], [27.844355777359407, -32.9888568204681], [27.849296337316115, -32.98350923209027], [27.84807033517212, -32.976721461645326], [27.85022722436067, -32.973889824584255], [27.86133483227658, -32.97553139052691], [27.862356507643565, -32.98384752165297], [27.84787889404943, -32.999318693227636], [27.836401270851933, -33.002510741267116], [27.82792085343323, -32.99784897513994], [27.826039291501385, -32.994036970261824]]], [[[27.862756370166206, -32.99122562186841], [27.87155941601561, -32.988720723962146], [27.875616470436846, -32.9922486085051], [27.882764648873877, -32.993295492511734], [27.882193020948918, -33.0011385118376], [27.863073486071237, -33.00525500129413], [27.86085274981256, -33.002324033904124], [27.862756370166206, -32.99122562186841]]], [[[27.887343517829148, -32.999551461222836], [27.89212284724569, -32.99195896096463], [27.892205292621842, -32.985395140533015], [27.887566537506274, -32.983462997942794], [27.88881145775513, -32.98041667518891], [27.903069585371586, -32.97873474569629], [27.905904132015905, -32.985257717098946], [27.910065943474994, -32.987200893719276], [27.915669360496256, -32.97871251301253], [27.922299754661744, -32.980381386652894], [27.922551870923336, -32.99385174306514], [27.916126331913674, -32.99705095043633], [27.913331954954916, -33.00338728184353], [27.906683520466498, -33.00657911659484], [27.900472526278673, -33.004055505076415], [27.892973373869108, -33.005912068112416], [27.887343517829148, -32.999551461222836]]], [[[27.890741040210074, -33.033937654048735], [27.900118590315138, -33.027865930289394], [27.90726841844497, -33.0270327193589], [27.904172941844454, -33.017511460493004], [27.910688083732715, -33.016403968581976], [27.91414262361871, -33.01123486064888], [27.920701753314646, -33.009726131745644], [27.921878461813137, -33.0180877913985], [27.917060055476597, -33.024539255163056], [27.90836862078782, -33.02486102578882], [27.913121898987853, -33.03311198331878], [27.905780434528108, -33.040346111847846], [27.894861252807054, -33.03980138014866], [27.890741040210074, -33.033937654048735]]], [[[27.87031503432592, -32.972864207455466], [27.869607625699707, -32.970251983705374], [27.875155752287412, -32.96545597426828], [27.88107861463971, -32.9650365171478], [27.883226300478174, -32.95931472690974], [27.890757834509298, -32.961733982684905], [27.88987202865862, -32.9679209300923], [27.882269527126667, -32.97018400453733], [27.879887052297892, -32.97418038984797], [27.87031503432592, -32.972864207455466]]], [[[27.84618283297884, -33.01390230844258], [27.858868291512444, -33.009223923473705], [27.862244504892843, -33.01001213788423], [27.864541012374747, -33.01298050577048], [27.862716535049422, -33.02084268965001], [27.855586459547556, -33.02279593826553], [27.84626111752481, -33.019754102274845], [27.84618283297884, -33.01390230844258]]], [[[27.820005861823155, -33.03021015741206], [27.81915811768181, -33.025589685022865], [27.832890579661896, -33.017843955187075], [27.83485939147505, -33.02341994739438], [27.824796479911726, -33.030468572854375], [27.820005861823155, -33.03021015741206]]], [[[27.777541173000614, -32.99197395315057], [27.776593288660838, -32.986721329025116], [27.779536667649438, -32.98265677995161], [27.78314049908954, -32.982596273680905], [27.78807564968221, -32.99264410718304], [27.777541173000614, -32.99197395315057]]], [[[27.632397257233407, -33.00836526315943], [27.631544973120135, -33.00497259992108], [27.63633419515786, -33.00242757773316], [27.637902023930284, -32.99795527328889], [27.64865629167076, -32.99060761096085], [27.64693494514848, -32.98793334244117], [27.637661364443748, -32.98732610552136], [27.641599565034664, -32.97911412050443], [27.64124324000731, -32.9715699382153], [27.65003225317347, -32.9669236043052], [27.651360625110335, -32.963721321031116], [27.664256654130167, -32.9611616425937], [27.68127012047768, -32.94490639483145], [27.68079765887734, -32.93548769187585], [27.674605598645584, -32.93144058637351], [27.664636327555893, -32.931786670020244], [27.662291103324694, -32.92898558811433], [27.665569581349338, -32.925836214160086], [27.676048132866, -32.92535367621933], [27.676088687148276, -32.917530343157544], [27.68630557340845, -32.92011549507132], [27.687307449370827, -32.92734036230054], [27.6823094833232, -32.935588804617936], [27.685703773250985, -32.938490257146796], [27.70269181635133, -32.93173008982447], [27.708687868697872, -32.924788178902936], [27.70743853208967, -32.91962207401189], [27.726332302377315, -32.919412555563575], [27.734602235133803, -32.91635987248377], [27.739804314185218, -32.91730099915279], [27.742758067410424, -32.923810440140755], [27.74741327915238, -32.92324645109651], [27.748241848450014, -32.918183183645596], [27.751068319382043, -32.91704586489376], [27.75649131612418, -32.92127280897553], [27.786651353262947, -32.933048741332485], [27.784795288594108, -32.939261792383846], [27.78682364052036, -32.944946710971415], [27.779149092338074, -32.95455715668225], [27.77271348626205, -32.952721704417534], [27.774659142110824, -32.946203319583155], [27.771563437196114, -32.94200488382306], [27.755035006286008, -32.93134334528979], [27.750981013707825, -32.93876100921327], [27.755508329991894, -32.948160269676215], [27.74788052617608, -32.95396832300368], [27.741306433729683, -32.94982499727582], [27.74271208898796, -32.942917425236836], [27.73636329381524, -32.943465759765466], [27.730122202724107, -32.93831736641541], [27.71563383305278, -32.938827778287745], [27.70889414561489, -32.94678462763638], [27.710851026043493, -32.95884868299434], [27.707761686936372, -32.9670066896615], [27.696899108489173, -32.9653591818614], [27.693375264396657, -32.97013923197727], [27.684272403742238, -32.968715313190955], [27.68102361506666, -32.97466809512359], [27.672379225407525, -32.97483810414491], [27.672544085529896, -32.9707135632099], [27.681174320191968, -32.96023205210627], [27.6756191023537, -32.958634435799475], [27.665274817969088, -32.96235439657562], [27.66500590764449, -32.97088549153884], [27.65387343422814, -32.97158190375052], [27.6510084027874, -32.974270576903315], [27.653709591700903, -32.98332311142918], [27.65011706482795, -32.98932688877533], [27.6636081992766, -32.98916397855377], [27.655052623526764, -33.007018976564325], [27.654684873242044, -33.01386501723536], [27.64743427048128, -33.017225075509494], [27.644676223285817, -33.01312582666115], [27.639252992975475, -33.01271196423936], [27.632397257233407, -33.00836526315943]]], [[[27.61368153856569, -32.9094575034093], [27.620899365756117, -32.90844572155561], [27.62114488172639, -32.92223358799279], [27.62642219704826, -32.925174604920485], [27.623155449038368, -32.932025268392785], [27.61934269897161, -32.93003250583317], [27.619605532218962, -32.92404938095142], [27.61368153856569, -32.9094575034093]]], [[[27.587023209696895, -33.15445324159615], [27.602169815241894, -33.15039497430205], [27.60920855119378, -33.158040864100506], [27.59742492628962, -33.16397441866557], [27.594719672145114, -33.15984101524792], [27.58704548650782, -33.15702240129911], [27.587023209696895, -33.15445324159615]]], [[[27.590657402365718, -33.038186223384436], [27.60158141214939, -33.03944664632346], [27.604781490012158, -33.04343441857441], [27.59665488878817, -33.04590493371734], [27.584892026764038, -33.05741412063337], [27.581294248760162, -33.05754444400879], [27.57899623068022, -33.054306957915855], [27.58919703453649, -33.04453924359322], [27.590657402365718, -33.038186223384436]]], [[[27.578309232574437, -33.0176686044048], [27.580763718147285, -33.01096610853246], [27.588667579202134, -33.01001769338586], [27.589356644259183, -33.01635084511099], [27.59302028392186, -33.01994260139342], [27.59134982207401, -33.02206261069193], [27.586003975196547, -33.02017835748535], [27.580327814467918, -33.02134844717567], [27.578309232574437, -33.0176686044048]]], [[[27.576454537405183, -32.88331626787251], [27.577088188951134, -32.87819327781712], [27.582586318684353, -32.87719490415053], [27.590298886234145, -32.887957875808254], [27.58111182894532, -32.89293859560364], [27.576454537405183, -32.88331626787251]]]]}}, {"type": "Feature", "properties": {"threshold": 80}, "geometry": {"type": "MultiPolygon", "coordinates": [[[[27.980760142251153, -32.95558013657539], [27.98064739542178, -32.947306128764176], [27.99082917040032, -32.948516102898374], [27.993478906849518, -32.94666178241139], [27.98736975144681, -32.93720842052439], [27.99231729645836, -32.92973432297714], [28.00129996638988, -32.93162313793428], [28.009202510909464, -32.9303857192199], [28.02316958531227, -32.94197344257784], [28.022999595879252, -32.949639699331996], [28.00965885215247, -32.95154848958159], [28.007837021409753, -32.95504827162254], [27.99870114921631, -32.95901038461073], [27.98297851692397, -32.96068801120058], [27.980760142251153, -32.95558013657539]]], [[[27.910545475524316, -32.954547507454286], [27.909938443389684, -32.95086136207143], [27.92371389021658, -32.94607362047278], [27.932752741867557, -32.95003430273484], [27.939754867254408, -32.94672698648359], [27.946623584478395, -32.94670000422369], [27.949892074053118, -32.9559637312359], [27.941139779986894, -32.95833583853877], [27.94004181144486, -32.962152206054675], [27.946609367515688, -32.96503112379551], [27.958574025750384, -32.96102438904033], [27.958354355210556, -32.967265553696826], [27.96352159922593, -32.97398054499764], [27.956917040591797, -32.9804473047852], [27.9489889120467, -32.98053937463238], [27.936009752675478, -32.972113991618876], [27.93547135389769, -32.962966117033204], [27.92807392097001, -32.959335850931986], [27.91913798965506, -32.9656300435385], [27.91367219215411, -32.965588210767045], [27.910545475524316, -32.954547507454286]]], [[[27.826039291501385, -32.994036970261824], [27.82644710988725, -32.992076486301144], [27.844355777359407, -32.9888568204681], [27.849296337316115, -32.98350923209027], [27.84807033517212, -32.976721461645326], [27.85022722436067, -32.973889824584255], [27.86133483227658, -32.97553139052691], [27.862356507643565, -32.98384752165297], [27.84787889404943, -32.999318693227636], [27.836401270851933, -33.002510741267116], [27.82792085343323, -32.99784897513994], [27.826039291501385, -32.994036970261824]]], [[[27.862756370166206, -32.99122562186841], [27.87155941601561, -32.988720723962146], [27.875860994337206, -32.99233196094529], [27.882468016508447, -32.992312287872494], [27.88773063465603, -32.98132768309011], [27.894491561633206, -32.978753674213046], [27.905023836212052, -32.97954517316275], [27.90577571396377, -32.98507269593544], [27.909550389915633, -32.987176471530326], [27.91582294846147, -32.978641864673094], [27.923347343734324, -32.98215494379566], [27.922486321025893, -32.993988481300676], [27.916126331913674, -32.99705095043633], [27.913466278578554, -33.00329273833945], [27.90677007683048, -33.006567654899015], [27.900472526278673, -33.004055505076415], [27.892725937377183, -33.00583946052563], [27.887891527845294, -33.00260821453103], [27.885163923283713, -32.99590187557411], [27.88187400609659, -33.00138628656144], [27.863228517195004, -33.00532345136378], [27.86085274981256, -33.002324033904124], [27.862756370166206, -32.99122562186841]]], [[[27.885419426121782, -33.03929405266095], [27.884725688079573, -33.033392878373135], [27.894778091942936, -33.03051070427848], [27.899360484593302, -33.02554981384129], [27.907073224779115, -33.0271890881764], [27.904172941844454, -33.017511460493004], [27.920701753314646, -33.009726131745644], [27.921878461813137, -33.0180877913985], [27.917060055476597, -33.024539255163056], [27.90836862078782, -33.02486102578882], [27.913121898987853, -33.03311198331878], [27.905780434528108, -33.040346111847846], [27.89502358262756, -33.03985665368211], [27.891846726068525, -33.03733961431596], [27.885419426121782, -33.03929405266095]]], [[[27.87031503432592, -32.972864207455466], [27.869607625699707, -32.970251983705374], [27.875155752287412, -32.96545597426828], [27.88107861463971, -32.9650365171478], [27.883226300478174, -32.95931472690974], [27.890757834509298, -32.961733982684905], [27.892404414786917, -32.97182640426255], [27.87932653038189, -32.97431385921791], [27.87031503432592, -32.972864207455466]]], [[[27.84618283297884, -33.01390230844258], [27.858868291512444, -33.009223923473705], [27.862244504892843, -33.01001213788423], [27.864541012374747, -33.01298050577048], [27.862716535049422, -33.02084268965001], [27.855586459547556, -33.02279593826553], [27.84626111752481, -33.019754102274845], [27.84618283297884, -33.01390230844258]]], [[[27.808811334218895, -32.971499645017516], [27.80878245135555, -32.96902793755992], [27.8119759954693, -32.967991552896585], [27.82068606222109, -32.96895175235828], [27.82359178474558, -32.96489525072871], [27.834520081803277, -32.967678996267274], [27.83376196465872, -32.970844718863276], [27.82018876212258, -32.969142695182875], [27.814177595414645, -32.974738400651454], [27.808811334218895, -32.971499645017516]]], [[[27.820005861823155, -33.03021015741206], [27.81915811768181, -33.025589685022865], [27.832890579661896, -33.017843955187075], [27.83485939147505, -33.02341994739438], [27.824796479911726, -33.030468572854375], [27.820005861823155, -33.03021015741206]]], [[[27.777541173000614, -32.99197395315057], [27.776593288660838, -32.986721329025116], [27.779536667649438, -32.98265677995161], [27.78314049908954, -32.982596273680905], [27.78807564968221, -32.99264410718304], [27.777541173000614, -32.99197395315057]]], [[[27.632397257233407, -33.00836526315943], [27.63151595023394, -33.00504226179481], [27.635756863068455, -33.00255150030607], [27.636093737040802, -32.99569928731771], [27.646009526012996, -32.99406350497413], [27.64865629167076, -32.99060761096085], [27.64668206966654, -32.98787012283281], [27.637666793428757, -32.988081149646376], [27.64124324000731, -32.9715699382153], [27.651360625110335, -32.963721321031116], [27.664256654130167, -32.9611616425937], [27.68139477712265, -32.94447496159575], [27.680610058103643, -32.93533152484334], [27.674605598645584, -32.93144058637351], [27.664636327555893, -32.931786670020244], [27.66234291925087, -32.929126448193585], [27.665569581349338, -32.925836214160086], [27.676233312900305, -32.9251954850637], [27.676066226585483, -32.916386476642224], [27.67080465278788, -32.91411090183188], [27.665223055533875, -32.91894722907047], [27.660663304277787, -32.918053245711505], [27.66127955734254, -32.91050388964919], [27.664775755471027, -32.9074095832239], [27.65603339699671, -32.90518656818961], [27.65715557895227, -32.89950939192447], [27.667679625477533, -32.899397195759654], [27.669676981071813, -32.90367130690907], [27.68074677231604, -32.90642441778689], [27.681814077164965, -32.91151382965088], [27.677948156611837, -32.916214649920605], [27.687248331753562, -32.92244506050646], [27.687292570184482, -32.92816713892085], [27.682333622983432, -32.93536744422884], [27.685462770585545, -32.93844404574541], [27.70269181635133, -32.93173008982447], [27.708687868697872, -32.924788178902936], [27.70743853208967, -32.91962207401189], [27.726576811476313, -32.919382452398395], [27.73638633381366, -32.91559430087689], [27.742758067410424, -32.923810440140755], [27.74741327915238, -32.92324645109651], [27.748241848450014, -32.918183183645596], [27.751068319382043, -32.91704586489376], [27.75649131612418, -32.92127280897553], [27.786651353262947, -32.933048741332485], [27.784795288594108, -32.939261792383846], [27.78682364052036, -32.944946710971415], [27.779155717575815, -32.955312181643315], [27.772675466344687, -32.95265519725616], [27.774659142110824, -32.946203319583155], [27.771563437196114, -32.94200488382306], [27.755035006286008, -32.93134334528979], [27.750981013707825, -32.93876100921327], [27.755508329991894, -32.948160269676215], [27.74788052617608, -32.95396832300368], [27.741306433729683, -32.94982499727582], [27.74271208898796, -32.942917425236836], [27.73636329381524, -32.943465759765466], [27.730122202724107, -32.93831736641541], [27.71563383305278, -32.938827778287745], [27.70889414561489, -32.94678462763638], [27.711746634537068, -32.95884358291557], [27.707761686936372, -32.9670066896615], [27.69663321785213, -32.96747082715272], [27.693121623258975, -32.970194285384984], [27.68426897062866, -32.969249757266695], [27.68102361506666, -32.97466809512359], [27.672384947235944, -32.97559314453392], [27.672544085529896, -32.9707135632099], [27.681174320191968, -32.96023205210627], [27.6756191023537, -32.958634435799475], [27.665274817969088, -32.96235439657562], [27.66500590764449, -32.97088549153884], [27.65387343422814, -32.97158190375052], [27.651238233926637, -32.973677970307534], [27.653709591700903, -32.98332311142918], [27.649580668352975, -32.987869146154765], [27.652206200687214, -32.99024577714877], [27.663567327176885, -32.98826447582641], [27.655234507837807, -33.00782630749802], [27.65589028919174, -33.01293798825959], [27.660078794915492, -33.016101809249605], [27.640275498490045, -33.018772142794546], [27.63348407819183, -33.01397442246533], [27.632397257233407, -33.00836526315943]]], [[[27.630433905321535, -32.9686410856398], [27.629555625702256, -32.965588802151075], [27.63679934589381, -32.959856300876], [27.63663992811447, -32.95422676592235], [27.642348543651373, -32.95323489729792], [27.639991757241937, -32.964861574979565], [27.630433905321535, -32.9686410856398]]], [[[27.61381139478296, -32.912563324648744], [27.6130992560956, -32.90973549282853], [27.62148317290298, -32.90505931167282], [27.621083832963194, -32.922025500024944], [27.62642219704826, -32.925174604920485], [27.62504434412991, -32.934256199300414], [27.618466833438678, -32.928596199215754], [27.61381139478296, -32.912563324648744]]], [[[27.585541301553814, -33.154284717557495], [27.610867594296852, -33.14807662431748], [27.619056845894626, -33.1524864181783], [27.618525055675153, -33.154767961218276], [27.610406511835702, -33.15524976316285], [27.607181541799047, -33.159946070320764], [27.599482589720004, -33.1639753628467], [27.58531557089016, -33.15708012444169], [27.585541301553814, -33.154284717557495]]], [[[27.60260746672518, -33.20899737869759], [27.60252858591543, -33.205831864712096], [27.607318931493516, -33.20254286977064], [27.613931242376193, -33.204329365521275], [27.613074912369783, -33.210328193637295], [27.608239651788182, -33.21368095221113], [27.60260746672518, -33.20899737869759]]], [[[27.567362651369766, -33.0360438655874], [27.56843294980636, -33.03363104071494], [27.577787265689814, -33.030679162581905], [27.578755283344975, -33.027956610414776], [27.567396478891666, -33.022761735479435], [27.56720441073618, -33.02025292055025], [27.576330376037888, -33.01789372096984], [27.58179992271615, -33.010124272432776], [27.588667579202134, -33.01001769338586], [27.589356644259183, -33.01635084511099], [27.593939025842715, -33.02137534103955], [27.587052153970284, -33.033090461329635], [27.605727837281776, -33.0432886940396], [27.59525460237575, -33.047012150089465], [27.591974703964155, -33.054404422490194], [27.581462123091605, -33.0575864736657], [27.57805163687866, -33.05474601859493], [27.576746047057323, -33.041382708603614], [27.571164291732774, -33.040155148295035], [27.567362651369766, -33.0360438655874]]], [[[27.585198198014655, -33.115812176019496], [27.588820184214708, -33.11048356117858], [27.599854590060502, -33.11008303691973], [27.596726810212346, -33.117121488095385], [27.585545659857555, -33.11949335039563], [27.585198198014655, -33.115812176019496]]], [[[27.576434479820165, -32.883313067790034], [27.577088188951134, -32.87819327781712], [27.582586318684353, -32.87719490415053], [27.590298886234145, -32.887957875808254], [27.579321893165215, -32.89294690085746], [27.576434479820165, -32.883313067790034]]]]}}, {"type": "Feature", "properties": {"threshold": 90}, "geometry": {"type": "MultiPolygon", "coordinates": [[[[28.087360060410937, -32.88447897232675], [28.089287279361823, -32.879093740225166], [28.10029888931557, -32.879404495723065], [28.09722813276172, -32.887209838305715], [28.08858454020934, -32.88806530163695], [28.087360060410937, -32.88447897232675]]], [[[27.97972818467984, -32.955928180820784], [27.98064739542178, -32.947306128764176], [27.99082917040032, -32.948516102898374], [27.993380321714163, -32.94686793651317], [27.98736975144681, -32.93720842052439], [27.99231729645836, -32.92973432297714], [28.00129996638988, -32.93162313793428], [28.009202510909464, -32.9303857192199], [28.02316958531227, -32.94197344257784], [28.022999595879252, -32.949639699331996], [28.00961880795677, -32.95156891350938], [28.007837021409753, -32.95504827162254], [27.99870114921631, -32.95901038461073], [27.98297851692397, -32.96068801120058], [27.97972818467984, -32.955928180820784]]], [[[27.910545475524316, -32.954547507454286], [27.910008322047194, -32.95081687288236], [27.926384437131276, -32.944543736283016], [27.932934072025336, -32.94964814354526], [27.946623584478395, -32.94670000422369], [27.949892074053118, -32.9559637312359], [27.941139779986894, -32.95833583853877], [27.94004181144486, -32.962152206054675], [27.946609367515688, -32.96503112379551], [27.958574025750384, -32.96102438904033], [27.959149098079962, -32.96782086407556], [27.96352159922593, -32.97398054499764], [27.956917040591797, -32.9804473047852], [27.9489889120467, -32.98053937463238], [27.936009752675478, -32.972113991618876], [27.93547135389769, -32.962966117033204], [27.92807392097001, -32.959335850931986], [27.91913798965506, -32.9656300435385], [27.91367219215411, -32.965588210767045], [27.910545475524316, -32.954547507454286]]], [[[27.826039291501385, -32.994036970261824], [27.8353707289382, -32.98824180856612], [27.844355777359407, -32.9888568204681], [27.849296337316115, -32.98350923209027], [27.84807033517212, -32.976721461645326], [27.85022722436067, -32.973889824584255], [27.86133483227658, -32.97553139052691], [27.862356507643565, -32.98384752165297], [27.84787889404943, -32.999318693227636], [27.836401270851933, -33.002510741267116], [27.82792085343323, -32.99784897513994], [27.826039291501385, -32.994036970261824]]], [[[27.862756370166206, -32.99122562186841], [27.87155941601561, -32.988720723962146], [27.875860994337206, -32.99233196094529], [27.882468016508447, -32.992312287872494], [27.88773063465603, -32.98132768309011], [27.894491561633206, -32.978753674213046], [27.905023836212052, -32.97954517316275], [27.90577571396377, -32.98507269593544], [27.909550389915633, -32.987176471530326], [27.91582294846147, -32.978641864673094], [27.923347343734324, -32.98215494379566], [27.922486321025893, -32.993988481300676], [27.916311222810798, -32.99689240970073], [27.913524551433447, -33.00323760839819], [27.906777802489152, -33.0073226487363], [27.900735272092295, -33.004075397741126], [27.892725937377183, -33.00583946052563], [27.88507389610593, -32.99843567650926], [27.881795120390294, -33.001418409963286], [27.863228517195004, -33.00532345136378], [27.86085274981256, -33.002324033904124], [27.862756370166206, -32.99122562186841]]], [[[27.879296325609793, -33.033690968736195], [27.879207812798608, -33.03052568941272], [27.88494587493545, -33.02643279327027], [27.895395453600926, -33.02816671245831], [27.903950230215628, -33.02546469232661], [27.904282823411208, -33.01739666106885], [27.911387365931922, -33.015537954901006], [27.915160006822312, -33.00888032292212], [27.920813973545226, -33.00983930766698], [27.921878461813137, -33.0180877913985], [27.917134827894614, -33.024500750119174], [27.9090950234232, -33.02469237577908], [27.913121898987853, -33.03311198331878], [27.90564604768412, -33.040440647372854], [27.89502358262756, -33.03985665368211], [27.891846726068525, -33.03733961431596], [27.886059700052158, -33.03992063953549], [27.879296325609793, -33.033690968736195]]], [[[27.87031503432592, -32.972864207455466], [27.869607625699707, -32.970251983705374], [27.875155752287412, -32.96545597426828], [27.88107861463971, -32.9650365171478], [27.883226300478174, -32.95931472690974], [27.890757834509298, -32.961733982684905], [27.892404414786917, -32.97182640426255], [27.87932653038189, -32.97431385921791], [27.87031503432592, -32.972864207455466]]], [[[27.84618283297884, -33.01390230844258], [27.858868291512444, -33.009223923473705], [27.862244504892843, -33.01001213788423], [27.864541012374747, -33.01298050577048], [27.862716535049422, -33.02084268965001], [27.855586459547556, -33.02279593826553], [27.84626111752481, -33.019754102274845], [27.84618283297884, -33.01390230844258]]], [[[27.832064519481694, -33.03740389934785], [27.83925043303833, -33.034368540700704], [27.840697394107114, -33.04167055845746], [27.847382573690606, -33.04110903645169], [27.85398679946426, -33.049657996737004], [27.850484739005548, -33.05152275181689], [27.83928799167315, -33.048455224263584], [27.831758153415, -33.041439304619345], [27.832064519481694, -33.03740389934785]]], [[[27.808811334218895, -32.971499645017516], [27.80878245135555, -32.96902793755992], [27.81641966479301, -32.964187274217615], [27.832007862399813, -32.965594533990334], [27.834520081803277, -32.967678996267274], [27.83423908909042, -32.97067438475108], [27.828735807783083, -32.971926121311576], [27.824100933936688, -32.98222391273268], [27.821233286514055, -32.97938652454988], [27.821907128508823, -32.9711451890928], [27.813937665038907, -32.97475715233378], [27.808811334218895, -32.971499645017516]]], [[[27.820005861823155, -33.03021015741206], [27.81915811768181, -33.025589685022865], [27.832890579661896, -33.017843955187075], [27.834866509075443, -33.024174953641435], [27.82471754712172, -33.03050066072442], [27.820005861823155, -33.03021015741206]]], [[[27.620995062181375, -33.01410201216746], [27.62213705175248, -33.01143987940084], [27.63148722376228, -33.00966472053525], [27.631581959906363, -33.004905670194375], [27.635833748217554, -33.002353415416394], [27.63615218001585, -32.995644284508906], [27.646009526012996, -32.99406350497413], [27.64858127914024, -32.99082072599105], [27.64693494514848, -32.98793334244117], [27.637666793428757, -32.988081149646376], [27.641294986534547, -32.971510370938105], [27.651360625110335, -32.963721321031116], [27.664256654130167, -32.9611616425937], [27.68134501742959, -32.944693260039976], [27.680610058103643, -32.93533152484334], [27.674605598645584, -32.93144058637351], [27.664636327555893, -32.931786670020244], [27.66234291925087, -32.929126448193585], [27.66338089878426, -32.92526231553992], [27.658593687457792, -32.91607762793147], [27.66241684382621, -32.9081627026458], [27.655935361869318, -32.905064452279916], [27.65715557895227, -32.89950939192447], [27.667679625477533, -32.899397195759654], [27.669676981071813, -32.90367130690907], [27.68074677231604, -32.90642441778689], [27.681814077164965, -32.91151382965088], [27.678181783015763, -32.91684951593072], [27.689957587282954, -32.921064633274746], [27.682937289100007, -32.93242765905724], [27.682469981686086, -32.936462210500494], [27.685462770585545, -32.93844404574541], [27.70269181635133, -32.93173008982447], [27.708687868697872, -32.924788178902936], [27.70743853208967, -32.91962207401189], [27.725681603622526, -32.919387652959685], [27.73638633381366, -32.91559430087689], [27.742758067410424, -32.923810440140755], [27.74741327915238, -32.92324645109651], [27.748241848450014, -32.918183183645596], [27.751068319382043, -32.91704586489376], [27.75649131612418, -32.92127280897553], [27.786651353262947, -32.933048741332485], [27.784795288594108, -32.939261792383846], [27.78682364052036, -32.944946710971415], [27.780051276401196, -32.95530659274578], [27.77271348626205, -32.952721704417534], [27.774659142110824, -32.946203319583155], [27.771563437196114, -32.94200488382306], [27.75478364073128, -32.93137520185058], [27.75099638431622, -32.93918072969559], [27.755508329991894, -32.948160269676215], [27.74788052617608, -32.95396832300368], [27.741306433729683, -32.94982499727582], [27.74271208898796, -32.942917425236836], [27.73636329381524, -32.943465759765466], [27.730122202724107, -32.93831736641541], [27.71537563455538, -32.93887262487424], [27.709035323277757, -32.94665030961918], [27.711746634537068, -32.95884358291557], [27.70783650485915, -32.96696830901397], [27.69663321785213, -32.96747082715272], [27.693121623258975, -32.970194285384984], [27.68431231479931, -32.96928954592545], [27.68102361506666, -32.97466809512359], [27.672213121690444, -32.97556529675362], [27.672544085529896, -32.9707135632099], [27.681413193236533, -32.961531630769514], [27.6756191023537, -32.958634435799475], [27.664502448661672, -32.96295206152367], [27.66487136287745, -32.97097977080761], [27.652406436658733, -32.97224704643985], [27.650984385618763, -32.97557819411644], [27.653709591700903, -32.98332311142918], [27.64996916957315, -32.989142825666356], [27.663602549207045, -32.98840893845499], [27.656657371576376, -33.002886500335336], [27.65578054638008, -33.012729072514276], [27.666424303218157, -33.01712057680012], [27.67609775942105, -33.015821171516386], [27.675080767367994, -33.027593072398226], [27.669762947029167, -33.028376793204906], [27.666920953507095, -33.024319445166064], [27.660487942611788, -33.02699047831383], [27.65525888066903, -33.02610666362065], [27.659320806261388, -33.021429758364654], [27.657570672345596, -33.01655513181793], [27.64136519609369, -33.018801674688085], [27.63602944131267, -33.01738692425138], [27.63022201888827, -33.021787149160396], [27.626129086164983, -33.02189296341177], [27.620995062181375, -33.01410201216746]]], [[[27.689277654348015, -33.150953495742655], [27.69109685367733, -33.14711899003055], [27.695861367261056, -33.14541928278439], [27.70332154807839, -33.14653958228915], [27.701439756458047, -33.15260069707859], [27.694833180762437, -33.155875708568445], [27.689351470888294, -33.15347794354922], [27.689277654348015, -33.150953495742655]]], [[[27.630433905321535, -32.9686410856398], [27.629555625702256, -32.965588802151075], [27.63679934589381, -32.959856300876], [27.63663992811447, -32.95422676592235], [27.643238638809187, -32.952475241743215], [27.639991757241937, -32.964861574979565], [27.630433905321535, -32.9686410856398]]], [[[27.61381139478296, -32.912563324648744], [27.6130992560956, -32.90973549282853], [27.62148317290298, -32.90505931167282], [27.621083832963194, -32.922025500024944], [27.62642219704826, -32.925174604920485], [27.62504434412991, -32.934256199300414], [27.61847208721548, -32.92935125323177], [27.61381139478296, -32.912563324648744]]], [[[27.585541301553814, -33.154284717557495], [27.596057115900322, -33.152202211734135], [27.599984612022585, -33.1443650805258], [27.60341998057773, -33.144504799797694], [27.60604904201629, -33.14892016034009], [27.614426193151864, -33.14352879525094], [27.626191959111498, -33.14784740046297], [27.626078528204843, -33.150677868517015], [27.620474411950678, -33.1546887429121], [27.613325234997156, -33.155121142743965], [27.611599935619363, -33.15921897765409], [27.599569343750957, -33.16396411221024], [27.58531557089016, -33.15708012444169], [27.585541301553814, -33.154284717557495]]], [[[27.60260746672518, -33.20899737869759], [27.60252858591543, -33.205831864712096], [27.607318931493516, -33.20254286977064], [27.613931242376193, -33.204329365521275], [27.613074912369783, -33.210328193637295], [27.608239651788182, -33.21368095221113], [27.60260746672518, -33.20899737869759]]], [[[27.567362651369766, -33.0360438655874], [27.57655357877496, -33.0290146874896], [27.567272020904454, -33.02265801416775], [27.56720441073618, -33.02025292055025], [27.57537895174111, -33.01794669038504], [27.58179992271615, -33.010124272432776], [27.588667579202134, -33.01001769338586], [27.589458981738744, -33.01655573793254], [27.593932973775058, -33.020472815734585], [27.5916533505982, -33.03594075213155], [27.596781032027284, -33.03931895787813], [27.607935962447673, -33.039447410971135], [27.60841727961544, -33.043275607037835], [27.59606104296974, -33.046480548731104], [27.59204482625493, -33.05436010889003], [27.581462123091605, -33.0575864736657], [27.577262550567035, -33.05043757147015], [27.565550230025394, -33.048970656406105], [27.565900781671413, -33.046440778174805], [27.57615672077625, -33.04425908972601], [27.57553857560548, -33.04109274453147], [27.567568786787206, -33.038661417325805], [27.567362651369766, -33.0360438655874]]], [[[27.58737514031121, -33.11109665035615], [27.59928527786746, -33.109653746392055], [27.599913243437168, -33.11436434252061], [27.590461339144582, -33.11941650984036], [27.585373579655304, -33.119465386561956], [27.58737514031121, -33.11109665035615]]], [[[27.576434479820165, -32.883313067790034], [27.577088188951134, -32.87819327781712], [27.58250377613794, -32.87717041515354], [27.591217805805048, -32.88712893196412], [27.58633811739451, -32.89137245922227], [27.579404449914367, -32.89297139182082], [27.576434479820165, -32.883313067790034]]]]}}, {"type": "Feature", "properties": {"threshold": 95}, "geometry": {"type": "MultiPolygon", "coordinates": [[[[28.087027310829804, -32.8849464636085], [28.08612464369156, -32.88186305368577], [28.0892085795808, -32.87912599159392], [28.10026065999267, -32.87933809171092], [28.097306836293647, -32.88717758195634], [28.091278202573786, -32.88879686944978], [28.087027310829804, -32.8849464636085]]], [[[27.97972818467984, -32.955928180820784], [27.98064739542178, -32.947306128764176], [27.99082917040032, -32.948516102898374], [27.993380321714163, -32.94686793651317], [27.98736975144681, -32.93720842052439], [27.99231729645836, -32.92973432297714], [28.00129996638988, -32.93162313793428], [28.009202510909464, -32.9303857192199], [28.02316958531227, -32.94197344257784], [28.022999595879252, -32.949639699331996], [28.00961880795677, -32.95156891350938], [28.007837021409753, -32.95504827162254], [27.99870114921631, -32.95901038461073], [27.982082952754013, -32.960695055750556], [27.97972818467984, -32.955928180820784]]], [[[27.910545475524316, -32.954547507454286], [27.90976427891878, -32.951026216026506], [27.915012185663116, -32.949702853222654], [27.918325681062175, -32.94460322889036], [27.930489931133025, -32.945311094977754], [27.933429997671094, -32.949258495163235], [27.946623584478395, -32.94670000422369], [27.949892074053118, -32.9559637312359], [27.941139779986894, -32.95833583853877], [27.94004181144486, -32.962152206054675], [27.946609367515688, -32.96503112379551], [27.958574025750384, -32.96102438904033], [27.959149098079962, -32.96782086407556], [27.96352159922593, -32.97398054499764], [27.956917040591797, -32.9804473047852], [27.9489889120467, -32.98053937463238], [27.936009752675478, -32.972113991618876], [27.93547135389769, -32.962966117033204], [27.92807392097001, -32.959335850931986], [27.91913798965506, -32.9656300435385], [27.91367219215411, -32.965588210767045], [27.910545475524316, -32.954547507454286]]], [[[27.808811334218895, -32.971499645017516], [27.80878245135555, -32.96902793755992], [27.81641966479301, -32.964187274217615], [27.832007862399813, -32.965594533990334], [27.834520081803277, -32.967678996267274], [27.83423908909042, -32.97067438475108], [27.828609928037324, -32.972113512762], [27.82539487405068, -32.982201024878414], [27.816157806265917, -32.97834446458067], [27.808811334218895, -32.971499645017516]]], [[[27.827862157876424, -32.98526798644371], [27.84382001585758, -32.98922362937476], [27.849296337316115, -32.98350923209027], [27.848027036722613, -32.97219140368912], [27.85140737945948, -32.969994156628765], [27.863291611167043, -32.978809305514474], [27.860594154932087, -32.986879905931026], [27.85340389762845, -32.994602447087324], [27.840418863521673, -33.00250169662317], [27.826905746289917, -32.99698664051299], [27.827862157876424, -32.98526798644371]]], [[[27.862756370166206, -32.99122562186841], [27.87155941601561, -32.988720723962146], [27.875860994337206, -32.99233196094529], [27.882468016508447, -32.992312287872494], [27.88773063465603, -32.98132768309011], [27.894491561633206, -32.978753674213046], [27.905023836212052, -32.97954517316275], [27.90577571396377, -32.98507269593544], [27.90980746911379, -32.987199141739396], [27.915669360496256, -32.97871251301253], [27.922299754661744, -32.980381386652894], [27.922551870923336, -32.99385174306514], [27.91596077159418, -32.99722399889821], [27.91251319855373, -33.00493589695378], [27.92085967657012, -33.00990229553848], [27.921927805091254, -33.017946297875206], [27.917134827894614, -33.024500750119174], [27.9090950234232, -33.02469237577908], [27.913121898987853, -33.03311198331878], [27.90564604768412, -33.040440647372854], [27.89502358262756, -33.03985665368211], [27.89158283161318, -33.03734150051308], [27.88500853619555, -33.040626710617744], [27.880073631363246, -33.035755744772295], [27.878150906127182, -33.027784128856204], [27.892383413557283, -33.02556477825033], [27.896107040109833, -33.027917673583495], [27.903732100458978, -33.02558977035834], [27.904128538978142, -33.01757510747838], [27.9115723035499, -33.015379420729516], [27.913329568521878, -33.00829876657431], [27.905365466107188, -33.00729008954707], [27.900735272092295, -33.004075397741126], [27.89280545893484, -33.005870457870316], [27.88533302693357, -32.998449769166825], [27.881795120390294, -33.001418409963286], [27.863228517195004, -33.00532345136378], [27.86085274981256, -33.002324033904124], [27.862756370166206, -32.99122562186841]]], [[[27.87031503432592, -32.972864207455466], [27.869703621296946, -32.970128688734796], [27.875300402309986, -32.96537302424953], [27.880416152624328, -32.96517165416837], [27.883226300478174, -32.95931472690974], [27.890757834509298, -32.961733982684905], [27.892404414786917, -32.97182640426255], [27.87932653038189, -32.97431385921791], [27.87031503432592, -32.972864207455466]]], [[[27.84618283297884, -33.01390230844258], [27.858868291512444, -33.009223923473705], [27.862244504892843, -33.01001213788423], [27.864541012374747, -33.01298050577048], [27.862716535049422, -33.02084268965001], [27.855586459547556, -33.02279593826553], [27.84626111752481, -33.019754102274845], [27.84618283297884, -33.01390230844258]]], [[[27.832064519481694, -33.03740389934785], [27.83925043303833, -33.034368540700704], [27.840697394107114, -33.04167055845746], [27.847382573690606, -33.04110903645169], [27.85398679946426, -33.049657996737004], [27.850484739005548, -33.05152275181689], [27.83928799167315, -33.048455224263584], [27.831758153415, -33.041439304619345], [27.832064519481694, -33.03740389934785]]], [[[27.820005861823155, -33.03021015741206], [27.81915811768181, -33.025589685022865], [27.832890579661896, -33.017843955187075], [27.834866509075443, -33.024174953641435], [27.82471754712172, -33.03050066072442], [27.820005861823155, -33.03021015741206]]], [[[27.620995062181375, -33.01410201216746], [27.62213705175248, -33.01143987940084], [27.63148722376228, -33.00966472053525], [27.631581959906363, -33.004905670194375], [27.635833748217554, -33.002353415416394], [27.63615218001585, -32.995644284508906], [27.646009526012996, -32.99406350497413], [27.64858127914024, -32.99082072599105], [27.64693494514848, -32.98793334244117], [27.637666793428757, -32.988081149646376], [27.641294986534547, -32.971510370938105], [27.651360625110335, -32.963721321031116], [27.664256654130167, -32.9611616425937], [27.68134501742959, -32.944693260039976], [27.68134229155984, -32.93624282460418], [27.67510250632295, -32.9315875032559], [27.66215270218555, -32.93083501837521], [27.65431107185337, -32.93341131233222], [27.648929662910998, -32.931462049524214], [27.648907280828748, -32.92326881790411], [27.65959455008788, -32.91488815127541], [27.662356778686434, -32.909027599259964], [27.655897449754185, -32.90499790773907], [27.65715557895227, -32.89950939192447], [27.667679625477533, -32.899397195759654], [27.669676981071813, -32.90367130690907], [27.679668905523208, -32.90551161259808], [27.6821536915677, -32.915629705758484], [27.689924613836308, -32.92072574027746], [27.699650440941227, -32.91991143860661], [27.700657449970475, -32.92363199042635], [27.69507130760703, -32.929242369612496], [27.687579471324746, -32.92849764105133], [27.68329773939456, -32.93164014860035], [27.682391827020403, -32.93624991033755], [27.685462770585545, -32.93844404574541], [27.70269181635133, -32.93173008982447], [27.708687868697872, -32.924788178902936], [27.70743853208967, -32.91962207401189], [27.725681603622526, -32.919387652959685], [27.73638633381366, -32.91559430087689], [27.742758067410424, -32.923810440140755], [27.74741327915238, -32.92324645109651], [27.748241848450014, -32.918183183645596], [27.751068319382043, -32.91704586489376], [27.75649131612418, -32.92127280897553], [27.786651353262947, -32.933048741332485], [27.784795288594108, -32.939261792383846], [27.78682364052036, -32.944946710971415], [27.778266776374714, -32.95607278915063], [27.772675466344687, -32.95265519725616], [27.774659142110824, -32.946203319583155], [27.772047154392226, -32.942499258040726], [27.75478364073128, -32.93137520185058], [27.75099638431622, -32.93918072969559], [27.755508329991894, -32.948160269676215], [27.74788052617608, -32.95396832300368], [27.741306433729683, -32.94982499727582], [27.74271208898796, -32.942917425236836], [27.73636329381524, -32.943465759765466], [27.730122202724107, -32.93831736641541], [27.71537563455538, -32.93887262487424], [27.70902277443027, -32.947383843759184], [27.711753134931026, -32.95871419595251], [27.708738225160552, -32.96771826533417], [27.68431231479931, -32.96928954592545], [27.68102361506666, -32.97466809512359], [27.672213121690444, -32.97556529675362], [27.672544085529896, -32.9707135632099], [27.681413193236533, -32.961531630769514], [27.675882187516823, -32.95861065594005], [27.664502448661672, -32.96295206152367], [27.66487136287745, -32.97097977080761], [27.652406436658733, -32.97224704643985], [27.650984385618763, -32.97557819411644], [27.653709591700903, -32.98332311142918], [27.64996916957315, -32.989142825666356], [27.663602549207045, -32.98840893845499], [27.656657371576376, -33.002886500335336], [27.65578054638008, -33.012729072514276], [27.666424303218157, -33.01712057680012], [27.67609775942105, -33.015821171516386], [27.675080767367994, -33.027593072398226], [27.669842413660586, -33.02840793330345], [27.66582783397296, -33.02461823036166], [27.660487942611788, -33.02699047831383], [27.65525888066903, -33.02610666362065], [27.65939741065541, -33.01925810232709], [27.657570672345596, -33.01655513181793], [27.64136519609369, -33.018801674688085], [27.63602944131267, -33.01738692425138], [27.63022201888827, -33.021787149160396], [27.626129086164983, -33.02189296341177], [27.620995062181375, -33.01410201216746]]], [[[27.73573622001608, -32.8003339524271], [27.74179195322163, -32.792395061535444], [27.73812974235159, -32.78887075688721], [27.740008333767605, -32.783764371873694], [27.746617586075452, -32.78502775404555], [27.751449299408677, -32.79887889779737], [27.738320220495442, -32.80381826338048], [27.73573622001608, -32.8003339524271]]], [[[27.68726006992771, -33.14832463850951], [27.687789729893353, -33.14621916367321], [27.695218006360463, -33.14536923099981], [27.703387022733924, -33.14675337191778], [27.701439756458047, -33.15260069707859], [27.69369328756075, -33.15744580337106], [27.68726006992771, -33.14832463850951]]], [[[27.630433905321535, -32.9686410856398], [27.629555625702256, -32.965588802151075], [27.63679934589381, -32.959856300876], [27.63663992811447, -32.95422676592235], [27.643238638809187, -32.952475241743215], [27.639991757241937, -32.964861574979565], [27.630433905321535, -32.9686410856398]]], [[[27.620290559787833, -33.071096545133685], [27.620462991168313, -33.06675430690748], [27.625712201712446, -33.06494651938106], [27.632274063881773, -33.069987724507975], [27.637811617084676, -33.06953876951647], [27.640921601341187, -33.0732423520389], [27.63574386113603, -33.076198174160226], [27.625611764448774, -33.07550519195503], [27.620290559787833, -33.071096545133685]]], [[[27.585541301553814, -33.154284717557495], [27.596057115900322, -33.152202211734135], [27.599984612022585, -33.1443650805258], [27.60341998057773, -33.144504799797694], [27.606208675881334, -33.1488371787426], [27.614426193151864, -33.14352879525094], [27.626186595252253, -33.147092374035786], [27.626123198305006, -33.15061431845571], [27.620862316420123, -33.15480484312661], [27.613325234997156, -33.155121142743965], [27.611605176954303, -33.15997400469219], [27.599569343750957, -33.16396411221024], [27.58531557089016, -33.15708012444169], [27.585541301553814, -33.154284717557495]]], [[[27.61381139478296, -32.912563324648744], [27.6130992560956, -32.90973549282853], [27.62148317290298, -32.90505931167282], [27.621083832963194, -32.922025500024944], [27.62642219704826, -32.925174604920485], [27.62504434412991, -32.934256199300414], [27.61847208721548, -32.92935125323177], [27.61381139478296, -32.912563324648744]]], [[[27.567362651369766, -33.0360438655874], [27.57655357877496, -33.0290146874896], [27.567272020904454, -33.02265801416775], [27.56720441073618, -33.02025292055025], [27.57558199844536, -33.017804729924066], [27.57911147402958, -33.01013677459381], [27.588667579202134, -33.01001769338586], [27.589458981738744, -33.01655573793254], [27.593932973775058, -33.020472815734585], [27.59250404232479, -33.035966538353605], [27.596781032027284, -33.03931895787813], [27.607935962447673, -33.039447410971135], [27.60841727961544, -33.043275607037835], [27.59606104296974, -33.046480548731104], [27.59204482625493, -33.05436010889003], [27.581462123091605, -33.0575864736657], [27.577262550567035, -33.05043757147015], [27.565550230025394, -33.048970656406105], [27.565900781671413, -33.046440778174805], [27.57615672077625, -33.04425908972601], [27.57472377732654, -33.040535798463104], [27.567388140326962, -33.04077917999407], [27.567362651369766, -33.0360438655874]]], [[[27.58737514031121, -33.11109665035615], [27.59928527786746, -33.109653746392055], [27.599913243437168, -33.11436434252061], [27.590461339144582, -33.11941650984036], [27.585373579655304, -33.119465386561956], [27.58737514031121, -33.11109665035615]]], [[[27.576280864133608, -32.88343270016491], [27.577088188951134, -32.87819327781712], [27.58250377613794, -32.87717041515354], [27.591217805805048, -32.88712893196412], [27.58633811739451, -32.89137245922227], [27.579404449914367, -32.89297139182082], [27.576280864133608, -32.88343270016491]]]]}}]}