{"type": "Feature", "properties": {"city": "Ibadan", "country": "Nigeria", "real_area": 255.96}, "geometry": {"type": "MultiLineString", "coordinates": [[[3.37937459162949, 6.59120920299984], [3.37847536640857, 6.5871495131908], [3.3817968442526, 6.58391917968378], [3.3860177433813, 6.58474826594595], [3.38691731656472, 6.58880796397591], [3.38359564265992, 6.59203856754125], [3.37937459162949, 6.59120920299984]], [[3.97765836985972, 7.37441569305679], [3.98194465869606, 7.37527126675819], [3.98288024606908, 7.37939494157131], [3.98716702808388, 7.38025067102144], [3.99051806148341, 7.37698244644807], [3.9948051753914, 7.37783805240161], [3.99574141721041, 7.38196216209679], [3.99239019095089, 7.38523065907019], [3.99332637893191, 7.38935519003447], [3.98997493747427, 7.39262382902314], [3.98568750094326, 7.39176766463916], [3.9823360372354, 7.39503617312452], [3.98327181709147, 7.39916111835483], [3.97992013820659, 7.40242976858764], [3.98085586413671, 7.40655513485543], [3.97750397005959, 7.40982392669655], [3.97321654315053, 7.4089670799116], [3.96986462701964, 7.41223574089251], [3.97079994464022, 7.41636152096921], [3.97508753275802, 7.41721864722971], [3.97843964204261, 7.41394971391942], [3.98272756246384, 7.41480671637466], [3.98607964960731, 7.41153765217466], [3.99036790220292, 7.41239453083273], [3.99130422901814, 7.41652075308101], [3.98795194884408, 7.41979008965898], [3.9888882217613, 7.42391673283151], [3.99317712929448, 7.42477404645124], [3.99652960246331, 7.42150443747618], [4.00081884207681, 7.42236162719141], [4.00175577003693, 7.42648870526173], [4.00604550320302, 7.42734605041736], [4.00698273183302, 7.43147355633911], [4.0112729585808, 7.43233105687628], [4.01221048794565, 7.43645899060963], [4.00885743600757, 7.43972941689046], [4.00979491157282, 7.44385777148588], [4.00644164411748, 7.44712833917342], [4.00215109403178, 7.44627027980307], [4.00121397307139, 7.44214193220867], [4.00456704758791, 7.43887163696503], [4.00362987278213, 7.43474371016562], [3.9993399780204, 7.43388608561654], [3.99840310390911, 7.42975858665297], [3.99411370277623, 7.42890111753914], [3.99076101424503, 7.4321708679522], [3.98647194527457, 7.4313132748721], [3.98311923446383, 7.43458289420754], [3.98405539952157, 7.43871037898078], [3.98070247336961, 7.44198013948599], [3.97641357534152, 7.4411221428527], [3.97306062707027, 7.44439177205205], [3.96877206154504, 7.44353365137463], [3.96541909127835, 7.4468031491688], [3.96635449320841, 7.45093103992845], [3.96300130765813, 7.45420067849514], [3.96393665551406, 7.45832898971393], [3.96822554355562, 7.45918766984243], [3.97157892248216, 7.45591775897972], [3.97586814319092, 7.45677631494062], [3.97680414630069, 7.46090506149443], [3.97345057403362, 7.46417524467221], [3.97438652311837, 7.4683044116538], [3.97103273544912, 7.47157473544337], [3.97196863048765, 7.47570432276977], [3.9762586679575, 7.47656359380189], [3.9771948637326, 7.48069360893402], [3.97384066723776, 7.4839643455086], [3.9695504683721, 7.48310479461966], [3.96619624985275, 7.4863753992139], [3.96190638385406, 7.48551572391833], [3.9585521434342, 7.48878619643293], [3.95426261043162, 7.48792639672288], [3.95332747908407, 7.48379640449707], [3.95668152592084, 7.48052620423587], [3.95574634041439, 7.47639663213722], [3.95145746284111, 7.47553726803223], [3.95052257792505, 7.47140812382757], [3.95387621585031, 7.46813833602565], [3.95294127677201, 7.46400961204702], [3.94865305445212, 7.46315068355955], [3.94771841587462, 7.45902238753044], [3.95107164497135, 7.45575301232975], [3.95013695222832, 7.45162513662533], [3.94584938498595, 7.45076664376768], [3.94491499265413, 7.44663919606817], [3.94062791936904, 7.4457808590218], [3.93969382738338, 7.44165383936683], [3.93540724802609, 7.44079565819043], [3.93205459979601, 7.44406421679539], [3.92776835355089, 7.44320591165048], [3.9244156839951, 7.44647433851267], [3.92534906693558, 7.45060134265106], [3.9296354739608, 7.45145992774972], [3.93056915716623, 7.45558735998066], [3.92721607877954, 7.45885619926026], [3.92814970770361, 7.46298405169694], [3.92479641421587, 7.46625303110458], [3.92050968564862, 7.46539388592852], [3.91715637094477, 7.46866273320687], [3.91808959090426, 7.4727909977605], [3.92237648023344, 7.47365042306021], [3.9233100005312, 7.47777911565952], [3.92759738413946, 7.47863869686312], [3.92853120484062, 7.48276781746837], [3.92517728718896, 7.48603734883936], [3.9261110535696, 7.49016688938558], [3.92275692071968, 7.49343656045488], [3.9184692154534, 7.49257641884416], [3.91753580386683, 7.48844688641454], [3.91324859303202, 7.4875869006978], [3.90989463304388, 7.49085616713584], [3.9108276898314, 7.49498569135746], [3.91511506140992, 7.4958459573676], [3.91604841860904, 7.4999759095876], [3.91269404938875, 7.5032455875406], [3.90840651707263, 7.50238504118051], [3.90747351471822, 7.49825509723594], [3.90318647695627, 7.49739470681869], [3.90225377497272, 7.49326519089644], [3.90560775594334, 7.4899960570735], [3.90467499950225, 7.48586696089002], [3.90802876539958, 7.48259796651836], [3.90709595452219, 7.47846929015684], [3.90280973246123, 7.4776096164043], [3.90187722184071, 7.47348136813636], [3.89759149412209, 7.47262185045398], [3.89665928369327, 7.46849403031921], [3.89237405028726, 7.46763466876556], [3.89144213998502, 7.46350727680349], [3.88715740086179, 7.46264807143715], [3.88380441168161, 7.46591597773365], [3.87952000652446, 7.46505664829053], [3.87616699679731, 7.46832442212127], [3.8718829257347, 7.46746496859367], [3.86852989558424, 7.47073260985974], [3.86424615874454, 7.46987303224], [3.86089310829441, 7.4731405408425], [3.85660970580599, 7.472280839123], [3.8556795138116, 7.46815390932614], [3.85903236973324, 7.46488667260514], [3.86331561218148, 7.46574609381803], [3.86666844789039, 7.46247872446337], [3.86573784667804, 7.45835220580667], [3.86145476427619, 7.45749306504376], [3.86052446291338, 7.4533669747255], [3.85624187479694, 7.45250799043243], [3.85288942807668, 7.45577481602152], [3.8486071743213, 7.45491570779728], [3.84767752718429, 7.45079005446177], [3.85102977935753, 7.44752350072684], [3.85010007749837, 7.44339826720298], [3.85345211510061, 7.44013185288785], [3.85773404906103, 7.44099040025018], [3.85866410531608, 7.44511564231172], [3.86294653345592, 7.44597434620679], [3.86629874535422, 7.44270752768041], [3.87058150764472, 7.44356610771326], [3.87393369922024, 7.44029915693941], [3.87821679553313, 7.44115761311777], [3.88156896666232, 7.43789053019534], [3.88063784724764, 7.43376526306754], [3.87635491108186, 7.43290708710788], [3.8730029341874, 7.43617389807588], [3.86872033196184, 7.43531559832306], [3.86778986670564, 7.43119076784421], [3.87114164933021, 7.42792422881154], [3.87021112948532, 7.4237998184446], [3.86592918131236, 7.42294195540359], [3.86257759299289, 7.42620822252006], [3.85829597885227, 7.42535023579299], [3.85736611295409, 7.42122626220059], [3.85308499281102, 7.42036843207357], [3.8497335787328, 7.42363429526363], [3.85066309036691, 7.42775826042942], [3.84731146179939, 7.43102426332876], [3.84824091872957, 7.43514864848702], [3.84488907565775, 7.43841479095632], [3.84581847786278, 7.44253959602433], [3.84246642027165, 7.44580587792422], [3.83818515508893, 7.44494708292159], [3.83483307763238, 7.44821323230745], [3.83576207068594, 7.45233844848254], [3.83240977873182, 7.45560473703086], [3.82812868847607, 7.45474553761034], [3.82720004983213, 7.45062033024632], [3.82291945393928, 7.44976128757283], [3.81956733712231, 7.45302717163448], [3.81528707606634, 7.45216800511419], [3.81435909132686, 7.44804323520272], [3.81771101326656, 7.44477762286722], [3.81678297362015, 7.44065327259568], [3.8125033663625, 7.43979454359044], [3.8115756261171, 7.43567062192347], [3.81492713883896, 7.43240542036133], [3.8139993436837, 7.42828191843232], [3.81735064211484, 7.42501685607588], [3.82162993051369, 7.42587502393833], [3.82498120942613, 7.42260982918749], [3.82405300518633, 7.41848673833214], [3.82740406978624, 7.41522168305484], [3.82647581072444, 7.41109901217011], [3.82219684120956, 7.41024140522367], [3.82126888145208, 7.4061191630042], [3.8246195371007, 7.40285451910049], [3.8236915225183, 7.39873269694921], [3.81941320634777, 7.39787552731877], [3.81848549098045, 7.39375413388637], [3.81420766867273, 7.39289712125671], [3.81085740243621, 7.39616122169632], [3.81178476378029, 7.40028260646951], [3.80843428340122, 7.40354684655393], [3.80415663648442, 7.40268943015403], [3.80080613680953, 7.40595353806221], [3.79652882471105, 7.40509599826605], [3.79560217142668, 7.400974631084], [3.79895247620513, 7.39771079483856], [3.80322962916804, 7.39856805413097], [3.80657991473711, 7.39530408573915], [3.80565285250212, 7.39118312974685], [3.80900292398028, 7.38791930101047], [3.80807580684793, 7.38379876513128], [3.80379897217512, 7.38294206667613], [3.80287215406266, 7.37882195963112], [3.79859581316194, 7.37796541834957], [3.79766929400429, 7.37384574017704], [3.79339344684538, 7.37298935612658], [3.7924672265775, 7.36887010686476], [3.79581649965078, 7.36560723294911], [3.80009218780661, 7.36646333665764], [3.80344144173307, 7.36320033104041], [3.80251481274789, 7.3590814933999], [3.80586385273138, 7.35581862787613], [3.81013971637676, 7.35667432831491], [3.81348873705363, 7.35341133131642], [3.81256169946731, 7.34929290560466], [3.80828599491965, 7.34843748533318], [3.80735925619177, 7.34431948855279], [3.81070786833397, 7.34105690363227], [3.80978107476652, 7.33693932740483], [3.8131294730104, 7.33367688299402], [3.81740485934373, 7.3345317431014], [3.81833200653982, 7.33864932765467], [3.8149834137776, 7.34191204379329], [3.81591050617941, 7.34603004896674], [3.82018654501656, 7.34688534632243], [3.82353533226228, 7.34362235843671], [3.82260788619098, 7.33950434496093], [3.82595645945015, 7.3362414977028], [3.83023267318138, 7.33709639216223], [3.83358122681445, 7.33383341388323], [3.83785777449817, 7.33468818550374], [3.84120630838206, 7.33142507630253], [3.84027810032684, 7.32730746731609], [3.83600171199925, 7.32645297556599], [3.83507380287673, 7.3223357954696], [3.8384219285082, 7.31907309911825], [3.83749396472435, 7.31495633993994], [3.8408418763774, 7.31169378476023], [3.84511794597404, 7.31254771694012], [3.84846583776812, 7.30928503122304], [3.85274224094391, 7.31013884075538], [3.8536709117724, 7.31425561568178], [3.8579478079321, 7.315109582209], [3.86129587372723, 7.31184649415691], [3.86557310329265, 7.31270033799155], [3.86892114889618, 7.30943711957005], [3.87319871173959, 7.31029084072021], [3.87412838866569, 7.31440805984216], [3.87840644443112, 7.31526193782358], [3.88175466349486, 7.31199831715688], [3.88082463302204, 7.30788109050193], [3.88417263787314, 7.30461761163809], [3.88845086688906, 7.30547108744369], [3.88938125090386, 7.30958832154093], [3.89365997274981, 7.31044195407155], [3.89700815064161, 7.30717807310134], [3.9012872053359, 7.30803158291881], [3.90221824214597, 7.31214925306855], [3.89886987068776, 7.31541340609154], [3.89980085320244, 7.31953149759985], [3.90408056079742, 7.32038544340783], [3.90501184265931, 7.32450396356421], [3.90929204317326, 7.32535806592439], [3.91022362444725, 7.32947701469044], [3.91450431790974, 7.3303312735451], [3.91785326985569, 7.32706630424802], [3.92213429598168, 7.32792044017681], [3.92306653047255, 7.33203982474674], [3.9197173851013, 7.33530506617374], [3.92064956539405, 7.33942487204361], [3.91730020546455, 7.34269025534094], [3.91823233153805, 7.34681048242897], [3.91488275703523, 7.35007600745794], [3.91581482886831, 7.35419665568227], [3.91246503977707, 7.35746232230415], [3.90818337242886, 7.35660706858387], [3.90725165447217, 7.35248642779338], [3.91060124998349, 7.34922103327078], [3.90966947774091, 7.34510081354952], [3.90538846381902, 7.34424599578994], [3.90445699110204, 7.34012620461037], [3.9001764702804, 7.33927154333623], [3.89682726203484, 7.34253639371795], [3.8977583809566, 7.34665617741608], [3.90203906192295, 7.34751111823248], [3.90297048032972, 7.35163133049608], [3.89962086393326, 7.3548965944133], [3.8953400228283, 7.35404137399779], [3.89199038567002, 7.35730650721065], [3.89292139585929, 7.36142713286074], [3.8895715442221, 7.36469240728101], [3.89050250001336, 7.36881345378409], [3.88715243388218, 7.37207886927296], [3.8880833352543, 7.37620033654699], [3.88473305461409, 7.37946589296553], [3.88566390154589, 7.38358778092837], [3.88994538314422, 7.38444412030834], [3.89087652968255, 7.38856643676213], [3.88752584055827, 7.39183240597013], [3.8884569326594, 7.39595514301546], [3.89273906799732, 7.3968119187319], [3.89608995104635, 7.393545677506], [3.89515850483649, 7.38942293260011], [3.89850917325823, 7.38615683214404], [3.89757767265667, 7.38203450789691], [3.89329585769282, 7.38117829188064], [3.89236465673846, 7.37705639610067], [3.89571491672644, 7.37379070859225], [3.8999965714941, 7.37464664484358], [3.90092812646619, 7.37876854834972], [3.9052102746673, 7.37962464101024], [3.90614212932726, 7.38374697295974], [3.9104247709915, 7.38460322197142], [3.91135692540426, 7.38872598232539], [3.90800608405757, 7.39199248600769], [3.90893818414849, 7.3961156670725], [3.91322147972956, 7.39697235212823], [3.91657251479185, 7.39370557634962], [3.91564006056128, 7.38958238763014], [3.9189908808716, 7.38631575286818], [3.92327434904489, 7.38717203471833], [3.92662514819533, 7.38390526897574], [3.93090894925641, 7.38476142737933], [3.93184211175136, 7.38888463113496], [3.9361264062419, 7.38974094566654], [3.93947737756345, 7.38647377685741], [3.9437620047667, 7.38732996789699], [3.94711295459426, 7.38406266827593], [3.94617908385498, 7.37993944984835], [3.94189461740394, 7.37908353831372], [3.9385438609438, 7.38235056572027], [3.93425972712345, 7.38149453075519], [3.9333265104433, 7.37737174791184], [3.93667707350053, 7.37410499270062], [3.94096104664467, 7.37496074815597], [3.94431158825855, 7.37169386229097], [3.94859589395136, 7.37254949437743], [3.94952981878467, 7.37667229175853], [3.95381461773779, 7.37752807987085], [3.95474884259159, 7.38165130549778], [3.95903413483434, 7.38250724957766], [3.96238504130318, 7.37923968863029], [3.96667066587259, 7.3800955092425], [3.97002155047668, 7.37682781778082], [3.96908661740931, 7.37270457802836], [3.96480115383814, 7.37184903673626], [3.96386652087213, 7.3677262251816], [3.9672169974148, 7.36445894795028], [3.96628231046709, 7.3603365576583], [3.96963257206944, 7.35706942249333], [3.97391771362622, 7.35792440531558], [3.97485275458691, 7.36204680249078], [3.97150229998173, 7.36531420997906], [3.97243728700633, 7.36943702848392], [3.97672308269335, 7.37029244637819], [3.97765836985972, 7.37441569305679]], [[3.84472183343393, 7.38326671162385], [3.84137164576012, 7.38653133926826], [3.84230042317043, 7.39065275813285], [3.83895002120725, 7.39391752593592], [3.83987874390462, 7.39803936508578], [3.84415822261954, 7.39889644481398], [3.84508724467881, 7.40301871259696], [3.84173643393081, 7.40628389224007], [3.84266540128013, 7.4104065802109], [3.84694553351813, 7.41126409696375], [3.85029653871161, 7.40799864548103], [3.84936721722535, 7.40387594910363], [3.85271800801119, 7.40061063761932], [3.85178863186038, 7.39648836149711], [3.85513920825357, 7.39322319015033], [3.8594193551084, 7.39408002306437], [3.86276991137939, 7.39081472010373], [3.86184012654383, 7.38669285613809], [3.85756013947498, 7.38583630329554], [3.85420977745947, 7.38910133436568], [3.84993012431453, 7.38824465818117], [3.84900099289896, 7.38412323102101], [3.84472183343393, 7.38326671162385]], [[3.86110321221383, 7.34720001304136], [3.85682485098227, 7.34634489347815], [3.8534757345308, 7.34960881824525], [3.84919770698685, 7.34875357569154], [3.84584857052663, 7.35201736944757], [3.84677726740088, 7.35613667760297], [3.85105545452196, 7.35699220007105], [3.85440478518795, 7.35372813445082], [3.8586833060786, 7.3545835338672], [3.86203261664926, 7.35131933720628], [3.86110321221383, 7.34720001304136]], [[3.84621408795865, 7.37176064773273], [3.84193558170197, 7.37090456526548], [3.83858580266315, 7.37416878077931], [3.83951433551673, 7.37828935057477], [3.84379300133187, 7.3791457131268], [3.84714297473126, 7.37588122578006], [3.84621408795865, 7.37176064773273]], [[3.96035591414062, 7.40639660358333], [3.96464251516956, 7.40725341833746], [3.96799423811104, 7.4039850296668], [3.9670591668024, 7.39986009855167], [3.96277272682993, 7.39900356328301], [3.95942119711352, 7.40227167966255], [3.96035591414062, 7.40639660358333]], [[3.82611389454982, 7.39134679080742], [3.82704196393596, 7.39546819280814], [3.8313206145418, 7.39632523906544], [3.83467103629387, 7.39306060304401], [3.83374261289338, 7.3889391925659], [3.82946412175148, 7.38808242656807], [3.82611389454982, 7.39134679080742]], [[3.87840398636228, 7.40575348157125], [3.87505284753554, 7.40901960031849], [3.87598347649417, 7.41314317021379], [3.88026559848785, 7.41400062946651], [3.88361693142948, 7.41073423875209], [3.88268594826632, 7.40661066077069], [3.87840398636228, 7.40575348157125]], [[3.88957856494995, 7.45525334102489], [3.88864690019653, 7.45112679724247], [3.88436281561932, 7.45026802838786], [3.88101023550624, 7.45353552306828], [3.88194154575073, 7.45766205856666], [3.88622579062099, 7.45852110768722], [3.88957856494995, 7.45525334102489]], [[3.91400625338642, 7.52717063785035], [3.91065104431782, 7.53044100531334], [3.91158448432939, 7.53457306375601], [3.90822905997157, 7.53784357007776], [3.9039403898772, 7.53698174588865], [3.90300730493389, 7.53284969596732], [3.90636253501289, 7.52957946169523], [3.90542939557591, 7.5254478311472], [3.90878441041752, 7.5221777357449], [3.90785121650814, 7.51804652465372], [3.91120601612749, 7.51477656826124], [3.91027276776695, 7.5106457767104], [3.91362735217921, 7.5073759594677], [3.9179153790792, 7.50823666171177], [3.91884898237089, 7.51236746158149], [3.92313750388447, 7.51322831965066], [3.92407140774257, 7.51735954742305], [3.92071643511904, 7.52062990884996], [3.92165028459614, 7.52476155621415], [3.91829509666191, 7.52803205676895], [3.91400625338642, 7.52717063785035]], [[3.98928109559483, 7.44369616423548], [3.9883446299234, 7.43956825157795], [3.99169753383221, 7.43629835986626], [3.99598709647862, 7.43715610843535], [3.9969239167199, 7.44128402820949], [3.99357081974885, 7.44455419231649], [3.98928109559483, 7.44369616423548]], [[3.40516475623378, 6.45272754732643], [3.40426544797206, 6.44867638362981], [3.40758280125234, 6.44544936613137], [3.41179965809515, 6.44627324221979], [3.41269931345702, 6.450324413078], [3.40938176487895, 6.45355170070466], [3.40516475623378, 6.45272754732643]], [[3.85088514365882, 7.30190614091342], [3.84995671718176, 7.29779021603082], [3.84568096634094, 7.29693684319353], [3.84233348259989, 7.30019911561454], [3.83805806530209, 7.29934562024388], [3.83713029105439, 7.29523013211778], [3.84047758070757, 7.29196813153513], [3.8447528387, 7.29282134725876], [3.84810010850746, 7.28955921642468], [3.85237569996105, 7.29041230967605], [3.8533041809907, 7.29452781332888], [3.85758026524694, 7.2953810636409], [3.85850904515341, 7.29949699621801], [3.85516138737794, 7.30275967080715], [3.85088514365882, 7.30190614091342]], [[3.37452929217919, 6.60579096137949], [3.37363017985117, 6.60173042272242], [3.37695207428326, 6.59849979696781], [3.38117327720835, 6.59932943984664], [3.38207273758591, 6.60338998685717], [3.37875064699181, 6.60662088265387], [3.37452929217919, 6.60579096137949]], [[3.93387750667138, 7.36173875655989], [3.93294448151004, 7.35761724415046], [3.93629442165781, 7.35435104437845], [3.94057758030598, 7.35520608483778], [3.9415109594148, 7.3593276044514], [3.93816082593181, 7.36259407642008], [3.93387750667138, 7.36173875655989]], [[3.34355242937918, 6.5569994709108], [3.34265524335799, 6.55294281117654], [3.34597534788711, 6.54971436750188], [3.35019283472328, 6.55054231366562], [3.35109036841724, 6.55459898176859], [3.3477700676052, 6.55782769535754], [3.34355242937918, 6.5569994709108]], [[4.00766816691404, 7.38040493448687], [4.0086050633192, 7.38452947888529], [4.01289349524756, 7.38538527245827], [4.01383069213469, 7.38951024482481], [4.01047910284772, 7.39277941698962], [4.00619050937061, 7.39192334430165], [4.00525366673317, 7.3877983785824], [4.00096556647483, 7.38694246141398], [4.00002902427904, 7.38281792368704], [4.00338022812829, 7.37954929643849], [4.00244363214019, 7.37542518004765], [4.00579462077023, 7.37215669508208], [4.01008239807753, 7.37301205406719], [4.01101934822931, 7.37713617706258], [4.00766816691404, 7.38040493448687]], [[3.37417910618122, 6.64068622098158], [3.37507857594755, 6.64474932179342], [3.37175524700489, 6.64798121585663], [3.36753264467638, 6.64714973906812], [3.36663352321872, 6.64308664692034], [3.36995665577793, 6.63985502287853], [3.36905747778126, 6.63579235473193], [3.37238040191979, 6.63256087607226], [3.37660270039075, 6.63339179554794], [3.37750222665253, 6.63745447229219], [3.37417910618122, 6.64068622098158]], [[3.33654945739071, 6.59832237657062], [3.33565226331255, 6.59426316206193], [3.33897360418003, 6.59103371860967], [3.34319233563287, 6.59186321979017], [3.34408987764234, 6.59592244297802], [3.3407683402706, 6.59915215632467], [3.33654945739071, 6.59832237657062]], [[3.97968288304613, 7.34726804129921], [3.97874773427665, 7.3431464870293], [3.98209754399742, 7.33987950654225], [3.98638269530413, 7.34073380797077], [3.9873181979901, 7.344855368899], [3.98396819545678, 7.34812262175895], [3.97968288304613, 7.34726804129921]], [[4.00939814680355, 7.42407603814735], [4.00846086437048, 7.41994895318593], [4.01181329253596, 7.4166790826117], [4.01610319592237, 7.41753602454237], [4.01704083282299, 7.42166311630361], [4.01368821187359, 7.42493325935292], [4.00939814680355, 7.42407603814735]], [[3.91861153518345, 7.36656029939633], [3.91767921793214, 7.36243880166819], [3.92102920056797, 7.35917286292779], [3.92531169396815, 7.36002814979633], [3.92624436517696, 7.3641496549106], [3.9228941890319, 7.36741586578875], [3.91861153518345, 7.36656029939633]], [[3.3217342549442, 6.62259106122462], [3.32083757902007, 6.61853058349121], [3.32415955544085, 6.61530082838628], [3.3283784045271, 6.61613128119235], [3.32927542851479, 6.62019176789153], [3.32595325535557, 6.62342179283731], [3.3217342549442, 6.62259106122462]], [[3.74556925883936, 7.41455059889175], [3.74464502861719, 7.41042971563247], [3.7403707166166, 7.40957175031841], [3.73944678510981, 7.40545129606541], [3.742796811625, 7.40218879767503], [3.74707096513414, 7.40304648211157], [3.747995250616, 7.40716694579747], [3.75226989828965, 7.40802478777646], [3.75319448252805, 7.41214568044535], [3.74984406508013, 7.41540872174417], [3.74556925883936, 7.41455059889175]], [[3.36562175671685, 6.5108961415002], [3.36472388415967, 6.50684202249057], [3.36804272947169, 6.50361433629137], [3.36714480051038, 6.49956064239091], [3.37046343794883, 6.49633310349227], [3.37468020019865, 6.49715898851469], [3.37557847652696, 6.50121269023365], [3.37979572559842, 6.50203873823132], [3.38069429297429, 6.50609287292295], [3.37737526387337, 6.50932095183796], [3.37315786320899, 6.50849462602436], [3.3698388219994, 6.51172258221367], [3.36562175671685, 6.5108961415002]], [[3.89834311024421, 7.51219368298691], [3.89741051723945, 7.50806332783696], [3.90076492840202, 7.50479391553089], [3.90505212681927, 7.50565458635958], [3.90598507471933, 7.50978494994381], [3.90263046931064, 7.51305463428361], [3.89834311024421, 7.51219368298691]], [[3.92140897793819, 7.3789264913204], [3.92047641517618, 7.37480414423921], [3.92382680602789, 7.37153779192754], [3.9281099531708, 7.37239351456896], [3.92904286997641, 7.37651586907951], [3.92569228559932, 7.37978249353782], [3.92140897793819, 7.3789264913204]], [[3.92687361184645, 7.52975492565163], [3.92593946171323, 7.52562285044083], [3.92929462838912, 7.52235221689336], [3.93358413921882, 7.52321338643574], [3.93451864440535, 7.52734546989331], [3.93116328371271, 7.53061637558029], [3.92687361184645, 7.52975492565163]], [[3.98242189191271, 7.48568347832205], [3.98148539533598, 7.48155303542421], [3.98483956968234, 7.47828216696863], [3.98913043389418, 7.47914146906795], [3.99006728531007, 7.48327191939414], [3.98671291767888, 7.48654306021122], [3.98242189191271, 7.48568347832205]], [[3.8942491112957, 7.56659646061715], [3.89331624453972, 7.5624627340396], [3.88902742654283, 7.56159994284549], [3.88809486041838, 7.55746664412192], [3.89145075707675, 7.55419612775833], [3.895739414385, 7.55505863815052], [3.89909529026703, 7.55178798810975], [3.90338428192192, 7.55265037361034], [3.90431755846207, 7.55678368987354], [3.90096148814569, 7.56005461193069], [3.90189471015283, 7.56418834729988], [3.89853842448664, 7.567459407655], [3.8942491112957, 7.56659646061715]]]}}