{"type": "FeatureCollection", "features": [{"type": "Feature", "properties": {"threshold": 70}, "geometry": {"type": "MultiPolygon", "coordinates": [[[[-53.771650447971325, -29.698782272624683], [-53.77273905690149, -29.69381998218303], [-53.7649729205146, -29.69398243092077], [-53.76079742770912, -29.698491177578468], [-53.75514680710116, -29.693484343234527], [-53.749775600284124, -29.69376618694676], [-53.74532105424361, -29.688313716273566], [-53.74201089076602, -29.688210917937127], [-53.733724234447514, -29.695928002822072], [-53.725535567083185, -29.692433608226512], [-53.7189241443806, -29.693362238375396], [-53.71066750286386, -29.69682142289115], [-53.70877280458073, -29.702538462236372], [-53.69645479190355, -29.70547567769675], [-53.71199256171502, -29.70833532512641], [-53.71505418985423, -29.71119637783063], [-53.72216518476463, -29.709619383130256], [-53.72464288808734, -29.71402010945437], [-53.7313536293413, -29.713969133896274], [-53.7347684808724, -29.71114254790591], [-53.742566882516755, -29.711075244710532], [-53.73981457054193, -29.70169381151574], [-53.744404271836466, -29.6960587724147], [-53.75166917043586, -29.694844515392223], [-53.754119364823296, -29.703733561904684], [-53.75849182317203, -29.70721206472003], [-53.767000773568185, -29.705359606623293], [-53.77158545538184, -29.701953794304828], [-53.771650447971325, -29.698782272624683]]], [[[-53.88207510521086, -29.691143861100805], [-53.88166959064907, -29.68610620352858], [-53.868894754224456, -29.689243117558746], [-53.8666197517858, -29.681871605074896], [-53.85884366450713, -29.68485546971356], [-53.851010547813516, -29.67662874308134], [-53.84839124117093, -29.67695233313588], [-53.843985066468356, -29.684677092038196], [-53.84084068800805, -29.68501584211167], [-53.837145802900885, -29.675913495139138], [-53.84442911669422, -29.673245139505706], [-53.84324865916012, -29.66622355666652], [-53.820408754213595, -29.663336612412476], [-53.80941872111168, -29.66594793351316], [-53.80271475717552, -29.6706347047675], [-53.79427004621811, -29.668662454032965], [-53.78626443063379, -29.678971064908875], [-53.779360171031975, -29.68151635010696], [-53.778459603632854, -29.688143096305424], [-53.77978781886535, -29.694930375748072], [-53.786596733491656, -29.69547584464857], [-53.79962200377097, -29.70479001964796], [-53.8040392925657, -29.711424980192625], [-53.799787502044865, -29.72176065784382], [-53.801791095833465, -29.7334010148156], [-53.81300413564877, -29.7330367065955], [-53.81672862696616, -29.722061979584172], [-53.82869435376421, -29.716291071659874], [-53.83048499357507, -29.70962650772319], [-53.82695705513394, -29.706526650321088], [-53.82815591095806, -29.702925409533588], [-53.83391241939177, -29.70070292634288], [-53.8407316534641, -29.704668486383433], [-53.84857352029873, -29.703862353852465], [-53.85037004861627, -29.71355926906266], [-53.86092310514332, -29.713542625010934], [-53.86676584962424, -29.707274900918065], [-53.87899874828588, -29.70746378592719], [-53.88207510521086, -29.691143861100805]]]]}}, {"type": "Feature", "properties": {"threshold": 80}, "geometry": {"type": "Polygon", "coordinates": [[[-53.88207510521086, -29.691143861100805], [-53.88166959064907, -29.68610620352858], [-53.86879659864738, -29.6892120032111], [-53.8666197517858, -29.681871605074896], [-53.85884366450713, -29.68485546971356], [-53.851010547813516, -29.67662874308134], [-53.84101114744884, -29.684328343425207], [-53.83769293537688, -29.676205382377937], [-53.84487759392101, -29.673927069261214], [-53.844156428147336, -29.66697830158708], [-53.81846374843249, -29.6633780155989], [-53.80342089669891, -29.669917245602893], [-53.794201705355285, -29.668708994243733], [-53.78626443063379, -29.678971064908875], [-53.77931022702429, -29.681578206973136], [-53.777437933222075, -29.692700475598322], [-53.76087949606294, -29.691683560809064], [-53.75125038358047, -29.693608035676178], [-53.74530000665745, -29.687539885299184], [-53.74190445019374, -29.687449962503763], [-53.733751674255295, -29.695252456808753], [-53.72173121067148, -29.692500773301983], [-53.70777585590791, -29.698881632147366], [-53.69680919617404, -29.698485824407665], [-53.69472326583077, -29.707059510713773], [-53.71175865169468, -29.708272457699287], [-53.71514023031073, -29.711205721247975], [-53.72216518476463, -29.709619383130256], [-53.724889005439074, -29.714091312056524], [-53.73933197569314, -29.713804201636844], [-53.74360939134015, -29.711474913650434], [-53.74005774407809, -29.70087065484261], [-53.74903156269857, -29.694879142446677], [-53.75263512472601, -29.695868847288235], [-53.75414049413043, -29.704507385530505], [-53.759572605225, -29.708744569770186], [-53.76797677203493, -29.706068356063117], [-53.772955125465096, -29.69793760068354], [-53.78069697513926, -29.698993684927633], [-53.78546154392861, -29.695000258899483], [-53.80262430508131, -29.713448602658612], [-53.796482533322006, -29.726915316992695], [-53.80145882531896, -29.733320676980817], [-53.81260346399478, -29.73317152402879], [-53.81592030385214, -29.72946019983154], [-53.81672862696616, -29.722061979584172], [-53.82963001626623, -29.71459684900141], [-53.827935381319456, -29.70304730694668], [-53.8346263200899, -29.701082218859987], [-53.8407316534641, -29.704668486383433], [-53.84821105963792, -29.704674436307993], [-53.85043570467142, -29.713608694628075], [-53.86092310514332, -29.713542625010934], [-53.86675007350566, -29.707383890142143], [-53.87899874828588, -29.70746378592719], [-53.88207510521086, -29.691143861100805]]]}}, {"type": "Feature", "properties": {"threshold": 90}, "geometry": {"type": "Polygon", "coordinates": [[[-53.88207510521086, -29.691143861100805], [-53.88166959064907, -29.68610620352858], [-53.86915828823864, -29.68842153440884], [-53.8666197517858, -29.681871605074896], [-53.85884366450713, -29.68485546971356], [-53.851095110153274, -29.67664531699653], [-53.847340167388516, -29.676222648880632], [-53.84391966769165, -29.682355792955992], [-53.840349153562514, -29.68243244115086], [-53.83886521647712, -29.67544811215349], [-53.84629538764929, -29.674857305116976], [-53.84468362548625, -29.663679082987045], [-53.837260792544335, -29.66619955602691], [-53.81861534187182, -29.663368273763275], [-53.80342089669891, -29.669917245602893], [-53.79427004621811, -29.668662454032965], [-53.78626443063379, -29.678971064908875], [-53.779360171031975, -29.68151635010696], [-53.77836789526774, -29.687990102997666], [-53.77280062925716, -29.688398885415076], [-53.76719530557109, -29.692237962137078], [-53.75237894477379, -29.691631955891566], [-53.74460651902434, -29.68583432797359], [-53.73799687427128, -29.688465395986814], [-53.73266994644861, -29.69525170285618], [-53.723482935383245, -29.691690471009306], [-53.70315703295734, -29.69828269201485], [-53.692416927825555, -29.697001167141956], [-53.6918876846074, -29.7007903081301], [-53.69709557773214, -29.70919688379247], [-53.713194152778634, -29.708961484498293], [-53.71878787853414, -29.718088183580033], [-53.72233320622238, -29.713895475170904], [-53.73063641839693, -29.717069907981376], [-53.73272676417645, -29.713313276043547], [-53.74302585584741, -29.71292390664889], [-53.752195164815404, -29.707735232749478], [-53.75494359740713, -29.709506156458744], [-53.757308088074275, -29.720060031169986], [-53.761532786285535, -29.7203175753995], [-53.772088803457216, -29.717295012414677], [-53.76990100927274, -29.714081397427062], [-53.76302603444519, -29.71409225151929], [-53.76121132168939, -29.711811024449688], [-53.77155675846719, -29.70278946144302], [-53.772372444524386, -29.69835855226631], [-53.78069697513926, -29.698993684927633], [-53.78594596000668, -29.69513295023892], [-53.80259693068994, -29.71342791581195], [-53.80204520870873, -29.717836490210974], [-53.796302103642624, -29.724289753285944], [-53.80094940903012, -29.7314978576137], [-53.796885001023185, -29.743800504156564], [-53.803000635726754, -29.744221314459125], [-53.8039254497584, -29.733423850243167], [-53.813072508583645, -29.732990154440234], [-53.81672862696616, -29.722061979584172], [-53.82878702043303, -29.716163349118528], [-53.83048499357507, -29.70962650772319], [-53.82831194918861, -29.70305754725062], [-53.835688506308955, -29.70176984916056], [-53.84777315131076, -29.706724353543226], [-53.850582034902814, -29.713689558891417], [-53.86092310514332, -29.713542625010934], [-53.8667325313965, -29.708804793778448], [-53.87899874828588, -29.70746378592719], [-53.88207510521086, -29.691143861100805]], [[-53.74814096948965, -29.69882556544286], [-53.753053060240916, -29.700796906676622], [-53.7501394928721, -29.707798519391154], [-53.740645241115836, -29.703284607138123], [-53.74246099998875, -29.698314313360157], [-53.74814096948965, -29.69882556544286]]]}}, {"type": "Feature", "properties": {"threshold": 95}, "geometry": {"type": "Polygon", "coordinates": [[[-53.88471149749755, -29.69031221251871], [-53.8814234577857, -29.68603529532863], [-53.86942215081586, -29.688326764072134], [-53.86719801424711, -29.681717195106014], [-53.85884366450713, -29.68485546971356], [-53.851010547813516, -29.67662874308134], [-53.847340167388516, -29.676222648880632], [-53.843943162278705, -29.682336017097523], [-53.8404212626201, -29.682484845223915], [-53.83929873516963, -29.675444009473466], [-53.84629538764929, -29.674857305116976], [-53.84468362548625, -29.663679082987045], [-53.837260792544335, -29.66619955602691], [-53.81861534187182, -29.663368273763275], [-53.80342089669891, -29.669917245602893], [-53.79427004621811, -29.668662454032965], [-53.78626443063379, -29.678971064908875], [-53.779360171031975, -29.68151635010696], [-53.77836789526774, -29.687990102997666], [-53.77280062925716, -29.688398885415076], [-53.76719530557109, -29.692237962137078], [-53.75195925439485, -29.691073230553382], [-53.747961126315296, -29.68521271755024], [-53.74458547878634, -29.685060496097677], [-53.72824115066238, -29.692972069341405], [-53.71903059159124, -29.69100771972278], [-53.71619601212072, -29.69463546399184], [-53.70341178046259, -29.698233017856513], [-53.692416927825555, -29.697001167141956], [-53.691042570973934, -29.702356061885673], [-53.69709557773214, -29.70919688379247], [-53.7111532707238, -29.70874848509389], [-53.71369903327076, -29.717731236115956], [-53.71790021974783, -29.721185120470118], [-53.725496318324424, -29.71659969586224], [-53.73152293237395, -29.717051608959586], [-53.74310677458197, -29.712896723926953], [-53.75116416488909, -29.707622035415916], [-53.75494359740713, -29.709506156458744], [-53.757308088074275, -29.720060031169986], [-53.76168447595758, -29.72030789299762], [-53.77069738234097, -29.719315684677767], [-53.772731637524366, -29.716825453002922], [-53.76121132168939, -29.711811024449688], [-53.77244311652085, -29.70277089651061], [-53.77272127370115, -29.698372246602474], [-53.78078053543024, -29.698973534137092], [-53.78594596000668, -29.69513295023892], [-53.80259693068994, -29.71342791581195], [-53.80176302085268, -29.71780936029825], [-53.79535118856022, -29.72198710732822], [-53.799146207050065, -29.729865460772213], [-53.796885001023185, -29.743800504156564], [-53.803000635726754, -29.744221314459125], [-53.80376332508803, -29.733603480095592], [-53.81313532355658, -29.732937977869156], [-53.816850611077214, -29.722136421313856], [-53.828637718683076, -29.716348376514066], [-53.83076666162344, -29.708468544805665], [-53.83579702694317, -29.704425612085466], [-53.847951699173485, -29.706876073947054], [-53.84907998443557, -29.71051707752113], [-53.84581627187299, -29.717907695190288], [-53.85138768669832, -29.718375446102883], [-53.85447713468645, -29.713433418401035], [-53.86108753824414, -29.713495170870267], [-53.86698035854535, -29.70873325796036], [-53.87894214842352, -29.707521109972575], [-53.88471149749755, -29.69031221251871]], [[-53.74814096948965, -29.69882556544286], [-53.753053060240916, -29.700796906676622], [-53.7501394928721, -29.707798519391154], [-53.74514834511049, -29.70713844470402], [-53.740718353598865, -29.702910003279765], [-53.74246099998875, -29.698314313360157], [-53.74814096948965, -29.69882556544286]]]}}]}