{"type": "Feature", "geometry": {"type": "MultiPolygon", "coordinates": [[[[73.05958141758498, 51.595091081908684], [73.05938592818116, 51.599263780880484], [73.06360347223998, 51.60388269847303], [73.06330194078964, 51.61146061168069], [73.07005004832614, 51.61633487272358], [73.06955335231831, 51.6238186830816], [73.07537761152335, 51.63441966734835], [73.08514041999378, 51.63639258827034], [73.09112691809975, 51.6416759306777], [73.09521551059397, 51.643015117102934], [73.10565401858607, 51.63873767945757], [73.12684955878433, 51.63884346615091], [73.13108023214895, 51.64417714208242], [73.1287059708696, 51.64914168454994], [73.12675999831306, 51.66050647906118], [73.13530413545416, 51.6664786257625], [73.14198994299336, 51.66715658678849], [73.14531776661161, 51.66581970783352], [73.15195318169337, 51.651342316323834], [73.15129508887469, 51.648566701997275], [73.14853210099228, 51.64653483728135], [73.1388323983275, 51.64599588495721], [73.13618836737051, 51.64451252129097], [73.13550118041616, 51.64084062188564], [73.13922025685545, 51.63427371233752], [73.14866204446761, 51.63726991135263], [73.15419468349918, 51.63631116073144], [73.16261555597472, 51.63967529522906], [73.17816280125926, 51.63206266194365], [73.18098103987063, 51.63320577622871], [73.184191167372, 51.63816193037328], [73.18896489258793, 51.640097724341764], [73.19515131524967, 51.63838022080209], [73.20857533992904, 51.64015412106478], [73.2120322578636, 51.63719324835226], [73.21319224659867, 51.63086867632265], [73.21182732700022, 51.628007804181244], [73.19841151930363, 51.62715984645271], [73.19475385154969, 51.62161434430817], [73.19041172308376, 51.61957851520894], [73.17497884854316, 51.61949102888088], [73.16874609043099, 51.621932338231595], [73.15976514428515, 51.62052267633894], [73.15784830100797, 51.61806690543852], [73.15846437996439, 51.61251874017159], [73.15699957147471, 51.60977245188306], [73.15181554329742, 51.607768791431646], [73.14306494158286, 51.60841707836252], [73.1290385298534, 51.603279908248425], [73.12546464619312, 51.59344618476957], [73.12304916136026, 51.59140814849834], [73.11806822804274, 51.59071075404019], [73.1151710653911, 51.59244170179697], [73.11306345729336, 51.598419076674865], [73.11366415767257, 51.60501462954312], [73.11179803449582, 51.607513185480535], [73.09992159787198, 51.60808389565853], [73.09694019595968, 51.60680991812272], [73.09535062081746, 51.60176664356412], [73.0988326599878, 51.59657373690777], [73.10462962469654, 51.593925842665904], [73.10525735317285, 51.58816911267169], [73.10390745598781, 51.58533127287507], [73.09152524251036, 51.575682404248106], [73.0911162621661, 51.568656409220004], [73.08831683067119, 51.565978751035416], [73.08178986967299, 51.56731437205114], [73.07667295135634, 51.56587743664147], [73.07396230242375, 51.56715423070613], [73.06861899467609, 51.574897540718176], [73.07261822503315, 51.58101277153308], [73.07249113267403, 51.58443105205979], [73.06826672063717, 51.58722915600808], [73.06115881723808, 51.588215844599446], [73.05958141758498, 51.595091081908684]]], [[[73.02006179932152, 51.42176622108977], [73.01778137857384, 51.42373455313625], [73.01709593709616, 51.42809333800549], [73.02192590938033, 51.4331600621389], [73.03186425320925, 51.43216417099837], [73.03753919617756, 51.42529473692835], [73.03680893166639, 51.42215437093495], [73.03282774599035, 51.418791655545895], [73.02006179932152, 51.42176622108977]]], [[[73.01724804117964, 51.49574057887548], [73.02078274755578, 51.49602155007196], [73.03019388816183, 51.49062693441612], [73.03172003943627, 51.48796960288419], [73.03091578568304, 51.485012623938786], [73.02274931083686, 51.480130301781244], [73.00993719374844, 51.48332960034074], [73.00896917799827, 51.4884723685675], [73.01724804117964, 51.49574057887548]]], [[[72.98097616703681, 51.55575635349423], [72.98601835077982, 51.55003608865991], [72.98823866238958, 51.53881500856316], [72.98224028779634, 51.53017667639528], [72.97885378891127, 51.52889007255652], [72.96484408990614, 51.53464514308555], [72.96373801734198, 51.54200559378627], [72.94736445656564, 51.55821575010932], [72.94414337312638, 51.571923798374115], [72.95890077616828, 51.57904336062471], [72.96192478008828, 51.57906383078789], [72.9737503431193, 51.56699202744392], [72.97537794563544, 51.56139028425238], [72.98097616703681, 51.55575635349423]]]]}, "properties": {}}