{"type": "FeatureCollection", "features": [{"type": "Feature", "properties": {"threshold": 70}, "geometry": {"type": "MultiPolygon", "coordinates": [[[[-116.89404511928622, 32.460087122789965], [-116.88928480917538, 32.464018691098715], [-116.87883029971368, 32.46369763142007], [-116.87614327923863, 32.474406726980256], [-116.87214717328183, 32.47862172842489], [-116.8548982748974, 32.481134470590284], [-116.85581432694407, 32.49861595186343], [-116.86144403734589, 32.501615352610415], [-116.86150433133172, 32.506850393101224], [-116.85897917149713, 32.508929518685065], [-116.85089983044955, 32.50748445132309], [-116.84359775600589, 32.50952551996842], [-116.8446359157962, 32.49401264563291], [-116.8414907898316, 32.48863805033061], [-116.8443360638947, 32.48068307159719], [-116.85000277145843, 32.478655160615354], [-116.85187729735395, 32.472463137518346], [-116.84426835462502, 32.46772919474177], [-116.85713537785402, 32.458612001940736], [-116.85727342362448, 32.451914927241894], [-116.87500010578854, 32.44086687665397], [-116.88242896159223, 32.44427878670438], [-116.88748543086551, 32.44162766996201], [-116.89082884895818, 32.444468698755934], [-116.89090625340975, 32.45391749153145], [-116.89443802253244, 32.45679302115591], [-116.89404511928622, 32.460087122789965]]], [[[-117.0575911473361, 32.48800168473996], [-117.04717768949322, 32.49119665284143], [-117.04132630810624, 32.489770488771626], [-117.0351493915887, 32.49339428246393], [-117.03784415711525, 32.50396258133171], [-117.03030933686054, 32.51194266502894], [-117.02324714843051, 32.514079734534214], [-117.02502769382781, 32.51891567392502], [-117.04232296293992, 32.5209219185259], [-117.04090344627781, 32.53630526791243], [-117.04867260712618, 32.54022663571956], [-117.04829395591392, 32.54228548663906], [-116.99581939206574, 32.54542229923181], [-116.98527262938838, 32.5413774312127], [-116.98316016549805, 32.53695478267459], [-116.97536347622652, 32.539136357216066], [-116.97293333119522, 32.533908164804764], [-116.9567313514784, 32.53381591640637], [-116.95311312594689, 32.53610822819468], [-116.94179767709522, 32.536122048464534], [-116.9392379882555, 32.53939533714727], [-116.94298948947832, 32.54609043409125], [-116.96441012590613, 32.54478218765215], [-116.96466047557112, 32.54740171276519], [-116.96059297169663, 32.54923378160214], [-116.90543868277226, 32.55391307770498], [-116.89355954699936, 32.55032629623187], [-116.89989769328821, 32.541795931638816], [-116.89845113599532, 32.53869153615325], [-116.89083111281352, 32.5379315890034], [-116.89521705413337, 32.53366734787506], [-116.89394159704715, 32.52991267474407], [-116.88132224045441, 32.530559457720436], [-116.87547940541833, 32.537585968066026], [-116.8642872539188, 32.536285392108596], [-116.86436113816222, 32.53259957033833], [-116.87002954599379, 32.53134530518867], [-116.87297622732738, 32.52377198344069], [-116.87641787160626, 32.5288446187598], [-116.8823178830657, 32.52888695930709], [-116.88244613174915, 32.52199977505053], [-116.87889818922098, 32.51831925875214], [-116.88321559150162, 32.5097825400389], [-116.88971936822843, 32.5116472104615], [-116.89233030966649, 32.52221949813565], [-116.90605170629034, 32.5192887885907], [-116.90399584567952, 32.5253686206728], [-116.9062585182077, 32.528539152844054], [-116.91419717602379, 32.52299994987786], [-116.92334871308726, 32.52293339760456], [-116.92359667370522, 32.51341950328373], [-116.91614798355744, 32.503622170632234], [-116.91212668950284, 32.50167866880922], [-116.90183539137678, 32.50356619149052], [-116.89045441815468, 32.501171667112075], [-116.88630909761356, 32.498426749713296], [-116.88624262134813, 32.49354123027108], [-116.8940987198483, 32.49319563567355], [-116.90219609884794, 32.485110632355244], [-116.90827974771044, 32.48496670892469], [-116.91479627831791, 32.48135075030136], [-116.90458010031568, 32.45694588660399], [-116.91722049845104, 32.45203684448866], [-116.9234895926955, 32.4447528293759], [-116.9315654493704, 32.44640337748335], [-116.93458105504426, 32.451562991464954], [-116.95224339882725, 32.451719430168644], [-116.96147654239084, 32.455565689058936], [-116.96450593851678, 32.45254193429978], [-116.97110786595454, 32.4520924179919], [-116.9742607526656, 32.44651531506666], [-116.9854374425587, 32.44018590508968], [-116.993521574759, 32.44092873600767], [-116.9959056387634, 32.44311525432861], [-116.99493303417192, 32.449606081244895], [-117.00134581874755, 32.45693197851158], [-117.01925813717762, 32.46346025787746], [-117.02135915224555, 32.468571915424405], [-117.03479171596776, 32.469653188425575], [-117.04376953939087, 32.478601845712944], [-117.0539846294264, 32.4797153373187], [-117.05797672568163, 32.482383496729476], [-117.0575911473361, 32.48800168473996]], [[-116.96138587413152, 32.52113340600465], [-116.95743033528807, 32.51109546370295], [-116.94040262072575, 32.50570408151094], [-116.93259419809017, 32.51048307353871], [-116.93214522759251, 32.51379774001484], [-116.9365667603727, 32.51572977618529], [-116.93997189497408, 32.51367665628931], [-116.9459822842033, 32.51449782329638], [-116.94830020319378, 32.52015426438473], [-116.94351189799269, 32.52292264207683], [-116.93566815368467, 32.522427128953346], [-116.92874132914635, 32.528912972557606], [-116.93103648471835, 32.531151217946096], [-116.93646965432049, 32.530645651251184], [-116.94843724371998, 32.52528067723237], [-116.95817740394169, 32.527817741535856], [-116.96189296006395, 32.525006092685224], [-116.96138587413152, 32.52113340600465]], [[-116.98801530779481, 32.49663315147995], [-116.99075161249635, 32.494159340938836], [-116.9875012541472, 32.49171170585675], [-116.98495723817246, 32.49453698594311], [-116.98801530779481, 32.49663315147995]], [[-116.99774198520457, 32.49731715149278], [-116.99552142019667, 32.49433012262311], [-116.9901198136004, 32.49633758582532], [-116.99363652741701, 32.500801623240996], [-116.99774198520457, 32.49731715149278]], [[-117.00516657972193, 32.492360500263985], [-116.99969533952579, 32.4905021613267], [-116.99733960218236, 32.494142209546396], [-117.00361704101427, 32.49575430321424], [-117.00516657972193, 32.492360500263985]], [[-117.01956725501725, 32.503600229180606], [-117.01501462984125, 32.49406213845552], [-117.00550991133639, 32.49442952676519], [-117.00458600511615, 32.50471986959334], [-117.0078344768275, 32.50947914922301], [-117.02150088779152, 32.512446735813846], [-117.02236928974128, 32.50584872091244], [-117.01956725501725, 32.503600229180606]], [[-117.03155205882297, 32.48270133609258], [-117.02821596322931, 32.47971369173857], [-117.02258389153575, 32.47956695165418], [-117.0180447319658, 32.474177467157936], [-117.0087019404678, 32.48092790083878], [-117.012721009291, 32.48512585422398], [-117.02024042743795, 32.48269500074897], [-117.02305823680965, 32.488875122089006], [-117.03155205882297, 32.48270133609258]]], [[[-117.04502207054021, 32.443678167269816], [-117.04350168245645, 32.44859868231165], [-117.02737696814778, 32.444604197709], [-117.02244299253115, 32.43799123287623], [-117.02255547051259, 32.43114214060955], [-117.02761302672549, 32.42695869349067], [-117.0356888891569, 32.42782803265123], [-117.03629027661886, 32.434712343992885], [-117.04512224572423, 32.43584826100552], [-117.04502207054021, 32.443678167269816]]], [[[-117.07269560165669, 32.380429543428036], [-117.05652033699427, 32.383549020846054], [-117.05137534060572, 32.382459497496484], [-117.05116816442232, 32.38605241916859], [-117.05607381962488, 32.386036102705695], [-117.05932758228741, 32.3944896543414], [-117.0651880094865, 32.39788706210945], [-117.06528444140542, 32.406921314980295], [-117.0464677388555, 32.40737566073507], [-117.04339905195309, 32.40453221522203], [-117.04691583527985, 32.40127891617444], [-117.04705090852296, 32.395784181868585], [-117.043405886882, 32.39143992277771], [-117.04339907670438, 32.37719702964835], [-117.04654492159877, 32.37666585143977], [-117.05259471765743, 32.38105643932234], [-117.05510667622372, 32.373234512690225], [-117.04511230251765, 32.36622499502759], [-117.04207597821744, 32.373620232093444], [-117.03946175098199, 32.37344012807386], [-117.03699311085354, 32.36797945169544], [-117.0392920793112, 32.36195196466601], [-117.0438392605163, 32.36447559682632], [-117.04683840739881, 32.36297123853428], [-117.04779699891026, 32.35774658606085], [-117.04247294576946, 32.34853914996981], [-117.0512743915941, 32.34527693852354], [-117.05213370291598, 32.33558031392518], [-117.05688826396417, 32.33818614815212], [-117.06248447862681, 32.35000645411324], [-117.06076202342294, 32.356095980277104], [-117.06379689662907, 32.36348261713446], [-117.07034275250982, 32.36430104092481], [-117.07341886753156, 32.36851836109622], [-117.07269560165669, 32.380429543428036]]]]}}, {"type": "Feature", "properties": {"threshold": 80}, "geometry": {"type": "MultiPolygon", "coordinates": [[[[-117.0575911473361, 32.48800168473996], [-117.04717768949322, 32.49119665284143], [-117.04132630810624, 32.489770488771626], [-117.0351493915887, 32.49339428246393], [-117.03784415711525, 32.50396258133171], [-117.03030933686054, 32.51194266502894], [-117.02324714843051, 32.514079734534214], [-117.02502769382781, 32.51891567392502], [-117.04232296293992, 32.5209219185259], [-117.04090344627781, 32.53630526791243], [-117.04867260712618, 32.54022663571956], [-117.04829395591392, 32.54228548663906], [-116.99764822994042, 32.54619687009709], [-116.98266040699257, 32.539314487200286], [-116.97719181507122, 32.54068575016178], [-116.97293333119522, 32.533908164804764], [-116.95721804282479, 32.53444565747915], [-116.94026642842157, 32.536964936895444], [-116.9412522138584, 32.544755308454235], [-116.96408173320314, 32.54466686418478], [-116.96425114883405, 32.5484603519388], [-116.90178062744963, 32.55391027316289], [-116.89268137613313, 32.55194305567285], [-116.89868282583717, 32.54608180985814], [-116.89988590645571, 32.540514143368526], [-116.89109448387683, 32.53823304117338], [-116.88931703556949, 32.53243127930121], [-116.88200262057032, 32.53083808432461], [-116.87747317904272, 32.537530032671604], [-116.86428259435897, 32.53938348082324], [-116.86344918526554, 32.531049535203266], [-116.8710207286938, 32.52844925102834], [-116.87260401924304, 32.522539367590355], [-116.87836137767292, 32.5205212792626], [-116.88321559150162, 32.5097825400389], [-116.88971936822843, 32.5116472104615], [-116.89257886230241, 32.52230697203698], [-116.9062555146564, 32.51828557958332], [-116.90911179480668, 32.523096346821795], [-116.92336436394314, 32.52249059796507], [-116.92359667370522, 32.51341950328373], [-116.91614798355744, 32.503622170632234], [-116.91212668950284, 32.50167866880922], [-116.90183539137678, 32.50356619149052], [-116.89045441815468, 32.501171667112075], [-116.88630909761356, 32.498426749713296], [-116.88625242885794, 32.491859497527635], [-116.91464663864032, 32.48154024612795], [-116.90094860132787, 32.4560950837801], [-116.90787041015192, 32.45173870140634], [-116.91628968546586, 32.450423693878946], [-116.91848368282716, 32.444224073797415], [-116.92428837024022, 32.44359234887735], [-116.9289749138709, 32.43855975468183], [-116.93822903792613, 32.450744296250626], [-116.95382750418345, 32.44782971458984], [-116.95737852413143, 32.45151494482401], [-116.96590847799493, 32.45180685588258], [-116.97067398510721, 32.444140063437615], [-116.97758542155252, 32.44439264899031], [-116.98238806908384, 32.44100229765857], [-116.98248370971179, 32.43567321935729], [-116.98895546733273, 32.434732124944205], [-116.9958408259061, 32.44134649341827], [-116.99648655228171, 32.451385692159946], [-117.02108551752713, 32.464234498661924], [-117.02294307487598, 32.467699609652946], [-117.03844669403786, 32.47042665793769], [-117.04353223828888, 32.478494436955124], [-117.05672689197918, 32.48126319387316], [-117.0575911473361, 32.48800168473996]], [[-116.93857503036439, 32.52660021764445], [-116.93420768574155, 32.52405960656526], [-116.92874132914635, 32.528912972557606], [-116.93103648471835, 32.531151217946096], [-116.93674816342852, 32.530582287011], [-116.93857503036439, 32.52660021764445]], [[-116.95304814128107, 32.526059741304294], [-116.9610443521178, 32.5253054959673], [-116.95810879223636, 32.511796515807355], [-116.95041693411079, 32.508404389890515], [-116.94035503216944, 32.508058552011505], [-116.9383446043177, 32.51247398652101], [-116.94810501637664, 32.516215059858844], [-116.94736078151867, 32.52389617735404], [-116.95304814128107, 32.526059741304294]], [[-116.98801530779481, 32.49663315147995], [-116.99075161249635, 32.494159340938836], [-116.9875012541472, 32.49171170585675], [-116.98495723817246, 32.49453698594311], [-116.98801530779481, 32.49663315147995]], [[-116.99774198520457, 32.49731715149278], [-116.99552142019667, 32.49433012262311], [-116.9901198136004, 32.49633758582532], [-116.99363652741701, 32.500801623240996], [-116.99774198520457, 32.49731715149278]], [[-117.00516657972193, 32.492360500263985], [-116.99969533952579, 32.4905021613267], [-116.99733960218236, 32.494142209546396], [-117.00361704101427, 32.49575430321424], [-117.00516657972193, 32.492360500263985]], [[-117.01956725501725, 32.503600229180606], [-117.01501462984125, 32.49406213845552], [-117.00550991133639, 32.49442952676519], [-117.00458600511615, 32.50471986959334], [-117.0078344768275, 32.50947914922301], [-117.02150088779152, 32.512446735813846], [-117.02236928974128, 32.50584872091244], [-117.01956725501725, 32.503600229180606]], [[-117.03155205882297, 32.48270133609258], [-117.02821596322931, 32.47971369173857], [-117.02139623354296, 32.47988767304791], [-117.02090882751229, 32.48765842829569], [-117.02608634212152, 32.48858385495969], [-117.03155205882297, 32.48270133609258]]], [[[-116.8954643096294, 32.45747863447407], [-116.88936895068612, 32.46399325106336], [-116.87883029971368, 32.46369763142007], [-116.87614327923863, 32.474406726980256], [-116.87214717328183, 32.47862172842489], [-116.8548982748974, 32.481134470590284], [-116.85581432694407, 32.49861595186343], [-116.86144403734589, 32.501615352610415], [-116.86150433133172, 32.506850393101224], [-116.85897917149713, 32.508929518685065], [-116.85089983035205, 32.507484451327024], [-116.84359775600589, 32.50952551996842], [-116.84435814447473, 32.4942252388084], [-116.84147754705859, 32.48871294798926], [-116.84438211010598, 32.480618169505114], [-116.84965714959854, 32.47799916265466], [-116.8500746482682, 32.47179528269997], [-116.84027626923684, 32.46455210805186], [-116.83271558757087, 32.469352447768586], [-116.82546450499171, 32.470045819880994], [-116.82435669464834, 32.464487664217934], [-116.82051094014659, 32.46250204442409], [-116.82346712675081, 32.45574474058744], [-116.8354830844306, 32.45476307379601], [-116.84789012476364, 32.464937623212535], [-116.85666929434842, 32.45834649251567], [-116.85641878769545, 32.45263237425414], [-116.87711003167011, 32.43925833466945], [-116.88179562282943, 32.441614117714956], [-116.89066551483441, 32.441104855218086], [-116.89142236470585, 32.452154223762896], [-116.8954643096294, 32.45747863447407]]], [[[-116.97323953717738, 32.40987093938158], [-116.96427709882194, 32.416336065798326], [-116.96635110118736, 32.421370900484895], [-116.97114716468842, 32.42346043611068], [-116.97098681925166, 32.427468045598914], [-116.96026516949192, 32.428576333465195], [-116.95673208369921, 32.431558964112014], [-116.95143441800498, 32.42901110098536], [-116.95132468953713, 32.42261483924496], [-116.9604718334578, 32.41685874836909], [-116.95966382366274, 32.40623550930441], [-116.97335377451193, 32.405271800855694], [-116.97323953717738, 32.40987093938158]]], [[[-117.04785699857516, 32.43737698202499], [-117.04873379487364, 32.443610287957426], [-117.03858167076044, 32.45011984171117], [-117.02626562099431, 32.44445234386669], [-117.02563259619814, 32.439981601464574], [-117.02152964966523, 32.437991392298784], [-117.02152807072981, 32.43134705065276], [-117.02542965763563, 32.42994628047476], [-117.0266154988773, 32.4262098843775], [-117.03453362876706, 32.4261824485601], [-117.03920487880123, 32.43131183768915], [-117.04404786956599, 32.431794050655306], [-117.04785699857516, 32.43737698202499]]], [[[-117.07784839766441, 32.3783848577862], [-117.07650394390923, 32.38116853300652], [-117.05692778204686, 32.3842513786629], [-117.06800039457949, 32.404996215615604], [-117.06509733467473, 32.409584058589694], [-117.06083225836527, 32.41141370584736], [-117.04646932614271, 32.41047382047082], [-117.04339905195309, 32.40453221522203], [-117.0433347325953, 32.382839130390195], [-117.03611721700122, 32.37292664410583], [-117.03607924219429, 32.36488153481874], [-117.0395432848936, 32.361875588480395], [-117.04357572593274, 32.364431201500736], [-117.04673713813403, 32.363166989385775], [-117.04779699891026, 32.35774658606085], [-117.04247294576946, 32.34853914996981], [-117.0512743915941, 32.34527693852354], [-117.05205308004916, 32.335612728358214], [-117.06058352417949, 32.33824938843757], [-117.06174156048596, 32.34593514736517], [-117.06526394488816, 32.3495115670704], [-117.06091919967605, 32.356764699065955], [-117.06407685286828, 32.360507089344644], [-117.06949889754134, 32.360473895674595], [-117.07333222636001, 32.36528680678198], [-117.07784839766441, 32.3783848577862]], [[-117.05459195235446, 32.375244693987554], [-117.05076267940952, 32.368617331327734], [-117.04305864747641, 32.367098929447074], [-117.04256617419082, 32.37150103350016], [-117.04999521840561, 32.38078012794434], [-117.05385682716263, 32.380201881026686], [-117.05459195235446, 32.375244693987554]], [[-117.0548087517426, 32.386736453401085], [-117.05649802241875, 32.3835033763246], [-117.05223321793443, 32.38191906280854], [-117.05090322248627, 32.38564386585641], [-117.0548087517426, 32.386736453401085]]]]}}, {"type": "Feature", "properties": {"threshold": 90}, "geometry": {"type": "MultiPolygon", "coordinates": [[[[-117.0575911473361, 32.48800168473996], [-117.04717768949322, 32.49119665284143], [-117.04132630810624, 32.489770488771626], [-117.0351493915887, 32.49339428246393], [-117.03784415711525, 32.50396258133171], [-117.03030933686054, 32.51194266502894], [-117.02324714843051, 32.514079734534214], [-117.02502769382781, 32.51891567392502], [-117.04232296293992, 32.5209219185259], [-117.04090344627781, 32.53630526791243], [-117.04867260712618, 32.54022663571956], [-117.04845893379114, 32.54222752939351], [-116.99764822994042, 32.54619687009709], [-116.98160171348196, 32.539181308998366], [-116.9752594818777, 32.54134608898767], [-116.97385095287827, 32.547339001419836], [-116.97048142664882, 32.54850588430647], [-116.89430695448317, 32.55467221591687], [-116.89259282773963, 32.550654116700414], [-116.89868282583717, 32.54608180985814], [-116.89889796472208, 32.538944958196744], [-116.89124288005256, 32.53831721845569], [-116.8894058312919, 32.5331247426708], [-116.88514515504076, 32.53211018923242], [-116.8819640508621, 32.53756670799881], [-116.8649758861585, 32.539917100971714], [-116.86242774364118, 32.53366013951696], [-116.86374690158259, 32.53077198202501], [-116.8710207286938, 32.52844925102834], [-116.87276351186259, 32.52235762611878], [-116.87836137767292, 32.5205212792626], [-116.88330231434331, 32.50976421877637], [-116.88971936822843, 32.5116472104615], [-116.89257886230241, 32.52230697203698], [-116.90730510982682, 32.51751183099403], [-116.91055787541592, 32.517692161289204], [-116.91135057607758, 32.52126786453486], [-116.91505740486139, 32.522783291075505], [-116.92347961287162, 32.52228453585334], [-116.92359667370522, 32.51341950328373], [-116.91554631847812, 32.503207100287625], [-116.91158864600315, 32.50165675511336], [-116.90159042974888, 32.503548369413124], [-116.88627908065406, 32.49835541597987], [-116.88756924797217, 32.4897455962312], [-116.89578898169735, 32.48946411166695], [-116.90044514816577, 32.485070324635736], [-116.91510472923153, 32.48072098015734], [-116.90869484140198, 32.46705981796119], [-116.8999847875763, 32.45881107445973], [-116.89654441638858, 32.45844357813532], [-116.88928480917538, 32.464018691098715], [-116.87902283301511, 32.463545000724004], [-116.87614327923863, 32.474406726980256], [-116.87207048281479, 32.47866058551599], [-116.85507920913078, 32.480965722615565], [-116.85581432694407, 32.49861595186343], [-116.86144403734589, 32.501615352610415], [-116.86147411261506, 32.50692166615805], [-116.85889074476306, 32.5089405319441], [-116.85036798732196, 32.50755065595717], [-116.8387759776422, 32.51201447002479], [-116.8343296674611, 32.5101812095642], [-116.83414587553202, 32.50721725499602], [-116.84309296478406, 32.500749766889925], [-116.84433146321307, 32.49399775772326], [-116.8414907898316, 32.48863805033061], [-116.84438211010598, 32.480618169505114], [-116.84965714959854, 32.47799916265466], [-116.84918320933195, 32.47071395910902], [-116.83921822352994, 32.46476504978319], [-116.83271558757087, 32.469352447768586], [-116.8257058229826, 32.47014298364036], [-116.82325789526244, 32.465254907725914], [-116.81697598655904, 32.4632605228787], [-116.81277592075735, 32.467703996436875], [-116.80544432939575, 32.46949936737812], [-116.8039546790094, 32.47944138643423], [-116.79544989770126, 32.47936630678881], [-116.78609261985281, 32.475361676053126], [-116.78394573043865, 32.471587693711484], [-116.78725496504896, 32.467083335658565], [-116.79905193092257, 32.46770470181476], [-116.80421297329097, 32.46555063364051], [-116.80545841056644, 32.46172343937619], [-116.81508517642155, 32.4626847089458], [-116.81734429656437, 32.45709404877399], [-116.83313168547022, 32.45394153065366], [-116.83836339421435, 32.459059891586925], [-116.84392555534346, 32.459537449051595], [-116.84554935833818, 32.46288374400623], [-116.8514086738297, 32.462962384357205], [-116.85635871425265, 32.452688421072445], [-116.86658913960669, 32.4446053780664], [-116.86739765770736, 32.44102639329804], [-116.87254723288876, 32.4391761157154], [-116.87244495895082, 32.43075142944134], [-116.88126871879527, 32.43238542511987], [-116.88258701104887, 32.43793312346268], [-116.89157981472154, 32.44033110983443], [-116.89452554384863, 32.44397837723056], [-116.8918788638444, 32.452577413776275], [-116.89672862967257, 32.45704276535751], [-116.90575057648802, 32.45250785353402], [-116.90771850578442, 32.44638816202897], [-116.91489524192724, 32.446131842056545], [-116.92623487002817, 32.43855817984957], [-116.9325557725673, 32.439478204023054], [-116.93833133231654, 32.44767946104441], [-116.95813962178518, 32.44805573739452], [-116.96900216090785, 32.44561936660238], [-116.96625764390859, 32.43785861779522], [-116.97406132029776, 32.4354429284813], [-116.9794188029755, 32.43779522009364], [-116.9886964264117, 32.43467707331546], [-116.9958408259061, 32.44134649341827], [-116.99648655228171, 32.451385692159946], [-117.00646713017191, 32.45494169021438], [-117.00861495833561, 32.45888888624948], [-117.02108551752713, 32.464234498661924], [-117.02330359510265, 32.467672045397876], [-117.04210209522594, 32.47197455360128], [-117.04551435612008, 32.47839397728628], [-117.05783923750255, 32.48218930833664], [-117.0575911473361, 32.48800168473996]], [[-116.93857503036439, 32.52660021764445], [-116.93420768574155, 32.52405960656526], [-116.92874132914635, 32.528912972557606], [-116.93103648471835, 32.531151217946096], [-116.93674816342852, 32.530582287011], [-116.93857503036439, 32.52660021764445]], [[-116.95304814128107, 32.526059741304294], [-116.9610443521178, 32.5253054959673], [-116.95810879223636, 32.511796515807355], [-116.95041693411079, 32.508404389890515], [-116.94057150781555, 32.50828868986177], [-116.93917481785913, 32.51212824952209], [-116.94830231506344, 32.516465506466645], [-116.94747879656735, 32.52409603079627], [-116.95304814128107, 32.526059741304294]], [[-116.97499528581582, 32.53882974666482], [-116.97441750290417, 32.53484108869622], [-116.97089286687469, 32.53380765677969], [-116.94231981163462, 32.53601123174755], [-116.9391593889058, 32.538944729455714], [-116.94166570958615, 32.54534036639116], [-116.94594463631887, 32.546191791343354], [-116.96966917883572, 32.54376186256041], [-116.9746049505661, 32.54161666030128], [-116.97499528581582, 32.53882974666482]], [[-116.98801530779481, 32.49663315147995], [-116.99075161249635, 32.494159340938836], [-116.9875012541472, 32.49171170585675], [-116.98495723817246, 32.49453698594311], [-116.98801530779481, 32.49663315147995]], [[-116.99774198520457, 32.49731715149278], [-116.99552142019667, 32.49433012262311], [-116.9901198136004, 32.49633758582532], [-116.99363652741701, 32.500801623240996], [-116.99774198520457, 32.49731715149278]], [[-117.00516657972193, 32.492360500263985], [-116.99969533952579, 32.4905021613267], [-116.99733960218236, 32.494142209546396], [-117.00361704101427, 32.49575430321424], [-117.00516657972193, 32.492360500263985]], [[-117.01956725501725, 32.503600229180606], [-117.01501462984125, 32.49406213845552], [-117.00550991133639, 32.49442952676519], [-117.00458600511615, 32.50471986959334], [-117.0078344768275, 32.50947914922301], [-117.02150088779152, 32.512446735813846], [-117.02236928974128, 32.50584872091244], [-117.01956725501725, 32.503600229180606]], [[-117.03155205882297, 32.48270133609258], [-117.02821596322931, 32.47971369173857], [-117.02139623354296, 32.47988767304791], [-117.02090882751229, 32.48765842829569], [-117.02608634212152, 32.48858385495969], [-117.03155205882297, 32.48270133609258]]], [[[-116.9466134637995, 32.40332259765066], [-116.94809902460395, 32.41124624033053], [-116.93586181159175, 32.41113363027435], [-116.93475259199042, 32.40282242920547], [-116.93805939732735, 32.39617890157404], [-116.93208923108915, 32.38847570679598], [-116.93019723378134, 32.38037686897365], [-116.93450368007151, 32.371177725744154], [-116.93960828505072, 32.38320494152184], [-116.94475529870942, 32.38641345156124], [-116.93990115482335, 32.39604377693908], [-116.9466134637995, 32.40332259765066]]], [[[-116.97672836099393, 32.42083247805588], [-116.97383972538347, 32.42735172388912], [-116.96703691780131, 32.43228159062121], [-116.95957108602191, 32.43059528506703], [-116.9572184240616, 32.43526035629439], [-116.95122797786107, 32.436210694080664], [-116.94758251017376, 32.43185733781589], [-116.94667550216516, 32.42119730320385], [-116.95894580895697, 32.41671312532446], [-116.95941467595438, 32.40663057246851], [-116.96269905063318, 32.4037455305598], [-116.97384667636771, 32.403258034406875], [-116.97218889784784, 32.41286442292172], [-116.97672836099393, 32.42083247805588]]], [[[-117.07350745341046, 32.435634097401035], [-117.07339243020252, 32.43972565343106], [-117.06667483220807, 32.444628459945676], [-117.05122901636388, 32.444335826981785], [-117.04683241194454, 32.4466395096281], [-117.04418946501208, 32.45266368723893], [-117.04704958478638, 32.45649983034989], [-117.04359636854218, 32.461754622667435], [-117.0335236730066, 32.45523328290074], [-117.0324895985227, 32.44825744334336], [-117.01866123514723, 32.45402655788254], [-117.01146224662678, 32.44643914354262], [-117.01251031352939, 32.43733983572536], [-117.02809424530756, 32.42456999026411], [-117.02692239196035, 32.421794412606005], [-117.01783778539833, 32.41925468247532], [-117.01895215698116, 32.41481659546793], [-117.02586875716258, 32.41144988296215], [-117.04044575728261, 32.41171337120262], [-117.0361945009056, 32.42482751989856], [-117.05086876667838, 32.43593105882433], [-117.06041756918509, 32.4367701173731], [-117.06447585376195, 32.43000733841038], [-117.0713070781663, 32.430136520025044], [-117.07350745341046, 32.435634097401035]]], [[[-117.07784574141932, 32.375286683951146], [-117.0767451304847, 32.381071555582636], [-117.06021725108658, 32.3860651201739], [-117.06985845364754, 32.40142216341136], [-117.0624177057023, 32.41881905656086], [-117.05583477057081, 32.41988092204631], [-117.05263995367625, 32.41798402209796], [-117.0522934746629, 32.41371148015778], [-117.0462903435851, 32.411080619714184], [-117.04343391403985, 32.404680583526606], [-117.04491614741845, 32.394095366698615], [-117.0426754563686, 32.38366495362554], [-117.03516046113002, 32.3687731231469], [-117.03655372371647, 32.36040369589734], [-117.04357572593274, 32.364431201500736], [-117.04683840739881, 32.36297123853428], [-117.04779699891026, 32.35774658606085], [-117.04247294576946, 32.34853914996981], [-117.0512743915941, 32.34527693852354], [-117.05205308004916, 32.335612728358214], [-117.06058352417949, 32.33824938843757], [-117.06617639705247, 32.34951109168608], [-117.06091919967605, 32.356764699065955], [-117.06407685286828, 32.360507089344644], [-117.0696250184097, 32.36058080287195], [-117.07784574141932, 32.375286683951146]], [[-117.05459195235446, 32.375244693987554], [-117.05076267940952, 32.368617331327734], [-117.04305864747641, 32.367098929447074], [-117.04256710601251, 32.37150270202068], [-117.04999521840561, 32.38078012794434], [-117.05385682716263, 32.380201881026686], [-117.05459195235446, 32.375244693987554]], [[-117.0548087517426, 32.386736453401085], [-117.05649802241875, 32.3835033763246], [-117.05223321793443, 32.38191906280854], [-117.05090322248627, 32.38564386585641], [-117.0548087517426, 32.386736453401085]]]]}}, {"type": "Feature", "properties": {"threshold": 95}, "geometry": {"type": "MultiPolygon", "coordinates": [[[[-117.0575911473361, 32.48800168473996], [-117.04717768949322, 32.49119665284143], [-117.04132630810624, 32.489770488771626], [-117.0351493915887, 32.49339428246393], [-117.03784415711525, 32.50396258133171], [-117.03030933686054, 32.51194266502894], [-117.02324714843051, 32.514079734534214], [-117.02502769382781, 32.51891567392502], [-117.04232296293992, 32.5209219185259], [-117.04090344627781, 32.53630526791243], [-117.04867260712618, 32.54022663571956], [-117.04845893379114, 32.54222752939351], [-116.99764822994042, 32.54619687009709], [-116.98160171348196, 32.539181308998366], [-116.9752594818777, 32.54134608898767], [-116.97385095287827, 32.547339001419836], [-116.97048142664882, 32.54850588430647], [-116.89430695448317, 32.55467221591687], [-116.89259282773963, 32.550654116700414], [-116.89868282583717, 32.54608180985814], [-116.89889796472208, 32.538944958196744], [-116.89124288005256, 32.53831721845569], [-116.8894058312919, 32.5331247426708], [-116.88514515504076, 32.53211018923242], [-116.8819640508621, 32.53756670799881], [-116.8649758861585, 32.539917100971714], [-116.86242774364118, 32.53366013951696], [-116.86374690158259, 32.53077198202501], [-116.8710207286938, 32.52844925102834], [-116.87276351186259, 32.52235762611878], [-116.87836137767292, 32.5205212792626], [-116.88330231434331, 32.50976421877637], [-116.88971936822843, 32.5116472104615], [-116.89257886230241, 32.52230697203698], [-116.90991289921541, 32.517513725514256], [-116.91243486473606, 32.52197596438491], [-116.92336436394314, 32.52249059796507], [-116.92359667370522, 32.51341950328373], [-116.91554631847812, 32.503207100287625], [-116.91158864600315, 32.50165675511336], [-116.90159042974888, 32.503548369413124], [-116.88627908065406, 32.49835541597987], [-116.88756924797217, 32.4897455962312], [-116.89578898169735, 32.48946411166695], [-116.90044514816577, 32.485070324635736], [-116.91502643174027, 32.48093913521247], [-116.90882120835519, 32.46724930138574], [-116.90365343251362, 32.46234486533661], [-116.89733084144952, 32.45890759492686], [-116.88928480917538, 32.464018691098715], [-116.87969099125742, 32.46319029892026], [-116.87221900096412, 32.47857668681137], [-116.85527878525039, 32.480812819057384], [-116.85581432694407, 32.49861595186343], [-116.86144403734589, 32.501615352610415], [-116.86147411261506, 32.50692166615805], [-116.85889074476306, 32.5089405319441], [-116.85036798732196, 32.50755065595717], [-116.8387759776422, 32.51201447002479], [-116.8343296674611, 32.5101812095642], [-116.83414587553202, 32.50721725499602], [-116.84309296478406, 32.500749766889925], [-116.84433146321307, 32.49399775772326], [-116.8414907898316, 32.48863805033061], [-116.84438211010598, 32.480618169505114], [-116.84965714959854, 32.47799916265466], [-116.84918320933195, 32.47071395910902], [-116.83921822352994, 32.46476504978319], [-116.83271558757087, 32.469352447768586], [-116.8257058229826, 32.47014298364036], [-116.82325789526244, 32.465254907725914], [-116.8175075928503, 32.46319445824774], [-116.81277592075735, 32.467703996436875], [-116.80544432939575, 32.46949936737812], [-116.80428634101463, 32.479405869897185], [-116.79553396432597, 32.479391957275986], [-116.79012586830395, 32.47555856527499], [-116.78175106108252, 32.47624518325941], [-116.78120283117752, 32.47235748660561], [-116.78733913822798, 32.46705796377892], [-116.80355529935592, 32.46598118369037], [-116.80562339591316, 32.4616657998223], [-116.81533736925117, 32.46259097397619], [-116.81701603981486, 32.4573454272664], [-116.82125313185274, 32.455474296098686], [-116.83448693735994, 32.45396172117608], [-116.83836339421435, 32.459059891586925], [-116.84543968638567, 32.459397372553795], [-116.85153437066519, 32.46286607020031], [-116.85635871425265, 32.452688421072445], [-116.86658913960669, 32.4446053780664], [-116.86739765770736, 32.44102639329804], [-116.87231531591061, 32.43917278238363], [-116.86988039966594, 32.432337290371386], [-116.87244495895082, 32.43075142944134], [-116.88134526409301, 32.43242443254195], [-116.8835591369541, 32.43788799762591], [-116.89039406884505, 32.43858998629987], [-116.89522969079415, 32.44343234125427], [-116.89177581605993, 32.45194386133266], [-116.89557967494174, 32.4566163643008], [-116.90593158325294, 32.45233074101166], [-116.90680587675526, 32.44561295462017], [-116.91325951377817, 32.445787782634135], [-116.91685774918028, 32.440972777643054], [-116.92723548589653, 32.43776582351418], [-116.9335358341603, 32.43875504888875], [-116.93926412915734, 32.44778860229548], [-116.95965235679185, 32.447703204122845], [-116.96168798783283, 32.44482813654844], [-116.96774876042608, 32.44406063724804], [-116.96702545197381, 32.435038785544826], [-116.96172037724563, 32.43194784332578], [-116.95058265654448, 32.43758153799194], [-116.94664537919603, 32.421268597904344], [-116.95893033887825, 32.41595593659704], [-116.95941467595438, 32.40663057246851], [-116.96247002330173, 32.40386189407842], [-116.97317956255499, 32.40291862685842], [-116.97672869123032, 32.42622464268291], [-116.96872858604907, 32.43068258020433], [-116.9678963274949, 32.43610774398646], [-116.97508490533471, 32.43546076602906], [-116.97915119952864, 32.43781752676631], [-116.98911278695579, 32.43480345467742], [-116.9958408259061, 32.44134649341827], [-116.99648655228171, 32.451385692159946], [-117.00646713017191, 32.45494169021438], [-117.02330359510265, 32.467672045397876], [-117.04118805696385, 32.47120032354028], [-117.04529458616253, 32.47824970356181], [-117.05783923750255, 32.48218930833664], [-117.0575911473361, 32.48800168473996]], [[-116.93857503036439, 32.52660021764445], [-116.93420768574155, 32.52405960656526], [-116.92874132914635, 32.528912972557606], [-116.93103648471835, 32.531151217946096], [-116.93674816342852, 32.530582287011], [-116.93857503036439, 32.52660021764445]], [[-116.95304814128107, 32.526059741304294], [-116.9610443521178, 32.5253054959673], [-116.95810879223636, 32.511796515807355], [-116.95041693411079, 32.508404389890515], [-116.94057150781555, 32.50828868986177], [-116.93917481785913, 32.51212824952209], [-116.94830231506344, 32.516465506466645], [-116.94747879656735, 32.52409603079627], [-116.95304814128107, 32.526059741304294]], [[-116.97499528581582, 32.53882974666482], [-116.97441750290417, 32.53484108869622], [-116.97089286687469, 32.53380765677969], [-116.94231981163462, 32.53601123174755], [-116.9391593889058, 32.538944729455714], [-116.94166570958615, 32.54534036639116], [-116.94594463631887, 32.546191791343354], [-116.96966917883572, 32.54376186256041], [-116.9746049505661, 32.54161666030128], [-116.97499528581582, 32.53882974666482]], [[-116.98801530779481, 32.49663315147995], [-116.99075161249635, 32.494159340938836], [-116.9875012541472, 32.49171170585675], [-116.98495723817246, 32.49453698594311], [-116.98801530779481, 32.49663315147995]], [[-116.99774198520457, 32.49731715149278], [-116.99552142019667, 32.49433012262311], [-116.9901198136004, 32.49633758582532], [-116.99363652741701, 32.500801623240996], [-116.99774198520457, 32.49731715149278]], [[-117.00516657972193, 32.492360500263985], [-116.99969533952579, 32.4905021613267], [-116.99733960218236, 32.494142209546396], [-117.00361704101427, 32.49575430321424], [-117.00516657972193, 32.492360500263985]], [[-117.01956725501725, 32.503600229180606], [-117.01501462984125, 32.49406213845552], [-117.00550991133639, 32.49442952676519], [-117.00458600511615, 32.50471986959334], [-117.0078344768275, 32.50947914922301], [-117.02150088779152, 32.512446735813846], [-117.02236928974128, 32.50584872091244], [-117.01956725501725, 32.503600229180606]], [[-117.03155205882297, 32.48270133609258], [-117.02821596322931, 32.47971369173857], [-117.02139623354296, 32.47988767304791], [-117.02090882751229, 32.48765842829569], [-117.02608634212152, 32.48858385495969], [-117.03155205882297, 32.48270133609258]]], [[[-116.94913473351203, 32.40860576892784], [-116.94221933899749, 32.4137276482415], [-116.93712822439225, 32.41368129464362], [-116.93478159730168, 32.410867514339266], [-116.93384186352134, 32.39972379063987], [-116.93643710642857, 32.395199845821395], [-116.93019723378134, 32.38037686897365], [-116.93450368007151, 32.371177725744154], [-116.93960828505072, 32.38320494152184], [-116.94475529870942, 32.38641345156124], [-116.94067592912984, 32.39627107563295], [-116.94913473351203, 32.40860576892784]]], [[[-117.07350745341046, 32.435634097401035], [-117.07333927862635, 32.43978651454412], [-117.06484856811772, 32.44540394915129], [-117.04955390359, 32.44553905837306], [-117.04512870324483, 32.45143386186831], [-117.04798303825906, 32.454856893167914], [-117.04796598728238, 32.46192122214347], [-117.0454246992511, 32.46407757685549], [-117.03357690554513, 32.45529409873907], [-117.03197539666023, 32.4500406517559], [-117.02746802392276, 32.45104589018537], [-117.02572323902776, 32.456951992016926], [-117.0222276560902, 32.457113004284345], [-117.01146224662678, 32.44643914354262], [-117.01337728935688, 32.43430655859888], [-117.0179202530236, 32.43332822946655], [-117.0254854286338, 32.42567776448296], [-117.02394613344086, 32.423236598566625], [-117.01804062969592, 32.42276674947582], [-117.01695893724242, 32.416631519623586], [-117.02586875716258, 32.41144988296215], [-117.04044575728261, 32.41171337120262], [-117.03723360194277, 32.42562024296291], [-117.04113992307447, 32.430134194184745], [-117.04763398156294, 32.43019281064444], [-117.052805429857, 32.4367891134445], [-117.06087812523768, 32.436535718199224], [-117.06523211322406, 32.42923893000872], [-117.07144504597052, 32.43023241702918], [-117.07350745341046, 32.435634097401035]]], [[[-117.07805755017588, 32.37569072662947], [-117.07681677945358, 32.38102639648021], [-117.06336928829874, 32.38646865257316], [-117.06461268773873, 32.394179495203694], [-117.06984339178022, 32.3988723464046], [-117.06894068015269, 32.41234114724406], [-117.06553304820262, 32.41437333080325], [-117.06504464189331, 32.41970921282136], [-117.05583715619805, 32.423753613460796], [-117.05348749905338, 32.42249112655316], [-117.05263113295206, 32.414102036249545], [-117.04634395473634, 32.411915970438265], [-117.04343391403985, 32.404680583526606], [-117.04477805614293, 32.39402533098749], [-117.04160186150854, 32.39151399630447], [-117.03961947935886, 32.37628520173347], [-117.03516046113002, 32.3687731231469], [-117.03655372371647, 32.36040369589734], [-117.04357572593274, 32.364431201500736], [-117.04683840739881, 32.36297123853428], [-117.04779699891026, 32.35774658606085], [-117.04247294576946, 32.34853914996981], [-117.0512743915941, 32.34527693852354], [-117.05205308004916, 32.335612728358214], [-117.06058352417949, 32.33824938843757], [-117.06617639705247, 32.34951109168608], [-117.06091919967605, 32.356764699065955], [-117.06383983692837, 32.36039971642108], [-117.07236394214945, 32.362128352937376], [-117.07805755017588, 32.37569072662947]], [[-117.05459195235446, 32.375244693987554], [-117.05076267940952, 32.368617331327734], [-117.04305864747641, 32.367098929447074], [-117.04256710601251, 32.37150270202068], [-117.04999521840561, 32.38078012794434], [-117.05385682716263, 32.380201881026686], [-117.05459195235446, 32.375244693987554]], [[-117.0548087517426, 32.386736453401085], [-117.05649802241875, 32.3835033763246], [-117.05223321793443, 32.38191906280854], [-117.05090322248627, 32.38564386585641], [-117.0548087517426, 32.386736453401085]]]]}}]}