{"type": "FeatureCollection", "features": [{"type": "Feature", "properties": {"threshold": 70}, "geometry": {"type": "MultiPolygon", "coordinates": [[[[-59.97299559113821, -3.013280757810495], [-59.973883519559976, -3.009280845922555], [-59.970750716090706, -3.0062076899064176], [-59.95886922310197, -3.0053925246829962], [-59.95034533600211, -3.0079155660715085], [-59.9251154887068, -3.004888176687381], [-59.91497559597436, -3.0279044221468814], [-59.91830993602758, -3.0426110934024844], [-59.915853927524964, -3.045450768610375], [-59.917635536519256, -3.052803525005269], [-59.91422749106742, -3.058825663335243], [-59.91283215203801, -3.073786811552818], [-59.923654480955335, -3.0814859142310183], [-59.92721643922771, -3.077572075551484], [-59.93556068911372, -3.075450376571232], [-59.937215143849926, -3.0699112450497177], [-59.94599867743913, -3.0628669256865977], [-59.9563627808573, -3.061132181397677], [-59.954620714119166, -3.0540552938916012], [-59.94652982119378, -3.05470436849314], [-59.94055904088969, -3.0489682010393673], [-59.93595973513424, -3.0385095420874397], [-59.9447069920768, -3.0340108022445147], [-59.950879075531404, -3.034635169705262], [-59.96280275758936, -3.0302999805363338], [-59.964346062954874, -3.0174166461464145], [-59.97299559113821, -3.013280757810495]]], [[[-59.975677473080644, -3.081793279320938], [-59.97655360393256, -3.0736153184341433], [-59.971836893864605, -3.070566645782347], [-59.95232120575629, -3.0722724226822815], [-59.950036216718146, -3.0753605653151372], [-59.95114854296992, -3.080420909163036], [-59.959190459645725, -3.0794458270277585], [-59.96142040326319, -3.0847234854779484], [-59.97262850901916, -3.0847119126117164], [-59.975677473080644, -3.081793279320938]]], [[[-60.07694818950232, -3.066350486225507], [-60.07412483903783, -3.0619479757974593], [-60.064697516378935, -3.0605769032234122], [-60.06253636860828, -3.0528253089448274], [-60.0499520417777, -3.051501957115609], [-60.04748340795787, -3.046148964986429], [-60.03017989551288, -3.04611862700497], [-60.02132901873256, -3.0422149535503227], [-60.02217976122382, -3.0342937947288537], [-60.01896708330078, -3.030828148101943], [-60.02047430235195, -3.025863587784827], [-60.01514517348568, -3.0223936200286263], [-60.01804205386702, -3.0163083290580013], [-60.02326575682392, -3.01123120229313], [-60.032350522506825, -3.0118284594705], [-60.04051032838166, -3.006723064666192], [-60.04289554557828, -3.00898166016914], [-60.04044460391075, -3.0133533501695697], [-60.041373082507754, -3.01891896719982], [-60.04725057618105, -3.0184909445907664], [-60.05370096438351, -3.0077112345358255], [-60.0487511670566, -3.0011685337260383], [-60.04857287191192, -2.9905405419060207], [-60.04384051797344, -2.987622998058413], [-60.03665717871827, -2.9933531603295473], [-60.03063891111738, -2.992065386929077], [-60.02910146371135, -3.0015536152790867], [-60.020861619270896, -2.9999228923334074], [-60.0228985288535, -2.989251671296844], [-60.01981006959992, -2.983869749757596], [-60.02352675104549, -2.982339547656807], [-60.02502366402193, -2.977925380763224], [-60.03532899767972, -2.976011377461017], [-60.03419028732983, -2.972782669382694], [-60.02818862291306, -2.970710990536659], [-60.025081246540616, -2.962835817969796], [-60.02131420929083, -2.9629723185118824], [-60.01930820851903, -2.9718311881554467], [-60.016484986005906, -2.9705603469161432], [-60.01567678452533, -2.965187865838048], [-60.00576232471953, -2.9669630956818627], [-60.00770766849753, -2.9771102305480848], [-59.99898070765878, -2.982300931378141], [-59.993359757331234, -2.981269509994377], [-59.98993466601693, -2.9736140796779558], [-59.98405035469376, -2.975481779743525], [-59.98224479745268, -2.988928090376903], [-59.99089847890979, -2.9896416820095553], [-59.992956736959016, -2.994504550072391], [-59.99178039170265, -2.9979857622828052], [-59.9880633920643, -2.999214680288922], [-59.98891860080955, -3.0080516875107906], [-59.99731174156994, -3.012696814053396], [-59.99512811116572, -3.0222005440130353], [-59.9876294859754, -3.0229976843967448], [-59.98567632991732, -3.0281919691058], [-59.99182463324443, -3.030261765151349], [-59.995403020917884, -3.0233725668577582], [-59.9995731038351, -3.026144574182948], [-60.009026316662585, -3.0262322156630845], [-60.01219202457977, -3.0285485389873683], [-60.01278793468388, -3.0365414535018598], [-60.01007886395551, -3.0381841607515305], [-60.004985272199576, -3.034543264663261], [-59.99944100644463, -3.0345862651946405], [-59.99412066813956, -3.047122972601316], [-59.98816848249212, -3.047865557113075], [-59.98286059462184, -3.045410072024571], [-59.97886496060803, -3.0300065410661174], [-59.974566037913505, -3.0287785541833583], [-59.969041993471876, -3.0343625198935023], [-59.9702728089727, -3.044349659762388], [-59.962753255837605, -3.0447923085399866], [-59.95991365678703, -3.051423382494917], [-59.96330396502073, -3.0555104757228073], [-59.97261019507632, -3.051547250217828], [-59.97532021288037, -3.055375742218316], [-59.98084667416687, -3.056242906303029], [-59.98434900650324, -3.0627802963008763], [-59.98976707346891, -3.064418016504451], [-59.98915374446346, -3.07087169365609], [-59.99723675303456, -3.074321849765258], [-59.99836465812099, -3.0801073294455996], [-60.00283998348931, -3.082486305694499], [-60.00164539296123, -3.091652336262726], [-60.00782281124272, -3.096608139606495], [-60.01003262298895, -3.105907203280328], [-60.01533623194545, -3.1115376924512237], [-60.00759039121144, -3.124005933656238], [-60.00289080104666, -3.124136010202488], [-60.00028580768281, -3.120508173956863], [-60.00413380862559, -3.1156402506514094], [-60.00237332676092, -3.1018756860758927], [-59.99873057213895, -3.097334477295896], [-59.99426004907715, -3.0963259449749825], [-59.992235549886104, -3.088325471035873], [-59.982676332193826, -3.0807715268770433], [-59.98336788987705, -3.0950465489019647], [-59.98999541543511, -3.0994266877886125], [-59.99087543789019, -3.114167067853193], [-59.99697017667718, -3.1198391355828137], [-59.99264777408451, -3.123410392578179], [-59.98471948467968, -3.120694134999418], [-59.98181802238267, -3.1227503437277093], [-59.9817471469976, -3.126647860770757], [-59.98572328726307, -3.1312963661267106], [-59.9843566043227, -3.138568862556968], [-59.98874212820662, -3.1406911454651505], [-59.993674424214554, -3.1487654528900983], [-60.00606236120656, -3.149793045581348], [-60.018108050207466, -3.143216235507578], [-60.02372792334943, -3.1429747832973054], [-60.02731636161893, -3.137066298718519], [-60.040448619183955, -3.12946637533188], [-60.04245014454143, -3.124026810624798], [-60.0516125447199, -3.116662158292404], [-60.06788743887102, -3.111784901800818], [-60.07390205926768, -3.1013146522039405], [-60.07061366546593, -3.092731287415028], [-60.07055509657511, -3.0822155437034127], [-60.076267080545, -3.073055885201366], [-60.07694818950232, -3.066350486225507]], [[-60.000054464523835, -3.0543326350287288], [-60.003080659871436, -3.056511660443353], [-60.001152474362094, -3.059533033062565], [-59.996004000904136, -3.057049790779352], [-59.99722722248391, -3.054145530337878], [-60.000054464523835, -3.0543326350287288]], [[-60.00217376104454, -3.1363158044609047], [-60.00566371613427, -3.1379627182514938], [-60.00357338365572, -3.1414453049550364], [-60.00039343363412, -3.139383320409459], [-60.00217376104454, -3.1363158044609047]], [[-60.020170672933574, -3.0537869066735412], [-60.01820464217471, -3.0484518988588456], [-60.02328466327971, -3.0471097119980297], [-60.02454744774791, -3.053276281309743], [-60.020170672933574, -3.0537869066735412]], [[-60.04649754682659, -3.100282823457204], [-60.045443768692856, -3.1062461963877652], [-60.038073073625, -3.1067185531648995], [-60.03224890238199, -3.0994983434524905], [-60.03425980851298, -3.0971351229713684], [-60.04423876554195, -3.0970735629818984], [-60.04649754682659, -3.100282823457204]]]]}}, {"type": "Feature", "properties": {"threshold": 80}, "geometry": {"type": "MultiPolygon", "coordinates": [[[[-59.97299559113821, -3.013280757810495], [-59.973883519559976, -3.009280845922555], [-59.970750716090706, -3.0062076899064176], [-59.95886922310197, -3.0053925246829962], [-59.95011612637349, -3.0079055786360005], [-59.921788440791225, -3.0040614813418447], [-59.92103885422225, -3.0129900087670984], [-59.91244120446278, -3.01712856903495], [-59.91609748702322, -3.0225312482694373], [-59.91496655929967, -3.0289841510922226], [-59.91760233069475, -3.0321270187401037], [-59.918319356213445, -3.041962325046323], [-59.915853927524964, -3.045450768610375], [-59.917635536519256, -3.052803525005269], [-59.91422749106742, -3.058825663335243], [-59.91283215203801, -3.073786811552818], [-59.923654480955335, -3.0814859142310183], [-59.93556068911372, -3.075450376571232], [-59.937215143849926, -3.0699112450497177], [-59.94599867743913, -3.0628669256865977], [-59.9563627808573, -3.061132181397677], [-59.954620714119166, -3.0540552938916012], [-59.94652982119378, -3.05470436849314], [-59.94055904088969, -3.0489682010393673], [-59.93595973513424, -3.0385095420874397], [-59.9447069920768, -3.0340108022445147], [-59.950879075531404, -3.034635169705262], [-59.96280275758936, -3.0302999805363338], [-59.964346062954874, -3.0174166461464145], [-59.97299559113821, -3.013280757810495]]], [[[-60.090440424912295, -3.077482797463131], [-60.08833958000338, -3.06611942252926], [-60.07913742734034, -3.0668288677208047], [-60.07412483903783, -3.0619479757974593], [-60.06529966663311, -3.060959991890996], [-60.06267160798859, -3.0529155918950224], [-60.05121492238249, -3.0517299947125642], [-60.04748340795787, -3.046148964986429], [-60.029839943222605, -3.0454863971022115], [-60.02218948701218, -3.04227239925489], [-60.02301323834564, -3.035127025012351], [-60.019781259150925, -3.029200680110171], [-60.03411587501086, -3.009880373107035], [-60.04236313803105, -3.008156446334918], [-60.04044264606557, -3.016939614241039], [-60.04301925738931, -3.020185963107019], [-60.05021472515067, -3.0156875515824995], [-60.05370096438351, -3.0077112345358255], [-60.05365212674528, -3.0015392587829224], [-60.04973503735678, -2.9982350929412225], [-60.04948185713945, -2.9890969309225657], [-60.04662575924654, -2.9852328801121226], [-60.04071903258524, -2.985249324652851], [-60.04039538652036, -2.9896638543700926], [-60.036333632139225, -2.9921011954182215], [-60.02537110727594, -2.9904808509702234], [-60.02299318997057, -2.987201729889305], [-60.02628022320319, -2.9781949196713526], [-60.03532899767972, -2.976011377461017], [-60.03335690505565, -2.9719494070479526], [-60.02901972347138, -2.9707086993805683], [-60.02712770843407, -2.9653849821192084], [-60.0275450531899, -2.951966643562335], [-60.02041436295865, -2.953017964043009], [-60.024051551647304, -2.9601293793249743], [-60.01953767644445, -2.9660028582739795], [-60.00563711625863, -2.9670669774570433], [-60.003153420457565, -2.978783724330197], [-59.99920688516866, -2.9822062863702237], [-59.992026203630665, -2.9794925327397936], [-59.98993466601693, -2.9736140796779558], [-59.98321921583228, -2.9754840407062892], [-59.98227974445005, -2.9890018558620395], [-59.991412534052046, -2.9915534852593786], [-59.98804159046961, -2.9984583973677545], [-59.98894618973456, -3.008128540093548], [-59.99731174156994, -3.012696814053396], [-59.99512811116572, -3.0222005440130353], [-59.9876294859754, -3.0229976843967448], [-59.985711280885326, -3.02826573294972], [-59.99182463324443, -3.030261765151349], [-59.995403020917884, -3.0233725668577582], [-59.9995731038351, -3.026144574182948], [-60.009026316662585, -3.0262322156630845], [-60.01219202457977, -3.0285485389873683], [-60.01278793468388, -3.0365414535018598], [-60.01007886395551, -3.0381841607515305], [-60.004985272199576, -3.034543264663261], [-59.99944100644463, -3.0345862651946405], [-59.99412066813956, -3.047122972601316], [-59.98816848249212, -3.047865557113075], [-59.98260589008911, -3.0450112764625943], [-59.97877439184853, -3.029871083226295], [-59.972686527150664, -3.029723816540478], [-59.96902246182632, -3.0344418317927344], [-59.970398036935315, -3.04413830358053], [-59.962753255837605, -3.0447923085399866], [-59.95992580379837, -3.051504171730062], [-59.96285205706232, -3.055410394188557], [-59.96733760116831, -3.055499279098848], [-59.97238385206862, -3.051453735658735], [-59.97952408376174, -3.0576612707912165], [-59.977408231767924, -3.0655801486816943], [-59.98055425606832, -3.0679013342701213], [-59.980520402916426, -3.072696908211577], [-59.977650101429674, -3.0740803539053756], [-59.97153515304288, -3.0705286151001205], [-59.95232120575629, -3.0722724226822815], [-59.95000723957278, -3.078883307293848], [-59.95325808806351, -3.0814356395495492], [-59.9596651078688, -3.079846430996579], [-59.961582048136165, -3.0855904938505314], [-59.97270729607085, -3.0846918382630903], [-59.97825881826862, -3.079776807607251], [-59.98164656428903, -3.0818343118221145], [-59.98336788987705, -3.0950465489019647], [-59.99017631752409, -3.0998941826828896], [-59.990903037145884, -3.11424391787], [-59.996965121998414, -3.1195880641366456], [-59.99313113619864, -3.1233369027875186], [-59.985806282398485, -3.12062463409893], [-59.98175631393078, -3.12290130978563], [-59.98543761915801, -3.131211732530926], [-59.984294041126724, -3.1384182521994255], [-59.98858433335972, -3.1430309281625446], [-59.98868205848563, -3.147108662225275], [-59.99410393493103, -3.1506632553788894], [-60.00598199489286, -3.149805267093351], [-60.018108050207466, -3.143216235507578], [-60.023797517295, -3.142932577308084], [-60.03565055061145, -3.130702584625632], [-60.04050868267861, -3.129411333149256], [-60.04399770480362, -3.122565464097203], [-60.06794184324541, -3.1117242076177996], [-60.073904474450536, -3.1021501771585656], [-60.070568482625255, -3.0916695640174], [-60.07180471250883, -3.0863972286738512], [-60.07549667694981, -3.084678627099346], [-60.074125344638105, -3.0777685079475026], [-60.08478160698216, -3.0779165495406082], [-60.08793580190131, -3.0827296958161816], [-60.090440424912295, -3.077482797463131]], [[-60.00157259172209, -3.0862068621939303], [-59.99994276346445, -3.0895124473239908], [-59.99289518467759, -3.0899453870544358], [-59.99317186569541, -3.075073841560401], [-59.99776864367993, -3.0752659446679838], [-60.00157259172209, -3.0862068621939303]], [[-60.00217376104454, -3.1363158044609047], [-60.00566371613427, -3.1379627182514938], [-60.00357338365572, -3.1414453049550364], [-60.00039343363412, -3.139383320409459], [-60.00217376104454, -3.1363158044609047]], [[-60.01235510585948, -3.1155379884676684], [-60.007003848251024, -3.124445838088517], [-60.00052492052524, -3.1214562673954576], [-60.004140397981956, -3.1154970887732776], [-60.00108053775802, -3.0991253676605344], [-60.00442842083163, -3.0957223731259362], [-60.00782281124272, -3.096608139606495], [-60.01003262298895, -3.105907203280328], [-60.01533623194545, -3.1115376924512237], [-60.01235510585948, -3.1155379884676684]], [[-60.02390889608942, -3.0514643238480783], [-60.02055892640412, -3.053825573721712], [-60.01814512965349, -3.049405016039315], [-60.022293650085345, -3.0475379267707865], [-60.02390889608942, -3.0514643238480783]], [[-60.046497361044594, -3.1032045525613903], [-60.04442712747386, -3.1056820396507976], [-60.036275979608014, -3.1053159296883956], [-60.03397729899136, -3.0998549019267703], [-60.04326739990343, -3.0977576700885616], [-60.046497361044594, -3.1032045525613903]]]]}}, {"type": "Feature", "properties": {"threshold": 90}, "geometry": {"type": "MultiPolygon", "coordinates": [[[[-59.96926702815768, -3.0045341436365436], [-59.95034533600211, -3.0079155660715085], [-59.92221188597533, -3.003832470964599], [-59.92103885422225, -3.0129900087670984], [-59.91257578117174, -3.0167472331018272], [-59.91614610622021, -3.0235102590566827], [-59.91442381656983, -3.029733650783442], [-59.91007840482084, -3.031030222425896], [-59.90999928355152, -3.036518496439344], [-59.911971054066946, -3.040417803603657], [-59.91674423839536, -3.042090153863771], [-59.917658996730665, -3.0525583844896267], [-59.91422749106742, -3.058825663335243], [-59.91259217254287, -3.073280322179152], [-59.92212234486377, -3.0813856715851324], [-59.93556068911372, -3.075450376571232], [-59.937215143849926, -3.0699112450497177], [-59.94599867743913, -3.0628669256865977], [-59.95646543413694, -3.061005727492965], [-59.954620714119166, -3.0540552938916012], [-59.94652982119378, -3.05470436849314], [-59.94055904088969, -3.0489682010393673], [-59.93588933414279, -3.038745158168002], [-59.94447300875195, -3.0340828571582286], [-59.950879075531404, -3.034635169705262], [-59.96292797683263, -3.0301960920116353], [-59.964346062954874, -3.0174166461464145], [-59.973891635603984, -3.0122710279575204], [-59.96926702815768, -3.0045341436365436]]], [[[-60.092933439991086, -3.0652307772875647], [-60.08952282348599, -3.063515137209114], [-60.078892492453946, -3.066765801254571], [-60.0759328844702, -3.0628552227896], [-60.06459968259751, -3.057878467519922], [-60.063293939423765, -3.052788207497793], [-60.05121492238249, -3.0517299947125642], [-60.047406812116805, -3.0461216588356312], [-60.029839943222605, -3.0454863971022115], [-60.02255657485559, -3.042395317108598], [-60.02229287268358, -3.029550372972064], [-60.02780675411731, -3.0274484357510016], [-60.03095794765109, -3.017756470348676], [-60.03582696174012, -3.0157437281987387], [-60.03846537081799, -3.020139412482422], [-60.04748382142522, -3.0200790869749263], [-60.052832426738235, -3.01547061561888], [-60.05168596860065, -3.0113526252061815], [-60.054520445704746, -3.003531187142724], [-60.04974316278595, -2.99810394616627], [-60.04948185713945, -2.9890969309225657], [-60.04669116620597, -2.9852813670450913], [-60.032582996634694, -2.9888412328260445], [-60.02756685223521, -2.982673945123293], [-60.03019576071532, -2.977891913517504], [-60.03616009677157, -2.976009076814252], [-60.035019099476536, -2.971944814384679], [-60.02899921551891, -2.9701517578467356], [-60.02742209783361, -2.961531790027838], [-60.028716625567974, -2.9572989731264023], [-60.03733328658387, -2.955769409342054], [-60.03774584070093, -2.9523649352537493], [-60.03019977662226, -2.95088396489852], [-60.0204559519998, -2.9529477713000216], [-60.021615229475614, -2.961885883689687], [-60.01939880981303, -2.9656579608485134], [-59.99682142595813, -2.960198281617061], [-59.99315598444131, -2.9702764662285626], [-59.982991472683594, -2.9750753514063613], [-59.98227974445005, -2.9890018558620395], [-59.991412534052046, -2.9915534852593786], [-59.98804159046961, -2.9984583973677545], [-59.98894618973456, -3.008128540093548], [-59.99731174156994, -3.012696814053396], [-59.99512811116572, -3.0222005440130353], [-59.9876294859754, -3.0229976843967448], [-59.985711280885326, -3.02826573294972], [-59.99182463324443, -3.030261765151349], [-59.995403020917884, -3.0233725668577582], [-59.9995731038351, -3.026144574182948], [-60.009026316662585, -3.0262322156630845], [-60.01219202457977, -3.0285485389873683], [-60.01258017386462, -3.036986262621291], [-59.99944100644463, -3.0345862651946405], [-59.99412066813956, -3.047122972601316], [-59.98816848249212, -3.047865557113075], [-59.98260589008911, -3.0450112764625943], [-59.97877439184853, -3.029871083226295], [-59.972686527150664, -3.029723816540478], [-59.96902246182632, -3.0344418317927344], [-59.970398036935315, -3.04413830358053], [-59.962753255837605, -3.0447923085399866], [-59.95991365678703, -3.051423382494917], [-59.96316155186364, -3.0555038383672346], [-59.973593364268694, -3.0532486727183494], [-59.9758878620042, -3.069787924522864], [-59.95224241755689, -3.072292495001267], [-59.95001462936052, -3.079026436787448], [-59.9531776559077, -3.0814238748331095], [-59.95955322033855, -3.080463176928973], [-59.961582048136165, -3.0855904938505314], [-59.97270729607085, -3.0846918382630903], [-59.97825881826862, -3.079776807607251], [-59.98164656428903, -3.0818343118221145], [-59.98336788987705, -3.0950465489019647], [-59.99017631752409, -3.0998941826828896], [-59.990903037145884, -3.11424391787], [-59.99697017667718, -3.1198391355828137], [-59.99289125095583, -3.123385582755927], [-59.98594870184764, -3.120631259811232], [-59.98190784424355, -3.122614379824775], [-59.985438245857154, -3.1319489401191256], [-59.98412380658869, -3.1351349385193554], [-59.9802831376127, -3.1359886756289637], [-59.98012011039293, -3.13918656619242], [-59.98584309157804, -3.140412338711443], [-59.988627300617566, -3.1470482807294418], [-59.99219249881925, -3.1483286741543424], [-59.992862277937505, -3.155452550312596], [-59.99768616206215, -3.1556784282236423], [-60.01602228326659, -3.1441479825960927], [-60.02794646412819, -3.140413788271322], [-60.03318300687867, -3.132747456821529], [-60.041337484775994, -3.1285733600441183], [-60.04420078162462, -3.122428206589989], [-60.0493620933492, -3.1220460003324244], [-60.06313130780274, -3.1123713055012403], [-60.06788743887102, -3.111784901800818], [-60.073904474450536, -3.1021501771585656], [-60.07058150687692, -3.0914063493339357], [-60.072249901234166, -3.0863043476328085], [-60.07546951899297, -3.0847556289871956], [-60.0754038139903, -3.079768554331228], [-60.0816619093126, -3.0781401033629936], [-60.08435534324412, -3.0826737387823635], [-60.090181683624635, -3.0816956331031427], [-60.092933439991086, -3.0652307772875647]], [[-60.000733642057526, -3.083717779609571], [-59.99992732113725, -3.089126910138342], [-59.993050963933285, -3.090135109488814], [-59.992909177925185, -3.0752960087080634], [-59.997615802359284, -3.075066386895798], [-60.000733642057526, -3.083717779609571]], [[-60.00217376104454, -3.1363158044609047], [-60.00566371613427, -3.1379627182514938], [-60.00357338365572, -3.1414453049550364], [-60.00039343363412, -3.139383320409459], [-60.00217376104454, -3.1363158044609047]], [[-60.01235510585948, -3.1155379884676684], [-60.007003848251024, -3.124445838088517], [-60.00052492052524, -3.1214562673954576], [-60.004140397981956, -3.1154970887732776], [-60.00108053775802, -3.0991253676605344], [-60.00442842083163, -3.0957223731259362], [-60.00782281124272, -3.096608139606495], [-60.01003262298895, -3.105907203280328], [-60.01533623194545, -3.1115376924512237], [-60.01235510585948, -3.1155379884676684]], [[-60.046497361044594, -3.1032045525613903], [-60.04368037937915, -3.1056972548887334], [-60.03624090833154, -3.1017648441294368], [-60.042147864912096, -3.0987509056220754], [-60.046497361044594, -3.1032045525613903]]], [[[-60.1122610571922, -3.1733059205529877], [-60.11308781024578, -3.169991197772622], [-60.107432698448996, -3.163723700890052], [-60.09761500658975, -3.166201506152719], [-60.08308031410812, -3.162137695764438], [-60.07661865505678, -3.1687405873943613], [-60.07820797041923, -3.173823574847179], [-60.08422667940532, -3.1726785532856163], [-60.095688388824364, -3.175449170171899], [-60.1122610571922, -3.1733059205529877]]]]}}, {"type": "Feature", "properties": {"threshold": 95}, "geometry": {"type": "MultiPolygon", "coordinates": [[[[-59.96926702815768, -3.0045341436365436], [-59.95034533600211, -3.0079155660715085], [-59.92173402023222, -3.0041221711173525], [-59.92103885422225, -3.0129900087670984], [-59.912472452702055, -3.0169683965576817], [-59.91614559872835, -3.022773003940341], [-59.91477982482774, -3.029112979157782], [-59.90998542812286, -3.031341362248097], [-59.910973859339556, -3.0394038029254142], [-59.91674423839536, -3.042090153863771], [-59.9175213153697, -3.050213510196131], [-59.91717272686528, -3.053741008990539], [-59.91173146981956, -3.0579968205092736], [-59.91421404378322, -3.0659442466662012], [-59.91289933390293, -3.076348466346454], [-59.923654480955335, -3.0814859142310183], [-59.93556068911372, -3.075450376571232], [-59.937215143849926, -3.0699112450497177], [-59.94599867743913, -3.0628669256865977], [-59.9564171972231, -3.061071489402539], [-59.956348101415074, -3.0557766344151407], [-59.94569389136585, -3.0542038082866294], [-59.93588933414279, -3.038745158168002], [-59.94447300875195, -3.0340828571582286], [-59.950879075531404, -3.034635169705262], [-59.96292797683263, -3.0301960920116353], [-59.964346062954874, -3.0174166461464145], [-59.973891635603984, -3.0122710279575204], [-59.96926702815768, -3.0045341436365436]]], [[[-59.97336788501191, -3.1107310148030103], [-59.973940500787016, -3.105028748632879], [-59.96095031969926, -3.098976230846289], [-59.94885066228697, -3.10244698919615], [-59.94427621771879, -3.1081262726730916], [-59.94447120860872, -3.112078061860843], [-59.947767669006026, -3.1123572109292446], [-59.954548198630604, -3.1057705830344515], [-59.966651016231694, -3.114822801707861], [-59.97051699509203, -3.114675543573601], [-59.97336788501191, -3.1107310148030103]]], [[[-60.10952468087555, -3.0542912263650885], [-60.11050252553309, -3.049262518417208], [-60.101461866131125, -3.0553651627957623], [-60.098176378030495, -3.062392586389657], [-60.07927199657963, -3.0661274225726696], [-60.06833028909538, -3.0603907036121347], [-60.064122706191185, -3.051950292550001], [-60.05607673451059, -3.053454686726328], [-60.05058623316904, -3.0513536117740214], [-60.047406812116805, -3.0461216588356312], [-60.029839943222605, -3.0454863971022115], [-60.0228327166118, -3.0427820963406162], [-60.02233325767767, -3.030269006870117], [-60.02780675411731, -3.0274484357510016], [-60.03193557134806, -3.017596337229763], [-60.03606708267403, -3.0157910457748005], [-60.039298826095546, -3.0209726286601772], [-60.04748615304212, -3.0209146338773314], [-60.05279788686888, -3.0155445691460985], [-60.051733713693594, -3.0111108272720246], [-60.05536047150455, -3.0042212366616705], [-60.049732721572546, -2.9973995473932176], [-60.05029761026754, -2.9906865034330314], [-60.04662575924654, -2.9852328801121226], [-60.04093842689895, -2.9851442555012553], [-60.03688409181122, -2.988447902400566], [-60.03057166192144, -2.986459496583566], [-60.031326612778, -2.9790298424297363], [-60.036986170962955, -2.974172458991802], [-60.02899921551891, -2.9701517578467356], [-60.02791571316045, -2.9585112235079536], [-60.03733328658387, -2.955769409342054], [-60.039283538664016, -2.952060595186102], [-60.02347298712821, -2.9517499362064417], [-60.020379817757785, -2.9530919164655507], [-60.02128566571591, -2.96143811863875], [-60.01836973524517, -2.965439725396681], [-60.001340862073086, -2.962584106905698], [-59.99880512931197, -2.960161046763817], [-59.984072281314965, -2.9612216014428214], [-59.985147592854936, -2.972455365559889], [-59.980511091464884, -2.9843545743375692], [-59.9834540500205, -2.990176045638079], [-59.991082279316885, -2.990633465126906], [-59.98802988514715, -2.9985392503423647], [-59.98891860080955, -3.0080516875107906], [-59.99728987967639, -3.012458290762012], [-59.99512811116572, -3.0222005440130353], [-59.9876294859754, -3.0229976843967448], [-59.98575325551749, -3.0283356976455877], [-59.99182463324443, -3.030261765151349], [-59.995403020917884, -3.0233725668577582], [-59.9995731038351, -3.026144574182948], [-60.009026316662585, -3.0262322156630845], [-60.01219202457977, -3.0285485389873683], [-60.01258017386462, -3.036986262621291], [-59.99944100644463, -3.0345862651946405], [-59.99412066813956, -3.047122972601316], [-59.98816848249212, -3.047865557113075], [-59.98260589008911, -3.0450112764625943], [-59.97877439184853, -3.029871083226295], [-59.972686527150664, -3.029723816540478], [-59.96902246182632, -3.0344418317927344], [-59.970398036935315, -3.04413830358053], [-59.962753255837605, -3.0447923085399866], [-59.95991365678703, -3.051423382494917], [-59.96316155186364, -3.0555038383672346], [-59.973593364268694, -3.0532486727183494], [-59.97554809736286, -3.069557069569278], [-59.9521659660001, -3.0723202339053586], [-59.9500267781065, -3.079107226957185], [-59.95955553009405, -3.0812987906857936], [-59.961582048136165, -3.0855904938505314], [-59.97270729607085, -3.0846918382630903], [-59.97825881826862, -3.079776807607251], [-59.98164656428903, -3.0818343118221145], [-59.98336788987705, -3.0950465489019647], [-59.99017631752409, -3.0998941826828896], [-59.990903037145884, -3.11424391787], [-59.99697017667718, -3.1198391355828137], [-59.99289125095583, -3.123385582755927], [-59.98279115136036, -3.121715717852856], [-59.9817471469976, -3.126647860770757], [-59.985293952351945, -3.1320980015484308], [-59.97928410548935, -3.1375177525519193], [-59.98584309157804, -3.140412338711443], [-59.988627300617566, -3.1470482807294418], [-59.99219249881925, -3.1483286741543424], [-59.992862277937505, -3.155452550312596], [-59.99776652947224, -3.155666206808668], [-60.01602228326659, -3.1441479825960927], [-60.02794646412819, -3.140413788271322], [-60.03318300687867, -3.132747456821529], [-60.041337484775994, -3.1285733600441183], [-60.04420078162462, -3.122428206589989], [-60.0493620933492, -3.1220460003324244], [-60.06313130780274, -3.1123713055012403], [-60.0678273784483, -3.1118399431759993], [-60.07720257286985, -3.0929497130908485], [-60.07306480087221, -3.0881514525218727], [-60.07553917175586, -3.0795636321446214], [-60.0816619093126, -3.0781401033629936], [-60.08435534324412, -3.0826737387823635], [-60.090116548573235, -3.081744490046185], [-60.09373367647735, -3.0707512649884103], [-60.109407102755554, -3.063077256321164], [-60.10952468087555, -3.0542912263650885]], [[-60.000733642057526, -3.083717779609571], [-59.99976329433679, -3.0892619944184156], [-59.993050963933285, -3.090135109488814], [-59.992909177925185, -3.0752960087080634], [-59.997615802359284, -3.075066386895798], [-60.000733642057526, -3.083717779609571]], [[-60.00217376104454, -3.1363158044609047], [-60.00566371613427, -3.1379627182514938], [-60.00357338365572, -3.1414453049550364], [-60.00039343363412, -3.139383320409459], [-60.00217376104454, -3.1363158044609047]], [[-60.01235510585948, -3.1155379884676684], [-60.007003848251024, -3.124445838088517], [-60.00052492052524, -3.1214562673954576], [-60.004140397981956, -3.1154970887732776], [-60.00108053775802, -3.0991253676605344], [-60.00442842083163, -3.0957223731259362], [-60.00782281124272, -3.096608139606495], [-60.01003262298895, -3.105907203280328], [-60.01533623194545, -3.1115376924512237], [-60.01235510585948, -3.1155379884676684]], [[-60.046497361044594, -3.1032045525613903], [-60.04343462015582, -3.1056522553190438], [-60.03763398905076, -3.1041773224620397], [-60.03657243112635, -3.1012711641246753], [-60.042147864912096, -3.0987509056220754], [-60.046497361044594, -3.1032045525613903]]], [[[-60.112767573520316, -3.169655918902993], [-60.10759202570972, -3.163755058816371], [-60.09761500658975, -3.166201506152719], [-60.083160674233234, -3.1621254682572597], [-60.07675311944937, -3.168359270358901], [-60.07662902176766, -3.1722458729560112], [-60.09483719824343, -3.1754447015080975], [-60.10912747952874, -3.174566077196784], [-60.11300787164443, -3.173418485852266], [-60.112767573520316, -3.169655918902993]]]]}}]}