{"type": "Feature", "properties": {"city": "Zaisan", "country": "Kazakhstan", "real_area": 10.27}, "geometry": {"type": "LineString", "coordinates": [[84.8640716998546, 47.4845673411115], [84.8576149686391, 47.4873033755284], [84.8509357226375, 47.484847541974], [84.8507140759957, 47.4796559562486], [84.844035934995, 47.4771995844572], [84.8438149889624, 47.4720078978909], [84.8502709121512, 47.4692727380296], [84.8500493949233, 47.4640811057068], [84.8565038797549, 47.4613457179094], [84.8631802855703, 47.4638015251913], [84.8696337357888, 47.4610654724944], [84.8763103776649, 47.4635204597359], [84.8827627927064, 47.4607837424033], [84.8825381632145, 47.4555924752448], [84.8889891404104, 47.4528555309722], [84.8956651492516, 47.4553094164697], [84.8958910492021, 47.4605005279051], [84.9025681609727, 47.4629538750811], [84.9027947622235, 47.468144885525], [84.8963429810144, 47.4708827046944], [84.8965690129018, 47.4760737698775], [84.8901157930417, 47.4788113620554], [84.8903412551813, 47.4840024817266], [84.8838865962302, 47.4867398465637], [84.877206877805, 47.4842856542726], [84.8707511824396, 47.4870223540317], [84.8640716998546, 47.4845673411115]]}}