{"type": "Feature", "properties": {"city": "Hurghada", "country": "Egypt", "real_area": 101.49}, "geometry": {"type": "MultiLineString", "coordinates": [[[33.9120624944596, 26.9798255120084], [33.9146166675427, 26.984479674037], [33.9114423616553, 26.98878608267], [33.9057135589691, 26.9884381743494], [33.9025386271044, 26.9927445339181], [33.9050928215883, 26.9973989566952], [33.9108221225561, 26.997746759017], [33.9133766876108, 27.002400920555], [33.9102017771347, 27.0067075406099], [33.9044719778, 27.006359844287], [33.9019175873571, 27.0017054219076], [33.8961878350076, 27.0013573094021], [33.8936338152786, 26.9967026258177], [33.8879041101564, 26.9963540972408], [33.8853504612139, 26.9916991526633], [33.888526342447, 26.9873929974385], [33.8942555492551, 26.9877416317443], [33.8974308046615, 26.9834354271615], [33.8948771766808, 26.9787807433568], [33.8980521297329, 26.9744746446798], [33.9037803873167, 26.9748230747765], [33.9069547146171, 26.9705169271543], [33.9126825209961, 26.9708650474719], [33.9158562225196, 26.9665588511398], [33.9215835774845, 26.9669066618371], [33.924137728929, 26.971560562736], [33.9209643511538, 26.9758669139801], [33.9152364981369, 26.975519209416], [33.9120624944596, 26.9798255120084]], [[33.9013661617935, 27.051165845546], [33.8981891121809, 27.0554729400041], [33.9007446789885, 27.0601273553794], [33.8975673266151, 27.0644345539422], [33.8918340834914, 27.0640871824864], [33.8892786917284, 27.0594325066008], [33.8924563679955, 27.055125462684], [33.8899011723245, 27.0504707850388], [33.8841684755253, 27.050122890837], [33.8816136510637, 27.0454679511335], [33.875881001893, 27.045119640161], [33.8733265487133, 27.0404644386112], [33.8765045693659, 27.0361578085206], [33.8822367197368, 27.0365062250874], [33.884791348206, 27.041161166153], [33.8905235461789, 27.0415091660841], [33.8930785457869, 27.0461638452691], [33.8988107911194, 27.0465114284535], [33.9019875380276, 27.0422044383201], [33.9077193316835, 27.0425517106463], [33.9102748771761, 27.0472058671093], [33.9070984542432, 27.0515130118729], [33.9013661617935, 27.051165845546]], [[33.6430191550525, 27.4000907421135], [33.6404632993421, 27.3954294719032], [33.6436652201187, 27.3911213150346], [33.6494226749416, 27.39147427331], [33.6519787116257, 27.3961352861349], [33.6487771125627, 27.4004435980675], [33.6430191550525, 27.4000907421135]], [[33.8860367731948, 27.0232380263672], [33.8834825366234, 27.0185830832369], [33.8866593255576, 27.0142766121449], [33.892390027564, 27.0146249292637], [33.8949444391574, 27.0192796117481], [33.8917679737713, 27.0235862377568], [33.8860367731948, 27.0232380263672]], [[33.6999652908235, 27.3315119522089], [33.6967683667082, 27.33582009283], [33.6910151613843, 27.3354683142583], [33.6878176089624, 27.339776395447], [33.6820639552863, 27.3394242993943], [33.6795083561068, 27.334764019279], [33.6827062305417, 27.3304560931313], [33.6884593821925, 27.3308082920555], [33.6916566284495, 27.3265003064171], [33.6891010450746, 27.3218402769351], [33.6922979852238, 27.3175323870682], [33.6980501866989, 27.3178843716561], [33.7012464987427, 27.3135764227149], [33.706998251767, 27.3139280902536], [33.7101939356774, 27.3096200824755], [33.7159452400365, 27.3099714331244], [33.7191402957858, 27.3056633667466], [33.7165843695371, 27.301004104668], [33.7197791195375, 27.2966961348198], [33.7255294733961, 27.2970472721559], [33.7287235953083, 27.2927392441242], [33.7261676858078, 27.2880802336882], [33.729361502129, 27.2837723025859], [33.7351109054752, 27.2841232270414], [33.7383040937812, 27.2798152381716], [33.7440530479367, 27.2801658464877], [33.7466093151561, 27.2848243399857], [33.7523583212683, 27.2851745284955], [33.7549149631249, 27.2898327568696], [33.76066402095, 27.2901825254615], [33.7638559354805, 27.2858741696432], [33.7612991151875, 27.2812161998893], [33.7644907244724, 27.2769079414947], [33.7702388310198, 27.2772574982511], [33.7734298120799, 27.2729491828584], [33.7791774685251, 27.2732984239774], [33.7817346451328, 27.2779558762584], [33.7785439872803, 27.2822643461931], [33.7727958295632, 27.2819152093073], [33.7696045433582, 27.2862236223023], [33.7721617380723, 27.2908813266855], [33.7689701466654, 27.2951898370619], [33.7632210373714, 27.2948404884995], [33.7600288175382, 27.2991489415205], [33.7542792582385, 27.2987992768894], [33.7510864100062, 27.3031076723178], [33.7453364009141, 27.3027576914584], [33.7421429243099, 27.3070660290571], [33.7363924656391, 27.3067157318098], [33.7331983606904, 27.3110240113416], [33.7274474526543, 27.3106733975469], [33.7242527193886, 27.3149816187745], [33.7185013622013, 27.3146306882729], [33.7153060006461, 27.3189388509592], [33.7095541945215, 27.3185876035911], [33.7063582047045, 27.3228957074987], [33.7089143433614, 27.3275552136429], [33.7057180475807, 27.331863413459], [33.6999652908235, 27.3315119522089]], [[33.8808665496034, 26.9734279031547], [33.8783136629867, 26.968772698286], [33.8725850494819, 26.9684231269821], [33.8700325336559, 26.9637676618992], [33.873208456185, 26.9594620289118], [33.8789365715993, 26.9598117056741], [33.8821118687531, 26.9555060235668], [33.8878395337672, 26.9558553904784], [33.8903923996108, 26.9605103339067], [33.8872174255722, 26.9648161712863], [33.8897704871469, 26.9694711153318], [33.8865952107664, 26.9737770588795], [33.8808665496034, 26.9734279031547]], [[33.6628701975866, 27.365272603372], [33.6603145675278, 27.3606118231426], [33.6545590677991, 27.3602588761519], [33.6520038141014, 27.3555978304385], [33.655203879468, 27.3512899893535], [33.6609588769121, 27.3516430388059], [33.6635143112247, 27.3563038268839], [33.669269363188, 27.3566564557789], [33.6724684785623, 27.3523483991964], [33.6782230825452, 27.3527007101552], [33.6807790733597, 27.3573609749654], [33.6775802799564, 27.3616691865631], [33.6718251737181, 27.3613169783378], [33.6686257518631, 27.3656251296698], [33.6628701975866, 27.365272603372]], [[33.8306854287172, 27.0738695531298], [33.8281316590127, 27.0692130519289], [33.8313131141878, 27.064906574433], [33.8370480161926, 27.0652564429966], [33.839601962152, 27.0699126841403], [33.8364208299006, 27.0742193167749], [33.8306854287172, 27.0738695531298]], [[33.660292634688, 27.4011485699195], [33.6577362213552, 27.3964878232882], [33.6609371917215, 27.3921794500768], [33.6666942534548, 27.3925316685889], [33.6698945950959, 27.3882232343363], [33.6756512086178, 27.3885751343669], [33.6782079830495, 27.3932353659229], [33.6839646506874, 27.3935868447657], [33.6865218014079, 27.3982468098456], [33.683322104228, 27.4025555536921], [33.685879450997, 27.4072155097302], [33.6826794471938, 27.4115243473568], [33.6852369900403, 27.4161842941328], [33.6820366795565, 27.4204932253183], [33.6762785037732, 27.4201420550673], [33.6730775641044, 27.4244509249694], [33.6673189396631, 27.424099435851], [33.6647617577994, 27.4194389741018], [33.6679630197426, 27.4151302589208], [33.6654060338705, 27.4104697878233], [33.668606988989, 27.4061611660637], [33.6660501990795, 27.4015006858385], [33.660292634688, 27.4011485699195]], [[33.8084410714311, 27.1445287566976], [33.8058862843662, 27.13987175369], [33.8090711187585, 27.135564665824], [33.814810417288, 27.1359144260046], [33.8179946247563, 27.1316072845842], [33.8154398566773, 27.1269505379817], [33.818623760255, 27.1226434981858], [33.8160691880508, 27.1179867486033], [33.8192527877946, 27.1136798106523], [33.8166984114362, 27.1090230583099], [33.8198817074027, 27.104716222424], [33.8173275268612, 27.1000594675419], [33.820510519107, 27.0957527339414], [33.8179565343534, 27.0910959767395], [33.8211392229351, 27.0867893456447], [33.8268755734345, 27.0871393166369], [33.8294297347115, 27.0917958139436], [33.8351661345088, 27.092145367752], [33.8383478736305, 27.0878385291746], [33.8440838231064, 27.0881877707412], [33.847264935627, 27.0838808800295], [33.8447104218583, 27.0792249027442], [33.8478912310157, 27.0749181150715], [33.8536262307268, 27.075267149744], [33.8568064133576, 27.0709603103507], [33.8625409623844, 27.0713090332346], [33.8650958279053, 27.0759644901906], [33.8708304251521, 27.0763127959859], [33.8733856623099, 27.0809679905973], [33.8702061266294, 27.0852751396483], [33.8644710301821, 27.084926939312], [33.8612908677226, 27.0892340367589], [33.8555553202627, 27.0888855245227], [33.85237453105, 27.0931925701295], [33.8466385327884, 27.0928437458344], [33.8434571168482, 27.0971507393651], [33.8377206679956, 27.0968016028519], [33.8345386253539, 27.1011085440704], [33.8370933547411, 27.1057647767156], [33.8339110085229, 27.1100718203551], [33.8281736097695, 27.1097224763827], [33.8249906367754, 27.1140294672961], [33.8275453856284, 27.1186859571111], [33.8243621089008, 27.1229930500472], [33.8269170536705, 27.1276495369249], [33.8237334731527, 27.1319567316634], [33.8262886138681, 27.1366132153837], [33.8320275116977, 27.1369622446034], [33.8345830249771, 27.1416184652294], [33.8313994638867, 27.1459259163499], [33.8339551732117, 27.1505821334209], [33.8396946201219, 27.1509306396176], [33.8422507020092, 27.1555865932049], [33.8390671605476, 27.1598943003017], [33.8333272136612, 27.1595458991568], [33.830143044795, 27.163853552696], [33.8326991462983, 27.1685097619969], [33.829514673459, 27.1728175164147], [33.8320709710951, 27.1774737215004], [33.8288861942262, 27.1817815765765], [33.8314426880241, 27.186437777227], [33.8371841353532, 27.1867858632181], [33.839741001997, 27.1914417996752], [33.8454824984083, 27.1917894669087], [33.8480397378254, 27.1964451389606], [33.8537812830756, 27.1967923873255], [33.8563388951933, 27.2014477947605], [33.8531547857421, 27.2057562134348], [33.8557125942636, 27.2104116156824], [33.8525281808012, 27.2147201344472], [33.846785634719, 27.2143730967233], [33.8436005930955, 27.2186815611567], [33.8461584215984, 27.223337217518], [33.8429730758062, 27.2276457816433], [33.8455311007292, 27.2323014323342], [33.8512746479868, 27.2326482594186], [33.8538330458943, 27.2373036447832], [33.8506477200581, 27.2416124624966], [33.8532063144859, 27.2462678417933], [33.8500206844117, 27.2505767587152], [33.8442761356351, 27.2502301422684], [33.8410898769965, 27.254539004146], [33.8353448763594, 27.2541920732032], [33.8321579891826, 27.2585008797997], [33.826412536897, 27.2581536342012], [33.8232250212081, 27.2624623852796], [33.8174791174861, 27.2621148248657], [33.8142909733114, 27.2664235201893], [33.8085446183653, 27.2660756448003], [33.8053558457312, 27.2703842841321], [33.7996090397733, 27.2700360936083], [33.7970515075951, 27.2653791591099], [33.8002406038192, 27.2610706741449], [33.7976832679093, 27.256413733322], [33.8008720593475, 27.2521053467159], [33.7983149196768, 27.2474483997888], [33.7925691661266, 27.2470995804547], [33.7900124002319, 27.2424423685852], [33.7932012102724, 27.2381342351105], [33.7989464629256, 27.238483158951], [33.8015034063861, 27.2431401117622], [33.8072487093128, 27.243488616209], [33.8104365678914, 27.2391802724892], [33.807879447051, 27.2345235788135], [33.8021346449627, 27.2341749697246], [33.7995778976833, 27.2295180112494], [33.8027657751051, 27.2252099210439], [33.8002092239778, 27.2205529571249], [33.8033967968412, 27.2162449661609], [33.8008404418369, 27.2115879970182], [33.8040277101986, 27.2072801055164], [33.8097710102867, 27.2076290285344], [33.8123275425448, 27.2122857384134], [33.8180708925538, 27.212634242467], [33.8212572097333, 27.2083261414235], [33.8187005004071, 27.2036696908856], [33.8218865132862, 27.1993616896607], [33.819330000138, 27.1947052342047], [33.8135876510877, 27.1943565205924], [33.8110315110727, 27.1896998010119], [33.8052892118888, 27.1893506687054], [33.8027334450794, 27.1846936852124], [33.805919800277, 27.1803860934204], [33.8116615991375, 27.1807353303717], [33.8148473269086, 27.1764276841345], [33.8122915790204, 27.1717709557329], [33.8154770026176, 27.1674634100183], [33.8129214507493, 27.1628066775364], [33.8161065702292, 27.1584992325647], [33.8135512143517, 27.1538424962224], [33.816736029771, 27.1495351522141], [33.8141808698554, 27.1448784122317], [33.8084410714311, 27.1445287566976]]]}}