{"type": "Feature", "geometry": {"type": "MultiPolygon", "coordinates": [[[[-97.07955066712205, 18.861579337503635], [-97.08032721840074, 18.86528059947948], [-97.0748237027277, 18.875369492151567], [-97.07499928897883, 18.88108346146687], [-97.06672591529455, 18.892344711358948], [-97.06206898620788, 18.89204610380745], [-97.05525129928127, 18.885292977562564], [-97.04963123457618, 18.88399718592408], [-97.04411133737395, 18.877526014976944], [-97.0389362797365, 18.874866829178757], [-97.0283852905081, 18.881806519842186], [-97.02282804439038, 18.890780570623797], [-97.02361068365371, 18.895243048254365], [-97.031679932075, 18.897956086575444], [-97.0350014018983, 18.90286389067351], [-97.02916115771585, 18.911845894569552], [-97.02248568890843, 18.91159354312612], [-97.01820704662424, 18.914008890188075], [-97.01937193356353, 18.926403625514524], [-97.02526445313785, 18.934360339795543], [-97.03184319808676, 18.93702489904601], [-97.03689093350411, 18.95222458265013], [-97.0358656632992, 18.954821572448306], [-97.02928140590025, 18.960341694752017], [-97.03140777863473, 18.96727642403262], [-97.02998413559487, 18.973104769828144], [-97.02661688314713, 18.976504943064526], [-97.02194407801927, 18.977728105169245], [-97.0096736619205, 18.972499956698528], [-97.00694030557798, 18.969511068001385], [-97.00743019220221, 18.965891196812095], [-97.01221506395403, 18.957816228527165], [-97.02167466314576, 18.95641999000057], [-97.02430597846798, 18.95276873444841], [-97.02042631120297, 18.946376970614455], [-97.01403550862422, 18.943979497599774], [-97.00957193810278, 18.939501987108454], [-97.01008318828578, 18.93167536038307], [-97.00631798421327, 18.92712044090398], [-97.00193651615491, 18.927044767179805], [-96.9978421954221, 18.9326185424887], [-96.99471141585497, 18.933896268447423], [-96.98606487301429, 18.930113337348057], [-96.97994479530394, 18.93646885849759], [-96.96558382976676, 18.938803108245533], [-96.9595152545156, 18.94261663593886], [-96.9537350031203, 18.942036546586788], [-96.94333716996427, 18.948156175504092], [-96.93981929002655, 18.948126739291467], [-96.93575444687403, 18.94330072243355], [-96.93535775381642, 18.939785743581208], [-96.94106877934308, 18.934578442589135], [-96.94635121838557, 18.932425734723846], [-96.94742176971639, 18.926791602228825], [-96.9390880365825, 18.92000042855374], [-96.93432749419148, 18.92126040356311], [-96.93100769292852, 18.926014110560036], [-96.9268835407193, 18.927852663229967], [-96.92325754212526, 18.927194369119796], [-96.91606761602172, 18.92147430967379], [-96.91567713602304, 18.91326647024032], [-96.91250752262225, 18.90809244371154], [-96.9134385250468, 18.89125611798939], [-96.90738319296078, 18.88358383157025], [-96.90321964807626, 18.880820263698922], [-96.88920952662366, 18.880198579337254], [-96.8828581418855, 18.88318344500914], [-96.87976236723276, 18.8886432750849], [-96.87280464765465, 18.89010749484941], [-96.86874721509133, 18.885453772988992], [-96.87082515670232, 18.87538806065176], [-96.86541047752868, 18.871990245777532], [-96.86407134780623, 18.869168994725634], [-96.86724728268678, 18.86180322305022], [-96.87428500769062, 18.862793458525942], [-96.87718489051021, 18.861636629319413], [-96.87865149405526, 18.853638786625957], [-96.88083507407221, 18.85127554130857], [-96.88635188392831, 18.8517597539917], [-96.89692630990008, 18.85604539224838], [-96.90046115149056, 18.854891937941655], [-96.90721977463409, 18.837129627417205], [-96.91756514639262, 18.830921376723627], [-96.9191565737536, 18.818436625224106], [-96.91742023597321, 18.812095322970908], [-96.91947134195115, 18.808322804786837], [-96.92900463214094, 18.807027876053493], [-96.933453469922, 18.811799413955335], [-96.9352363442241, 18.817671697004034], [-96.94362611002963, 18.820469738133546], [-96.94450043139372, 18.82482496900837], [-96.94118141295738, 18.83041995027083], [-96.94308244440683, 18.83406568394054], [-96.95722171876469, 18.831630593499312], [-96.96178531503492, 18.837041313038394], [-96.96478474725204, 18.837882143047924], [-96.96938195179573, 18.83603304682815], [-96.97129879762821, 18.83151799272618], [-96.97372455643551, 18.829845754582948], [-96.98654136216582, 18.832495892162637], [-96.99878412713812, 18.82984976929615], [-97.00048929317146, 18.827233112167463], [-97.00053325583882, 18.820001691898124], [-97.0187225587315, 18.813811491879186], [-97.02035413188281, 18.810838656838996], [-97.018858879879, 18.805999843931843], [-97.0199952237802, 18.800153421467098], [-97.02281586665183, 18.79792199222625], [-97.02855563900096, 18.79742816056727], [-97.03237478125004, 18.797918207005722], [-97.03440130198904, 18.80039815001556], [-97.03519248794412, 18.8045357789277], [-97.0330522167064, 18.812901164980282], [-97.02970363983059, 18.814713809957098], [-97.02393635625604, 18.8119597146125], [-97.0203277621547, 18.812854064908993], [-97.01901386783528, 18.816331922806977], [-97.02205508188354, 18.82414579180077], [-97.02145047739972, 18.827360109430042], [-97.01181665895737, 18.83172172740243], [-97.00341422708007, 18.832533561587162], [-97.0019396212513, 18.83556649782257], [-97.0025807947664, 18.84543957339664], [-96.99440854256214, 18.850658860745018], [-96.99624876362134, 18.861254941259137], [-97.00216684479045, 18.87214791635945], [-97.00140326977572, 18.875169807586698], [-96.99685781915028, 18.87936494335964], [-96.99857268797672, 18.884743796749905], [-97.00408398389887, 18.88857498079338], [-97.0095449329251, 18.88658492469554], [-97.01210494107083, 18.875992555524814], [-97.01877675297237, 18.86510065098388], [-97.0173540656746, 18.85556786943308], [-97.01974787543392, 18.85038676243629], [-97.02274912239679, 18.8483935406249], [-97.02706333592054, 18.848699298697785], [-97.03349808934112, 18.852541696735212], [-97.04339247275827, 18.8498363352273], [-97.05045466590549, 18.845493840649382], [-97.05438306883471, 18.84088124274896], [-97.06368371749339, 18.842516477870628], [-97.06948162507946, 18.841489030694934], [-97.07198580889167, 18.843216285440132], [-97.07397770898469, 18.848845534963118], [-97.07395147730593, 18.856024935918192], [-97.07955066712205, 18.861579337503635]], [[-96.94320709748527, 18.866544450560006], [-96.94756425311479, 18.864945335118364], [-96.950053295866, 18.8590347674951], [-96.94966395082453, 18.85629266513681], [-96.94521580199934, 18.85067723537505], [-96.94066370931692, 18.848161649973314], [-96.93700329145321, 18.839681083305397], [-96.92709252162207, 18.83962860652749], [-96.92508940028293, 18.84242428550595], [-96.92537192157006, 18.851945234019308], [-96.93646811595154, 18.86075472339006], [-96.93912475852753, 18.86495347226942], [-96.94320709748527, 18.866544450560006]], [[-96.99137516568271, 18.881461179394925], [-96.99399735902782, 18.879582484417934], [-96.99442974428041, 18.87657381372686], [-96.9875069920664, 18.862929172163284], [-96.98439596313969, 18.86131444997945], [-96.97816742999134, 18.862471857582122], [-96.97640947447775, 18.86540682739834], [-96.97699068503856, 18.87110020762061], [-96.98361947790482, 18.88142880064777], [-96.98696709583879, 18.88307054931548], [-96.99137516568271, 18.881461179394925]], [[-97.01709806779105, 18.888958830464517], [-97.01423250753302, 18.890858444157544], [-97.01378382618863, 18.893902997755454], [-97.01563004706317, 18.8963651289546], [-97.01883812155972, 18.89680035447124], [-97.0213172040154, 18.895020173307646], [-97.02181908847598, 18.892009690491633], [-97.02005158738204, 18.88952155169321], [-97.01709806779105, 18.888958830464517]]], [[[-97.04063427692262, 18.908999178315348], [-97.04552526864983, 18.905363148529254], [-97.05127248313937, 18.906552577373983], [-97.05696918545472, 18.905242099757057], [-97.06146050949029, 18.908267824222946], [-97.0618879810214, 18.915242066546572], [-97.05958175016785, 18.917806192161056], [-97.05367453744266, 18.918632846720186], [-97.04906879167032, 18.926878191432973], [-97.04508295232434, 18.92794746178314], [-97.03745906172283, 18.92518822322714], [-97.03547437181773, 18.92254713285385], [-97.04063427692262, 18.908999178315348]]], [[[-96.9166159852913, 18.802826276624003], [-96.91156861177241, 18.802177322668904], [-96.9041631978102, 18.79809784912315], [-96.89763044492449, 18.797669898999857], [-96.88664365848815, 18.787776117535667], [-96.88599293726902, 18.785077234756056], [-96.88741252074637, 18.782062289053552], [-96.89145458240615, 18.78042049644382], [-96.90663045977337, 18.785458334576774], [-96.91560805876215, 18.77715239617899], [-96.92169004068136, 18.777883371216063], [-96.92331179122722, 18.780336876382613], [-96.92353274205085, 18.7869138281068], [-96.9166159852913, 18.802826276624003]]], [[[-96.97183068907636, 18.818387576303383], [-96.96722585046936, 18.822296771907947], [-96.95925236981965, 18.821742989226678], [-96.94932491179276, 18.81390717913425], [-96.94889746397448, 18.80866643063513], [-96.94495274371256, 18.803132758924043], [-96.94768581214824, 18.79381514593522], [-96.94157818755218, 18.78957996400433], [-96.93661757589595, 18.77875859277963], [-96.93039516234197, 18.77546248163142], [-96.92982127809977, 18.7674973581235], [-96.92266155749948, 18.75925794768936], [-96.92455714931957, 18.75309160436624], [-96.92921159821917, 18.748645128750937], [-96.92775877718806, 18.73846430923002], [-96.93058164657526, 18.73487427479447], [-96.93740139981729, 18.736200221857672], [-96.94364373405097, 18.746807621771254], [-96.95439866570644, 18.758047697659396], [-96.95944848119161, 18.766890977880138], [-96.9588353535697, 18.773999332756], [-96.95582261664845, 18.77904596879445], [-96.95846976635562, 18.786447993833317], [-96.95370749815281, 18.793124545743392], [-96.95331032196096, 18.79616274784395], [-96.95643552828128, 18.800118924450384], [-96.96241642683397, 18.80208463349139], [-96.97068926283285, 18.80924494203359], [-96.97183068907636, 18.818387576303383]]], [[[-96.99533118668066, 19.00970051095526], [-96.99431500212889, 19.012903583065714], [-96.99121445703614, 19.014199315335393], [-96.98713558808747, 19.01340278506391], [-96.98195370067899, 19.009235305989613], [-96.97918655455197, 19.00501041807668], [-96.98031980718734, 18.999080112329015], [-96.97869831714735, 18.99197675537106], [-96.97220160835933, 18.989741626595503], [-96.96317288104048, 18.983101154248704], [-96.96451544714914, 18.978271145372787], [-96.9735437828673, 18.974461645938117], [-96.97240761035097, 18.96613636144891], [-96.9771239021456, 18.960565621271215], [-96.98073916792995, 18.961061646176493], [-96.98606298368416, 18.96675877164312], [-96.9826887515523, 18.986578471095466], [-96.99003907592437, 18.992013889599523], [-96.99162732501823, 19.00140846740017], [-96.99533118668066, 19.00970051095526]]], [[[-96.99894282593512, 19.056659794489434], [-96.99831860368276, 19.059607258885887], [-96.99564473939857, 19.061825777415198], [-96.98615268491947, 19.05977770290193], [-96.97227000811843, 19.052813788683213], [-96.97076521107375, 19.04840312259323], [-96.9745919980909, 19.043420532219063], [-96.9824793325871, 19.042494506872824], [-96.98680158887684, 19.037404761390878], [-96.99124093533314, 19.036916344556957], [-96.99456494775438, 19.039633341978796], [-96.99467682970634, 19.04897843529854], [-96.99894282593512, 19.056659794489434]]], [[[-97.01000524345793, 18.666908882022142], [-97.00873778629928, 18.67076273930737], [-97.00268338689189, 18.67423910724324], [-96.99733703618998, 18.67462259835412], [-96.99329023410982, 18.67213458268647], [-96.98963865928509, 18.66128344328936], [-96.99395652127407, 18.65053099084482], [-96.99817408437094, 18.648758152691236], [-97.00317822770265, 18.650127897362463], [-97.00430648769752, 18.653162567962703], [-97.00310598074466, 18.659203998846053], [-97.01000524345793, 18.666908882022142]]], [[[-97.01885783098982, 19.03220471624258], [-97.01899224799787, 19.038988145163433], [-97.01416658762444, 19.041008693152012], [-97.00502853062927, 19.037190665197333], [-97.00094959643556, 19.03218110421966], [-96.9991407747128, 19.025572276563157], [-97.0014973869178, 19.02186478539944], [-97.0106640164936, 19.01907945910131], [-97.01836684575987, 19.02739790729694], [-97.01885783098982, 19.03220471624258]]], [[[-97.02204896784993, 18.78495249462629], [-97.01070881247524, 18.797020908789296], [-97.00692074806298, 18.79791444439073], [-97.0042413963316, 18.796370405647448], [-97.00324858702236, 18.79135498731181], [-96.99999720780026, 18.787831543633622], [-96.99928023410727, 18.78443882385874], [-97.00296204097918, 18.779003078616], [-97.00230338944381, 18.7724241960039], [-97.0073387681696, 18.76456036507082], [-97.01430597256343, 18.764750635222747], [-97.01811215424128, 18.768691211472643], [-97.01870772809377, 18.77519491983758], [-97.02243867885488, 18.782035115793725], [-97.02204896784993, 18.78495249462629]]], [[[-97.04527892189502, 19.010831082579852], [-97.04409961672597, 19.014555291809337], [-97.03962858712981, 19.016615716350923], [-97.03693582393328, 19.019999374010254], [-97.03089975359225, 19.023291341061203], [-97.02737410573548, 19.02327060412426], [-97.02398637355047, 19.019850878122423], [-97.02023475697005, 19.009296860429522], [-97.02130005686581, 19.00203199433575], [-97.02612327774138, 18.998669017612734], [-97.03113010008683, 19.001250551522716], [-97.03822966845075, 19.00152875213502], [-97.04377525873976, 19.006713945008688], [-97.04527892189502, 19.010831082579852]]], [[[-97.06137812044905, 19.069482027558617], [-97.05923483850614, 19.07830546250467], [-97.05401892303092, 19.08483118864955], [-97.05107654268994, 19.08604372027185], [-97.04205915733019, 19.084368147960536], [-97.0364685218929, 19.080977286082934], [-97.03390060819765, 19.078671792580725], [-97.03219905991605, 19.073183783476466], [-97.03480501242441, 19.066786744969907], [-97.03507809654326, 19.06123183725144], [-97.0390259866767, 19.058773803785513], [-97.05826030763174, 19.06479345928964], [-97.06137812044905, 19.069482027558617]]], [[[-97.05309055447911, 18.759426702689066], [-97.0504728694425, 18.767714612810764], [-97.04653095099707, 18.770514205173132], [-97.03647980277015, 18.76714950287017], [-97.03449128409349, 18.764683943685057], [-97.03550669165139, 18.76042565014997], [-97.04346889799157, 18.753263325853165], [-97.05110123090327, 18.75496903831282], [-97.05309055447911, 18.759426702689066]]], [[[-97.07041115526792, 18.986557463470643], [-97.06925316075535, 18.989532708992698], [-97.06478537789393, 18.992520235818606], [-97.06347490532002, 18.997677612135185], [-97.06088098832387, 19.000456790215484], [-97.05666422098675, 19.000243202411326], [-97.05065976285815, 18.995554450302684], [-97.0519808642389, 18.985524819209193], [-97.0547837781349, 18.981881738003082], [-97.06657653428512, 18.980481533117498], [-97.07041115526792, 18.986557463470643]]], [[[-97.15554136158339, 18.89118534394299], [-97.15681951548906, 18.903798742284977], [-97.15538874160656, 18.906794846842235], [-97.14675855835885, 18.907916876686887], [-97.14082641468507, 18.90421570655797], [-97.1370245558238, 18.906645816876082], [-97.13691553140167, 18.917623024292215], [-97.14042458341532, 18.930606269788598], [-97.13791921391912, 18.935232957652843], [-97.13197254261338, 18.936481385515187], [-97.12896955007909, 18.935073013846694], [-97.12667813183019, 18.925340799719923], [-97.11948795682727, 18.914499908546947], [-97.11683967074599, 18.913855442053237], [-97.11140015557564, 18.915680295979715], [-97.10273770368642, 18.911280953539436], [-97.10213832110003, 18.90287865291424], [-97.10394243298873, 18.897145380635333], [-97.10165937386223, 18.886167469450786], [-97.1036142605153, 18.870855188765457], [-97.09617317865717, 18.86636075259727], [-97.09500906501687, 18.858002839559873], [-97.08469186430248, 18.85140616940814], [-97.08283770781887, 18.84799452888223], [-97.0847781975337, 18.841402228932512], [-97.09246831689609, 18.837978803651854], [-97.09141752265887, 18.83096846142574], [-97.09353450534712, 18.826164471395206], [-97.10673363228534, 18.822857992895052], [-97.11236875285547, 18.824887021825678], [-97.11420234640332, 18.82724244729358], [-97.1135875327981, 18.834069997507143], [-97.11607276836683, 18.842168016246205], [-97.112044625262, 18.847309711666085], [-97.11185032611094, 18.851404811827642], [-97.11437419693802, 18.854157570560606], [-97.12100662094763, 18.85426065003467], [-97.12313705270168, 18.858205345162844], [-97.11817811928944, 18.8665207062266], [-97.11739541741085, 18.871586168800242], [-97.12108307479042, 18.88289366191828], [-97.11297128813086, 18.89640549450817], [-97.1162385521842, 18.902342318025415], [-97.11946551048032, 18.903550681908882], [-97.13218719497095, 18.901520420504724], [-97.14006386494249, 18.903866005224994], [-97.14268435104715, 18.901060224077632], [-97.14239134774348, 18.890272329468303], [-97.14383139917635, 18.88753448059464], [-97.15104164742225, 18.886382588349505], [-97.15554136158339, 18.89118534394299]]], [[[-97.15322119288362, 19.050214649356686], [-97.1540713210768, 19.05500101561595], [-97.15012434038199, 19.058561603931206], [-97.14221409618938, 19.060113773405096], [-97.13487707032924, 19.058622054655835], [-97.13221322190945, 19.055575111111718], [-97.13298367910218, 19.051570945856763], [-97.1416324340054, 19.042310074339333], [-97.14529341701906, 19.04279464370494], [-97.15322119288362, 19.050214649356686]]], [[[-97.18459617644615, 18.80284557057963], [-97.18166639614455, 18.808594549379542], [-97.17569728142713, 18.808711287063446], [-97.1722937309277, 18.802564888827604], [-97.16517914684076, 18.795155600055157], [-97.14722602802257, 18.78450753797015], [-97.14461710132065, 18.779692960205367], [-97.14394734159988, 18.771674837934793], [-97.14042699228041, 18.765647788763044], [-97.14151167702573, 18.761781447049813], [-97.15341886675334, 18.759498685860414], [-97.15648656686436, 18.760627887682507], [-97.16191708467515, 18.78032100726221], [-97.16999687048877, 18.782822339271853], [-97.17680179712593, 18.78791274673436], [-97.17983678572818, 18.79678922785368], [-97.18459617644615, 18.80284557057963]]], [[[-97.18200022706394, 19.04832914267925], [-97.17972587294142, 19.051772839625727], [-97.17358047251788, 19.05223339555662], [-97.16676133451388, 19.050141221620184], [-97.16485175706913, 19.046008430863505], [-97.1672451245071, 19.0407027152727], [-97.17528996772766, 19.036656191115178], [-97.17917508132642, 19.039277841306767], [-97.18200022706394, 19.04832914267925]]], [[[-97.23629330030279, 18.967825446944797], [-97.23631806308774, 18.97169451434616], [-97.23254834246026, 18.97693103576957], [-97.2361927727777, 18.98254774402688], [-97.23616820844566, 18.985567850943795], [-97.2297296235346, 18.98979785704108], [-97.22831242583214, 18.995713784722565], [-97.22464597600016, 18.998339120321926], [-97.21809715951545, 18.99577381488445], [-97.21390657201675, 18.983543725658162], [-97.21136743297532, 18.98125733886656], [-97.20405164436602, 18.982985931472047], [-97.1999062346111, 18.988385483623702], [-97.19507051892636, 18.9895863750642], [-97.18885599064646, 18.986071390459706], [-97.18198604609147, 18.985549789557886], [-97.17959944649338, 18.982735695470762], [-97.18098122916385, 18.97771184062898], [-97.18587143259847, 18.974023418823904], [-97.19040627948246, 18.97298767947279], [-97.19532379306673, 18.9681400392729], [-97.20349173712411, 18.969603841533814], [-97.21542567653648, 18.96549359746474], [-97.2230566787512, 18.969114625484124], [-97.23147353050646, 18.96348330642367], [-97.23429401407671, 18.964562320226307], [-97.23629330030279, 18.967825446944797]]], [[[-97.20036836945708, 18.755286987898423], [-97.19535294979806, 18.75815155089455], [-97.1906226915855, 18.757741356386333], [-97.18412730720615, 18.751013485661186], [-97.1842483242395, 18.746211067794842], [-97.18943403194064, 18.742199885298213], [-97.19737734688044, 18.74536507018526], [-97.20229035335436, 18.750555121746785], [-97.20036836945708, 18.755286987898423]]], [[[-97.31563366304464, 18.796218787228085], [-97.31338445510045, 18.80086889946601], [-97.30897049297415, 18.80359561434539], [-97.30117396087938, 18.80200212589533], [-97.29796992356619, 18.799639190584053], [-97.29832681811608, 18.79471755400974], [-97.30020773119737, 18.79197123596945], [-97.31233516832285, 18.788834248831556], [-97.31693013871818, 18.791306213789877], [-97.31563366304464, 18.796218787228085]]], [[[-97.29253276112944, 18.80181081992604], [-97.2912739671607, 18.810764786851838], [-97.27667613149414, 18.82415722048928], [-97.26518852280202, 18.825019977442842], [-97.25779639800801, 18.81647462190371], [-97.25825313045023, 18.810150917811704], [-97.26241644155407, 18.806866777746908], [-97.26426083905807, 18.803082571247835], [-97.27246680471617, 18.800391414050544], [-97.27767180188448, 18.795878943300387], [-97.28305994412477, 18.795348873662242], [-97.29253276112944, 18.80181081992604]]], [[[-97.29495352981832, 18.938519309469925], [-97.29617280055844, 18.942248414397238], [-97.29417462733863, 18.95013884448753], [-97.29005668729452, 18.9530540204589], [-97.28596024749135, 18.95272685879882], [-97.28030803975177, 18.945087210681347], [-97.28259091294444, 18.93789643029261], [-97.28797729280225, 18.934280356906687], [-97.29309360702989, 18.935948255220712], [-97.29495352981832, 18.938519309469925]]], [[[-97.307862503752, 18.706333078534612], [-97.3117461254782, 18.70269443884191], [-97.31573341326866, 18.703289218818984], [-97.32397597706051, 18.714005710692966], [-97.32385352924604, 18.71889017901098], [-97.29110898063138, 18.730962122402886], [-97.28670611582085, 18.73041947128723], [-97.28396890141323, 18.728209579159305], [-97.28319613810268, 18.723848988545203], [-97.28868054206012, 18.716634750054467], [-97.29809565784946, 18.714329213319942], [-97.307862503752, 18.706333078534612]]], [[[-97.320515989164, 18.850225885251387], [-97.32118873276573, 18.855599608050863], [-97.31735851020595, 18.860250139610667], [-97.31230957283235, 18.861126112639127], [-97.30783337284957, 18.858630904268157], [-97.30566249132771, 18.849288165588796], [-97.30748174504441, 18.845838412786843], [-97.31569362405938, 18.844944254158396], [-97.320515989164, 18.850225885251387]]], [[[-97.34989470419478, 18.885148160804043], [-97.35165864233673, 18.88941654932109], [-97.34858901746655, 18.893700100063132], [-97.33793761414039, 18.895372318050885], [-97.33080481618921, 18.904793083306647], [-97.32328231810342, 18.90616539668994], [-97.31746367718975, 18.909107410352597], [-97.31186678036403, 18.907118871046276], [-97.31161524281082, 18.903687874895663], [-97.31840458367535, 18.890464247007937], [-97.32466891575555, 18.889733180285525], [-97.33990994716629, 18.883405662670725], [-97.34989470419478, 18.885148160804043]]]]}, "properties": {}}