{"type": "FeatureCollection", "features": [{"type": "Feature", "properties": {"threshold": 70}, "geometry": {"type": "MultiPolygon", "coordinates": [[[[84.54356024390644, 27.686240000247004], [84.54305212298864, 27.688908134582146], [84.55496648711018, 27.690731320850205], [84.56253231576277, 27.687515394380878], [84.56373787123543, 27.683696344292237], [84.54356024390644, 27.686240000247004]]], [[[84.44476158023517, 27.731483111090185], [84.44370360357098, 27.735997290678966], [84.44788523795468, 27.73797267425365], [84.4498236968222, 27.747409825637728], [84.4616146239383, 27.74841070652316], [84.4585350072942, 27.743894840025664], [84.46129642663334, 27.735368572845925], [84.45853597798981, 27.729220852493636], [84.44901713301334, 27.725696418648504], [84.44476158023517, 27.731483111090185]]], [[[84.3845254627944, 27.7040021181354], [84.38411119985693, 27.70715951842036], [84.39782348462178, 27.70877765354251], [84.39842778407004, 27.714546299891683], [84.4032553543593, 27.714502544011996], [84.40830503531926, 27.707427035093687], [84.41748829241224, 27.70540221793605], [84.4217077424139, 27.701479077222857], [84.43271094515416, 27.707330415472253], [84.43897173267553, 27.70501218014511], [84.44327507653286, 27.707526026016247], [84.45538083789847, 27.707632570965956], [84.45690725208166, 27.69588480300169], [84.45109847272175, 27.693942466509597], [84.45372448583936, 27.681792591287678], [84.44872832365252, 27.674445877585697], [84.45393456578495, 27.66654569535175], [84.44895390546169, 27.663759109124683], [84.43885383602928, 27.667437359807252], [84.42635966843125, 27.664252847843063], [84.42507938892054, 27.667528888855248], [84.42974370445499, 27.671206498834326], [84.4260624203184, 27.683392333255128], [84.4222659274242, 27.685109438294297], [84.41559201524068, 27.68276674913286], [84.41228080703883, 27.686360952982433], [84.4156091386133, 27.69225467867455], [84.41393054633743, 27.701605763582844], [84.3845254627944, 27.7040021181354]], [[84.4421993043906, 27.685472620589085], [84.44661878729578, 27.68300401832363], [84.44819108407825, 27.687668799228558], [84.44373980719914, 27.689344735047857], [84.4421993043906, 27.685472620589085]]], [[[84.42260069190148, 27.73734261579069], [84.42160596415908, 27.740362228588914], [84.42490582586619, 27.743253641074514], [84.4338989653307, 27.738800914684138], [84.42882089447339, 27.733933524426792], [84.42382327254089, 27.73475221529762], [84.42260069190148, 27.73734261579069]]], [[[84.3894164466474, 27.688122151160137], [84.39033515394074, 27.695401648323788], [84.40209756934784, 27.69708236471418], [84.40119607351654, 27.692830876883253], [84.3894164466474, 27.688122151160137]]], [[[84.35033471590776, 27.706076139261086], [84.35210815291573, 27.7103520488631], [84.35765059144684, 27.712169315378663], [84.36953900250114, 27.71163066769471], [84.37372955308798, 27.710459336260328], [84.37397799958173, 27.702174494132382], [84.37023194068182, 27.700612164908833], [84.36783035394642, 27.695173424591243], [84.3627517832593, 27.70402922688075], [84.35177877007176, 27.703489283666983], [84.35033471590776, 27.706076139261086]]], [[[84.35150282313506, 27.685541554755766], [84.34880578598845, 27.6895323921395], [84.35419318891553, 27.69407525826317], [84.35673161165657, 27.686095245245895], [84.35150282313506, 27.685541554755766]]], [[[84.30769810549664, 27.694682470872124], [84.31306227361664, 27.698769526107487], [84.3185889285671, 27.697572269625766], [84.31202053581076, 27.690200308273067], [84.30754222464644, 27.69114897584348], [84.30769810549664, 27.694682470872124]]], [[[84.25894890758354, 27.972568853651694], [84.25715708636871, 27.97716791720931], [84.26353214506922, 27.977922512925392], [84.26675668070813, 27.98239379646458], [84.27974358212029, 27.975383742033667], [84.28102185979871, 27.969218046597707], [84.27563115410452, 27.966930214453605], [84.25894890758354, 27.972568853651694]]], [[[84.22235350237918, 27.682626139805237], [84.22446856228201, 27.688418028180145], [84.23916840450097, 27.686300599173126], [84.24574644686953, 27.69199606197279], [84.25033824918971, 27.688117270557164], [84.25834472347177, 27.689241085309344], [84.25984881539124, 27.69487579419055], [84.25782316886266, 27.700226128812286], [84.26032246414312, 27.701684263544912], [84.26561246817369, 27.700596054624903], [84.26667268236089, 27.691573345607765], [84.27483228778702, 27.687945596479803], [84.26886443191461, 27.683839043624996], [84.26110483433628, 27.68523372580311], [84.25289128390992, 27.681955400743025], [84.24844809699884, 27.68511450335484], [84.24432828901297, 27.682580242208907], [84.2342236920534, 27.682244781452546], [84.23122137551633, 27.675253428952555], [84.22431062144759, 27.676907588612192], [84.22235350237918, 27.682626139805237]]]]}}, {"type": "Feature", "properties": {"threshold": 80}, "geometry": {"type": "MultiPolygon", "coordinates": [[[[84.54356024390644, 27.686240000247004], [84.54305212298864, 27.688908134582146], [84.55496648711018, 27.690731320850205], [84.56253231576277, 27.687515394380878], [84.56373787123543, 27.683696344292237], [84.54356024390644, 27.686240000247004]]], [[[84.44476158023517, 27.731483111090185], [84.44370360357098, 27.735997290678966], [84.44788523795468, 27.73797267425365], [84.4498236968222, 27.747409825637728], [84.4616146239383, 27.74841070652316], [84.4585350072942, 27.743894840025664], [84.46129642663334, 27.735368572845925], [84.45853597798981, 27.729220852493636], [84.44901713301334, 27.725696418648504], [84.44476158023517, 27.731483111090185]]], [[[84.3838229993115, 27.7051457252036], [84.39100201972832, 27.71039220850503], [84.39639245624089, 27.71098511409997], [84.39842778407004, 27.714546299891683], [84.40673918706558, 27.713039612667117], [84.40910708860031, 27.707415376218353], [84.419042827099, 27.704754701690863], [84.42399246709067, 27.707179618461197], [84.42820145580728, 27.705166979816134], [84.43481387600536, 27.707369418653194], [84.43897173267553, 27.70501218014511], [84.44327507653286, 27.707526026016247], [84.45538083789847, 27.707632570965956], [84.45690725208166, 27.69588480300169], [84.45109847272175, 27.693942466509597], [84.45372448583936, 27.681792591287678], [84.44891910375974, 27.674655550790256], [84.45393456578495, 27.66654569535175], [84.44895390546169, 27.663759109124683], [84.43938609179109, 27.666845818330795], [84.42635966843125, 27.664252847843063], [84.4260896709593, 27.683250514313407], [84.41559201524068, 27.68276674913286], [84.41228080703883, 27.686360952982433], [84.41557287426464, 27.692014594247784], [84.41475754792812, 27.69777155961001], [84.4038319496164, 27.698082563565507], [84.40119607351654, 27.692830876883253], [84.38993804890482, 27.687772351653607], [84.38653032920196, 27.696592680951273], [84.39344016967651, 27.697339421425518], [84.39620431257862, 27.701919013120854], [84.38973562240999, 27.70393849860974], [84.38520102996583, 27.70179201762558], [84.3838229993115, 27.7051457252036]]], [[[84.42260069190148, 27.73734261579069], [84.42160596415908, 27.740362228588914], [84.42490582586619, 27.743253641074514], [84.4338989653307, 27.738800914684138], [84.42882089447339, 27.733933524426792], [84.42382327254089, 27.73475221529762], [84.42260069190148, 27.73734261579069]]], [[[84.35033471590776, 27.706076139261086], [84.35210815291573, 27.7103520488631], [84.35765059144684, 27.712169315378663], [84.36953900250114, 27.71163066769471], [84.37372955308798, 27.710459336260328], [84.37397799958173, 27.702174494132382], [84.37023194068182, 27.700612164908833], [84.36783035394642, 27.695173424591243], [84.3627517832593, 27.70402922688075], [84.35177877007176, 27.703489283666983], [84.35033471590776, 27.706076139261086]]], [[[84.35150282313506, 27.685541554755766], [84.34880578598845, 27.6895323921395], [84.35419318891553, 27.69407525826317], [84.35673161165657, 27.686095245245895], [84.35150282313506, 27.685541554755766]]], [[[84.30769810549664, 27.694682470872124], [84.31306227361664, 27.698769526107487], [84.3185889285671, 27.697572269625766], [84.31202053581076, 27.690200308273067], [84.30754222464644, 27.69114897584348], [84.30769810549664, 27.694682470872124]]], [[[84.25894890758354, 27.972568853651694], [84.25715708636871, 27.97716791720931], [84.26353214506922, 27.977922512925392], [84.26675668070813, 27.98239379646458], [84.27974358212029, 27.975383742033667], [84.28102185979871, 27.969218046597707], [84.27563115410452, 27.966930214453605], [84.25894890758354, 27.972568853651694]]], [[[84.22235350237918, 27.682626139805237], [84.22446856228201, 27.688418028180145], [84.23916840450097, 27.686300599173126], [84.24649690067633, 27.692010994447465], [84.25008863353256, 27.68817929529809], [84.25694465728698, 27.688544130261533], [84.25985467542917, 27.694644919921533], [84.25784222151763, 27.70030084875322], [84.26032246414312, 27.701684263544912], [84.27177245312932, 27.69692596204756], [84.2715843837176, 27.691756764166044], [84.27483228778702, 27.687945596479803], [84.27064399355163, 27.68309034586461], [84.25289128390992, 27.681955400743025], [84.24844809699884, 27.68511450335484], [84.24432828901297, 27.682580242208907], [84.2342236920534, 27.682244781452546], [84.23122137551633, 27.675253428952555], [84.22431062144759, 27.676907588612192], [84.22235350237918, 27.682626139805237]]]]}}, {"type": "Feature", "properties": {"threshold": 90}, "geometry": {"type": "MultiPolygon", "coordinates": [[[[84.54356024390644, 27.686240000247004], [84.54305212298864, 27.688908134582146], [84.55496648711018, 27.690731320850205], [84.56253231576277, 27.687515394380878], [84.56373787123543, 27.683696344292237], [84.54356024390644, 27.686240000247004]]], [[[84.5417580257054, 27.742151693494684], [84.54409512004325, 27.747549066167505], [84.54796082822844, 27.7484015779237], [84.54816112789761, 27.739461667383065], [84.54184603000806, 27.739212999458484], [84.5417580257054, 27.742151693494684]]], [[[84.44476158023517, 27.731483111090185], [84.44370360357098, 27.735997290678966], [84.44788523795468, 27.73797267425365], [84.4498236968222, 27.747409825637728], [84.4616146239383, 27.74841070652316], [84.4585350072942, 27.743894840025664], [84.46129642663334, 27.735368572845925], [84.45853597798981, 27.729220852493636], [84.44901713301334, 27.725696418648504], [84.44476158023517, 27.731483111090185]]], [[[84.35033471590776, 27.706076139261086], [84.35210815291573, 27.7103520488631], [84.35765059144684, 27.712169315378663], [84.36953900250114, 27.71163066769471], [84.37353334312462, 27.710708984763116], [84.37448048893302, 27.705586992042033], [84.3825235291155, 27.700976663466665], [84.38372442431505, 27.70686455591984], [84.39003012968418, 27.711118311886104], [84.409650411205, 27.718676116094024], [84.41765435423461, 27.715205419156348], [84.41395421531698, 27.708988116607422], [84.41616252562314, 27.706273715447413], [84.42502634307078, 27.707982712907683], [84.42785999801201, 27.705324357337343], [84.43472846430984, 27.707379081375507], [84.43923090590192, 27.705016976765002], [84.44327507653286, 27.707526026016247], [84.45522751108975, 27.707701925551163], [84.45690725208166, 27.69588480300169], [84.45109847272175, 27.693942466509597], [84.45372448583936, 27.681792591287678], [84.44891910375974, 27.674655550790256], [84.4540124648369, 27.666682156579792], [84.44805292254523, 27.66373591521818], [84.43785057013625, 27.66667079030961], [84.42802121284593, 27.662813131359524], [84.42504404424197, 27.66636894234121], [84.4260896709593, 27.683250514313407], [84.41471188464969, 27.682750316449432], [84.41228080703883, 27.686360952982433], [84.4156091386133, 27.69225467867455], [84.41392562048911, 27.698271547644243], [84.4038319496164, 27.698082563565507], [84.40119607351654, 27.692830876883253], [84.39002197466914, 27.687755311014385], [84.38328688216794, 27.69934864154409], [84.37173623553483, 27.698589340696373], [84.3677464201217, 27.69519045111488], [84.3627517832593, 27.70402922688075], [84.35177877007176, 27.703489283666983], [84.35033471590776, 27.706076139261086]]], [[[84.42260069190148, 27.73734261579069], [84.42160596415908, 27.740362228588914], [84.42490582586619, 27.743253641074514], [84.4338989653307, 27.738800914684138], [84.42882089447339, 27.733933524426792], [84.42382327254089, 27.73475221529762], [84.42260069190148, 27.73734261579069]]], [[[84.35150282313506, 27.685541554755766], [84.34880578598845, 27.6895323921395], [84.35419318891553, 27.69407525826317], [84.35673161165657, 27.686095245245895], [84.35150282313506, 27.685541554755766]]], [[[84.30769810549664, 27.694682470872124], [84.31306227361664, 27.698769526107487], [84.3185889285671, 27.697572269625766], [84.31202053581076, 27.690200308273067], [84.30754222464644, 27.69114897584348], [84.30769810549664, 27.694682470872124]]], [[[84.25894890758354, 27.972568853651694], [84.25715708636871, 27.97716791720931], [84.26353214506922, 27.977922512925392], [84.26675668070813, 27.98239379646458], [84.27974358212029, 27.975383742033667], [84.28102185979871, 27.969218046597707], [84.27563115410452, 27.966930214453605], [84.25894890758354, 27.972568853651694]]], [[[84.22235350237918, 27.682626139805237], [84.22446856228201, 27.688418028180145], [84.23916840450097, 27.686300599173126], [84.24649690067633, 27.692010994447465], [84.25008863353256, 27.68817929529809], [84.25694465728698, 27.688544130261533], [84.25985467542917, 27.694644919921533], [84.25784222151763, 27.70030084875322], [84.26032246414312, 27.701684263544912], [84.27177245312932, 27.69692596204756], [84.27483228778702, 27.687945596479803], [84.27064399355163, 27.68309034586461], [84.25289128390992, 27.681955400743025], [84.24844809699884, 27.68511450335484], [84.24432828901297, 27.682580242208907], [84.2342236920534, 27.682244781452546], [84.23122137551633, 27.675253428952555], [84.22431062144759, 27.676907588612192], [84.22235350237918, 27.682626139805237]]]]}}, {"type": "Feature", "properties": {"threshold": 95}, "geometry": {"type": "MultiPolygon", "coordinates": [[[[84.54356024390644, 27.686240000247004], [84.54305212298864, 27.688908134582146], [84.55496648711018, 27.690731320850205], [84.56253231576277, 27.687515394380878], [84.56373787123543, 27.683696344292237], [84.54356024390644, 27.686240000247004]]], [[[84.52492675211893, 27.737795651421365], [84.53178252697022, 27.74654589294257], [84.53832159260747, 27.75001178634264], [84.54863166870759, 27.748550014826858], [84.55182059637558, 27.744150627629658], [84.54771662596681, 27.739240026947808], [84.54184603000806, 27.739212999458484], [84.53765455630145, 27.743396550029022], [84.52771339969529, 27.735008836177993], [84.52493298758884, 27.735185199239936], [84.52492675211893, 27.737795651421365]]], [[[84.44476158023517, 27.731483111090185], [84.44370360357098, 27.735997290678966], [84.44788523795468, 27.73797267425365], [84.4498236968222, 27.747409825637728], [84.4616146239383, 27.74841070652316], [84.4585350072942, 27.743894840025664], [84.46129642663334, 27.735368572845925], [84.45853597798981, 27.729220852493636], [84.44901713301334, 27.725696418648504], [84.44476158023517, 27.731483111090185]]], [[[84.35033471590776, 27.706076139261086], [84.35210815291573, 27.7103520488631], [84.35765059144684, 27.712169315378663], [84.36953900250114, 27.71163066769471], [84.37353334312462, 27.710708984763116], [84.37448048893302, 27.705586992042033], [84.3825235291155, 27.700976663466665], [84.38372442431505, 27.70686455591984], [84.39003012968418, 27.711118311886104], [84.409650411205, 27.718676116094024], [84.41761591586004, 27.715273987530693], [84.41599215560784, 27.708424905406645], [84.42341659500065, 27.708706725093162], [84.42785999801201, 27.705324357337343], [84.43279583014649, 27.707343236672497], [84.43897173267553, 27.70501218014511], [84.44327507653286, 27.707526026016247], [84.45522751108975, 27.707701925551163], [84.45690725208166, 27.69588480300169], [84.45109847272175, 27.693942466509597], [84.45372448583936, 27.681792591287678], [84.44891910375974, 27.674655550790256], [84.4540124648369, 27.666682156579792], [84.44805292254523, 27.66373591521818], [84.43785057013625, 27.66667079030961], [84.42802121284593, 27.662813131359524], [84.42504404424197, 27.66636894234121], [84.4260896709593, 27.683250514313407], [84.41471188464969, 27.682750316449432], [84.41228080703883, 27.686360952982433], [84.4156091386133, 27.69225467867455], [84.41392562048911, 27.698271547644243], [84.4038319496164, 27.698082563565507], [84.40119607351654, 27.692830876883253], [84.39002197466914, 27.687755311014385], [84.38328688216794, 27.69934864154409], [84.37173623553483, 27.698589340696373], [84.3677464201217, 27.69519045111488], [84.3627517832593, 27.70402922688075], [84.35177877007176, 27.703489283666983], [84.35033471590776, 27.706076139261086]]], [[[84.42260069190148, 27.73734261579069], [84.42160596415908, 27.740362228588914], [84.42490582586619, 27.743253641074514], [84.4338989653307, 27.738800914684138], [84.42882089447339, 27.733933524426792], [84.42382327254089, 27.73475221529762], [84.42260069190148, 27.73734261579069]]], [[[84.35150282313506, 27.685541554755766], [84.34880578598845, 27.6895323921395], [84.35419318891553, 27.69407525826317], [84.35673161165657, 27.686095245245895], [84.35150282313506, 27.685541554755766]]], [[[84.30769810549664, 27.694682470872124], [84.31306227361664, 27.698769526107487], [84.3185889285671, 27.697572269625766], [84.31202053581076, 27.690200308273067], [84.30754222464644, 27.69114897584348], [84.30769810549664, 27.694682470872124]]], [[[84.27244731657215, 27.827617611605604], [84.27224525731053, 27.831619814956696], [84.27494343104648, 27.83207095048083], [84.29347537034786, 27.82367958299118], [84.28719066278812, 27.822158771800794], [84.2784530682753, 27.82588779093349], [84.27395375856878, 27.822681661211202], [84.27244731657215, 27.827617611605604]]], [[[84.25894890758354, 27.972568853651694], [84.25715708636871, 27.97716791720931], [84.26353214506922, 27.977922512925392], [84.26675668070813, 27.98239379646458], [84.27974358212029, 27.975383742033667], [84.28102185979871, 27.969218046597707], [84.27563115410452, 27.966930214453605], [84.25894890758354, 27.972568853651694]]], [[[84.22235350237918, 27.682626139805237], [84.22446856228201, 27.688418028180145], [84.23916840450097, 27.686300599173126], [84.24649690067633, 27.692010994447465], [84.25008863353256, 27.68817929529809], [84.25694465728698, 27.688544130261533], [84.25985467542917, 27.694644919921533], [84.25784222151763, 27.70030084875322], [84.26032246414312, 27.701684263544912], [84.27177245312932, 27.69692596204756], [84.27483228778702, 27.687945596479803], [84.27064399355163, 27.68309034586461], [84.25289128390992, 27.681955400743025], [84.24844809699884, 27.68511450335484], [84.24432828901297, 27.682580242208907], [84.2342236920534, 27.682244781452546], [84.23122137551633, 27.675253428952555], [84.22431062144759, 27.676907588612192], [84.22235350237918, 27.682626139805237]]]]}}]}