{"type": "FeatureCollection", "features": [{"type": "Feature", "properties": {"threshold": 70}, "geometry": {"type": "MultiPolygon", "coordinates": [[[[-101.43785386333111, 20.942119531867426], [-101.43635866123552, 20.957741471627173], [-101.43114304083376, 20.96558476292427], [-101.42449023252868, 20.96104997475481], [-101.42956812237998, 20.951879132462004], [-101.42258047970645, 20.94748748968326], [-101.42331208831992, 20.933133684587972], [-101.43218987056638, 20.93278635691466], [-101.43380418543428, 20.938972575243024], [-101.43785386333111, 20.942119531867426]]], [[[-101.69716158995129, 21.10122708976807], [-101.6936347882969, 21.10705444456041], [-101.68604206974278, 21.10640484785532], [-101.68376615719181, 21.104172049042557], [-101.68489590299824, 21.095165104274333], [-101.6771724095792, 21.09365168868373], [-101.67403438734968, 21.089470304437224], [-101.66783467130898, 21.089889228130552], [-101.66259224936194, 21.09722119108302], [-101.6638613607103, 21.104111942971432], [-101.65536244360132, 21.106130259860283], [-101.65293975159068, 21.103931471630744], [-101.65337077313903, 21.09532045256612], [-101.64985923224363, 21.093017390182048], [-101.64310072551787, 21.099124440688662], [-101.64070075967715, 21.10533645978697], [-101.6297616648116, 21.113103305225582], [-101.62880068053997, 21.123596666155045], [-101.63102982802985, 21.12582892886137], [-101.63527036699628, 21.125617803350252], [-101.64020577995143, 21.120871442035888], [-101.64929963505377, 21.121288513634905], [-101.6562815890265, 21.114209096708986], [-101.66163611726597, 21.11619243796595], [-101.6587106239547, 21.124885026311162], [-101.6627659835282, 21.12991245042366], [-101.66279902739714, 21.135344422398486], [-101.65307620109199, 21.13772398981642], [-101.65149946347312, 21.14322150560023], [-101.65371615373391, 21.149733383340525], [-101.65083562844049, 21.15269945693565], [-101.6389732248994, 21.15029307768392], [-101.63927374269988, 21.16058113074176], [-101.64597202835303, 21.164166087217502], [-101.65093441168224, 21.159363292741485], [-101.65674758049481, 21.159859704629522], [-101.65970605908092, 21.15753887216093], [-101.66834075875697, 21.160154608496057], [-101.6684850483552, 21.16579723962219], [-101.6590887246205, 21.17577906635562], [-101.65022005184147, 21.177786624093923], [-101.64792198572827, 21.18145974536096], [-101.65195970710536, 21.188081022930156], [-101.65790329509382, 21.186490692556912], [-101.66655926520319, 21.189490014665907], [-101.67492022378244, 21.18782278929145], [-101.67996124211002, 21.18964605363131], [-101.68365186359316, 21.195489175996858], [-101.6830113353478, 21.202721512157733], [-101.68638164902578, 21.205820318239535], [-101.68652221546417, 21.210221706348367], [-101.67782140658211, 21.211870676723642], [-101.67215273991263, 21.21007565250492], [-101.66375355157366, 21.19646977819507], [-101.65441228858212, 21.196969283233383], [-101.64793056899688, 21.194440622441125], [-101.64702798510723, 21.19075129333888], [-101.64334151999, 21.189356174326026], [-101.64314856641764, 21.182144849529873], [-101.6385426491006, 21.17803509112847], [-101.62789702665829, 21.176267011832014], [-101.62523681452384, 21.159871104986532], [-101.61724877427696, 21.155534244327473], [-101.61583364634626, 21.151306641006382], [-101.6092741318262, 21.14903849764745], [-101.61631680245605, 21.139808173152694], [-101.62412243622255, 21.142413001065126], [-101.62689982115903, 21.140697624918545], [-101.62602737357057, 21.134424445347438], [-101.61627677547581, 21.133217265628655], [-101.61485735189747, 21.130244215276697], [-101.61656017023736, 21.122382764422444], [-101.62140867625214, 21.120643351025837], [-101.62078441903996, 21.116215692598583], [-101.61208850856609, 21.117853181971885], [-101.60208575490904, 21.13108178538716], [-101.59560293949161, 21.131090602652563], [-101.59317949884186, 21.12687704886667], [-101.58522761225771, 21.125622854755807], [-101.58056400169161, 21.121413674970043], [-101.58038870607177, 21.11584216718074], [-101.58439375853594, 21.11102016980877], [-101.57340487520544, 21.10618310284431], [-101.57408219983395, 21.093293395534833], [-101.58505410246269, 21.08874864414453], [-101.60244430063624, 21.09238289793438], [-101.60815619621947, 21.084151695581625], [-101.60437721578212, 21.080616119894216], [-101.59886277498057, 21.080315004759907], [-101.59308141428899, 21.071930990326482], [-101.58515142527673, 21.071770055449292], [-101.58287702551398, 21.066766164714547], [-101.57218478338565, 21.0647329385296], [-101.57001394374458, 21.060537812524206], [-101.57430949891511, 21.05926912776744], [-101.57600954021605, 21.055152852279516], [-101.57943785269376, 21.05509307542271], [-101.59071676758452, 21.063538988792402], [-101.601046199967, 21.062016571514803], [-101.60541539379318, 21.068767567338814], [-101.6137867395718, 21.069831617470133], [-101.615849275632, 21.06682869084415], [-101.60943203772668, 21.062156941144657], [-101.61042070994091, 21.055589703532466], [-101.61978117794446, 21.05610199034156], [-101.62769159908191, 21.06004242751152], [-101.63089464412711, 21.051254796797984], [-101.63854279339643, 21.051792587474797], [-101.64005119711777, 21.060146944668098], [-101.63210858385717, 21.06098126802783], [-101.63113408416275, 21.064719180502937], [-101.64527787656763, 21.070432690929987], [-101.64656797657544, 21.081845906457644], [-101.658038728199, 21.08278687448714], [-101.6648936237737, 21.079207195821052], [-101.66781025251586, 21.068602926872547], [-101.67555174784562, 21.063196774562584], [-101.67717127467641, 21.057014237791332], [-101.68494428820186, 21.05498270982779], [-101.68464701268661, 21.047309453551097], [-101.68990811975979, 21.046994367983444], [-101.68963364313905, 21.053671263658355], [-101.68625235946347, 21.05699327351959], [-101.69406798599648, 21.064169352699544], [-101.69429225680649, 21.071933197640877], [-101.6819528737094, 21.082155539471533], [-101.68625833379447, 21.08977242154727], [-101.6970703771341, 21.09057761123026], [-101.69716158995129, 21.10122708976807]], [[-101.60184862484765, 21.099744723221377], [-101.59770454361987, 21.104830067028136], [-101.60106174679198, 21.10838006856279], [-101.60492255673935, 21.10843526149934], [-101.6065976472668, 21.10130602547388], [-101.60184862484765, 21.099744723221377]], [[-101.63527970009171, 21.080738719522284], [-101.63297607652528, 21.067066576238076], [-101.62594694087052, 21.0676008141029], [-101.62422939738583, 21.07397892948396], [-101.6322416958046, 21.08581535016231], [-101.637146790685, 21.0844021084741], [-101.63527970009171, 21.080738719522284]]], [[[-101.7152413652154, 21.145791995373106], [-101.71370930894832, 21.15543262365641], [-101.7091182037329, 21.157744261560943], [-101.70855598288986, 21.162937538818927], [-101.70530327560844, 21.163220317731536], [-101.69032431219783, 21.148530777340497], [-101.68315218840573, 21.14812436006341], [-101.68017540603618, 21.142651554337192], [-101.6821950698697, 21.138817213703128], [-101.68703273841082, 21.13860935839768], [-101.6913840108849, 21.144327204761957], [-101.71365571544024, 21.142203151527426], [-101.7152413652154, 21.145791995373106]]], [[[-101.76899489358841, 21.08785805625455], [-101.76947787156709, 21.094639947549986], [-101.74773430889323, 21.099031475718327], [-101.74671511349267, 21.09220937395442], [-101.74398322563384, 21.090804649153746], [-101.7387965717734, 21.093654787746026], [-101.73381979480567, 21.103195924739055], [-101.72842243604741, 21.100334134167365], [-101.72037500040037, 21.100653854998058], [-101.7167248626102, 21.104398712740345], [-101.72432333404873, 21.116562306358748], [-101.73495949290917, 21.11864308540741], [-101.73802250621983, 21.123510110056003], [-101.74530909590771, 21.122494177552646], [-101.75792073498371, 21.132483688653817], [-101.75551980039732, 21.137724137439406], [-101.75727837509946, 21.144058459953552], [-101.7524292417561, 21.149093332413827], [-101.75213660676164, 21.156607783367196], [-101.74738299593275, 21.159326896949924], [-101.74169762368331, 21.158055841902993], [-101.73629236649427, 21.161917880197752], [-101.72806624873165, 21.160352681917317], [-101.72667081444996, 21.154690405218982], [-101.72970195322502, 21.149574007452], [-101.72319206222308, 21.14489923863778], [-101.7214458471244, 21.13766545852612], [-101.71386394546207, 21.13723282651134], [-101.71167465317181, 21.131701211043307], [-101.7137790645209, 21.128628542322907], [-101.71862820349591, 21.128471564914413], [-101.7213860049242, 21.13483672088845], [-101.72911553451694, 21.134701872873972], [-101.73233674201019, 21.12902770431094], [-101.72290386971696, 21.1233247595415], [-101.72148380254346, 21.118407381721077], [-101.71238783380448, 21.1161386479033], [-101.71314874864574, 21.107005933436525], [-101.70782863296046, 21.103284508232946], [-101.70598592185536, 21.096129076812023], [-101.72504075112643, 21.09282484238], [-101.73643676044355, 21.08557613342287], [-101.74485072248129, 21.09078149445785], [-101.75871037245477, 21.086018920452275], [-101.76899489358841, 21.08785805625455]], [[-101.73989210319449, 21.129283151765375], [-101.73712413721488, 21.126921161542832], [-101.73420026923463, 21.129737736730625], [-101.73755377516133, 21.132451397365273], [-101.73989210319449, 21.129283151765375]], [[-101.74720056459238, 21.148495148395078], [-101.74555458890504, 21.142388925458697], [-101.74057636474078, 21.141707545477402], [-101.74221691341992, 21.150614274564084], [-101.74563610690292, 21.151217736102403], [-101.74720056459238, 21.148495148395078]]], [[[-101.87984204344993, 21.023434795629036], [-101.87385958130318, 21.033331807363975], [-101.86590489212703, 21.03105525889728], [-101.85910130080181, 21.032286736674905], [-101.85788150990061, 21.04153834929444], [-101.84934814849359, 21.04268544577058], [-101.84787441998967, 21.036744428353938], [-101.85560034333874, 21.031556903608447], [-101.85112825221263, 21.0278008357616], [-101.84775902171563, 21.019145272434347], [-101.8399130618793, 21.015318669795374], [-101.83876845236561, 21.0113244274059], [-101.85171861648654, 21.010554810106843], [-101.85666028416172, 21.01520307849402], [-101.86201510698854, 21.007386331241165], [-101.86626848263114, 21.006310985891723], [-101.86931550416354, 21.020045873421026], [-101.87687660408996, 21.019820410833926], [-101.87984204344993, 21.023434795629036]]]]}}, {"type": "Feature", "properties": {"threshold": 80}, "geometry": {"type": "MultiPolygon", "coordinates": [[[[-101.43785386333111, 20.942119531867426], [-101.43878814623726, 20.9479840499118], [-101.4353709830216, 20.951562739799453], [-101.43637775390884, 20.957664951512523], [-101.4329917384933, 20.965169471363478], [-101.424972257556, 20.964004866974918], [-101.42449240859979, 20.958175541823984], [-101.42901525184006, 20.95597113471845], [-101.42956812237998, 20.951879132462004], [-101.42258047970645, 20.94748748968326], [-101.42331208831992, 20.933133684587972], [-101.43132144290409, 20.931994862168285], [-101.43392586578845, 20.93916740486102], [-101.43785386333111, 20.942119531867426]]], [[[-101.69716158995129, 21.10122708976807], [-101.6936347882969, 21.10705444456041], [-101.68604206974278, 21.10640484785532], [-101.68376615719181, 21.104172049042557], [-101.68489590299824, 21.095165104274333], [-101.6771724095792, 21.09365168868373], [-101.67403438734968, 21.089470304437224], [-101.66783467130898, 21.089889228130552], [-101.66259224936194, 21.09722119108302], [-101.6638613607103, 21.104111942971432], [-101.65536244360132, 21.106130259860283], [-101.65293975159068, 21.103931471630744], [-101.65337077313903, 21.09532045256612], [-101.64985923224363, 21.093017390182048], [-101.64310072551787, 21.099124440688662], [-101.64070075967715, 21.10533645978697], [-101.6297616648116, 21.113103305225582], [-101.62880068053997, 21.123596666155045], [-101.63102982802985, 21.12582892886137], [-101.63527036699628, 21.125617803350252], [-101.64020577995143, 21.120871442035888], [-101.64929963505377, 21.121288513634905], [-101.6562815890265, 21.114209096708986], [-101.66163611726597, 21.11619243796595], [-101.6587106239547, 21.124885026311162], [-101.6627659835282, 21.12991245042366], [-101.66279902739714, 21.135344422398486], [-101.65307620109199, 21.13772398981642], [-101.65149946347312, 21.14322150560023], [-101.65371615373391, 21.149733383340525], [-101.65083562844049, 21.15269945693565], [-101.6389732248994, 21.15029307768392], [-101.63927374269988, 21.16058113074176], [-101.64597202835303, 21.164166087217502], [-101.65093441168224, 21.159363292741485], [-101.65674758049481, 21.159859704629522], [-101.65970605908092, 21.15753887216093], [-101.66842211237956, 21.160291778811725], [-101.66844319563734, 21.165865309546355], [-101.65740407442486, 21.177413067335262], [-101.64822848526448, 21.179856064707288], [-101.65127244781971, 21.187789269972452], [-101.65790329509382, 21.186490692556912], [-101.66681070273818, 21.18950923820631], [-101.67523179331288, 21.187855246248127], [-101.6799039331374, 21.18958873198744], [-101.68390503339003, 21.1951192238573], [-101.69200677367257, 21.189517610945536], [-101.6904061876404, 21.198533395197472], [-101.6829774042964, 21.200794343859194], [-101.68728779566632, 21.210508528728603], [-101.67785040952971, 21.213477691438833], [-101.67129586238939, 21.210089217803773], [-101.66375355157366, 21.19646977819507], [-101.65441228858212, 21.196969283233383], [-101.64793056899688, 21.194440622441125], [-101.64249998837354, 21.188639583535053], [-101.64310570012339, 21.182684753205905], [-101.64070383765848, 21.180003240108128], [-101.62706871443365, 21.17788742034306], [-101.62408802232383, 21.16860451051848], [-101.62735811636382, 21.164468977113497], [-101.62523681452384, 21.159871104986532], [-101.61724877427696, 21.155534244327473], [-101.61562435796509, 21.15118610463116], [-101.60586191617962, 21.14989487233321], [-101.6059524032202, 21.146538321098564], [-101.61639192137632, 21.139773408844192], [-101.62412243622255, 21.142413001065126], [-101.62681487406773, 21.140926369971158], [-101.62620537996092, 21.134579896334422], [-101.61627677547581, 21.133217265628655], [-101.61485735189747, 21.130244215276697], [-101.61656017023736, 21.122382764422444], [-101.62140867625214, 21.120643351025837], [-101.62078441903996, 21.116215692598583], [-101.61208850856609, 21.117853181971885], [-101.60569526504084, 21.123686310037563], [-101.60209978736687, 21.131885349672384], [-101.5938759999125, 21.130313289434643], [-101.59221875480512, 21.126823611362514], [-101.58522761225771, 21.125622854755807], [-101.57970757153208, 21.12142672363405], [-101.57953230777241, 21.115855211682945], [-101.58395085760154, 21.110964686021852], [-101.57340487520544, 21.10618310284431], [-101.57408219983395, 21.093293395534833], [-101.58502628428356, 21.087141485558707], [-101.60244430063624, 21.09238289793438], [-101.60538750273962, 21.08640481127355], [-101.59798556598557, 21.08268701977781], [-101.59722468310568, 21.078381330472247], [-101.5913373127083, 21.072912620340357], [-101.58515142527673, 21.071770055449292], [-101.58036766044984, 21.065827297612735], [-101.56937155707237, 21.062224143305052], [-101.56946584665292, 21.060186680781744], [-101.57462260340142, 21.0588989646081], [-101.57460784598476, 21.05380367503374], [-101.56761101164679, 21.05190096217924], [-101.55966570664617, 21.045490869834055], [-101.54736829053758, 21.033497202342918], [-101.5472702799514, 21.030264728855677], [-101.55796137401542, 21.03303099347353], [-101.56027960378832, 21.039010755130544], [-101.571848549225, 21.040102405256707], [-101.57737499251441, 21.048369238490597], [-101.57722125295943, 21.0529884812487], [-101.59119356539357, 21.063690961648536], [-101.60779809378306, 21.06329958492632], [-101.61087509923993, 21.055404782694584], [-101.62702355776501, 21.059540350007822], [-101.63096104883402, 21.051206950194246], [-101.63869832213666, 21.051850250330563], [-101.64178140221894, 21.056371197340432], [-101.64086539248318, 21.06020169011955], [-101.63233463214047, 21.06087658796538], [-101.63092457042198, 21.064277098321316], [-101.64527787656763, 21.070432690929987], [-101.64552432485273, 21.08027789735476], [-101.64773280484117, 21.082273690583694], [-101.65827876917069, 21.082750817747446], [-101.66439680228116, 21.07973930636196], [-101.66781025251586, 21.068602926872547], [-101.67527257225518, 21.061712532816916], [-101.67451938754556, 21.05550677012554], [-101.68324107932787, 21.055592472514405], [-101.68464701268661, 21.047309453551097], [-101.69084030897181, 21.04701320137505], [-101.6883868427042, 21.057947549614696], [-101.69497555899173, 21.06502972725869], [-101.69429225680649, 21.071933197640877], [-101.68486521784621, 21.079005093747003], [-101.68348267709437, 21.082917152286036], [-101.68625833379447, 21.08977242154727], [-101.6970703771341, 21.09057761123026], [-101.69716158995129, 21.10122708976807]], [[-101.60184862484765, 21.099744723221377], [-101.59770454361987, 21.104830067028136], [-101.60106174679198, 21.10838006856279], [-101.60492255673935, 21.10843526149934], [-101.6065976472668, 21.10130602547388], [-101.60184862484765, 21.099744723221377]], [[-101.61089170032574, 21.069251099771357], [-101.61450439925815, 21.069615145838537], [-101.61590250566819, 21.067059960570344], [-101.60997723320007, 21.06265747035984], [-101.60774620807427, 21.06692805416301], [-101.61089170032574, 21.069251099771357]], [[-101.63527970009171, 21.080738719522284], [-101.63297607652528, 21.067066576238076], [-101.62594694087052, 21.0676008141029], [-101.62422939738583, 21.07397892948396], [-101.6322416958046, 21.08581535016231], [-101.637146790685, 21.0844021084741], [-101.63527970009171, 21.080738719522284]]], [[[-101.7152413652154, 21.145791995373106], [-101.71370930894832, 21.15543262365641], [-101.7091182037329, 21.157744261560943], [-101.70855598288986, 21.162937538818927], [-101.70530327560844, 21.163220317731536], [-101.69032431219783, 21.148530777340497], [-101.68315218840573, 21.14812436006341], [-101.68017540603618, 21.142651554337192], [-101.6821950698697, 21.138817213703128], [-101.68703273841082, 21.13860935839768], [-101.6913840108849, 21.144327204761957], [-101.71365571544024, 21.142203151527426], [-101.7152413652154, 21.145791995373106]]], [[[-101.77175976869582, 21.138748912359613], [-101.77139829333333, 21.143574056256455], [-101.76742026780221, 21.14452204161436], [-101.76157430764685, 21.141751034302658], [-101.75292564717061, 21.14832506362438], [-101.75288050178308, 21.157498968480244], [-101.73816852034624, 21.162006650256853], [-101.73833429153424, 21.16511456728582], [-101.74392553770754, 21.167853103386975], [-101.74377713333755, 21.171263158538643], [-101.73167074068759, 21.1739172266254], [-101.7286116472126, 21.167753285077584], [-101.73049373707602, 21.16219763381543], [-101.72673644184734, 21.158942658030945], [-101.72980624428142, 21.14978010544066], [-101.72319206222308, 21.14489923863778], [-101.7214458471244, 21.13766545852612], [-101.71386394546207, 21.13723282651134], [-101.71166995095278, 21.131838971435357], [-101.7137790645209, 21.128628542322907], [-101.71862820349591, 21.128471564914413], [-101.7213860049242, 21.13483672088845], [-101.72911553451694, 21.134701872873972], [-101.73241407921194, 21.129252886303146], [-101.72290386971696, 21.1233247595415], [-101.72148380254346, 21.118407381721077], [-101.71238783380448, 21.1161386479033], [-101.71314874864574, 21.107005933436525], [-101.70782863296046, 21.103284508232946], [-101.70602774058257, 21.096061000910414], [-101.71232141713205, 21.095486404481907], [-101.73642203950007, 21.084772653038492], [-101.74293169220608, 21.08636560906402], [-101.7458572590303, 21.089865563992454], [-101.75871037245477, 21.086018920452275], [-101.76871718249106, 21.087594318901317], [-101.76947787156709, 21.094639947549986], [-101.7469611485975, 21.09905554069479], [-101.74223887666697, 21.092303694320883], [-101.73723933153441, 21.095706789204936], [-101.73381979480567, 21.103195924739055], [-101.72842243604741, 21.100334134167365], [-101.72012456236732, 21.100681067961375], [-101.71638721527461, 21.1057620314839], [-101.72452839772764, 21.116699962279203], [-101.73495949290917, 21.11864308540741], [-101.73802250621983, 21.123510110056003], [-101.74420077550276, 21.121629261858416], [-101.75505873989378, 21.128726543997164], [-101.76082693789354, 21.127867785853187], [-101.76469050609475, 21.130615619356604], [-101.76480214905719, 21.136118603064993], [-101.77175976869582, 21.138748912359613]], [[-101.74707300794196, 21.14658858571824], [-101.7437869641147, 21.14243898902683], [-101.74038694293564, 21.143642839901855], [-101.74298509223254, 21.151090106186683], [-101.74644128034777, 21.150174751477582], [-101.74707300794196, 21.14658858571824]]], [[[-101.87984204344993, 21.023434795629036], [-101.8737885885146, 21.03337340701304], [-101.8593323029796, 21.032206653011805], [-101.85775419817111, 21.04164007561254], [-101.84939343850655, 21.042892878985732], [-101.84640034994398, 21.045968629962626], [-101.83946830545365, 21.04487311833657], [-101.840424803115, 21.03903864229854], [-101.85569666748356, 21.032244347630932], [-101.84940156604351, 21.02702613354243], [-101.84760031240678, 21.01897560012887], [-101.83890481242018, 21.015146760753613], [-101.84085419928255, 21.00920849298296], [-101.85187940743435, 21.01059768111379], [-101.85666028416172, 21.01520307849402], [-101.8620760867791, 21.007332532659568], [-101.86720332302858, 21.006321701381268], [-101.87038171002891, 21.01094766756539], [-101.86917178692893, 21.019851573058027], [-101.87687660408996, 21.019820410833926], [-101.87984204344993, 21.023434795629036]]]]}}, {"type": "Feature", "properties": {"threshold": 90}, "geometry": {"type": "MultiPolygon", "coordinates": [[[[-101.44896373385772, 20.956293653387963], [-101.44868516604481, 20.96131423046334], [-101.443671353572, 20.96048184142108], [-101.43876299560655, 20.95553703619561], [-101.432718177961, 20.965461782497467], [-101.42476904823346, 20.96386773852818], [-101.42449240859979, 20.958175541823984], [-101.42901525184006, 20.95597113471845], [-101.42956812237998, 20.951879132462004], [-101.42258047970645, 20.94748748968326], [-101.42341613756804, 20.93301083041607], [-101.43092933045, 20.93186931977839], [-101.43334113571973, 20.933862217895257], [-101.43380418543428, 20.938972575243024], [-101.43873148804357, 20.943730745356632], [-101.4361986385025, 20.954640280685254], [-101.44757927282232, 20.95093557271308], [-101.44896373385772, 20.956293653387963]]], [[[-101.512530745278, 21.009750100666867], [-101.51163502020371, 21.016408006772014], [-101.50272742047937, 21.018045328996234], [-101.50030024610835, 21.02404143819001], [-101.49614759087368, 21.02406886235027], [-101.48954733213182, 21.018636977544045], [-101.48589563173576, 21.02417868832121], [-101.48089622497129, 21.024352220469346], [-101.47085061515412, 21.01687500124975], [-101.46961013243542, 21.006087522217168], [-101.46458457394775, 21.00242553220492], [-101.46444193419251, 20.99545775683115], [-101.47071056645255, 20.994859388374568], [-101.47540563987886, 20.99984611524878], [-101.47595244906384, 21.010176480856256], [-101.47837060098368, 21.01251788709232], [-101.49000481017488, 21.01298170892242], [-101.49349587944451, 21.009773550944576], [-101.50903761034674, 21.007906692744086], [-101.512530745278, 21.009750100666867]]], [[[-101.69716158995129, 21.10122708976807], [-101.6936347882969, 21.10705444456041], [-101.68604206974278, 21.10640484785532], [-101.68376615719181, 21.104172049042557], [-101.68489590299824, 21.095165104274333], [-101.6771724095792, 21.09365168868373], [-101.67403438734968, 21.089470304437224], [-101.66783467130898, 21.089889228130552], [-101.66259224936194, 21.09722119108302], [-101.6638613607103, 21.104111942971432], [-101.65536244360132, 21.106130259860283], [-101.65293975159068, 21.103931471630744], [-101.65337077313903, 21.09532045256612], [-101.64985923224363, 21.093017390182048], [-101.64310072551787, 21.099124440688662], [-101.64070075967715, 21.10533645978697], [-101.6297616648116, 21.113103305225582], [-101.62880068053997, 21.123596666155045], [-101.63102982802985, 21.12582892886137], [-101.63527036699628, 21.125617803350252], [-101.64020577995143, 21.120871442035888], [-101.64929963505377, 21.121288513634905], [-101.6562815890265, 21.114209096708986], [-101.66168735263452, 21.116341865771318], [-101.6587106239547, 21.124885026311162], [-101.66273645024711, 21.12983891850437], [-101.66287943928813, 21.13512187940988], [-101.65307620109199, 21.13772398981642], [-101.65149946347312, 21.14322150560023], [-101.65359386603987, 21.150023990347627], [-101.65044745768994, 21.152836651207217], [-101.64124068354673, 21.14949182193292], [-101.63835779248991, 21.151568188390872], [-101.63948867713366, 21.161240002579078], [-101.64526979686175, 21.164085740862987], [-101.65100952973366, 21.15932851303654], [-101.65674758049481, 21.159859704629522], [-101.65970605908092, 21.15753887216093], [-101.66845165650889, 21.16036530933233], [-101.66844319563734, 21.165865309546355], [-101.65740407442486, 21.177413067335262], [-101.64822848526448, 21.179856064707288], [-101.6507050875445, 21.18732297286293], [-101.65798636779797, 21.18650091702436], [-101.66681070273818, 21.18950923820631], [-101.67523179331288, 21.187855246248127], [-101.6799039331374, 21.18958873198744], [-101.68390503339003, 21.1951192238573], [-101.69010823252175, 21.18925291030654], [-101.6972286261765, 21.189572749830564], [-101.69463184449819, 21.195251084000887], [-101.69087678077858, 21.196881227764578], [-101.69044986725731, 21.20094389599173], [-101.68635958919685, 21.20262742370035], [-101.68719717403121, 21.21064050363751], [-101.67785040952971, 21.213477691438833], [-101.67135317763376, 21.21014654213578], [-101.66911915862359, 21.2051603585528], [-101.66519669664264, 21.204559442122974], [-101.66375355157366, 21.19646977819507], [-101.65441228858212, 21.196969283233383], [-101.64793056899688, 21.194440622441125], [-101.64249998837354, 21.188639583535053], [-101.64310570012339, 21.182684753205905], [-101.64070383765848, 21.180003240108128], [-101.63269268385007, 21.1804303515531], [-101.6270114287926, 21.177830077987398], [-101.62320962734005, 21.167795074066635], [-101.62721511260173, 21.163305046711674], [-101.62226604604638, 21.157037647841477], [-101.61719150135045, 21.15547689689688], [-101.61602971576312, 21.151445365965557], [-101.6041768776115, 21.151528377133513], [-101.60593833949952, 21.1457347604784], [-101.61034819202673, 21.14546622738687], [-101.61631680245605, 21.139808173152694], [-101.62412243622255, 21.142413001065126], [-101.62681487406773, 21.140926369971158], [-101.62620537996092, 21.134579896334422], [-101.61627677547581, 21.133217265628655], [-101.61485735189747, 21.130244215276697], [-101.61656017023736, 21.122382764422444], [-101.62140867625214, 21.120643351025837], [-101.62078441903996, 21.116215692598583], [-101.61208850856609, 21.117853181971885], [-101.60569526504084, 21.123686310037563], [-101.60209978736687, 21.131885349672384], [-101.5938759999125, 21.130313289434643], [-101.59221875480512, 21.126823611362514], [-101.58522761225771, 21.125622854755807], [-101.57970757153208, 21.12142672363405], [-101.57953230777241, 21.115855211682945], [-101.58395085760154, 21.110964686021852], [-101.57340487520544, 21.10618310284431], [-101.57408219983395, 21.093293395534833], [-101.58502628428356, 21.087141485558707], [-101.60244430063624, 21.09238289793438], [-101.604581100242, 21.090009301412966], [-101.60361603667118, 21.084458073515144], [-101.59798556598557, 21.08268701977781], [-101.59722468310568, 21.078381330472247], [-101.5913373127083, 21.072912620340357], [-101.58429528279623, 21.07178309805079], [-101.58057949622305, 21.06595554791166], [-101.56937155707237, 21.062224143305052], [-101.56946584665292, 21.060186680781744], [-101.57474868162276, 21.058694076766795], [-101.57446444341025, 21.053609087795447], [-101.56761101164679, 21.05190096217924], [-101.559728627279, 21.045542703697713], [-101.54215519918299, 21.029789367935663], [-101.54208014159397, 21.02712718099434], [-101.54748092869895, 21.025109898727624], [-101.55221999542447, 21.031469337573167], [-101.55796137401542, 21.03303099347353], [-101.56259070566249, 21.038078749781466], [-101.571848549225, 21.040102405256707], [-101.57406803275175, 21.04592470853939], [-101.58138889445218, 21.047191867500437], [-101.581209973985, 21.05562111073139], [-101.59119356539357, 21.063690961648536], [-101.60694201519507, 21.063312736691344], [-101.61087509923993, 21.055404782694584], [-101.62639461802415, 21.058351094700793], [-101.62999628102675, 21.048857395770543], [-101.63695801545862, 21.050269748509365], [-101.64350987618978, 21.060022067456707], [-101.63257052238944, 21.060793209545288], [-101.63092457042198, 21.064277098321316], [-101.64527787656763, 21.070432690929987], [-101.64552432485273, 21.08027789735476], [-101.64773280484117, 21.082273690583694], [-101.65827876917069, 21.082750817747446], [-101.66439680228116, 21.07973930636196], [-101.66781025251586, 21.068602926872547], [-101.673345261756, 21.06287377280805], [-101.67366339974014, 21.055520253449274], [-101.68243318486707, 21.055207697900645], [-101.68384624016646, 21.0472638790983], [-101.69084030897181, 21.04701320137505], [-101.68992686102399, 21.058938283188397], [-101.69497612596086, 21.063496233896018], [-101.69429225680649, 21.071933197640877], [-101.68348267709437, 21.082917152286036], [-101.68625833379447, 21.08977242154727], [-101.6970703771341, 21.09057761123026], [-101.69716158995129, 21.10122708976807]], [[-101.60184862484765, 21.099744723221377], [-101.59770454361987, 21.104830067028136], [-101.60106174679198, 21.10838006856279], [-101.60492255673935, 21.10843526149934], [-101.6065976472668, 21.10130602547388], [-101.60184862484765, 21.099744723221377]], [[-101.61303303339042, 21.069843226163936], [-101.61548584379784, 21.066065486750535], [-101.60902307586089, 21.062945257865984], [-101.60803481705481, 21.067798575287206], [-101.61303303339042, 21.069843226163936]], [[-101.63527970009171, 21.080738719522284], [-101.63297607652528, 21.067066576238076], [-101.62594694087052, 21.0676008141029], [-101.62422939738583, 21.07397892948396], [-101.6322416958046, 21.08581535016231], [-101.637146790685, 21.0844021084741], [-101.63527970009171, 21.080738719522284]]], [[[-101.7152413652154, 21.145791995373106], [-101.71370930894832, 21.15543262365641], [-101.7091182037329, 21.157744261560943], [-101.70855598288986, 21.162937538818927], [-101.70530327560844, 21.163220317731536], [-101.69032431219783, 21.148530777340497], [-101.68315218840573, 21.14812436006341], [-101.68017540603618, 21.142651554337192], [-101.6821950698697, 21.138817213703128], [-101.68703273841082, 21.13860935839768], [-101.6913840108849, 21.144327204761957], [-101.71365571544024, 21.142203151527426], [-101.7152413652154, 21.145791995373106]]], [[[-101.70557525697092, 20.9849029720419], [-101.706605727798, 20.99450074776967], [-101.70407682278058, 21.000885618024977], [-101.69989789416101, 20.998050251973563], [-101.70043562525976, 20.98955416658882], [-101.69265559886509, 20.978724869214012], [-101.69719441774727, 20.97300845024103], [-101.70352816027979, 20.97393271421425], [-101.70557525697092, 20.9849029720419]]], [[[-101.77438682157512, 21.142124357887102], [-101.77382909913145, 21.14439798838665], [-101.76447810743247, 21.143670452448127], [-101.75399128009742, 21.147528991680126], [-101.75221208671928, 21.15294379452661], [-101.75482490140112, 21.157246362932515], [-101.75223484947087, 21.160203314195396], [-101.7451634856183, 21.15963481511895], [-101.74266612303529, 21.162806976688298], [-101.74738386459688, 21.168504157818802], [-101.75269930510855, 21.162334204057743], [-101.76399077909103, 21.163949044399555], [-101.76629350062764, 21.167121492071622], [-101.76435032681808, 21.17173160144557], [-101.7534109500584, 21.174487677727758], [-101.74738652898694, 21.1686483468882], [-101.73421573104983, 21.175557495743515], [-101.73076073540346, 21.17468883412175], [-101.72860191288322, 21.167615759046353], [-101.73049373707602, 21.16219763381543], [-101.7267267108191, 21.158805131514974], [-101.72980624428142, 21.14978010544066], [-101.72319206222308, 21.14489923863778], [-101.7214458471244, 21.13766545852612], [-101.71386394546207, 21.13723282651134], [-101.71167465317181, 21.131701211043307], [-101.7137790645209, 21.128628542322907], [-101.71862820349591, 21.128471564914413], [-101.7213860049242, 21.13483672088845], [-101.72911553451694, 21.134701872873972], [-101.73241407921194, 21.129252886303146], [-101.72290386971696, 21.1233247595415], [-101.72148380254346, 21.118407381721077], [-101.71238783380448, 21.1161386479033], [-101.71314874864574, 21.107005933436525], [-101.70782863296046, 21.103284508232946], [-101.70607646792674, 21.09599709975506], [-101.71232141713205, 21.095486404481907], [-101.72934602936839, 21.08574751933417], [-101.73642203950007, 21.084772653038492], [-101.74300423537636, 21.086404837447503], [-101.74568181868487, 21.08985234370644], [-101.74914455475476, 21.08700862495809], [-101.75871037245477, 21.086018920452275], [-101.76878528654252, 21.08764002030664], [-101.76970230861937, 21.094535804348464], [-101.76132248928087, 21.094981206838934], [-101.74820720826558, 21.102219556502863], [-101.7454876337664, 21.101874815766468], [-101.74513239235084, 21.093954194924557], [-101.74248330873924, 21.092274764542218], [-101.73875475509611, 21.093767524741345], [-101.73381979480567, 21.103195924739055], [-101.72842243604741, 21.100334134167365], [-101.72012456236732, 21.100681067961375], [-101.71638721527461, 21.1057620314839], [-101.72474685387596, 21.11681809503406], [-101.73495949290917, 21.11864308540741], [-101.73809205995616, 21.122970057449358], [-101.74426755792173, 21.12084356330239], [-101.75469650907864, 21.127846932725728], [-101.76262708178355, 21.128682521177467], [-101.76629181071371, 21.135640289347137], [-101.77438682157512, 21.142124357887102]], [[-101.7464621341551, 21.147059438918994], [-101.74246106763725, 21.145720127928318], [-101.74135287704127, 21.14948560698937], [-101.74518226136514, 21.15105445924195], [-101.7464621341551, 21.147059438918994]]], [[[-101.87984204344993, 21.023434795629036], [-101.8737885885146, 21.03337340701304], [-101.8593323029796, 21.032206653011805], [-101.85775419817111, 21.04164007561254], [-101.84939343850655, 21.042892878985732], [-101.84640034994398, 21.045968629962626], [-101.83946830545365, 21.04487311833657], [-101.84126532885021, 21.038220916478853], [-101.84676305533145, 21.03774322332589], [-101.85569666748356, 21.032244347630932], [-101.84853059060819, 21.026237070629353], [-101.84760031240678, 21.01897560012887], [-101.83890481242018, 21.015146760753613], [-101.84085419928255, 21.00920849298296], [-101.85187940743435, 21.01059768111379], [-101.85666028416172, 21.01520307849402], [-101.8620760867791, 21.007332532659568], [-101.86720332302858, 21.006321701381268], [-101.87036632893533, 21.01014427258528], [-101.86917178692893, 21.019851573058027], [-101.87687660408996, 21.019820410833926], [-101.87984204344993, 21.023434795629036]]]]}}, {"type": "Feature", "properties": {"threshold": 95}, "geometry": {"type": "MultiPolygon", "coordinates": [[[[-101.45026317443194, 20.962129971474777], [-101.44282881044221, 20.961297787835452], [-101.43876299560655, 20.95553703619561], [-101.432718177961, 20.965461782497467], [-101.42471192377067, 20.963810310362373], [-101.42449240859979, 20.958175541823984], [-101.42901525184006, 20.95597113471845], [-101.42956812237998, 20.951879132462004], [-101.42258047970645, 20.94748748968326], [-101.4234772664038, 20.93295717522084], [-101.43092933045, 20.93186931977839], [-101.43324619495105, 20.933733017567754], [-101.43380418543428, 20.938972575243024], [-101.43873148804357, 20.943730745356632], [-101.43579280463578, 20.954164453518814], [-101.4387357767017, 20.95532379618834], [-101.44095011631086, 20.951689086845906], [-101.44788850928357, 20.951050728012696], [-101.45026317443194, 20.962129971474777]]], [[[-101.69716158995129, 21.10122708976807], [-101.6936347882969, 21.10705444456041], [-101.68604206974278, 21.10640484785532], [-101.68376615719181, 21.104172049042557], [-101.68489590299824, 21.095165104274333], [-101.6771724095792, 21.09365168868373], [-101.67403438734968, 21.089470304437224], [-101.66783467130898, 21.089889228130552], [-101.66259224936194, 21.09722119108302], [-101.6638613607103, 21.104111942971432], [-101.65536244360132, 21.106130259860283], [-101.65293975159068, 21.103931471630744], [-101.65337077313903, 21.09532045256612], [-101.64985923224363, 21.093017390182048], [-101.64310072551787, 21.099124440688662], [-101.64070075967715, 21.10533645978697], [-101.6297616648116, 21.113103305225582], [-101.62880068053997, 21.123596666155045], [-101.63102982802985, 21.12582892886137], [-101.63527036699628, 21.125617803350252], [-101.64020577995143, 21.120871442035888], [-101.64929963505377, 21.121288513634905], [-101.6562815890265, 21.114209096708986], [-101.66168735263452, 21.116341865771318], [-101.6587106239547, 21.124885026311162], [-101.66273645024711, 21.12983891850437], [-101.66287943928813, 21.13512187940988], [-101.65307620109199, 21.13772398981642], [-101.65149946347312, 21.14322150560023], [-101.65359386603987, 21.150023990347627], [-101.65044745768994, 21.152836651207217], [-101.64124068354673, 21.14949182193292], [-101.63835779248991, 21.151568188390872], [-101.63948867713366, 21.161240002579078], [-101.64526979686175, 21.164085740862987], [-101.65100952973366, 21.15932851303654], [-101.65674758049481, 21.159859704629522], [-101.65970605908092, 21.15753887216093], [-101.66845165650889, 21.16036530933233], [-101.66844319563734, 21.165865309546355], [-101.65740407442486, 21.177413067335262], [-101.64822848526448, 21.179856064707288], [-101.6507050875445, 21.18732297286293], [-101.65798636779797, 21.18650091702436], [-101.66681070273818, 21.18950923820631], [-101.67523179331288, 21.187855246248127], [-101.6799039331374, 21.18958873198744], [-101.68390503339003, 21.1951192238573], [-101.69010823252175, 21.18925291030654], [-101.6972286261765, 21.189572749830564], [-101.69463184449819, 21.195251084000887], [-101.69087678077858, 21.196881227764578], [-101.69044986725731, 21.20094389599173], [-101.68635958919685, 21.20262742370035], [-101.68719717403121, 21.21064050363751], [-101.67785040952971, 21.213477691438833], [-101.67135317763376, 21.21014654213578], [-101.66911915862359, 21.2051603585528], [-101.66519669664264, 21.204559442122974], [-101.66375355157366, 21.19646977819507], [-101.65441228858212, 21.196969283233383], [-101.64793056899688, 21.194440622441125], [-101.64249998837354, 21.188639583535053], [-101.64310570012339, 21.182684753205905], [-101.64070383765848, 21.180003240108128], [-101.63269268385007, 21.1804303515531], [-101.6270114287926, 21.177830077987398], [-101.62320962734005, 21.167795074066635], [-101.62721511260173, 21.163305046711674], [-101.62226604604638, 21.157037647841477], [-101.61719150135045, 21.15547689689688], [-101.61602971576312, 21.151445365965557], [-101.6041768776115, 21.151528377133513], [-101.60593833949952, 21.1457347604784], [-101.61034819202673, 21.14546622738687], [-101.61631680245605, 21.139808173152694], [-101.62412243622255, 21.142413001065126], [-101.62681487406773, 21.140926369971158], [-101.62620537996092, 21.134579896334422], [-101.61627677547581, 21.133217265628655], [-101.61485735189747, 21.130244215276697], [-101.61656017023736, 21.122382764422444], [-101.62140867625214, 21.120643351025837], [-101.62078441903996, 21.116215692598583], [-101.61208850856609, 21.117853181971885], [-101.60569526504084, 21.123686310037563], [-101.60209978736687, 21.131885349672384], [-101.5938759999125, 21.130313289434643], [-101.59221875480512, 21.126823611362514], [-101.58522761225771, 21.125622854755807], [-101.57966335348027, 21.12135998424363], [-101.57953230777241, 21.115855211682945], [-101.58395085760154, 21.110964686021852], [-101.57340487520544, 21.10618310284431], [-101.57413098780324, 21.093229526084215], [-101.5848797215799, 21.08715048445478], [-101.60144403619827, 21.09244441512199], [-101.60459757578515, 21.08953691135024], [-101.60327004480592, 21.08385426847708], [-101.59798556598557, 21.08268701977781], [-101.59722468310568, 21.078381330472247], [-101.5915332509358, 21.0730513878567], [-101.58256911225557, 21.071005588024313], [-101.58057949622305, 21.06595554791166], [-101.5693143410474, 21.062166773838623], [-101.57474868162276, 21.058694076766795], [-101.57430141382835, 21.053428631950606], [-101.56754297663889, 21.05185517120413], [-101.54113635555383, 21.02733970695656], [-101.53550057535405, 21.025479126169596], [-101.52348334858921, 21.015139010300114], [-101.51903640547253, 21.014848705200613], [-101.5151589245779, 21.01007189581955], [-101.51170460197267, 21.011529134554696], [-101.5114522353215, 21.016568549702043], [-101.5023433297346, 21.018350883897025], [-101.50030024610835, 21.02404143819001], [-101.49614759087368, 21.02406886235027], [-101.48954733213182, 21.018636977544045], [-101.48589563173576, 21.02417868832121], [-101.47988482982566, 21.024306892901187], [-101.47537066779988, 21.018376810984485], [-101.47085061515412, 21.01687500124975], [-101.46952753855132, 21.005872921465592], [-101.46455516659415, 21.00235195191885], [-101.46450352056111, 20.995311804234362], [-101.47071056645255, 20.994859388374568], [-101.47540563987886, 20.99984611524878], [-101.47595244906384, 21.010176480856256], [-101.47861286100942, 21.012583054426322], [-101.48352748336805, 21.010477647495016], [-101.48519404321792, 21.006642287602016], [-101.49576533826551, 21.009692661110698], [-101.51847212184879, 21.007760497014626], [-101.53010505376987, 21.010096804220428], [-101.53809878220262, 21.01918864132463], [-101.5494097977321, 21.026024801554467], [-101.55261422045595, 21.03176330883907], [-101.55796137401542, 21.03303099347353], [-101.56280191477104, 21.038186907856264], [-101.57178051936424, 21.040056615814375], [-101.57450400690817, 21.046161125211267], [-101.5831360920698, 21.045610491675813], [-101.58098676037282, 21.0551968997833], [-101.59095118946023, 21.06362596877634], [-101.60670610260345, 21.063396081337306], [-101.6106332941158, 21.05546560761569], [-101.62510446448083, 21.058011492686273], [-101.63006268534009, 21.048809549407494], [-101.63695801545862, 21.050269748509365], [-101.64350987618978, 21.060022067456707], [-101.63257052238944, 21.060793209545288], [-101.63092457042198, 21.064277098321316], [-101.64527787656763, 21.070432690929987], [-101.64748411328847, 21.082232125380894], [-101.658038728199, 21.08278687448714], [-101.66439680228116, 21.07973930636196], [-101.66781025251586, 21.068602926872547], [-101.673345261756, 21.06287377280805], [-101.67366339974014, 21.055520253449274], [-101.67936063557804, 21.054587402589426], [-101.68404475198221, 21.047120743640473], [-101.69084030897181, 21.04701320137505], [-101.69230163343128, 21.055812231514825], [-101.690103318314, 21.059157014925646], [-101.69497612596086, 21.063496233896018], [-101.69429225680649, 21.071933197640877], [-101.68348267709437, 21.082917152286036], [-101.68625833379447, 21.08977242154727], [-101.6970703771341, 21.09057761123026], [-101.69716158995129, 21.10122708976807]], [[-101.60184862484765, 21.099744723221377], [-101.59770454361987, 21.104830067028136], [-101.60106174679198, 21.10838006856279], [-101.60492255673935, 21.10843526149934], [-101.6065976472668, 21.10130602547388], [-101.60184862484765, 21.099744723221377]], [[-101.61089170032574, 21.069251099771357], [-101.61450439925815, 21.069615145838537], [-101.61590250566819, 21.067059960570344], [-101.60997723320007, 21.06265747035984], [-101.60774620807427, 21.06692805416301], [-101.61089170032574, 21.069251099771357]], [[-101.63527970009171, 21.080738719522284], [-101.63297607652528, 21.067066576238076], [-101.62594694087052, 21.0676008141029], [-101.62422939738583, 21.07397892948396], [-101.6322416958046, 21.08581535016231], [-101.637146790685, 21.0844021084741], [-101.63527970009171, 21.080738719522284]]], [[[-101.49844269506855, 20.984049955417728], [-101.49824640120627, 20.986921469351035], [-101.49203600562907, 20.990401486411955], [-101.48204946400138, 20.99057388678671], [-101.4763510707276, 20.987052598958517], [-101.47443317474384, 20.978431919450426], [-101.48500598095805, 20.979378182252063], [-101.48934775774731, 20.98406374540366], [-101.49778864161416, 20.980772359720056], [-101.49844269506855, 20.984049955417728]]], [[[-101.7152413652154, 21.145791995373106], [-101.71370930894832, 21.15543262365641], [-101.7091182037329, 21.157744261560943], [-101.70855598288986, 21.162937538818927], [-101.70530327560844, 21.163220317731536], [-101.69032431219783, 21.148530777340497], [-101.68315218840573, 21.14812436006341], [-101.68017540603618, 21.142651554337192], [-101.6821950698697, 21.138817213703128], [-101.68703273841082, 21.13860935839768], [-101.6913840108849, 21.144327204761957], [-101.71365571544024, 21.142203151527426], [-101.7152413652154, 21.145791995373106]]], [[[-101.70660304374775, 20.994579118412226], [-101.70627195319315, 21.0007600072113], [-101.69823810844288, 20.998951370405795], [-101.69693513652635, 20.982321039759178], [-101.69263226308944, 20.97850980976726], [-101.69734045923494, 20.972932131855664], [-101.70446492411654, 20.974056293845184], [-101.70660304374775, 20.994579118412226]]], [[[-101.72272272121226, 21.033453388669045], [-101.72306198175804, 21.03832744408005], [-101.71527238347578, 21.035696404773066], [-101.70894010944252, 21.037768591891965], [-101.69901259164975, 21.033688739261265], [-101.69869380924777, 21.02895259064551], [-101.7090264387352, 21.024140301856207], [-101.7108964735789, 21.028912586233112], [-101.72272272121226, 21.033453388669045]]], [[[-101.77438682157512, 21.142124357887102], [-101.77382909913145, 21.14439798838665], [-101.76426364051964, 21.143860708295577], [-101.75399128009742, 21.147528991680126], [-101.75221208671928, 21.15294379452661], [-101.75482490140112, 21.157246362932515], [-101.75223484947087, 21.160203314195396], [-101.7451634856183, 21.15963481511895], [-101.74266612303529, 21.162806976688298], [-101.74713246711782, 21.16848505150508], [-101.75269930510855, 21.162334204057743], [-101.76657535679634, 21.164710463559985], [-101.76714333684518, 21.1688882427194], [-101.76435032681808, 21.17173160144557], [-101.7534109500584, 21.174487677727758], [-101.74738652898694, 21.1686483468882], [-101.73421573104983, 21.175557495743515], [-101.73076073540346, 21.17468883412175], [-101.72860191288322, 21.167615759046353], [-101.73049373707602, 21.16219763381543], [-101.7267267108191, 21.158805131514974], [-101.72980624428142, 21.14978010544066], [-101.72319206222308, 21.14489923863778], [-101.7214458471244, 21.13766545852612], [-101.71386394546207, 21.13723282651134], [-101.71167465317181, 21.131701211043307], [-101.7137790645209, 21.128628542322907], [-101.71862820349591, 21.128471564914413], [-101.7213860049242, 21.13483672088845], [-101.72911553451694, 21.134701872873972], [-101.73241407921194, 21.129252886303146], [-101.72290386971696, 21.1233247595415], [-101.72148380254346, 21.118407381721077], [-101.71238783380448, 21.1161386479033], [-101.71314874864574, 21.107005933436525], [-101.70782863296046, 21.103284508232946], [-101.70607646792674, 21.09599709975506], [-101.72566188458053, 21.089654310213845], [-101.72942436440965, 21.085719782724343], [-101.73728386244437, 21.08394826146382], [-101.74394858164258, 21.08603525957633], [-101.74397942621975, 21.07661338105381], [-101.75330305451516, 21.077554927002137], [-101.75309941138879, 21.086690635293987], [-101.76878528654252, 21.08764002030664], [-101.76970230861937, 21.094535804348464], [-101.76132248928087, 21.094981206838934], [-101.74820720826558, 21.102219556502863], [-101.7454876337664, 21.101874815766468], [-101.74513239235084, 21.093954194924557], [-101.74248330873924, 21.092274764542218], [-101.73875475509611, 21.093767524741345], [-101.73381979480567, 21.103195924739055], [-101.72842243604741, 21.100334134167365], [-101.72012456236732, 21.100681067961375], [-101.71638721527461, 21.1057620314839], [-101.72474685387596, 21.11681809503406], [-101.73150482343837, 21.117091407246225], [-101.73785813982286, 21.122499927805496], [-101.74426755792173, 21.12084356330239], [-101.75469650907864, 21.127846932725728], [-101.76262708178355, 21.128682521177467], [-101.76629181071371, 21.135640289347137], [-101.77438682157512, 21.142124357887102]], [[-101.7464621341551, 21.147059438918994], [-101.74267137795547, 21.146136488216275], [-101.74159501844751, 21.14981708942199], [-101.74540258492016, 21.150939342855544], [-101.7464621341551, 21.147059438918994]]], [[[-101.87984204344993, 21.023434795629036], [-101.8737885885146, 21.03337340701304], [-101.8593323029796, 21.032206653011805], [-101.85775419817111, 21.04164007561254], [-101.84939343850655, 21.042892878985732], [-101.84640034994398, 21.045968629962626], [-101.83946830545365, 21.04487311833657], [-101.84126532885021, 21.038220916478853], [-101.84676305533145, 21.03774322332589], [-101.85569666748356, 21.032244347630932], [-101.84853059060819, 21.026237070629353], [-101.84760031240678, 21.01897560012887], [-101.83890481242018, 21.015146760753613], [-101.84085419928255, 21.00920849298296], [-101.85187940743435, 21.01059768111379], [-101.85666028416172, 21.01520307849402], [-101.8620760867791, 21.007332532659568], [-101.86720332302858, 21.006321701381268], [-101.87036632893533, 21.01014427258528], [-101.86917178692893, 21.019851573058027], [-101.87687660408996, 21.019820410833926], [-101.87984204344993, 21.023434795629036]]]]}}]}