{"type": "FeatureCollection", "features": [{"type": "Feature", "properties": {"threshold": 70}, "geometry": {"type": "MultiPolygon", "coordinates": [[[[-75.64425450938373, 4.619584731880758], [-75.63652376518253, 4.623851899270657], [-75.63037813961117, 4.62302289821226], [-75.62639375347834, 4.6153727324291385], [-75.62911068257876, 4.609937611504693], [-75.63567581469266, 4.60553172565866], [-75.63843818880738, 4.615246082272511], [-75.64436606172269, 4.616545103245283], [-75.64425450938373, 4.619584731880758]]], [[[-75.65824223322889, 4.5177911439011735], [-75.64781077064892, 4.52580297463615], [-75.64699211113967, 4.534127834139584], [-75.64083586070603, 4.539481651230646], [-75.63056138710684, 4.532473368517058], [-75.63064432396048, 4.524043358430385], [-75.64932041461006, 4.515271701400646], [-75.65166903171327, 4.508797986220898], [-75.65857458962545, 4.51490457668656], [-75.65824223322889, 4.5177911439011735]]], [[[-75.72315820245841, 4.51770174588925], [-75.71950177135251, 4.52376636167351], [-75.72178403249275, 4.529120041202878], [-75.70576229948092, 4.533975732474693], [-75.70576875917044, 4.541882553317217], [-75.69957218620438, 4.545362666771371], [-75.68017980664041, 4.54431944312076], [-75.67757074805616, 4.551874894079869], [-75.66911032065434, 4.552129594196633], [-75.66268403524523, 4.556289870247605], [-75.65845694139733, 4.565244550668956], [-75.64976097802287, 4.568409666097672], [-75.65631519292617, 4.544257710027792], [-75.662676164159, 4.537467534360846], [-75.66303341648546, 4.532424893610237], [-75.66665384606989, 4.527977741809598], [-75.67455988531489, 4.527714475256867], [-75.6773894510517, 4.523002763728484], [-75.68631156738259, 4.519674196704067], [-75.68534196203646, 4.511841541603506], [-75.6890143117935, 4.505467502163335], [-75.69976486574785, 4.500373463623924], [-75.70023932680263, 4.5090469327997615], [-75.70673784040986, 4.5127743719738564], [-75.72305997676293, 4.513702431350757], [-75.72315820245841, 4.51770174588925]]], [[[-75.71409112815158, 4.476093133335852], [-75.7072152742779, 4.477577035112813], [-75.707925973814, 4.471399210033263], [-75.71491289314605, 4.472111652403254], [-75.71409112815158, 4.476093133335852]]], [[[-75.72311223921251, 4.501118806913211], [-75.71556890061417, 4.5060668690290715], [-75.71032927689646, 4.506456509559692], [-75.71575990652389, 4.499523418025286], [-75.72380005122999, 4.498653492154915], [-75.72311223921251, 4.501118806913211]]], [[[-75.72182439907249, 4.427783508646179], [-75.7161536146958, 4.431490780161976], [-75.71803585544949, 4.421990805920276], [-75.72167932237765, 4.422216664498373], [-75.72182439907249, 4.427783508646179]]], [[[-75.7585441026637, 4.566285311830554], [-75.75622297203944, 4.569493281654138], [-75.74728432649411, 4.568544030280606], [-75.74661226221083, 4.562500894127555], [-75.74278573891854, 4.560588420033387], [-75.74288469124104, 4.55571262647843], [-75.75650958915347, 4.557972447191924], [-75.7585441026637, 4.566285311830554]]], [[[-75.76801171834096, 4.471759428437078], [-75.75794690676906, 4.478486129078007], [-75.752706696749, 4.47804156017865], [-75.7553166603651, 4.46884842168522], [-75.76132534553587, 4.468219989880273], [-75.76394911910397, 4.463591911218803], [-75.76666004571037, 4.463965303040624], [-75.76801171834096, 4.471759428437078]]], [[[-75.771720989563, 4.622366570101981], [-75.77147924274058, 4.624470033363631], [-75.76536950689973, 4.625804277342303], [-75.76653292613314, 4.6180020100873485], [-75.771720989563, 4.622366570101981]]], [[[-75.79648337363886, 4.452343849618909], [-75.78385115417484, 4.465030405480752], [-75.77939807453185, 4.467662724653731], [-75.77688348703057, 4.466477372436717], [-75.77893811863441, 4.45734791013619], [-75.77590095995151, 4.451748905667997], [-75.77875441070972, 4.446963682104191], [-75.79441972760429, 4.446008150032575], [-75.79648337363886, 4.452343849618909]]], [[[-75.81922502655982, 4.450946006421111], [-75.8129911369086, 4.451724025640467], [-75.81004369873655, 4.447303062725125], [-75.81943974092849, 4.4468426873442395], [-75.81922502655982, 4.450946006421111]]], [[[-75.8290475563078, 4.61257188784486], [-75.82224714189591, 4.614399361919053], [-75.82023673500603, 4.608269703627444], [-75.8255147207987, 4.6070878026913835], [-75.82914170844698, 4.609023845233519], [-75.8290475563078, 4.61257188784486]]], [[[-75.83210842754904, 4.338580707342271], [-75.83040651071516, 4.3424170763273775], [-75.82174083408306, 4.335543100573863], [-75.82256454476024, 4.32852507666056], [-75.8262306601275, 4.3293555476884125], [-75.83210842754904, 4.338580707342271]]], [[[-75.91176123384324, 4.731326380893622], [-75.90752808369403, 4.744961537996391], [-75.90349753209367, 4.747940394214101], [-75.9042141597878, 4.754979182158419], [-75.89644331830604, 4.7586684294054225], [-75.89600706993491, 4.747760226916312], [-75.90086799923084, 4.7453050083929735], [-75.90291394915712, 4.721403025769366], [-75.91157238340602, 4.7265135935411005], [-75.91176123384324, 4.731326380893622]]]]}}, {"type": "Feature", "properties": {"threshold": 80}, "geometry": {"type": "MultiPolygon", "coordinates": [[[[-75.64425450938373, 4.619584731880758], [-75.63652376518253, 4.623851899270657], [-75.63037813961117, 4.62302289821226], [-75.62639375347834, 4.6153727324291385], [-75.62911068257876, 4.609937611504693], [-75.63567581469266, 4.60553172565866], [-75.63843818880738, 4.615246082272511], [-75.64436606172269, 4.616545103245283], [-75.64425450938373, 4.619584731880758]]], [[[-75.65824223322889, 4.5177911439011735], [-75.64839717491336, 4.525280307801843], [-75.64250118276135, 4.541983661662567], [-75.63730996987653, 4.539278960685188], [-75.63614496405276, 4.5342678508081615], [-75.63056138710684, 4.532473368517058], [-75.63064288031882, 4.522374360519058], [-75.63854256090437, 4.521711933829247], [-75.63983992607594, 4.517298842732151], [-75.64933231458431, 4.51325623801588], [-75.65166903171327, 4.508797986220898], [-75.65857458962545, 4.51490457668656], [-75.65824223322889, 4.5177911439011735]]], [[[-75.72312829649958, 4.518547760406072], [-75.72038578909748, 4.524536987027647], [-75.72178403249275, 4.529120041202878], [-75.70663550462754, 4.535147349622273], [-75.70660030447205, 4.541881738820251], [-75.69874143944725, 4.546197960629195], [-75.68610651493196, 4.547044596751682], [-75.68100206061763, 4.544664317522496], [-75.67757152858103, 4.552709384511483], [-75.67048055023805, 4.553177611991551], [-75.65922325558846, 4.5652924541234885], [-75.64976097802287, 4.568409666097672], [-75.65631519292617, 4.544257710027792], [-75.662676164159, 4.537467534360846], [-75.66303341648546, 4.532424893610237], [-75.66665384606989, 4.527977741809598], [-75.67218991915396, 4.528026747388858], [-75.67662762270605, 4.522961526986606], [-75.68631156738259, 4.519674196704067], [-75.68534196203646, 4.511841541603506], [-75.6890143117935, 4.505467502163335], [-75.69976486574785, 4.500373463623924], [-75.70626052720704, 4.511091881045948], [-75.72305997676293, 4.513702431350757], [-75.72312829649958, 4.518547760406072]]], [[[-75.71108200605741, 4.507389809727616], [-75.71036254001557, 4.50491185083108], [-75.7156167470955, 4.49960039456916], [-75.7242487442304, 4.498986770955452], [-75.7190380705838, 4.505986608746466], [-75.71108200605741, 4.507389809727616]]], [[[-75.71448895657045, 4.47608980072971], [-75.70705183012228, 4.477396398478211], [-75.70893421384059, 4.467896421701208], [-75.71507633755203, 4.472292287173871], [-75.71448895657045, 4.47608980072971]]], [[[-75.72182439907249, 4.427783508646179], [-75.7161536146958, 4.431490780161976], [-75.71803585544949, 4.421990805920276], [-75.72167932237765, 4.422216664498373], [-75.72182439907249, 4.427783508646179]]], [[[-75.7585441026637, 4.566285311830554], [-75.75637835443925, 4.569445802961449], [-75.75028263398029, 4.56966769237856], [-75.74806786310643, 4.574461394160655], [-75.7411637958824, 4.574018592543469], [-75.74606737175827, 4.5672730176233], [-75.74325621670906, 4.555406007900841], [-75.75734114346636, 4.557971571077634], [-75.7585441026637, 4.566285311830554]]], [[[-75.7688431723017, 4.471758555777449], [-75.76205963051925, 4.473963203155452], [-75.76044043508874, 4.477649061847971], [-75.752706696749, 4.47804156017865], [-75.7553166603651, 4.46884842168522], [-75.76089073156582, 4.468163525345138], [-75.76394911910397, 4.463591911218803], [-75.76661817707445, 4.463895360132943], [-75.7688431723017, 4.471758555777449]]], [[[-75.77108454411483, 4.620367478255883], [-75.77260894050019, 4.624197456271934], [-75.76717288832474, 4.626206032674509], [-75.75698997800937, 4.624828224733379], [-75.75919832818387, 4.617947525043461], [-75.76874834072957, 4.617917411149483], [-75.77108454411483, 4.620367478255883]]], [[[-75.79648337363886, 4.452343849618909], [-75.783917288101, 4.465816202134797], [-75.77776519045571, 4.468210924595042], [-75.7758941124921, 4.451891865498575], [-75.7786891634841, 4.447012357318723], [-75.79358741507683, 4.44517457552529], [-75.79648337363886, 4.452343849618909]]], [[[-75.81922502655982, 4.450946006421111], [-75.8129911369086, 4.451724025640467], [-75.81004369873655, 4.447303062725125], [-75.81943974092849, 4.4468426873442395], [-75.81922502655982, 4.450946006421111]]], [[[-75.8290475563078, 4.61257188784486], [-75.82224714189591, 4.614399361919053], [-75.82023673500603, 4.608269703627444], [-75.82800951170093, 4.607084901006999], [-75.8290475563078, 4.61257188784486]]], [[[-75.83210751428128, 4.3377462419729635], [-75.8314170689681, 4.342454783309685], [-75.82340612795949, 4.338044690963098], [-75.8206685854519, 4.333368901677216], [-75.82256454476024, 4.32852507666056], [-75.82539847181934, 4.328521988655279], [-75.83210751428128, 4.3377462419729635]]], [[[-75.91176123384324, 4.731326380893622], [-75.90752808369403, 4.744961537996391], [-75.90349753209367, 4.747940394214101], [-75.90421524808242, 4.755813621906368], [-75.89644331830604, 4.7586684294054225], [-75.89600706993491, 4.747760226916312], [-75.90017000461108, 4.745220553657256], [-75.90291394915712, 4.721403025769366], [-75.91157238340602, 4.7265135935411005], [-75.91176123384324, 4.731326380893622]]]]}}, {"type": "Feature", "properties": {"threshold": 90}, "geometry": {"type": "MultiPolygon", "coordinates": [[[[-75.64447834722651, 4.620226692386624], [-75.64234532566586, 4.623846643657913], [-75.63029923995224, 4.623003141868652], [-75.62641344283955, 4.615293562919801], [-75.62911068257876, 4.609937611504693], [-75.63575471245477, 4.60555148166746], [-75.63831138203228, 4.614200972703398], [-75.64442636399767, 4.616599845801741], [-75.64447834722651, 4.620226692386624]]], [[[-75.66026947611283, 4.509945213061441], [-75.66111097483714, 4.514921672176882], [-75.6522670179853, 4.524062546331507], [-75.65272057312787, 4.531754719925833], [-75.64541320435696, 4.535111602523863], [-75.64250118276135, 4.541983661662567], [-75.63493098772875, 4.540230814359833], [-75.63432525721443, 4.534235971854655], [-75.6304792753409, 4.53224369686316], [-75.63064288031882, 4.522374360519058], [-75.63854256090437, 4.521711933829247], [-75.63983992607594, 4.517298842732151], [-75.64933231458431, 4.51325623801588], [-75.65174250033276, 4.508763032955248], [-75.66026947611283, 4.509945213061441]]], [[[-75.72338510146825, 4.520010765236085], [-75.72007590901002, 4.532525219651616], [-75.70727080562637, 4.535462682205319], [-75.70690509895559, 4.541508289080681], [-75.70244661493724, 4.546058232875118], [-75.68589511795608, 4.548018619859643], [-75.67623544745052, 4.553411682285023], [-75.67494576228141, 4.556974867333801], [-75.66351371381195, 4.559219473021141], [-75.6566603257006, 4.567005743006159], [-75.65051149304607, 4.568781537320405], [-75.64726472446138, 4.566742932736589], [-75.65800997808692, 4.5408444227658675], [-75.66278424477746, 4.537254316764466], [-75.66303341648546, 4.532424893610237], [-75.66665384606989, 4.527977741809598], [-75.67218991915396, 4.528026747388858], [-75.67662762270605, 4.522961526986606], [-75.68631156738259, 4.519674196704067], [-75.68534196203646, 4.511841541603506], [-75.6890143117935, 4.505467502163335], [-75.69867749001814, 4.500308197651893], [-75.70641765871841, 4.501201521776086], [-75.71000637495997, 4.504703064395662], [-75.71575990652389, 4.499523418025286], [-75.72387662929776, 4.498680904891826], [-75.71910332724335, 4.505937937369788], [-75.7110951005332, 4.509243967281724], [-75.71264062028848, 4.512621380972032], [-75.72326864295215, 4.513827665648334], [-75.72338510146825, 4.520010765236085]]], [[[-75.71105886860605, 4.469420190691431], [-75.71515303456226, 4.472435961971757], [-75.7147097771516, 4.477695190942165], [-75.70697513388725, 4.4772527226748515], [-75.70783347403288, 4.469031362805616], [-75.71105886860605, 4.469420190691431]]], [[[-75.72182439907249, 4.427783508646179], [-75.7161536146958, 4.431490780161976], [-75.71803585544949, 4.421990805920276], [-75.72167932237765, 4.422216664498373], [-75.72182439907249, 4.427783508646179]]], [[[-75.75855247876622, 4.566110454845678], [-75.75637835443925, 4.569445802961449], [-75.75028263398029, 4.56966769237856], [-75.74806786310643, 4.574461394160655], [-75.7411637958824, 4.574018592543469], [-75.74325621670906, 4.555406007900841], [-75.75734114346636, 4.557971571077634], [-75.75855247876622, 4.566110454845678]]], [[[-75.76915496614181, 4.469783184820038], [-75.76978967720292, 4.4725069817302705], [-75.7622694600011, 4.473836682312995], [-75.76051389394864, 4.477614098883924], [-75.75274153270713, 4.47811528587087], [-75.7553166603651, 4.46884842168522], [-75.76387566169302, 4.463626874300101], [-75.76656967931596, 4.463829872771173], [-75.76915496614181, 4.469783184820038]]], [[[-75.77108454411483, 4.620367478255883], [-75.77260894050019, 4.624197456271934], [-75.76717288832474, 4.626206032674509], [-75.75698997800937, 4.624828224733379], [-75.75713714208041, 4.619886862744335], [-75.76418627904489, 4.616273219933703], [-75.77108454411483, 4.620367478255883]]], [[[-75.79648337363886, 4.452343849618909], [-75.79056258690676, 4.459967760882753], [-75.78565336659483, 4.461870612978933], [-75.78142648817932, 4.469156756945292], [-75.77776519045571, 4.468210924595042], [-75.7758941124921, 4.451891865498575], [-75.7786891634841, 4.447012357318723], [-75.78527704880034, 4.446689995711238], [-75.79192190522375, 4.442672951177657], [-75.79648337363886, 4.452343849618909]]], [[[-75.81922502655982, 4.450946006421111], [-75.8129911369086, 4.451724025640467], [-75.81004369873655, 4.447303062725125], [-75.81611224097546, 4.445177448670482], [-75.81985372922489, 4.447218442134373], [-75.81922502655982, 4.450946006421111]]], [[[-75.83289795022024, 4.340532378930964], [-75.83048538093549, 4.342436815259322], [-75.81836280856238, 4.337155250799623], [-75.82262381170906, 4.327635748004989], [-75.83044628170924, 4.333583720976484], [-75.83289795022024, 4.340532378930964]]], [[[-75.8290475563078, 4.61257188784486], [-75.82224714189591, 4.614399361919053], [-75.82023673500603, 4.608269703627444], [-75.82800951170093, 4.607084901006999], [-75.8290475563078, 4.61257188784486]]], [[[-75.91176123384324, 4.731326380893622], [-75.90752808369403, 4.744961537996391], [-75.90349753209367, 4.747940394214101], [-75.90421524808242, 4.755813621906368], [-75.89644331830604, 4.7586684294054225], [-75.89600706993491, 4.747760226916312], [-75.90017000461108, 4.745220553657256], [-75.90291394915712, 4.721403025769366], [-75.91157238340602, 4.7265135935411005], [-75.91176123384324, 4.731326380893622]]]]}}, {"type": "Feature", "properties": {"threshold": 95}, "geometry": {"type": "MultiPolygon", "coordinates": [[[[-75.64530977984415, 4.619989499118621], [-75.64423751222938, 4.6237627220690705], [-75.63370771323503, 4.626357914620597], [-75.62985197004546, 4.624338803985556], [-75.62639375347834, 4.6153727324291385], [-75.62911068257876, 4.609937611504693], [-75.63567581469266, 4.60553172565866], [-75.6384374431942, 4.614411586718103], [-75.64436606172269, 4.616545103245283], [-75.64530977984415, 4.619989499118621]]], [[[-75.66026947611283, 4.509945213061441], [-75.66111097483714, 4.514921672176882], [-75.6522670179853, 4.524062546331507], [-75.65272057312787, 4.531754719925833], [-75.64541320435696, 4.535111602523863], [-75.64250118276135, 4.541983661662567], [-75.63493098772875, 4.540230814359833], [-75.63432525721443, 4.534235971854655], [-75.6304792753409, 4.53224369686316], [-75.63064288031882, 4.522374360519058], [-75.63834161473066, 4.521840615412592], [-75.63990012263858, 4.51724399207637], [-75.64933231458431, 4.51325623801588], [-75.65672935236482, 4.506255053303047], [-75.65929543711043, 4.506432970847838], [-75.66026947611283, 4.509945213061441]]], [[[-75.72338510146825, 4.520010765236085], [-75.72007590901002, 4.532525219651616], [-75.71627452965916, 4.536154950669172], [-75.70727080562637, 4.535462682205319], [-75.70690509895559, 4.541508289080681], [-75.7024474231232, 4.546892719021373], [-75.68366627340437, 4.549673595336555], [-75.67487229053718, 4.557009823490785], [-75.66351371381195, 4.559219473021141], [-75.65658685187701, 4.567040697548208], [-75.65051149304607, 4.568781537320405], [-75.64726472446138, 4.566742932736589], [-75.65800997808692, 4.5408444227658675], [-75.66278424477746, 4.537254316764466], [-75.66303341648546, 4.532424893610237], [-75.66665384606989, 4.527977741809598], [-75.67218991915396, 4.528026747388858], [-75.67662762270605, 4.522961526986606], [-75.68631156738259, 4.519674196704067], [-75.68534196203646, 4.511841541603506], [-75.6890143117935, 4.505467502163335], [-75.69867749001814, 4.500308197651893], [-75.70641765871841, 4.501201521776086], [-75.71000637495997, 4.504703064395662], [-75.71575990652389, 4.499523418025286], [-75.72387662929776, 4.498680904891826], [-75.71910332724335, 4.505937937369788], [-75.7110951005332, 4.509243967281724], [-75.71264062028848, 4.512621380972032], [-75.72326864295215, 4.513827665648334], [-75.72338510146825, 4.520010765236085]]], [[[-75.71105886860605, 4.469420190691431], [-75.71515303456226, 4.472435961971757], [-75.7147097771516, 4.477695190942165], [-75.70697513388725, 4.4772527226748515], [-75.70783347403288, 4.469031362805616], [-75.71105886860605, 4.469420190691431]]], [[[-75.72182439907249, 4.427783508646179], [-75.7161536146958, 4.431490780161976], [-75.71803585544949, 4.421990805920276], [-75.72167932237765, 4.422216664498373], [-75.72182439907249, 4.427783508646179]]], [[[-75.75855247876622, 4.566110454845678], [-75.75637835443925, 4.569445802961449], [-75.75028263398029, 4.56966769237856], [-75.74806786310643, 4.574461394160655], [-75.7411637958824, 4.574018592543469], [-75.74325621670906, 4.555406007900841], [-75.75734114346636, 4.557971571077634], [-75.75855247876622, 4.566110454845678]]], [[[-75.76915496614181, 4.469783184820038], [-75.76882415330348, 4.47343302733408], [-75.76242970573284, 4.474141068306957], [-75.75787038683843, 4.478513697105725], [-75.75274153270713, 4.47811528587087], [-75.75556119693553, 4.463635486149712], [-75.76624606822051, 4.463589515291527], [-75.76915496614181, 4.469783184820038]]], [[[-75.77108454411483, 4.620367478255883], [-75.77260894050019, 4.624197456271934], [-75.76717288832474, 4.626206032674509], [-75.75698997800937, 4.624828224733379], [-75.75713714208041, 4.619886862744335], [-75.76418627904489, 4.616273219933703], [-75.77108454411483, 4.620367478255883]]], [[[-75.79648337363886, 4.452343849618909], [-75.79056258690676, 4.459967760882753], [-75.78565336659483, 4.461870612978933], [-75.78142648817932, 4.469156756945292], [-75.77776519045571, 4.468210924595042], [-75.7758941124921, 4.451891865498575], [-75.7786891634841, 4.447012357318723], [-75.78527704880034, 4.446689995711238], [-75.79192190522375, 4.442672951177657], [-75.79648337363886, 4.452343849618909]]], [[[-75.81922502655982, 4.450946006421111], [-75.8129911369086, 4.451724025640467], [-75.81004369873655, 4.447303062725125], [-75.81611224097546, 4.445177448670482], [-75.81985372922489, 4.447218442134373], [-75.81922502655982, 4.450946006421111]]], [[[-75.83230584826391, 4.341717463965783], [-75.8183179102186, 4.340427639170613], [-75.82268814578377, 4.326752603567996], [-75.8275441345383, 4.325808516985939], [-75.8296580309134, 4.3286433220061244], [-75.83230584826391, 4.341717463965783]]], [[[-75.8290475563078, 4.61257188784486], [-75.82224714189591, 4.614399361919053], [-75.82023673500603, 4.608269703627444], [-75.82800951170093, 4.607084901006999], [-75.8290475563078, 4.61257188784486]]], [[[-75.91176123384324, 4.731326380893622], [-75.90752808369403, 4.744961537996391], [-75.90349753209367, 4.747940394214101], [-75.90421524808242, 4.755813621906368], [-75.89644331830604, 4.7586684294054225], [-75.89600706993491, 4.747760226916312], [-75.90017000461108, 4.745220553657256], [-75.90291394915712, 4.721403025769366], [-75.91157238340602, 4.7265135935411005], [-75.91176123384324, 4.731326380893622]]]]}}]}