{"type": "FeatureCollection", "features": [{"type": "Feature", "properties": {"threshold": 70}, "geometry": {"type": "MultiPolygon", "coordinates": [[[[-75.5088919056008, 5.050363491473262], [-75.50620132384314, 5.052467396181549], [-75.49893825004636, 5.0454504607436945], [-75.49456708633086, 5.051599748181764], [-75.4889511405593, 5.052562846013725], [-75.48505055202499, 5.050472814359606], [-75.4849650487674, 5.045745273818681], [-75.48839984128219, 5.043800502385281], [-75.4894086892594, 5.038584002163947], [-75.49508921721835, 5.0367375815708755], [-75.50300693128344, 5.039463100992241], [-75.5088919056008, 5.050363491473262]]], [[[-75.61616313046599, 4.991292357635243], [-75.61299570230298, 4.993209487089704], [-75.60411078442235, 4.990413730098372], [-75.60556674024033, 4.984631480469899], [-75.60145363073536, 4.981783493839676], [-75.60254646614293, 4.974221021593225], [-75.60704258145196, 4.974332172634957], [-75.60672059653518, 4.979414975973614], [-75.61616313046599, 4.991292357635243]]], [[[-75.63522828109758, 4.862689547121681], [-75.63422526056246, 4.86785616854417], [-75.62821778431992, 4.868426968006275], [-75.62652112889138, 4.872975624928312], [-75.62226157252638, 4.871811138801645], [-75.62164719780486, 4.859807749101902], [-75.62883559330801, 4.862725850021062], [-75.63475160785329, 4.860506012202426], [-75.63522828109758, 4.862689547121681]]], [[[-75.64361822505572, 4.620096532242532], [-75.6341329153105, 4.623407812442089], [-75.62608660979197, 4.614865834329733], [-75.62878435948272, 4.609508874188131], [-75.63542964073118, 4.605121920699715], [-75.63800185570133, 4.615084869764073], [-75.64404260299624, 4.616117620385826], [-75.64361822505572, 4.620096532242532]]], [[[-75.77198907467432, 4.814947128118077], [-75.74606451890585, 4.81282263778411], [-75.74178805713167, 4.824046021656927], [-75.73864347138766, 4.825319668255298], [-75.73215429918218, 4.821173432247488], [-75.72449803659256, 4.824500275690096], [-75.7191912617912, 4.822060204971104], [-75.70613798241855, 4.82288087321197], [-75.70347968894883, 4.830833882904554], [-75.69583404720211, 4.836865068575532], [-75.68724242544411, 4.836491480822185], [-75.6670161273823, 4.852649338632756], [-75.66327489118683, 4.863696909504232], [-75.65493135743324, 4.860324535772965], [-75.65126579716699, 4.855704795096305], [-75.65206411747751, 4.841111395285504], [-75.65623497006834, 4.839061394972105], [-75.65546769923006, 4.834201160121943], [-75.66815023868597, 4.828218597436242], [-75.67140482168392, 4.821763478764339], [-75.6692220495714, 4.816568482502463], [-75.65760417110283, 4.81535544175061], [-75.65544609066343, 4.811665743254167], [-75.66231238151242, 4.807967776957089], [-75.66122592297845, 4.8017181878427255], [-75.66673956648279, 4.797896677773158], [-75.6746577758909, 4.806690660936701], [-75.6810625514823, 4.804868079056253], [-75.68842252512007, 4.79795990114757], [-75.68836093637202, 4.787024890501554], [-75.70540807183195, 4.7932822987019446], [-75.70848981344427, 4.788641818330481], [-75.72134136273617, 4.791310674863394], [-75.72338168060237, 4.785299669354714], [-75.7479106665195, 4.784458510770118], [-75.74665283104518, 4.789956406690553], [-75.74219381619285, 4.792118979596789], [-75.74288378480547, 4.795395957443665], [-75.74623426616807, 4.797337106272965], [-75.75159931250745, 4.793635397200634], [-75.75646148983454, 4.794569003746213], [-75.76172892372296, 4.799035728657535], [-75.76258093386184, 4.804802602663413], [-75.77745864702526, 4.809732562013814], [-75.77741001485491, 4.8150213350729825], [-75.77198907467432, 4.814947128118077]], [[-75.72963692365808, 4.814243651973111], [-75.72861198745325, 4.810488623104574], [-75.72540114753178, 4.8103662100242275], [-75.72475693038565, 4.817605095611254], [-75.7287055773689, 4.818158427815742], [-75.72963692365808, 4.814243651973111]], [[-75.73409015966706, 4.814481412917854], [-75.73162949095612, 4.817389365640172], [-75.73471379181291, 4.819769364744369], [-75.73687688075796, 4.81673687148546], [-75.73409015966706, 4.814481412917854]]], [[[-75.92546411437644, 4.7496864521271345], [-75.92464709877984, 4.7546860094809915], [-75.92059898675565, 4.755826050581699], [-75.91775070118959, 4.749380122512717], [-75.90557204894375, 4.747697602359321], [-75.90145243543229, 4.761257997051439], [-75.89662997500163, 4.762859726609431], [-75.8965703044663, 4.753198737119136], [-75.90534962171589, 4.7258740585033046], [-75.91545957287386, 4.726936105672584], [-75.91841767043572, 4.740244120266563], [-75.92213446024373, 4.741949962653451], [-75.92546411437644, 4.7496864521271345]]]]}}, {"type": "Feature", "properties": {"threshold": 80}, "geometry": {"type": "MultiPolygon", "coordinates": [[[[-75.50950040366729, 5.051624651814884], [-75.50453597589976, 5.0516340312017425], [-75.49893825004636, 5.0454504607436945], [-75.49456708633086, 5.051599748181764], [-75.4889511405593, 5.052562846013725], [-75.48505055202499, 5.050472814359606], [-75.4849650487674, 5.045745273818681], [-75.48827209664483, 5.044003633020312], [-75.4895437984487, 5.038493325416044], [-75.50091618118299, 5.037567785574211], [-75.50977535356937, 5.04793047324812], [-75.50950040366729, 5.051624651814884]]], [[[-75.61616313046599, 4.991292357635243], [-75.61299570230298, 4.993209487089704], [-75.60411078442235, 4.990413730098372], [-75.60556674024033, 4.984631480469899], [-75.60145363073536, 4.981783493839676], [-75.60254646614293, 4.974221021593225], [-75.60704258145196, 4.974332172634957], [-75.60672059653518, 4.979414975973614], [-75.61616313046599, 4.991292357635243]]], [[[-75.63522828109758, 4.862689547121681], [-75.63339940841175, 4.874534132231421], [-75.62945026576021, 4.876331314654588], [-75.62226157252638, 4.871811138801645], [-75.62164719780486, 4.859807749101902], [-75.62883559330801, 4.862725850021062], [-75.63475160785329, 4.860506012202426], [-75.63522828109758, 4.862689547121681]]], [[[-75.64393178102141, 4.6199924740813225], [-75.63952606043402, 4.62342279413824], [-75.62997313327818, 4.622576869402038], [-75.62608660979197, 4.614865834329733], [-75.62878435948272, 4.609508874188131], [-75.63542964073118, 4.605121920699715], [-75.63797259280045, 4.61468915736328], [-75.64404260299624, 4.616117620385826], [-75.64393178102141, 4.6199924740813225]]], [[[-75.77675620399158, 4.8094263035315645], [-75.77690535086573, 4.815261478407301], [-75.74833260993577, 4.81297402681522], [-75.74169791515847, 4.824181669823557], [-75.73706077230486, 4.826144044889341], [-75.73215519289349, 4.822008063727175], [-75.72435550986222, 4.8245074518790565], [-75.7191912617912, 4.822060204971104], [-75.70613798241855, 4.82288087321197], [-75.70347968894883, 4.830833882904554], [-75.69583404720211, 4.836865068575532], [-75.68724242544411, 4.836491480822185], [-75.6670161273823, 4.852649338632756], [-75.66327489118683, 4.863696909504232], [-75.65493135743324, 4.860324535772965], [-75.65129328069905, 4.8557816097638735], [-75.65206411747751, 4.841111395285504], [-75.65623497006834, 4.839061394972105], [-75.65633990892042, 4.832461024276607], [-75.66795859228276, 4.828352992400185], [-75.67133349964851, 4.822249092483526], [-75.6692220495714, 4.816568482502463], [-75.65760417110283, 4.81535544175061], [-75.6553654591896, 4.813054735171038], [-75.66260348540345, 4.807573233824188], [-75.66119858937124, 4.801795055510934], [-75.66665732974629, 4.79208173972892], [-75.67348980918541, 4.7940506247683095], [-75.67194815646877, 4.803645329327507], [-75.67584768859808, 4.806926869949209], [-75.68483585266104, 4.797602369813958], [-75.69085440579909, 4.784518455753322], [-75.69821162467855, 4.784615336978586], [-75.69880942635812, 4.791556639260092], [-75.70305162086271, 4.7928135966579495], [-75.7084093538381, 4.788653876488139], [-75.72009629515227, 4.79008941305164], [-75.72171683544694, 4.784466791236878], [-75.72799774182994, 4.786136833876645], [-75.74783173174175, 4.784438767266374], [-75.7485900674806, 4.791362254435831], [-75.7614552774471, 4.79623271203068], [-75.76384627487792, 4.8038223814640375], [-75.77675620399158, 4.8094263035315645]], [[-75.72871134283197, 4.814129502870669], [-75.72501242769667, 4.814133453519864], [-75.72506807101213, 4.817967092561048], [-75.72899974918609, 4.817897470027362], [-75.72871134283197, 4.814129502870669]], [[-75.73409015966706, 4.814481412917854], [-75.73162949095612, 4.817389365640172], [-75.73471379181291, 4.819769364744369], [-75.73687688075796, 4.81673687148546], [-75.73409015966706, 4.814481412917854]]], [[[-75.94128602714225, 4.758609823949306], [-75.94028346179176, 4.762340039162268], [-75.93126783585538, 4.765795010516994], [-75.9276032503108, 4.7575736686519265], [-75.92098715717752, 4.7564753716972525], [-75.91795201865368, 4.749508373975364], [-75.90628225945848, 4.747518136269769], [-75.90145243543229, 4.761257997051439], [-75.89681109164633, 4.763963874560293], [-75.8965627575803, 4.7473565444835994], [-75.90143353209726, 4.7418194109026715], [-75.90341179697153, 4.7218838537990715], [-75.91540486824344, 4.726875711069006], [-75.91831784481685, 4.740010814222793], [-75.9221830028937, 4.742015445115572], [-75.9229350741141, 4.7466125211795465], [-75.93360831951419, 4.747612810855958], [-75.93350223762482, 4.7541217492478465], [-75.94020269666336, 4.75423862388469], [-75.94128602714225, 4.758609823949306]]]]}}, {"type": "Feature", "properties": {"threshold": 90}, "geometry": {"type": "MultiPolygon", "coordinates": [[[[-75.52382500787425, 5.045625450657362], [-75.52105696041166, 5.049151888664753], [-75.50833833668165, 5.052559919899209], [-75.49943903333342, 5.045468865615723], [-75.49185072714307, 5.0525408236849545], [-75.48495638738532, 5.050162365478802], [-75.48504686942375, 5.045515423867695], [-75.48870195494864, 5.042894744520795], [-75.48667122458535, 5.038076004544343], [-75.49068446397823, 5.036728942448947], [-75.50107179237976, 5.037614991025736], [-75.50896072188579, 5.0446682840796475], [-75.51479825951238, 5.04387683780032], [-75.51676083820378, 5.038678129510543], [-75.51930710188527, 5.038407858517596], [-75.52382500787425, 5.045625450657362]]], [[[-75.61616313046599, 4.991292357635243], [-75.61299570230298, 4.993209487089704], [-75.60416549018532, 4.990474150506091], [-75.60553056581132, 4.984388447450008], [-75.60068297020534, 4.981100165700344], [-75.60082249941361, 4.9751120542770035], [-75.60782088035369, 4.975105634044995], [-75.61616313046599, 4.991292357635243]]], [[[-75.63522828109758, 4.862689547121681], [-75.63339940841175, 4.874534132231421], [-75.62945026576021, 4.876331314654588], [-75.62226157252638, 4.871811138801645], [-75.62164719780486, 4.859807749101902], [-75.62883559330801, 4.862725850021062], [-75.63475160785329, 4.860506012202426], [-75.63522828109758, 4.862689547121681]]], [[[-75.64393178102141, 4.6199924740813225], [-75.64035786813344, 4.62342204266963], [-75.62997387045289, 4.623411523466113], [-75.62608660979197, 4.614865834329733], [-75.62878435948272, 4.609508874188131], [-75.63542964073118, 4.605121920699715], [-75.63888565961604, 4.61488978536462], [-75.64424797769996, 4.616368265776219], [-75.64393178102141, 4.6199924740813225]]], [[[-75.77675620399158, 4.8094263035315645], [-75.77690535086573, 4.815261478407301], [-75.74833260993577, 4.81297402681522], [-75.74158312401173, 4.824297070732895], [-75.7370616729366, 4.826978675330287], [-75.73141938117674, 4.826363665441336], [-75.72874400415105, 4.829491555432643], [-75.72556004069472, 4.8293221798107515], [-75.71967536102491, 4.822131715183943], [-75.70613798241855, 4.82288087321197], [-75.70347968894883, 4.830833882904554], [-75.69583404720211, 4.836865068575532], [-75.68724242544411, 4.836491480822185], [-75.6670161273823, 4.852649338632756], [-75.66327489118683, 4.863696909504232], [-75.65493135743324, 4.860324535772965], [-75.65129328069905, 4.8557816097638735], [-75.65206411747751, 4.841111395285504], [-75.65623497006834, 4.839061394972105], [-75.6562981496238, 4.832531065546565], [-75.66795859228276, 4.828352992400185], [-75.67138105180332, 4.822008043018694], [-75.6692220495714, 4.816568482502463], [-75.65541278452139, 4.813210697024321], [-75.66288314438324, 4.806894088581239], [-75.65952974861388, 4.796788796308803], [-75.66998901208963, 4.791310094938763], [-75.67039572148022, 4.784107937963057], [-75.67579789655915, 4.780387758884179], [-75.67774092018222, 4.780912752369461], [-75.6781336539344, 4.787606055043518], [-75.68510123739533, 4.79449460196103], [-75.68759131290436, 4.792938680013149], [-75.689269319454, 4.784500223247456], [-75.69821162467855, 4.784615336978586], [-75.69861309195102, 4.791121129368358], [-75.70097765721252, 4.792815726678598], [-75.7075773616532, 4.788654737505131], [-75.71941869066426, 4.788468625701578], [-75.72171683544694, 4.784466791236878], [-75.72799774182994, 4.786136833876645], [-75.7479106665195, 4.784458510770118], [-75.7493767951945, 4.790599375542244], [-75.7571464010208, 4.791152882498499], [-75.75823214604429, 4.795177689565042], [-75.76163571288636, 4.796396401066121], [-75.76384627487792, 4.8038223814640375], [-75.77675620399158, 4.8094263035315645]], [[-75.67613310321268, 4.798683254732638], [-75.67319402235397, 4.802736514155123], [-75.67582055607559, 4.80590678257937], [-75.68029900573578, 4.802249277905665], [-75.67938114862909, 4.799248395562072], [-75.67613310321268, 4.798683254732638]], [[-75.7243723821963, 4.815552696235004], [-75.7263225955385, 4.818617295701689], [-75.7296657555524, 4.8165734136528835], [-75.7272272890723, 4.813335807559142], [-75.7243723821963, 4.815552696235004]]], [[[-75.7716175885787, 4.6207745075508075], [-75.77314227627417, 4.624605205707208], [-75.76770519850332, 4.626614165148153], [-75.7575203626687, 4.625236106268695], [-75.75766755042075, 4.6202938131989795], [-75.76471801642805, 4.616679483669349], [-75.7716175885787, 4.6207745075508075]]], [[[-75.94128602714225, 4.758609823949306], [-75.94028346179176, 4.762340039162268], [-75.93126783585538, 4.765795010516994], [-75.9276032503108, 4.7575736686519265], [-75.92098715717752, 4.7564753716972525], [-75.91795201865368, 4.749508373975364], [-75.90628225945848, 4.747518136269769], [-75.90145352204716, 4.76209259459697], [-75.89681109164633, 4.763963874560293], [-75.8965627575803, 4.7473565444835994], [-75.90143353209726, 4.7418194109026715], [-75.90341179697153, 4.7218838537990715], [-75.91540486824344, 4.726875711069006], [-75.91831784481685, 4.740010814222793], [-75.9221830028937, 4.742015445115572], [-75.9229350741141, 4.7466125211795465], [-75.93360831951419, 4.747612810855958], [-75.93350223762482, 4.7541217492478465], [-75.94020269666336, 4.75423862388469], [-75.94128602714225, 4.758609823949306]]]]}}, {"type": "Feature", "properties": {"threshold": 95}, "geometry": {"type": "MultiPolygon", "coordinates": [[[[-75.52382500787425, 5.045625450657362], [-75.52105696041166, 5.049151888664753], [-75.50665364969159, 5.052568262146765], [-75.49868900578915, 5.045479111823236], [-75.49456708633086, 5.051599748181764], [-75.48887217703496, 5.052543075008944], [-75.48498822379158, 5.05032224001823], [-75.48504686942375, 5.045515423867695], [-75.48871867210924, 5.042415290549365], [-75.48331020761918, 5.032312695913928], [-75.50114539096217, 5.037649828656949], [-75.5086335977206, 5.044592922727066], [-75.51930710188527, 5.038407858517596], [-75.52382500787425, 5.045625450657362]]], [[[-75.61620665971977, 4.989341226156274], [-75.61490327149431, 4.9931957278446495], [-75.60499851333512, 4.991308033364632], [-75.60547081266478, 4.984150140620918], [-75.60068297020534, 4.981100165700344], [-75.60082249941361, 4.9751120542770035], [-75.6069878769493, 4.9742717522851345], [-75.60869229064811, 4.978633030910098], [-75.61542202512712, 4.983571082873599], [-75.61620665971977, 4.989341226156274]]], [[[-75.63522828109758, 4.862689547121681], [-75.63339940841175, 4.874534132231421], [-75.62945026576021, 4.876331314654588], [-75.62226157252638, 4.871811138801645], [-75.62164719780486, 4.859807749101902], [-75.62883559330801, 4.862725850021062], [-75.63475160785329, 4.860506012202426], [-75.63522828109758, 4.862689547121681]]], [[[-75.64498788601772, 4.619564542567648], [-75.64376397650453, 4.623399125117851], [-75.63005278500037, 4.62343128355937], [-75.6260669166913, 4.614945018732145], [-75.62878435948272, 4.609508874188131], [-75.63535072817646, 4.605102160928273], [-75.63887227402086, 4.614870986986606], [-75.64404260299624, 4.616117620385826], [-75.64498788601772, 4.619564542567648]]], [[[-75.77025552962617, 4.806098127533443], [-75.77227663112052, 4.80911613471702], [-75.77745864702526, 4.809732562013814], [-75.77734979751291, 4.815076209668935], [-75.74833260993577, 4.81297402681522], [-75.74211125140657, 4.820619504813946], [-75.74182729302244, 4.828145356547111], [-75.73797801683864, 4.831965636945921], [-75.72569526570138, 4.829412606916696], [-75.71967536102491, 4.822131715183943], [-75.70570383474906, 4.823077837945869], [-75.70347968894883, 4.830833882904554], [-75.69583404720211, 4.836865068575532], [-75.68724242544411, 4.836491480822185], [-75.6670161273823, 4.852649338632756], [-75.66320137481432, 4.863731875381328], [-75.65493135743324, 4.860324535772965], [-75.65129328069905, 4.8557816097638735], [-75.65206411747751, 4.841111395285504], [-75.65623497006834, 4.839061394972105], [-75.6562981496238, 4.832531065546565], [-75.66795859228276, 4.828352992400185], [-75.67138105180332, 4.822008043018694], [-75.6692220495714, 4.816568482502463], [-75.65541278452139, 4.813210697024321], [-75.66288314438324, 4.806894088581239], [-75.65952894778005, 4.795954151272645], [-75.66998901208963, 4.791310094938763], [-75.67039572148022, 4.784107937963057], [-75.67579789655915, 4.780387758884179], [-75.67774092018222, 4.780912752369461], [-75.6781336539344, 4.787606055043518], [-75.68510123739533, 4.79449460196103], [-75.68759131290436, 4.792938680013149], [-75.689269319454, 4.784500223247456], [-75.69821162467855, 4.784615336978586], [-75.69861309195102, 4.791121129368358], [-75.70097765721252, 4.792815726678598], [-75.7075773616532, 4.788654737505131], [-75.71941869066426, 4.788468625701578], [-75.72171683544694, 4.784466791236878], [-75.72799774182994, 4.786136833876645], [-75.7479106665195, 4.784458510770118], [-75.74920345805258, 4.790435035062889], [-75.75735520051049, 4.791278115311695], [-75.75823214604429, 4.795177689565042], [-75.76339291273949, 4.799033869897054], [-75.76367287867583, 4.803648825922162], [-75.77025552962617, 4.806098127533443]], [[-75.7243723821963, 4.815552696235004], [-75.7263225955385, 4.818617295701689], [-75.7296657555524, 4.8165734136528835], [-75.7272272890723, 4.813335807559142], [-75.7243723821963, 4.815552696235004]]], [[[-75.7716175885787, 4.6207745075508075], [-75.77314227627417, 4.624605205707208], [-75.76770519850332, 4.626614165148153], [-75.7575203626687, 4.625236106268695], [-75.75766755042075, 4.6202938131989795], [-75.76471801642805, 4.616679483669349], [-75.7716175885787, 4.6207745075508075]]], [[[-75.80230194443867, 4.802916054557461], [-75.80645678614806, 4.803741244044212], [-75.80669985744662, 4.806371266867871], [-75.80290287238351, 4.80821567693609], [-75.80237026875331, 4.814992358628932], [-75.79730701447036, 4.815178578903852], [-75.79435140872462, 4.805749289484127], [-75.80230194443867, 4.802916054557461]]], [[[-75.84503100243796, 4.803404612117743], [-75.84519987237651, 4.806821990560381], [-75.8314090372852, 4.806791630784996], [-75.83011700108045, 4.797360539765246], [-75.83535944402963, 4.796904092011467], [-75.83698794411704, 4.8005868659127415], [-75.84503100243796, 4.803404612117743]]], [[[-75.94128602714225, 4.758609823949306], [-75.94028346179176, 4.762340039162268], [-75.93126783585538, 4.765795010516994], [-75.9276032503108, 4.7575736686519265], [-75.92098715717752, 4.7564753716972525], [-75.91795201865368, 4.749508373975364], [-75.90628225945848, 4.747518136269769], [-75.90145352204716, 4.76209259459697], [-75.89681109164633, 4.763963874560293], [-75.8965627575803, 4.7473565444835994], [-75.90143353209726, 4.7418194109026715], [-75.90341179697153, 4.7218838537990715], [-75.91540486824344, 4.726875711069006], [-75.91831784481685, 4.740010814222793], [-75.9221830028937, 4.742015445115572], [-75.9229350741141, 4.7466125211795465], [-75.93360831951419, 4.747612810855958], [-75.93350223762482, 4.7541217492478465], [-75.94020269666336, 4.75423862388469], [-75.94128602714225, 4.758609823949306]]]]}}]}