{"type": "FeatureCollection", "features": [{"type": "Feature", "properties": {"threshold": 70}, "geometry": {"type": "MultiPolygon", "coordinates": [[[[62.31525311351361, 45.76506409058485], [62.31519779792408, 45.76916977414481], [62.322258057573116, 45.7714019641156], [62.3271797892416, 45.769478236203554], [62.34489930302919, 45.76905736171902], [62.344720100225224, 45.76257541486917], [62.32934239286781, 45.75706997410418], [62.324062073049184, 45.76070250185273], [62.318232251153376, 45.76106801584883], [62.31525311351361, 45.76506409058485]]], [[[62.25175806970221, 45.81018230902789], [62.250823517700674, 45.81306135277255], [62.25390245405094, 45.81536050975445], [62.259897541751975, 45.81530907554405], [62.25796887980035, 45.80979553988852], [62.25175806970221, 45.81018230902789]]], [[[62.18000937677199, 45.843154427033305], [62.190129791938524, 45.844344887379094], [62.19328066587877, 45.839386942285515], [62.19213967808536, 45.834925463458944], [62.180527939224234, 45.83418807181773], [62.18000937677199, 45.843154427033305]]], [[[62.124237207611166, 45.836614482698856], [62.12596952163319, 45.841809149807396], [62.13040878679049, 45.84371623248788], [62.130710790277384, 45.8650000751083], [62.15484081266419, 45.8658358037376], [62.15886405119931, 45.86286194298001], [62.16638039307068, 45.861893967992096], [62.17291460024183, 45.85435119748834], [62.177086617445944, 45.853205864126615], [62.17598695369331, 45.85052293544372], [62.170877873292525, 45.8490800723275], [62.17355596960232, 45.84304630171497], [62.16881210495208, 45.83682110288827], [62.15788011353807, 45.83609261895415], [62.152585022204235, 45.829259921592325], [62.139697537175486, 45.829163611791834], [62.13469031043577, 45.830576613271], [62.132814179028266, 45.83432190609669], [62.124470631814944, 45.83434584632013], [62.124237207611166, 45.836614482698856]]], [[[62.13845835727828, 45.874454013814436], [62.13887953616696, 45.87681912081575], [62.14512420199884, 45.876930503419764], [62.15298987416707, 45.874927586228665], [62.15341698577469, 45.87295170202482], [62.139206855741755, 45.87233300283607], [62.13845835727828, 45.874454013814436]]], [[[62.08453810276485, 45.76182818273769], [62.08712864780586, 45.765046706515555], [62.09972356637486, 45.77053476911458], [62.10287336941241, 45.76863610658682], [62.11164236620584, 45.768513495466465], [62.11677396418003, 45.761550133150365], [62.112801297927476, 45.754419761717706], [62.103865100230074, 45.75419957359982], [62.09535082890523, 45.75796958361408], [62.088329429927654, 45.7580843203906], [62.08453810276485, 45.76182818273769]]], [[[61.92574423162751, 45.62629165211206], [61.92288644977188, 45.62961339740931], [61.926375723038916, 45.63147187353863], [61.92670594722602, 45.63589178675548], [61.936410951530874, 45.63607298948833], [61.93596050186604, 45.62758054049851], [61.93212783779878, 45.62267510847878], [61.928035078493245, 45.621891619214104], [61.92574423162751, 45.62629165211206]]]]}}, {"type": "Feature", "properties": {"threshold": 80}, "geometry": {"type": "MultiPolygon", "coordinates": [[[[62.31525311351361, 45.76506409058485], [62.3151439398929, 45.7691180321318], [62.32045232176974, 45.769798170116154], [62.32317770462583, 45.77271683223811], [62.33191459488632, 45.76981144969244], [62.33663851852848, 45.77279577941343], [62.34489930302919, 45.76905736171902], [62.344720100225224, 45.76257541486917], [62.32934239286781, 45.75706997410418], [62.318248198012896, 45.75975869198199], [62.31525311351361, 45.76506409058485]]], [[[62.29427623236134, 45.796544950865275], [62.29546158558486, 45.79867306334051], [62.30067134822463, 45.79877895541945], [62.310499126801886, 45.79545836112168], [62.30988825111509, 45.78996691331162], [62.30392639947265, 45.78909606182545], [62.300671279529205, 45.79411037264984], [62.2945190900315, 45.792966599742186], [62.29427623236134, 45.796544950865275]]], [[[62.25175806970221, 45.81018230902789], [62.250823517700674, 45.81306135277255], [62.25390245405094, 45.81536050975445], [62.259897541751975, 45.81530907554405], [62.25796887980035, 45.80979553988852], [62.25175806970221, 45.81018230902789]]], [[[62.12282325809528, 45.836812234597225], [62.13040878679049, 45.84371623248788], [62.12832860096019, 45.86040284329823], [62.13024929438585, 45.86470139508343], [62.1442444204568, 45.86580895867723], [62.154754218591314, 45.86585672974634], [62.15886405119931, 45.86286194298001], [62.16638039307068, 45.861893967992096], [62.171145309268866, 45.8559440751163], [62.177118366440475, 45.85314581819276], [62.172274201537896, 45.84877454628611], [62.17420998644829, 45.84422988622926], [62.18982495906542, 45.844484133943396], [62.19329016881508, 45.839274853719424], [62.19213967808536, 45.834925463458944], [62.1854790473997, 45.83445282422052], [62.18382923082327, 45.830985624804676], [62.1809672906728, 45.83075473716368], [62.18007268052346, 45.839423946934296], [62.174461937994266, 45.84323165677493], [62.168630313683465, 45.83667793696556], [62.15616556718183, 45.833815671836206], [62.15215979478624, 45.829204742387624], [62.139697537175486, 45.829163611791834], [62.13462808463795, 45.830623575145346], [62.13306015164297, 45.83422626503591], [62.12463289881848, 45.83428680746503], [62.12282325809528, 45.836812234597225]]], [[[62.146936486164485, 45.87630194398335], [62.15306405782482, 45.87489000150582], [62.15322732601584, 45.87266372666366], [62.138608355051716, 45.87260587242683], [62.13880144168576, 45.87678562121974], [62.146936486164485, 45.87630194398335]]], [[[62.11111753103492, 45.73518586616643], [62.12118758465107, 45.73597173820036], [62.12373193013871, 45.73255880811116], [62.11324996291559, 45.73073361305553], [62.11111753103492, 45.73518586616643]]], [[[62.08453810276485, 45.76182818273769], [62.08712864780586, 45.765046706515555], [62.09972356637486, 45.77053476911458], [62.10287336941241, 45.76863610658682], [62.11164236620584, 45.768513495466465], [62.11677396418003, 45.761550133150365], [62.112801297927476, 45.754419761717706], [62.103865100230074, 45.75419957359982], [62.09535082890523, 45.75796958361408], [62.088329429927654, 45.7580843203906], [62.08453810276485, 45.76182818273769]]], [[[61.92574423162751, 45.62629165211206], [61.92288644977188, 45.62961339740931], [61.926375723038916, 45.63147187353863], [61.92670594722602, 45.63589178675548], [61.936410951530874, 45.63607298948833], [61.93596050186604, 45.62758054049851], [61.93212783779878, 45.62267510847878], [61.928035078493245, 45.621891619214104], [61.92574423162751, 45.62629165211206]]], [[[61.81481480893868, 45.759099257447666], [61.81446532839394, 45.7613687274402], [61.823946592131676, 45.76042184611981], [61.82403959394061, 45.75599524877113], [61.81895019243092, 45.751661424522155], [61.8139853942532, 45.75196303496768], [61.81481480893868, 45.759099257447666]]]]}}, {"type": "Feature", "properties": {"threshold": 90}, "geometry": {"type": "MultiPolygon", "coordinates": [[[[62.31525311351361, 45.76506409058485], [62.3151439398929, 45.7691180321318], [62.32045232176974, 45.769798170116154], [62.32317770462583, 45.77271683223811], [62.33061520568247, 45.770154894764204], [62.33663851852848, 45.77279577941343], [62.34489930302919, 45.76905736171902], [62.344720100225224, 45.76257541486917], [62.32934239286781, 45.75706997410418], [62.31919144980596, 45.75910960658077], [62.31525311351361, 45.76506409058485]]], [[[62.29427623236134, 45.796544950865275], [62.29546158558486, 45.79867306334051], [62.30067134822463, 45.79877895541945], [62.310499126801886, 45.79545836112168], [62.30989633054882, 45.78931225583836], [62.30385243054271, 45.78913374643378], [62.300671279529205, 45.79411037264984], [62.2945190900315, 45.792966599742186], [62.29427623236134, 45.796544950865275]]], [[[62.25175806970221, 45.81018230902789], [62.250823517700674, 45.81306135277255], [62.25390245405094, 45.81536050975445], [62.259897541751975, 45.81530907554405], [62.25796887980035, 45.80979553988852], [62.25175806970221, 45.81018230902789]]], [[[62.12282325809528, 45.836812234597225], [62.13044627839177, 45.84390717953131], [62.12562584980281, 45.86073791512198], [62.12954227144855, 45.861833097880925], [62.130710790277384, 45.8650000751083], [62.1442444204568, 45.86580895867723], [62.154754218591314, 45.86585672974634], [62.15886405119931, 45.86286194298001], [62.16638039307068, 45.861893967992096], [62.1729012035156, 45.85472493881909], [62.17992883609019, 45.85316602400062], [62.1736429137795, 45.84925727996356], [62.17505520453154, 45.845193816333726], [62.18990815154598, 45.84445735315251], [62.19329016881508, 45.839274853719424], [62.192200488794455, 45.834973326932285], [62.18524400517983, 45.83435205606731], [62.183381893539405, 45.83077202017418], [62.17487603733006, 45.83522322914671], [62.168190474103575, 45.832601593365126], [62.15688114840946, 45.83407481773121], [62.15215979478624, 45.829204742387624], [62.139697537175486, 45.829163611791834], [62.13462808463795, 45.830623575145346], [62.13306015164297, 45.83422626503591], [62.12463289881848, 45.83428680746503], [62.12282325809528, 45.836812234597225]], [[62.170520111439444, 45.840659699634806], [62.17196527222403, 45.83736127732575], [62.17583890358165, 45.83773723034135], [62.17503351273035, 45.8418557084018], [62.170520111439444, 45.840659699634806]]], [[[62.146936486164485, 45.87630194398335], [62.15306405782482, 45.87489000150582], [62.15322732601584, 45.87266372666366], [62.138608355051716, 45.87260587242683], [62.13880144168576, 45.87678562121974], [62.146936486164485, 45.87630194398335]]], [[[62.11111753103492, 45.73518586616643], [62.12118758465107, 45.73597173820036], [62.12373193013871, 45.73255880811116], [62.11324996291559, 45.73073361305553], [62.11111753103492, 45.73518586616643]]], [[[62.08453810276485, 45.76182818273769], [62.08712864780586, 45.765046706515555], [62.09972356637486, 45.77053476911458], [62.10287336941241, 45.76863610658682], [62.11164236620584, 45.768513495466465], [62.11677396418003, 45.761550133150365], [62.112801297927476, 45.754419761717706], [62.103865100230074, 45.75419957359982], [62.09535082890523, 45.75796958361408], [62.088329429927654, 45.7580843203906], [62.08453810276485, 45.76182818273769]]], [[[62.07296759528905, 45.82180654279723], [62.07666015122051, 45.828426119552745], [62.08173590741459, 45.82781232276989], [62.08001854729476, 45.81836482107585], [62.07296759528905, 45.82180654279723]]], [[[61.961349661496946, 45.78422130223315], [61.979831004133786, 45.78719873508685], [61.98355876460281, 45.78259057237598], [61.97535231099618, 45.78029904389252], [61.973820076132725, 45.776754470310856], [61.96861324629266, 45.77663369686633], [61.96129079719767, 45.78143709896046], [61.961349661496946, 45.78422130223315]]], [[[61.92574423162751, 45.62629165211206], [61.92288644977188, 45.62961339740931], [61.926375723038916, 45.63147187353863], [61.92670594722602, 45.63589178675548], [61.936410951530874, 45.63607298948833], [61.93596050186604, 45.62758054049851], [61.93212783779878, 45.62267510847878], [61.928035078493245, 45.621891619214104], [61.92574423162751, 45.62629165211206]]], [[[61.81711838606568, 45.76125713546634], [61.823740159908, 45.76063135609988], [61.824090043638876, 45.75611814337952], [61.81910998904433, 45.751723359453635], [61.814672622997975, 45.75157999937996], [61.813744080390165, 45.760848697862656], [61.81711838606568, 45.76125713546634]]]]}}, {"type": "Feature", "properties": {"threshold": 95}, "geometry": {"type": "MultiPolygon", "coordinates": [[[[62.31525311351361, 45.76506409058485], [62.3151439398929, 45.7691180321318], [62.32045232176974, 45.769798170116154], [62.32317770462583, 45.77271683223811], [62.33061520568247, 45.770154894764204], [62.33663851852848, 45.77279577941343], [62.34489930302919, 45.76905736171902], [62.344720100225224, 45.76257541486917], [62.32934239286781, 45.75706997410418], [62.31919144980596, 45.75910960658077], [62.31525311351361, 45.76506409058485]]], [[[62.29427623236134, 45.796544950865275], [62.295543970090705, 45.798700942200036], [62.30160728646257, 45.798784680192945], [62.310499126801886, 45.79545836112168], [62.30989633054882, 45.78931225583836], [62.30385243054271, 45.78913374643378], [62.300671279529205, 45.79411037264984], [62.2945190900315, 45.792966599742186], [62.29427623236134, 45.796544950865275]]], [[[62.25175806970221, 45.81018230902789], [62.250823517700674, 45.81306135277255], [62.25390245405094, 45.81536050975445], [62.259897541751975, 45.81530907554405], [62.25796887980035, 45.80979553988852], [62.25175806970221, 45.81018230902789]]], [[[62.12282325809528, 45.836812234597225], [62.13041802327165, 45.84582566524209], [62.12555695449936, 45.8543627249247], [62.11821252015055, 45.85548303577592], [62.118130359366475, 45.86068031047152], [62.12870206808704, 45.86134052507008], [62.130796719582925, 45.865022295372555], [62.1442444204568, 45.86580895867723], [62.154754218591314, 45.86585672974634], [62.15886405119931, 45.86286194298001], [62.16638039307068, 45.861893967992096], [62.1729012035156, 45.85472493881909], [62.17992883609019, 45.85316602400062], [62.17403976757358, 45.849339549569684], [62.17510742787136, 45.845148942892294], [62.18990815154598, 45.84445735315251], [62.19329016881508, 45.839274853719424], [62.192200488794455, 45.834973326932285], [62.18524400517983, 45.83435205606731], [62.183381893539405, 45.83077202017418], [62.17487603733006, 45.83522322914671], [62.168190474103575, 45.832601593365126], [62.15688114840946, 45.83407481773121], [62.15215979478624, 45.829204742387624], [62.139697537175486, 45.829163611791834], [62.13462808463795, 45.830623575145346], [62.13306015164297, 45.83422626503591], [62.12463289881848, 45.83428680746503], [62.12282325809528, 45.836812234597225]], [[62.170520111439444, 45.840659699634806], [62.17196527222403, 45.83736127732575], [62.17583890358165, 45.83773723034135], [62.17503351273035, 45.8418557084018], [62.170520111439444, 45.840659699634806]]], [[[62.146936486164485, 45.87630194398335], [62.15306405782482, 45.87489000150582], [62.15322732601584, 45.87266372666366], [62.138608355051716, 45.87260587242683], [62.13880144168576, 45.87678562121974], [62.146936486164485, 45.87630194398335]]], [[[62.11111753103492, 45.73518586616643], [62.12118758465107, 45.73597173820036], [62.12373193013871, 45.73255880811116], [62.11324996291559, 45.73073361305553], [62.11111753103492, 45.73518586616643]]], [[[62.08453810276485, 45.76182818273769], [62.08712864780586, 45.765046706515555], [62.09972356637486, 45.77053476911458], [62.10287336941241, 45.76863610658682], [62.11164236620584, 45.768513495466465], [62.11677396418003, 45.761550133150365], [62.112801297927476, 45.754419761717706], [62.103865100230074, 45.75419957359982], [62.09535082890523, 45.75796958361408], [62.088329429927654, 45.7580843203906], [62.08453810276485, 45.76182818273769]]], [[[62.06369063393496, 45.83170380922763], [62.06898416747799, 45.83377998053983], [62.072660540664884, 45.82890436879409], [62.07989306961946, 45.8297141722377], [62.08209466933294, 45.82281922896504], [62.07995142603665, 45.81832128923489], [62.06359182843148, 45.822207028508345], [62.06369063393496, 45.83170380922763]]], [[[61.962088175376394, 45.78042035959023], [61.962740295073644, 45.78572603679577], [61.979831004133786, 45.78719873508685], [61.98351807203514, 45.78409083315072], [61.98223398251222, 45.78144560954623], [61.97513670692824, 45.780167520909416], [61.973563712950536, 45.776687674343115], [61.968263856429104, 45.776704428481885], [61.962088175376394, 45.78042035959023]]], [[[61.92574423162751, 45.62629165211206], [61.92288644977188, 45.62961339740931], [61.926375723038916, 45.63147187353863], [61.92670594722602, 45.63589178675548], [61.936410951530874, 45.63607298948833], [61.93596050186604, 45.62758054049851], [61.93212783779878, 45.62267510847878], [61.928035078493245, 45.621891619214104], [61.92574423162751, 45.62629165211206]]], [[[61.81711838606568, 45.76125713546634], [61.823740159908, 45.76063135609988], [61.824090043638876, 45.75611814337952], [61.81910998904433, 45.751723359453635], [61.814672622997975, 45.75157999937996], [61.813744080390165, 45.760848697862656], [61.81711838606568, 45.76125713546634]]]]}}]}