{"type": "Feature", "geometry": {"type": "MultiPolygon", "coordinates": [[[[-44.869642002978196, -12.319055983616023], [-44.869962060959054, -12.314462779009872], [-44.8656862053543, -12.308920985147372], [-44.858913142131634, -12.308076433361435], [-44.85472648880745, -12.311505901542649], [-44.85486726762388, -12.316443167222227], [-44.8616250575552, -12.325470622435455], [-44.86749885625609, -12.325393721297232], [-44.869642002978196, -12.319055983616023]]], [[[-45.033942457145834, -12.12806711017717], [-45.03200823419618, -12.121749751034061], [-45.022018678320876, -12.121392083526679], [-45.01683888132736, -12.110709281170504], [-45.01038455190028, -12.107870278570665], [-44.996359643601316, -12.106684289427506], [-44.99015326124739, -12.115538273284374], [-44.989314077503806, -12.121811875396544], [-44.9840526232945, -12.12430594109892], [-44.97787761794787, -12.120520096366295], [-44.96600192260968, -12.11783005888057], [-44.952425765221804, -12.107473564792395], [-44.94725061068659, -12.10647755871388], [-44.943825334301934, -12.108856222757865], [-44.943300026217976, -12.114155218612213], [-44.93508018508285, -12.131560870654079], [-44.93231677884051, -12.132899461410043], [-44.925179933198216, -12.132604487278158], [-44.92262396872153, -12.136792458739588], [-44.925560678266905, -12.144289710458722], [-44.93638959013948, -12.150133140388812], [-44.950657286493126, -12.151654447983272], [-44.957811861021895, -12.148329873322872], [-44.96061768045055, -12.150567737788338], [-44.96076010515981, -12.156547154044334], [-44.96341251530289, -12.15973940515671], [-44.969862184336314, -12.160808832611458], [-44.97552003755385, -12.158954248663603], [-44.979412019630395, -12.160402888749402], [-44.98094926554479, -12.163008796635328], [-44.980739771630674, -12.170516347242877], [-44.97788543854128, -12.176632533967915], [-44.97812999114121, -12.179406785917836], [-44.98135491182151, -12.18215425552086], [-44.99021860800052, -12.184793555687476], [-44.991649514537706, -12.193259706510585], [-44.99467025837818, -12.197140468220883], [-44.99808381206091, -12.198482312947977], [-45.001551128905525, -12.196897134218409], [-45.00629927241207, -12.190246642327184], [-45.0093702705458, -12.190457466962453], [-45.015982407929286, -12.19460796460574], [-45.02058467374903, -12.191711009321068], [-45.0205719012922, -12.187028946837703], [-45.01454056980806, -12.182425523638575], [-45.010527869829275, -12.182499798589905], [-45.007211416143925, -12.186622915682085], [-45.0042940200823, -12.187407602277228], [-44.998218412326736, -12.18364991392343], [-44.99733126307196, -12.180021978121887], [-44.99946898400318, -12.177394928835001], [-45.00680395803155, -12.175843454319445], [-45.01090987050684, -12.17331341382578], [-45.01487878245827, -12.1676305865529], [-45.01458548957589, -12.161453406970542], [-45.016110933872085, -12.158750263839686], [-45.03096045863004, -12.153683915770623], [-45.031621505314725, -12.150960972934488], [-45.029543316029, -12.143866730215821], [-45.034588319575995, -12.13415710242632], [-45.033942457145834, -12.12806711017717]]], [[[-44.991683172799675, -12.36163728387151], [-44.99080046435372, -12.353101293594632], [-44.9848890283195, -12.346576342849826], [-44.96820883098408, -12.347767252422143], [-44.96285839562323, -12.35075686933998], [-44.957654112784695, -12.350334007729154], [-44.953841529805075, -12.356026927668818], [-44.95553353400392, -12.360083923596692], [-44.96641316770971, -12.365071323272527], [-44.97043174025509, -12.371975223412907], [-44.975871805988994, -12.373701432550401], [-44.99022635243551, -12.36660023228878], [-44.991683172799675, -12.36163728387151]]], [[[-44.98612419227739, -12.096625072304105], [-44.987505462400364, -12.093993341924602], [-44.98673884870745, -12.091019067358902], [-44.980202179814114, -12.085534868585176], [-44.97349985895782, -12.083950153499702], [-44.970067292566775, -12.073109409496666], [-44.96542665490182, -12.069718521315632], [-44.95912898749089, -12.070943367457748], [-44.95767052376226, -12.077313916519676], [-44.958523774469796, -12.080708882373646], [-44.96626929789785, -12.084083850299418], [-44.968201908996264, -12.086530638903142], [-44.96684025984486, -12.092797699729493], [-44.96957861048135, -12.098305491308734], [-44.97116937539338, -12.108581402061027], [-44.974332766189, -12.109727103485056], [-44.98096061015168, -12.107725235445672], [-44.98256457661116, -12.100503379412372], [-44.98612419227739, -12.096625072304105]]], [[[-45.00391549527559, -12.29235091087583], [-45.00609425404277, -12.286876883439138], [-45.001086244272614, -12.282677413009875], [-44.99743102852111, -12.282621584872652], [-44.99319871273773, -12.286960397555186], [-44.993340656790835, -12.290664406535933], [-44.99709508877543, -12.29422750349063], [-45.000720986737484, -12.29459996737101], [-45.00391549527559, -12.29235091087583]]], [[[-45.00753999976807, -12.32383554343822], [-45.00445267115552, -12.32187168487611], [-44.999294061289994, -12.3228736728419], [-44.997457828897716, -12.325317751882505], [-44.99751911970606, -12.330066539503473], [-45.0022866524309, -12.33301055619238], [-45.0066052527859, -12.332446470240711], [-45.00903670420656, -12.327662203994707], [-45.00753999976807, -12.32383554343822]]], [[[-45.034010388413044, -12.220858062877227], [-45.030959310487475, -12.216584012121949], [-45.01976032849529, -12.216548783897018], [-45.01679089246946, -12.218406518364468], [-45.01583425748821, -12.222736663089819], [-45.01838521915162, -12.227359596397712], [-45.022813094328534, -12.231039826240908], [-45.028910746035876, -12.231681095573505], [-45.03218485594903, -12.230656681485955], [-45.034303955592215, -12.227374403177805], [-45.034010388413044, -12.220858062877227]]], [[[-45.09887182135297, -12.120231581591234], [-45.09918628599126, -12.116447289952129], [-45.095546552161814, -12.112791294285332], [-45.092589275768326, -12.11224380608313], [-45.08559936656923, -12.114734971796148], [-45.081620487195195, -12.108648267883357], [-45.07817400008897, -12.107508873177096], [-45.0555172226014, -12.112478880549439], [-45.052190779659284, -12.116884167810175], [-45.04789645160415, -12.119120325247524], [-45.0470175506109, -12.123193090751593], [-45.04822420477075, -12.125838909488124], [-45.050985664078475, -12.127020984926837], [-45.05367698010987, -12.126240001035521], [-45.05859039355873, -12.120996837384315], [-45.061642468294, -12.121160185611846], [-45.06554773053969, -12.124112860760443], [-45.06994779477608, -12.124292905035295], [-45.07501801453682, -12.117905677777408], [-45.08177556248851, -12.117070731035014], [-45.08444489880899, -12.118409336947636], [-45.08828854169261, -12.124332226172758], [-45.09108341673632, -12.125379593587558], [-45.09887182135297, -12.120231581591234]]], [[[-45.05344519454128, -12.065435395365053], [-45.054682784087326, -12.06934397060465], [-45.06004311584233, -12.07139541330695], [-45.06294836623406, -12.069929033703358], [-45.065250593455104, -12.064860499291257], [-45.06363567590765, -12.061784206459368], [-45.058673871945246, -12.060008436934341], [-45.05597029274885, -12.061281557250178], [-45.05344519454128, -12.065435395365053]]]]}, "properties": {}}