{"type": "Feature", "geometry": {"type": "MultiPolygon", "coordinates": [[[[-89.40538800363186, 21.118912115028493], [-89.39917860855992, 21.12524840806584], [-89.39226862436541, 21.12337948476781], [-89.39052938915984, 21.117957060523135], [-89.38459050133861, 21.111032060845034], [-89.3872551690206, 21.10138151294771], [-89.39409434540882, 21.097245882852704], [-89.39903098042011, 21.097428123683116], [-89.40974832195128, 21.10396593206925], [-89.41321203690802, 21.109261127300766], [-89.41309426591869, 21.11446637942212], [-89.41117898920078, 21.116818781957242], [-89.40538800363186, 21.118912115028493]]], [[[-89.42932730311007, 21.055405022464132], [-89.43186225689315, 21.0580920371275], [-89.43163429883572, 21.06354598941677], [-89.42610362509406, 21.069663738754645], [-89.42157452058919, 21.071482027987074], [-89.41583554666181, 21.071230063075856], [-89.40784754191112, 21.06573048627671], [-89.40825168392334, 21.058719358521284], [-89.41848650550281, 21.049786165794934], [-89.42443052992344, 21.049887888625236], [-89.42932730311007, 21.055405022464132]]], [[[-89.40421214398253, 21.072983838365854], [-89.40561594027086, 21.07623749985858], [-89.40423850823844, 21.08614952628361], [-89.39795848366893, 21.088300211694744], [-89.39306457928375, 21.086481275283806], [-89.38950627412815, 21.081209315257162], [-89.39044457675887, 21.073510093692263], [-89.39566996534717, 21.070143681513777], [-89.40421214398253, 21.072983838365854]]], [[[-89.42330025844639, 20.99961593077627], [-89.4269095141276, 21.000989526255744], [-89.4322902077471, 21.01013425087552], [-89.43127458098381, 21.01331962287], [-89.4254140059796, 21.017470640844433], [-89.41590353750516, 21.015636874516087], [-89.41337707070774, 21.012445954265047], [-89.41516412136377, 21.00422728491521], [-89.42330025844639, 20.99961593077627]]], [[[-89.44843301611867, 20.969312331018802], [-89.45194615704084, 20.973773093670296], [-89.45127966354939, 20.982708417194782], [-89.44342283188384, 20.9894371785495], [-89.43505214598488, 20.9873993991681], [-89.431904857518, 20.98142072746773], [-89.43294502382061, 20.971631998652974], [-89.43783865326925, 20.96708813653321], [-89.4453124395511, 20.966618538844], [-89.44843301611867, 20.969312331018802]]], [[[-89.46191105430776, 21.103577739679277], [-89.46259114030494, 21.10958608336889], [-89.45744887963835, 21.11556553350884], [-89.44849870882032, 21.117514439482346], [-89.44421393553006, 21.1131393390819], [-89.44463158903605, 21.10259493972283], [-89.44670544338935, 21.09968848635321], [-89.45586205252229, 21.09825800165502], [-89.46191105430776, 21.103577739679277]]], [[[-89.48889999921289, 21.159293484615432], [-89.4850110007933, 21.163314825041535], [-89.47704503567144, 21.162134977860518], [-89.47261093823474, 21.15587259589215], [-89.4738205957176, 21.1440230247676], [-89.47694674813452, 21.142951413813442], [-89.48886906985312, 21.144949201751892], [-89.49051436007849, 21.15180588018894], [-89.48889999921289, 21.159293484615432]]], [[[-89.50930526043163, 21.06245068167017], [-89.50644076673522, 21.062766243276556], [-89.4999919636591, 21.060022975699205], [-89.49190877494478, 21.06163418370907], [-89.48615642487029, 21.065182282823393], [-89.48264376454358, 21.063579437078648], [-89.4813970937081, 21.06039523465514], [-89.48440564792648, 21.05456182861905], [-89.48815290439516, 21.051366312196095], [-89.49025568654977, 21.042929624818893], [-89.49782453130149, 21.04164458630882], [-89.50479889287193, 21.04654188770646], [-89.50700858358097, 21.051102647583612], [-89.51159782371916, 21.05424533518779], [-89.51158573308287, 21.05977924725057], [-89.50930526043163, 21.06245068167017]]], [[[-89.62232560391587, 21.297445950176655], [-89.57277489774899, 21.305630847069295], [-89.55411701566976, 21.311365551688777], [-89.50557289640862, 21.319283488225498], [-89.50215354186757, 21.318899569539198], [-89.50019522022689, 21.31598083287406], [-89.50032563462238, 21.312248287770952], [-89.50253374070486, 21.310138780489435], [-89.5256518535911, 21.306044255637794], [-89.54007312869825, 21.300162385928502], [-89.56379497153827, 21.294214588896264], [-89.5935757750696, 21.290525322101356], [-89.60785470837034, 21.285587226672064], [-89.62523676381859, 21.283522499034113], [-89.62803378555371, 21.285618560636678], [-89.63020290488633, 21.293514177529865], [-89.62808991692954, 21.296222232715046], [-89.62232560391587, 21.297445950176655]]], [[[-89.53532590418894, 21.181278305060616], [-89.53478639034454, 21.18608541699752], [-89.54465510800836, 21.199538832742455], [-89.54477450442641, 21.20313928555202], [-89.52154263773417, 21.21948968081465], [-89.51771850709123, 21.219750322867487], [-89.50965665964227, 21.205524922507323], [-89.50792701837197, 21.173987464699962], [-89.5113598324984, 21.157769026567873], [-89.51998496254801, 21.15638978187572], [-89.53390893008932, 21.16182827413669], [-89.53536195538221, 21.164935369291626], [-89.53426175421438, 21.169078529362423], [-89.53532590418894, 21.181278305060616]]], [[[-89.57821394070457, 21.250618937678453], [-89.57751591982125, 21.256899106958734], [-89.57051003775655, 21.25916961416997], [-89.55685999611323, 21.249934090186056], [-89.5436003079929, 21.250936484377586], [-89.53958423904926, 21.241948319582587], [-89.54171961821007, 21.239262993406623], [-89.55964801465718, 21.233023343429167], [-89.56917264292535, 21.233799962258544], [-89.57169187170287, 21.235680549998474], [-89.57274995611536, 21.24248310839267], [-89.57821394070457, 21.250618937678453]]], [[[-89.58717417154467, 20.86539272925643], [-89.58605411544889, 20.871207243419327], [-89.58130633268084, 20.87460771260011], [-89.57221344810725, 20.872697151827147], [-89.56980137471443, 20.86992925661622], [-89.57121711311854, 20.8614421673263], [-89.57763450622346, 20.857137940289977], [-89.58334159984294, 20.858159999487857], [-89.58717417154467, 20.86539272925643]]], [[[-89.59645264923235, 21.0142757330173], [-89.59496559217045, 21.025403829480265], [-89.59144141653366, 21.029757225116448], [-89.58728349243525, 21.030132369833556], [-89.58204288489299, 21.026769612162727], [-89.57581922808605, 21.028254247341444], [-89.57212563677145, 21.025031717086367], [-89.57388963023698, 21.01752253718961], [-89.57035813930041, 21.010289283288902], [-89.57703631806483, 21.003961628882063], [-89.58976537760603, 21.003043357821692], [-89.59665496345917, 21.00921099133903], [-89.59645264923235, 21.0142757330173]]], [[[-89.61920427075798, 21.052649093461064], [-89.6195069842621, 21.056833443963647], [-89.61502477379257, 21.064120303973112], [-89.61251760537276, 21.065475411692237], [-89.6093201546025, 21.064723967140146], [-89.60447933556686, 21.05977887465043], [-89.59843527920282, 21.063737960742582], [-89.59473111442617, 21.063893010274654], [-89.585686894289, 21.059693869491205], [-89.58371538738771, 21.056012123640695], [-89.5849567823887, 21.052597986667536], [-89.59126939934184, 21.049111996662788], [-89.59465816848109, 21.04183872365476], [-89.59757234404829, 21.040111942954137], [-89.60502818495566, 21.043175349788495], [-89.61103739266733, 21.040096675155947], [-89.61512712646744, 21.04085775720676], [-89.61920427075798, 21.052649093461064]]], [[[-89.80279255783766, 20.903563882143107], [-89.8008296336554, 20.909648499881225], [-89.79699408200703, 20.911151862455164], [-89.79174236773648, 20.907896771496798], [-89.78677188662817, 20.907585285240827], [-89.78320789665761, 20.905502179044117], [-89.78137970575295, 20.899685226618935], [-89.79076165545726, 20.891617351732215], [-89.79841032712474, 20.89135602725625], [-89.80149466191419, 20.89393905689056], [-89.80279255783766, 20.903563882143107]]], [[[-89.77339976270348, 20.900246583445625], [-89.77172648180542, 20.906114855848866], [-89.76698250969729, 20.907983819471724], [-89.76087078926753, 20.903618606303343], [-89.75588936001103, 20.902634279990615], [-89.75196120161392, 20.898560018762602], [-89.73872541399845, 20.899316093868592], [-89.73251772025057, 20.90152878064151], [-89.72974495539687, 20.905293153718226], [-89.71854463285402, 20.913206979919035], [-89.71706191418642, 20.917786386479566], [-89.71746999999327, 20.92413565312585], [-89.71422564670078, 20.93316052001528], [-89.71949834864714, 20.938536024251125], [-89.72135989781601, 20.947317550294894], [-89.71779367453215, 20.95107982328161], [-89.71071972490608, 20.950812424279118], [-89.70249751071377, 20.955906934871184], [-89.70073690067069, 20.965446388814875], [-89.69359238695765, 20.96948247826331], [-89.69137651076448, 20.97779075133444], [-89.68517923680798, 20.982266838085053], [-89.68358093237899, 20.98628066145506], [-89.68566768028894, 20.99025680678691], [-89.69082554811226, 20.992729433127792], [-89.69407835821269, 20.991197281485928], [-89.69849453010345, 20.98330922890454], [-89.70244036033846, 20.98246599123008], [-89.70744459592201, 20.989168824933593], [-89.71319026312693, 20.99069162619047], [-89.71659411159881, 20.994161205120776], [-89.73003275330554, 20.996155934730282], [-89.73161991703981, 20.998756037739195], [-89.73103263266091, 21.003003536702778], [-89.72613668163895, 21.007430689418275], [-89.71690327472481, 21.00549559021683], [-89.71081928506854, 21.010212560120507], [-89.70335159144231, 21.00885042063889], [-89.69682579790584, 21.009709257117876], [-89.68804036153672, 21.01527034852146], [-89.68488956107686, 21.013937297394992], [-89.68163321930919, 21.007967103453314], [-89.67318824444031, 21.006818725527012], [-89.66816406988917, 21.000249359875035], [-89.66069827889383, 21.001987662815658], [-89.65697493421028, 21.00673615432869], [-89.65397245684359, 21.007564702425544], [-89.64586306800516, 21.006002715198456], [-89.64365356728779, 21.00050125832017], [-89.64038307049881, 20.997324366113137], [-89.64184833682967, 20.990391961739995], [-89.64074111051458, 20.982455659043826], [-89.6436668116639, 20.976063268127522], [-89.64741474420133, 20.97531099344359], [-89.66463781074648, 20.984655213709633], [-89.6704793208495, 20.98485235671449], [-89.67333531011013, 20.982331364459856], [-89.67698963599, 20.968297833732386], [-89.67531772767163, 20.962970938609335], [-89.66994705109671, 20.95891140241027], [-89.668912354386, 20.953580084519498], [-89.6670364007211, 20.951631091310194], [-89.65861447293261, 20.951200494262398], [-89.65140056255062, 20.954628339882806], [-89.63594873637317, 20.948461209378987], [-89.63614202671667, 20.943408583238714], [-89.64284378094463, 20.937327897670198], [-89.63972636867993, 20.93119007810568], [-89.6408756633693, 20.923483115702812], [-89.63971803583799, 20.92059438682132], [-89.63432063893599, 20.91804021571033], [-89.62139603895089, 20.920920259277228], [-89.61496213871679, 20.92013848898371], [-89.60490573972521, 20.92593434638461], [-89.60127434188352, 20.922962114373117], [-89.59783166165195, 20.916985399254315], [-89.58789709839154, 20.915141668320263], [-89.58626407331779, 20.90902033229044], [-89.58939178412086, 20.90305907971071], [-89.59434976176402, 20.878650010747847], [-89.60151080499712, 20.87785751229674], [-89.60579731098792, 20.881705193659162], [-89.60925695757466, 20.881920930547242], [-89.61691035420421, 20.87697361202868], [-89.62063198229532, 20.870941494868593], [-89.64033912639225, 20.867937505131636], [-89.64216584013984, 20.865502944755303], [-89.64158283371617, 20.8607700447004], [-89.64294026524009, 20.857159339439896], [-89.65531223372838, 20.852959218304726], [-89.66167234939142, 20.853765502732543], [-89.66495111581855, 20.85657603888598], [-89.66299524955072, 20.864804932664107], [-89.66655969938017, 20.87420153492937], [-89.67662243372106, 20.875870679742135], [-89.68329496602337, 20.873814302882202], [-89.69036199539806, 20.87748913000275], [-89.69151090036858, 20.88221093212819], [-89.69046475178381, 20.886001812415007], [-89.6839950921611, 20.8890676944048], [-89.68117553453622, 20.894429725489573], [-89.68159730329552, 20.89716144113609], [-89.68506224895935, 20.900855255267334], [-89.6880951956766, 20.900809775594666], [-89.69370162224055, 20.897143388415806], [-89.6979505258972, 20.898032668005243], [-89.70520620862534, 20.904394486321827], [-89.71439423698627, 20.90199866910133], [-89.72502672183799, 20.891283174034246], [-89.7264536650502, 20.886725963544567], [-89.72969615711763, 20.883555572630442], [-89.73082298130713, 20.87073618261791], [-89.73770093189567, 20.86528872945588], [-89.74827225148584, 20.86355362825533], [-89.75534568349156, 20.86577334161671], [-89.75990876383943, 20.872287398531704], [-89.76524067208689, 20.873798741028036], [-89.77082883888158, 20.878945675962683], [-89.77064706272034, 20.89358071460449], [-89.77339976270348, 20.900246583445625]]], [[[-89.61784377309783, 21.189053956540327], [-89.6136657302401, 21.210093122418346], [-89.61060049092553, 21.211732161267], [-89.60273401487207, 21.2104959186559], [-89.60111135390083, 21.207916935105544], [-89.60213532065573, 21.200027993662204], [-89.60013152002449, 21.195105748634326], [-89.60456571041831, 21.176274208601154], [-89.60924669930476, 21.17509145152948], [-89.61833544281201, 21.17843121108804], [-89.61953295555605, 21.181565129310954], [-89.61784377309783, 21.189053956540327]]], [[[-89.65493338404254, 21.071972875760224], [-89.65199266130801, 21.073849139073168], [-89.64410083097016, 21.073269892623234], [-89.63909954462808, 21.078965031310194], [-89.6346312857761, 21.079430113403934], [-89.63279132011982, 21.077727564530804], [-89.63146693771384, 21.07213708331839], [-89.63411982215489, 21.05941056538675], [-89.62640068053658, 21.048400911767096], [-89.62413451817757, 21.03687086729427], [-89.61951649169437, 21.032655344873294], [-89.61891377145083, 21.028595588254785], [-89.62053680287279, 21.025970675253415], [-89.62827615522653, 21.02389118378062], [-89.63553609304482, 21.02656921120174], [-89.642539981342, 21.025552976447937], [-89.6503928977419, 21.028029603969777], [-89.65013824206457, 21.033885216958947], [-89.64261436285834, 21.03622558615684], [-89.6410347529766, 21.041029554689743], [-89.6444480727977, 21.04606523013167], [-89.64510689951989, 21.05207100643237], [-89.64808401732411, 21.055813623629962], [-89.64743080754084, 21.06332220534773], [-89.65465044615809, 21.06712643294388], [-89.65493338404254, 21.071972875760224]]], [[[-89.63229199706319, 21.086038757132947], [-89.63486648157904, 21.090296967198515], [-89.63152953315806, 21.099480821413238], [-89.62279148802222, 21.10154155635558], [-89.61469583449622, 21.105593391656512], [-89.60885509245807, 21.103493287644017], [-89.60806240582444, 21.099961410350296], [-89.61034124674975, 21.09157654447186], [-89.61677644197971, 21.085865486254757], [-89.62195126741398, 21.08368063706875], [-89.63229199706319, 21.086038757132947]]], [[[-89.64093923841256, 21.22449699916796], [-89.63795837199606, 21.231251170976098], [-89.63267025466423, 21.23254515343521], [-89.62998102384952, 21.231650556464004], [-89.62516416215142, 21.215940661992665], [-89.62598395484419, 21.21250013612777], [-89.62891117922577, 21.21105553852238], [-89.63869061670475, 21.21175495961871], [-89.64024417841466, 21.21429535899707], [-89.64093923841256, 21.22449699916796]]], [[[-89.68392108560744, 21.196867057143233], [-89.67990193526222, 21.199123274351084], [-89.67262084423113, 21.197920499303518], [-89.6696385180525, 21.199529518278084], [-89.66913540195375, 21.20375556568789], [-89.67173715749959, 21.208775880868238], [-89.66980256907023, 21.21675024392264], [-89.66242836838993, 21.219018244805387], [-89.65586567117694, 21.21845151692258], [-89.65302363462045, 21.21597788800606], [-89.65140845075703, 21.206796077604906], [-89.64686103035902, 21.20402762266051], [-89.64233266495164, 21.19754375323715], [-89.6392419957183, 21.186068555900693], [-89.64593554439568, 21.18080398208263], [-89.65289577122763, 21.181195135437726], [-89.66275966595181, 21.184785206065126], [-89.68212316340403, 21.185054053000073], [-89.6851557690836, 21.188350303521933], [-89.68392108560744, 21.196867057143233]]], [[[-89.83118497424054, 21.252813099086293], [-89.82775974626755, 21.256836453177506], [-89.80261667316078, 21.261290862071217], [-89.76996633953523, 21.270040352904637], [-89.70840972376638, 21.282927675079588], [-89.70448530162884, 21.284969259855846], [-89.70137658056373, 21.284299717288494], [-89.69818521825877, 21.280296878889548], [-89.69518977146983, 21.27984029390949], [-89.68636748517413, 21.284608439897518], [-89.67036955679423, 21.286504705467998], [-89.66498868754067, 21.291198264500856], [-89.65629446978112, 21.288544342019854], [-89.6504650876261, 21.278389701822054], [-89.65166639067105, 21.274144116611645], [-89.65690287067196, 21.272439306384488], [-89.66360610637294, 21.274249958687065], [-89.69296655784832, 21.27387718223178], [-89.69534996961306, 21.27197724879058], [-89.69711501710282, 21.2665767080383], [-89.70808544797607, 21.260082491562603], [-89.71827500695254, 21.26601517211399], [-89.72609672000235, 21.265676564751008], [-89.74869793699787, 21.25943039594658], [-89.82833201948404, 21.2445306128421], [-89.83235530404177, 21.247356588224605], [-89.83118497424054, 21.252813099086293]]], [[[-89.70344634645996, 21.12843249404169], [-89.70538463518913, 21.132098665684303], [-89.7026405369513, 21.139926606245893], [-89.69379470103448, 21.14006461470136], [-89.68854250210178, 21.14405162422629], [-89.6797563954535, 21.143613530952564], [-89.67747216354783, 21.141319907861888], [-89.67638447720991, 21.133922011457912], [-89.670022004416, 21.12976899121828], [-89.6683692409196, 21.115994063468158], [-89.67071516717058, 21.11350838862442], [-89.67584853835342, 21.113076292551607], [-89.68923241274825, 21.11526039240524], [-89.6971937027174, 21.120257002819855], [-89.69916566047355, 21.12523902048376], [-89.70344634645996, 21.12843249404169]]], [[[-89.73274544874234, 21.117634442788074], [-89.73928427679489, 21.122459856312894], [-89.73587169932573, 21.131559899869206], [-89.7329871767572, 21.133400646854046], [-89.72345043699976, 21.13278153106637], [-89.71892507202685, 21.124154379769557], [-89.71953973586969, 21.120343810811992], [-89.725394674307, 21.116397087895045], [-89.73274544874234, 21.117634442788074]]], [[[-89.81584193628876, 21.180287985697813], [-89.81322775128673, 21.18262549418931], [-89.80153963630683, 21.184868382971224], [-89.79689318685242, 21.191220854987197], [-89.77753811915845, 21.194249725562624], [-89.77165518438196, 21.192342718701497], [-89.76696392363935, 21.195634019274568], [-89.75993213575055, 21.196610081141912], [-89.75623913299354, 21.193854151399105], [-89.75691376372083, 21.184396615437983], [-89.75441333036888, 21.17918402523804], [-89.75563201600754, 21.170005811018353], [-89.75722234993385, 21.167761718357852], [-89.78367635347156, 21.169244957863857], [-89.7945364563191, 21.152922570796935], [-89.79764205654827, 21.15135179429985], [-89.80141315255676, 21.152739527911947], [-89.80402120786074, 21.157922807457425], [-89.80933743531396, 21.160950032734206], [-89.81621590860524, 21.17680793480765], [-89.81584193628876, 21.180287985697813]]], [[[-89.80759470600553, 21.005936800177313], [-89.80743246440022, 21.010047377848224], [-89.80538561561313, 21.01232705062339], [-89.79396635219052, 21.011844506281488], [-89.79122258966355, 21.004509507696092], [-89.78656456526664, 21.00009744993159], [-89.78776527713552, 20.98863778202633], [-89.79396892870776, 20.98434739722604], [-89.79943096371184, 20.98513191737728], [-89.80087373489297, 20.98777276351988], [-89.80078750130984, 20.997245425454953], [-89.80670913163834, 21.001344961938603], [-89.80759470600553, 21.005936800177313]]], [[[-89.86543480286126, 20.967099238494182], [-89.86475493901732, 20.970901520712534], [-89.86162200752058, 20.973849110796433], [-89.85841196728848, 20.973924838312247], [-89.8539584542491, 20.971084532619802], [-89.84790441549531, 20.971895901280053], [-89.8466586557854, 20.974734671615696], [-89.8476252210101, 20.981811944756267], [-89.84532762471652, 20.984751687827657], [-89.82960217662217, 20.987434981397776], [-89.82586562026735, 20.98507834979679], [-89.82510702885389, 20.97913225919759], [-89.8295074255522, 20.971291287361197], [-89.8421372165211, 20.967849606923615], [-89.846291557172, 20.96024807410158], [-89.85419228991404, 20.957789267910766], [-89.86127301420836, 20.957868320339617], [-89.8656839803375, 20.96295752459868], [-89.86543480286126, 20.967099238494182]]], [[[-89.85474630900771, 21.14001978433915], [-89.85227817106758, 21.137105387915994], [-89.8444990803045, 21.136891857990648], [-89.84189320651001, 21.135017887721425], [-89.8415108653942, 21.128276525935622], [-89.83830146166532, 21.123165242699322], [-89.83829665424503, 21.116593704890313], [-89.84037229805689, 21.113897025420783], [-89.87297323435858, 21.118330789099925], [-89.88884589889832, 21.121343809920454], [-89.89149095502019, 21.123542604373874], [-89.8883283876883, 21.143230577166875], [-89.88611167418486, 21.14597505508085], [-89.87431362449142, 21.145000680008337], [-89.87033101078228, 21.151336470758633], [-89.86679003393411, 21.152399284485067], [-89.85474630900771, 21.14001978433915]]], [[[-89.90247861688265, 21.01465017909165], [-89.901005191867, 21.02213535289172], [-89.90201693638814, 21.028726300289627], [-89.90020208085753, 21.03310146133079], [-89.89548978289655, 21.03869777946311], [-89.88609894146666, 21.03941696856058], [-89.87889164033997, 21.04619688894075], [-89.87041235082388, 21.04431156870097], [-89.86739090446278, 21.040275376341004], [-89.85628836339113, 21.035239054656724], [-89.84813657701702, 21.028015678467078], [-89.84961531789696, 21.02194133402163], [-89.85505394979822, 21.01741660317969], [-89.85574222168594, 21.008033804224908], [-89.85458689638413, 21.003875760236955], [-89.85648488341982, 20.99858837918327], [-89.86114005013563, 20.996652249180624], [-89.872609467255, 20.99569229969932], [-89.8778981368607, 20.990270391038027], [-89.88266024411715, 20.989576018936493], [-89.89000931112912, 20.991757570207586], [-89.89402942235192, 20.995270828699564], [-89.89893397297791, 20.996846915633665], [-89.90009552456245, 21.003894974516776], [-89.90346690787372, 21.0084573055212], [-89.90247861688265, 21.01465017909165]]]]}, "properties": {}}