{"type": "Feature", "geometry": {"type": "MultiPolygon", "coordinates": [[[[-54.50029024876362, -20.472659529730763], [-54.49073526962669, -20.465949739671892], [-54.479036339170285, -20.466488857483316], [-54.47498922592956, -20.470281637577312], [-54.48259011899549, -20.482122396524286], [-54.48545093781198, -20.483730062989743], [-54.499652776364115, -20.478519245747673], [-54.5012469858788, -20.47582526912245], [-54.50029024876362, -20.472659529730763]]], [[[-54.53343382534158, -20.4648273410076], [-54.52722372512238, -20.45915983115966], [-54.51986217386255, -20.46149323070145], [-54.512669264956855, -20.4594698658593], [-54.50939300943173, -20.4614095549561], [-54.508110561772014, -20.4671628090591], [-54.51222852521628, -20.47204599043032], [-54.51699938413669, -20.472021846969994], [-54.522574184989466, -20.469664966796806], [-54.52761538705633, -20.47437011767245], [-54.53347887817614, -20.47491824172122], [-54.53645384357539, -20.473097049948784], [-54.53718115289781, -20.468757429349903], [-54.53609918987096, -20.46608030490974], [-54.53343382534158, -20.4648273410076]]], [[[-54.68201949924349, -20.449911517982265], [-54.682080548312356, -20.4413008360488], [-54.675521819813326, -20.43667680783519], [-54.6702226439799, -20.438351740847587], [-54.66175447506175, -20.43717690971324], [-54.65922154344375, -20.439493442864542], [-54.65802223695766, -20.445930202787327], [-54.65239945410814, -20.44703302426238], [-54.650069264527446, -20.444054305568418], [-54.65111665652967, -20.437737251106917], [-54.65010722282072, -20.435058233197385], [-54.63813317910442, -20.43353647368332], [-54.635037887920554, -20.42823531365281], [-54.62902113858235, -20.42590780447498], [-54.625461437847555, -20.417794453602887], [-54.620839923225795, -20.41779659089726], [-54.61700575332678, -20.42139849649495], [-54.614012326787474, -20.4217968120038], [-54.607958493771086, -20.413474668142317], [-54.60436402737704, -20.412944771770565], [-54.597314805087485, -20.41549414570731], [-54.59001152406691, -20.41174795338778], [-54.58750090392095, -20.405758027835482], [-54.58475613941852, -20.403733552282947], [-54.57615011138118, -20.406602308149317], [-54.56801086017856, -20.400777737028857], [-54.560303151856814, -20.402166286745025], [-54.55773190245946, -20.398899390678036], [-54.55919071508458, -20.391224878700374], [-54.55257986841472, -20.386863777568454], [-54.5498553886877, -20.387752753830473], [-54.54772400449476, -20.390784839328575], [-54.550019773548506, -20.398451644393496], [-54.5429091707737, -20.41059327886368], [-54.543739326442996, -20.41820705142056], [-54.5334065899901, -20.426820500298504], [-54.53082681895313, -20.437756393932567], [-54.52641092900768, -20.443362186204386], [-54.52769863769452, -20.44661809034128], [-54.53087203611853, -20.447841931655223], [-54.53566298431277, -20.445961049440236], [-54.54335722077296, -20.446549757537078], [-54.54895418293049, -20.439778312456628], [-54.55532911878881, -20.441603299373824], [-54.56171948221713, -20.441150021601715], [-54.562978772967625, -20.43545462551283], [-54.561363564637446, -20.430773338466214], [-54.55077266974075, -20.431916791646916], [-54.55074225800184, -20.43655560039223], [-54.54822542711609, -20.43884263516514], [-54.54344209123563, -20.437088390207133], [-54.54329165048935, -20.432301746163656], [-54.54795769499469, -20.429925147324884], [-54.548473682469066, -20.422665822332643], [-54.55706488606429, -20.419369844833113], [-54.55961397447169, -20.421086116370223], [-54.56302565973395, -20.427587452106767], [-54.570651794033296, -20.426075853241752], [-54.57066737798915, -20.42142507885564], [-54.574876688526004, -20.4185136959323], [-54.57789378712232, -20.41369714030038], [-54.580825677577785, -20.412506705746438], [-54.58377053137465, -20.41363397977748], [-54.5851206908101, -20.416408605607668], [-54.58479725572586, -20.42391800898437], [-54.58221192078764, -20.426176131406127], [-54.572754418945685, -20.427725731206024], [-54.5729696031558, -20.440846775052364], [-54.5709625686233, -20.44347642788346], [-54.565032671833244, -20.44509537583099], [-54.5611319835233, -20.46040110423739], [-54.55816283848137, -20.462065202271997], [-54.55242073069159, -20.460714746666643], [-54.549101938255006, -20.462775538612796], [-54.54962331784265, -20.47416900039471], [-54.54370511424746, -20.47918008021873], [-54.541986762130676, -20.487507408496317], [-54.546992290342544, -20.49305960492427], [-54.548423041341586, -20.499607086619157], [-54.55172294942796, -20.501319932279053], [-54.56121223421523, -20.495353072720683], [-54.56454077944509, -20.49076956740687], [-54.578047370563084, -20.487721200246217], [-54.58122362861246, -20.49092304111104], [-54.57999283261419, -20.497590658782237], [-54.58474986237674, -20.503012476852273], [-54.583874323083606, -20.508945589307], [-54.585158338155466, -20.51173967777971], [-54.5907112944035, -20.51295575055517], [-54.59766252967674, -20.50867188644808], [-54.60175868320573, -20.5088417264875], [-54.60787527076136, -20.516063395402526], [-54.616653424967936, -20.517652270983465], [-54.618927332591966, -20.524398114551566], [-54.62575681498742, -20.528211657102386], [-54.627989337469735, -20.53423572069218], [-54.63181513686033, -20.536087110714785], [-54.63799378926051, -20.534564043484462], [-54.640221830326695, -20.53131801017817], [-54.63731458623071, -20.524272693355993], [-54.63832749652939, -20.51299423130238], [-54.63620427605155, -20.50986158965659], [-54.62875462521557, -20.507968799939995], [-54.6269141618708, -20.499864474003818], [-54.628534800970144, -20.497191210619786], [-54.63958869838801, -20.49004078684028], [-54.631748362309935, -20.479479384208197], [-54.62760228924384, -20.471500567143288], [-54.62781813315985, -20.468074372138428], [-54.63471077954533, -20.461428352720024], [-54.64180627694326, -20.4610097177938], [-54.649068643632845, -20.454523614082255], [-54.65551059342149, -20.457027831784828], [-54.66206249399075, -20.455796041461475], [-54.66714870859292, -20.4592545366668], [-54.67256123136731, -20.457576249961672], [-54.68014812586431, -20.457687899746876], [-54.68285834025722, -20.454673322129334], [-54.68201949924349, -20.449911517982265]], [[-54.61569056393077, -20.45157294447084], [-54.617986427676264, -20.460308861572557], [-54.6158851796979, -20.463953043267182], [-54.610266273214556, -20.464414094487292], [-54.600728108853524, -20.459328708801465], [-54.6024223306837, -20.45043433771957], [-54.60113602086787, -20.44527571154857], [-54.60331122674643, -20.44224729485368], [-54.61422407050233, -20.4423113379669], [-54.6163282664192, -20.445700140954035], [-54.61569056393077, -20.45157294447084]], [[-54.63992662231165, -20.442791553050238], [-54.63965398117842, -20.446957004048965], [-54.63583705044887, -20.449158342685994], [-54.63054842386596, -20.44634327139318], [-54.62914672989285, -20.442233312401758], [-54.63267906097787, -20.43734907710705], [-54.63550708544002, -20.436257109224204], [-54.638774464679365, -20.438067526209355], [-54.63992662231165, -20.442791553050238]]], [[[-54.64324489393205, -20.49030549599654], [-54.64687009259156, -20.494918743805407], [-54.651903503421615, -20.495052920837935], [-54.65942527981381, -20.489638586247292], [-54.661685130679, -20.48605027774876], [-54.66624796096898, -20.483823353484873], [-54.66673910537053, -20.478524789472594], [-54.663623579400095, -20.4763148932512], [-54.65674029326428, -20.477234240963192], [-54.65156805612034, -20.48554256492005], [-54.64659561363058, -20.48717145714455], [-54.64324489393205, -20.49030549599654]]], [[[-54.57852708160977, -20.56447539542547], [-54.57481748685583, -20.558067029794632], [-54.57244515920538, -20.556672247188864], [-54.566349231533074, -20.558931442834435], [-54.56448840135418, -20.56165506003639], [-54.568055072668216, -20.56921018420856], [-54.57066134485151, -20.571018505049988], [-54.57666499377437, -20.56985479589252], [-54.57852708160977, -20.56447539542547]]], [[[-54.584031883893005, -20.38772530365303], [-54.58196535404942, -20.384748341686013], [-54.57502575894947, -20.38252236156721], [-54.571550926194874, -20.385005951574154], [-54.57010432426367, -20.389608179372722], [-54.57208171011483, -20.39251036055569], [-54.580220535998166, -20.39500433676942], [-54.583225423290315, -20.392864906819383], [-54.584031883893005, -20.38772530365303]]], [[[-54.60028230937983, -20.544021942593755], [-54.59842273636252, -20.539284322974723], [-54.59002982196004, -20.536818935355484], [-54.58891429848651, -20.53136520450962], [-54.582571947857836, -20.519792478631462], [-54.57877264651566, -20.519196781079973], [-54.57333620633246, -20.523408909327387], [-54.5732313435524, -20.528164884384555], [-54.5846862533713, -20.538515925831334], [-54.58436054336413, -20.544704030969374], [-54.58602086535302, -20.547480376175773], [-54.59692543336307, -20.549753094996582], [-54.59957210141749, -20.5478559424517], [-54.60028230937983, -20.544021942593755]]], [[[-54.648258923786884, -20.568348687274316], [-54.64534710458296, -20.566667545948054], [-54.63546694520245, -20.565693489589854], [-54.62835380747847, -20.570509272979006], [-54.62745587745471, -20.57420096122481], [-54.63043981457489, -20.579557502251724], [-54.634290314972056, -20.580419233397027], [-54.64944527447981, -20.575019609205565], [-54.65068238575137, -20.571338929637676], [-54.648258923786884, -20.568348687274316]]], [[[-54.667931880447014, -20.555460813217692], [-54.670983964337125, -20.5570910682532], [-54.67505297633239, -20.555921320045634], [-54.676927840140955, -20.553568296734706], [-54.67663050197574, -20.550574399104807], [-54.672573018360076, -20.547142734626906], [-54.66471499840195, -20.54718655297086], [-54.66183159749785, -20.54182020099704], [-54.66115515641904, -20.53566965567477], [-54.65865172470569, -20.53397968081393], [-54.655930908708314, -20.534376553776298], [-54.6491075614742, -20.54126957208253], [-54.649422589070674, -20.547902115581802], [-54.65829824262878, -20.55575633898807], [-54.6650914548862, -20.554342280084587], [-54.667931880447014, -20.555460813217692]]], [[[-54.67031515629934, -20.414953074233647], [-54.6631142295556, -20.415616592982275], [-54.6615039292382, -20.41818312067645], [-54.66209054338646, -20.42129804220085], [-54.67367806825249, -20.425817033906746], [-54.676708477206354, -20.425374162511904], [-54.68059819306392, -20.41951565147285], [-54.680194452316044, -20.41589376581662], [-54.677213014516155, -20.4141175733205], [-54.67031515629934, -20.414953074233647]]], [[[-54.685122954590604, -20.56165452206105], [-54.68527708710188, -20.56565005634132], [-54.68982212395362, -20.569208370565242], [-54.692934504329706, -20.568328597012304], [-54.696507017134046, -20.563591136023692], [-54.6956480132243, -20.560283494437456], [-54.6913307454453, -20.557439472491296], [-54.68839063747486, -20.558043317294516], [-54.685122954590604, -20.56165452206105]]], [[[-54.71964309864513, -20.46907592441485], [-54.720706336198845, -20.46582133661913], [-54.7186527956758, -20.46195364571504], [-54.7094324722508, -20.460262287683843], [-54.70401601638745, -20.453162995919435], [-54.70032068590436, -20.451358394572445], [-54.69545062615013, -20.45306572012598], [-54.69506245509902, -20.456485044655068], [-54.6982098434401, -20.460974738618454], [-54.70282549681638, -20.46353373719845], [-54.70857750066706, -20.463687405254444], [-54.71328364475708, -20.470547850698782], [-54.71964309864513, -20.46907592441485]]], [[[-54.754268263311886, -20.48970664270991], [-54.760332448819334, -20.482666175336384], [-54.759241379822534, -20.47802494403864], [-54.75368083710748, -20.476521044162606], [-54.747919616200264, -20.478003631095106], [-54.73665774812411, -20.470921859150458], [-54.73206256422288, -20.472050652297316], [-54.73022029801507, -20.479028150682744], [-54.738372651119406, -20.485449239727163], [-54.74053035617447, -20.492437297844365], [-54.74735959381879, -20.494556705391425], [-54.754268263311886, -20.48970664270991]]]]}, "properties": {}}