{"type": "Feature", "properties": {"city": "Campo Grande", "country": "Brazil", "real_area": 214.36}, "geometry": {"type": "MultiLineString", "coordinates": [[[-54.6419789661524, -20.555369404454], [-54.6371794286512, -20.5573637547264], [-54.6363936465889, -20.5621030777042], [-54.6315938376868, -20.5640973051643], [-54.6275797396857, -20.561352157576], [-54.6227795883298, -20.5633462100482], [-54.6187652650403, -20.5606007357901], [-54.613964771424, -20.5625946132069], [-54.6099502230154, -20.5598488122945], [-54.6051493873316, -20.5618425145886], [-54.6011346139734, -20.5590963870374], [-54.6019208642404, -20.5543564576504], [-54.5979060539471, -20.5516099039654], [-54.5931048055357, -20.5536033791849], [-54.592318438277, -20.5583434599671], [-54.5875169190381, -20.5603368118141], [-54.5835016962891, -20.557590031032], [-54.5786998355627, -20.5595832075545], [-54.577913268318, -20.5643232166227], [-54.5731111369458, -20.5663162694792], [-54.5690955021762, -20.5635692615351], [-54.5698821863524, -20.5588291013114], [-54.5658665148911, -20.5560816673612], [-54.5666532329818, -20.5513411328906], [-54.5714555056197, -20.5493481835099], [-54.5722421407113, -20.5446074260421], [-54.5770441427997, -20.5426143531343], [-54.5810594391248, -20.5453619858816], [-54.5858610998829, -20.5433687377391], [-54.5898761717318, -20.5461160439863], [-54.5946774909662, -20.5441226206762], [-54.5986923381691, -20.5468696004077], [-54.6034933156864, -20.5448760019972], [-54.6042795168658, -20.5401354758411], [-54.6002648575268, -20.5373883966284], [-54.6010510926628, -20.5326474965169], [-54.5970363963979, -20.5298999913788], [-54.5922352771686, -20.5318934858067], [-54.5882203562226, -20.5291456542447], [-54.5834188954333, -20.5311389736619], [-54.5794037499758, -20.5283908156918], [-54.5746019478198, -20.5303839600312], [-54.5705865780205, -20.5276354756688], [-54.5713731979467, -20.5228937476362], [-54.5673577914483, -20.5201448375978], [-54.5681444452871, -20.5154027358616], [-54.5641290021152, -20.5126534002349], [-54.5593267176671, -20.5146462656174], [-54.5553110504574, -20.5118966037224], [-54.5560978550795, -20.5071539772198], [-54.5609002100417, -20.5051611637803], [-54.5616869316908, -20.5004183149741], [-54.5576714152482, -20.4976681284346], [-54.5584581707951, -20.4929249062623], [-54.5544426177552, -20.4901742943984], [-54.5552294071949, -20.4854306989728], [-54.5600316328152, -20.4834378666348], [-54.5640469984883, -20.4861885776675], [-54.563260325914, -20.4909320218624], [-54.567275654948, -20.4936823076046], [-54.5720774690932, -20.4916892483516], [-54.5760925739518, -20.4944392079558], [-54.5808940469297, -20.4924459739168], [-54.5849089274431, -20.495195607367], [-54.5841225225981, -20.4999383755705], [-54.5793211203092, -20.5019316617368], [-54.5785346324603, -20.5066742079619], [-54.5737329595663, -20.5086673713546], [-54.5729463887194, -20.513409695424], [-54.5769616076839, -20.5161587047664], [-54.5817632099066, -20.5141654893409], [-54.585778204494, -20.5169141723831], [-54.5905794653138, -20.5149207820366], [-54.59136580229, -20.5101787607326], [-54.5961667923417, -20.5081852476549], [-54.5969530462949, -20.503443004343], [-54.5929384271623, -20.5006941226037], [-54.5937247150589, -20.4959515058891], [-54.5897100590602, -20.4932021986089], [-54.5904963808952, -20.4884592086044], [-54.5864816880559, -20.4857094758711], [-54.5816804857016, -20.4877028324324], [-54.5776655684148, -20.4849527735832], [-54.5728640247783, -20.4869459554704], [-54.5688488832135, -20.4841955705214], [-54.5696354728093, -20.4794519044812], [-54.5656202945638, -20.4767010942756], [-54.5608183392889, -20.4786940492901], [-54.5568029370022, -20.475942913055], [-54.5575896773702, -20.4711987226734], [-54.5623917031644, -20.4692058198152], [-54.5631783605667, -20.4644614077956], [-54.5679801159968, -20.4624683825124], [-54.5687666904274, -20.4577237490324], [-54.5735681754268, -20.4557306015059], [-54.5743546668796, -20.4509857467433], [-54.570339790219, -20.4482338880665], [-54.5711263155805, -20.4434886606912], [-54.567111402232, -20.4407363770905], [-54.5623097760922, -20.4427294199513], [-54.5582946386991, -20.4399768105605], [-54.5590813148218, -20.4352310592706], [-54.5550661408334, -20.4324780250989], [-54.5502641034369, -20.4344708412312], [-54.5462487056409, -20.4317174813402], [-54.5470355324731, -20.426971206351], [-54.5430200981745, -20.4242174218224], [-54.5438069588778, -20.4194707745791], [-54.5486091370751, -20.4174780631704], [-54.5493959148455, -20.41273119509], [-54.5541978229015, -20.4107383618572], [-54.5582128827476, -20.4134923442675], [-54.5630144501137, -20.4114993368784], [-54.5638010281093, -20.4067523995998], [-54.5686023251522, -20.4047592706804], [-54.5693888201902, -20.4000121129947], [-54.5653741350394, -20.3972579326867], [-54.5605727674666, -20.3992510090222], [-54.5565578583352, -20.3964965032186], [-54.557344504107, -20.39174882217], [-54.5533295583984, -20.388993892009], [-54.5485277796783, -20.390986741782], [-54.544512610226, -20.3882314861968], [-54.5452994066798, -20.3834832820013], [-54.541284200743, -20.3807276022025], [-54.5420710310612, -20.3759790264159], [-54.5468729505321, -20.3739862818439], [-54.5508879693187, -20.3767420604526], [-54.5556895482991, -20.3747491420173], [-54.5597043433065, -20.3775045952947], [-54.5645055816028, -20.3755115030628], [-54.5652920953726, -20.3707630102887], [-54.5700930633567, -20.3687697971005], [-54.5741074469995, -20.3715250239198], [-54.578908073991, -20.3695316371136], [-54.582922233413, -20.3722865386064], [-54.5821359533678, -20.3770347279704], [-54.5773353970204, -20.3790281675952], [-54.5765490340058, -20.3837761371905], [-54.5805633442184, -20.3865305154117], [-54.5853638298913, -20.384537022993], [-54.5893779157488, -20.3872910757783], [-54.5885917035411, -20.3920385219786], [-54.583791288573, -20.3940320671663], [-54.5830049933832, -20.3987792933894], [-54.5870192300638, -20.4015328226566], [-54.5918195742967, -20.3995392247247], [-54.595833586488, -20.4022924284469], [-54.5950474421376, -20.4070391310289], [-54.5990614174577, -20.4097919100864], [-54.5982753070433, -20.4145382406889], [-54.6022892454668, -20.4172905949932], [-54.6015031689934, -20.4220365535028], [-54.6055170704948, -20.4247884829651], [-54.6103168606047, -20.4227945530826], [-54.6143305372461, -20.4255461568204], [-54.6191299854274, -20.4235520531378], [-54.6199158279446, -20.4188063984842], [-54.6159023392764, -20.4160546955366], [-54.6166882157572, -20.4113086687714], [-54.6214874639098, -20.4093144969904], [-54.6255007645444, -20.4120662991517], [-54.6302996705394, -20.4100719537946], [-54.6310853469731, -20.4053258591828], [-54.6358839817751, -20.4033313932613], [-54.6398968689798, -20.406082969014], [-54.6446951613168, -20.4040883296957], [-54.6487078230167, -20.406839579806], [-54.6479223806837, -20.4115853699339], [-54.65193500511, -20.4143361950538], [-54.6511495967811, -20.4190816131465], [-54.6551621839084, -20.4218320131876], [-54.6599599909286, -20.4198370944953], [-54.6607452821602, -20.4150918287784], [-54.6655428175963, -20.4130967897879], [-54.6695549903718, -20.4158469634668], [-54.6687698162611, -20.420592076725], [-54.663972352248, -20.4225871687698], [-54.6631870950366, -20.4273320623293], [-54.6671994189646, -20.4300817113828], [-54.6719968115245, -20.4280865663085], [-54.6760089094088, -20.4308358895257], [-54.6808059586908, -20.4288405711212], [-54.6848178303624, -20.4315895684862], [-54.6840328414869, -20.436333784738], [-54.6880446756079, -20.4390823566862], [-54.6928413097796, -20.4370868119248], [-54.6968529174523, -20.4398350579514], [-54.6960680798315, -20.4445787491494], [-54.7000796498612, -20.4473265696176], [-54.7048758685436, -20.4453307985021], [-54.7088872118895, -20.4480782929794], [-54.7081025255743, -20.4528214589101], [-54.7121138311849, -20.4555685276876], [-54.7169096339993, -20.4535725302211], [-54.7209207126905, -20.4563192729388], [-54.7201361777321, -20.4610619133885], [-54.7153404468049, -20.463057963963], [-54.7145558286649, -20.4678003844901], [-54.7097598254095, -20.4697963147956], [-54.7089751240938, -20.4745385152225], [-54.7041788485763, -20.4765343250772], [-54.7001672025891, -20.4737878815296], [-54.6953705831321, -20.475783517853], [-54.6913587105307, -20.473036748131], [-54.6921436463171, -20.4682942424116], [-54.6881317361052, -20.4655470468878], [-54.6833347012659, -20.4675424567333], [-54.6793225646754, -20.4647949351043], [-54.6801076517115, -20.4600519040277], [-54.6760954776027, -20.4573039567382], [-54.6712980277604, -20.4592991401029], [-54.6672856275088, -20.4565508667773], [-54.6624878344604, -20.458545876498], [-54.6617025131178, -20.4632892123522], [-54.6569044484259, -20.4652841011317], [-54.6528916337128, -20.4625356012802], [-54.6480932261219, -20.4645303162365], [-54.6473077045719, -20.4692735837375], [-54.6513207077122, -20.4720219840986], [-54.6505352201716, -20.4767648786877], [-54.6545481860109, -20.4795128534278], [-54.6593464509279, -20.4775180330962], [-54.6601318213517, -20.4727752907066], [-54.6649298146435, -20.4707803491821], [-54.6689423660749, -20.4735280973343], [-54.6681571127915, -20.4782706874415], [-54.6721696267879, -20.4810180098651], [-54.6769672054009, -20.4790228417753], [-54.6809794932225, -20.4817698380174], [-54.6801943911514, -20.486511902708], [-54.6842066414456, -20.4892584730804], [-54.6890038050005, -20.4872630784281], [-54.693015828884, -20.4900093225499], [-54.6922308780764, -20.4947508616107], [-54.6962428643401, -20.497496679722], [-54.6954579476019, -20.5022378454976], [-54.6994698962205, -20.5049832375109], [-54.6986850135566, -20.5097240298892], [-54.7026969245047, -20.5124689957173], [-54.7019120759199, -20.5172094145859], [-54.697115199137, -20.5192050201256], [-54.6963302673809, -20.5239452178734], [-54.6915331184565, -20.5259407020265], [-54.690748103535, -20.5306806784763], [-54.6859506825351, -20.5326760410611], [-54.6819382048201, -20.5299313746441], [-54.6771404402165, -20.5319265630034], [-54.6763552249283, -20.5366664702485], [-54.6803678914451, -20.5394110368706], [-54.6795827102106, -20.5441505701927], [-54.6747847452584, -20.5461456890961], [-54.6739994808763, -20.5508850005886], [-54.6692012440474, -20.552879997379], [-54.6651882001081, -20.5501356303335], [-54.6603896200181, -20.5521304525622], [-54.659604155324, -20.5568696940966], [-54.6548053035379, -20.5588643939187], [-54.6540197557203, -20.5636034131953], [-54.6492206323043, -20.5655979904292], [-54.6452069853878, -20.5628534962266], [-54.6459926503396, -20.558114325058], [-54.6419789661524, -20.555369404454]], [[-54.5855295592673, -20.4375087130254], [-54.5815150577197, -20.4347566561097], [-54.5767140431002, -20.4367499951172], [-54.575927600716, -20.4414954434935], [-54.5799422898505, -20.4442474012878], [-54.5847432337882, -20.4422540098202], [-54.5855295592673, -20.4375087130254]], [[-54.6904865965649, -20.4513178183149], [-54.6856897620591, -20.4533132957916], [-54.6849047581555, -20.4580565470864], [-54.6889167059526, -20.4608041683244], [-54.6937134688058, -20.4588086378737], [-54.6944983555084, -20.4540655391659], [-54.6904865965649, -20.4513178183149]], [[-54.628812905273, -20.4460393420841], [-54.6328262455639, -20.4487893447001], [-54.6376251382571, -20.4467949090196], [-54.6416382531483, -20.4495445857165], [-54.6464368032919, -20.4475499762353], [-54.6472223097693, -20.4428057428391], [-54.6432093831805, -20.4400559667539], [-54.643994923659, -20.4353113608882], [-54.6399819598291, -20.4325611595678], [-54.635183267254, -20.4345556634741], [-54.6343976097153, -20.4393004214939], [-54.6295986458696, -20.4412948044443], [-54.628812905273, -20.4460393420841]], [[-54.6170248332256, -20.5171836533098], [-54.6210389286093, -20.5199310309929], [-54.6258388218841, -20.5179369416342], [-54.6266246908331, -20.5131955268566], [-54.6226107835556, -20.5104480496747], [-54.6233966864868, -20.5057062613549], [-54.6193827421166, -20.5029583583827], [-54.6145827067446, -20.5049523432022], [-54.6137966867823, -20.509694283269], [-54.617810819217, -20.5124420867762], [-54.6170248332256, -20.5171836533098]], [[-54.5311345684686, -20.4689207207649], [-54.5271184586909, -20.4661681815881], [-54.522315071108, -20.4681603851733], [-54.5182987380359, -20.4654075200868], [-54.5190859794742, -20.4606623524693], [-54.5150696101085, -20.457909062575], [-54.5158568853856, -20.4531635221841], [-54.5206604132867, -20.4511714226242], [-54.5214476056612, -20.4464256605073], [-54.5262508637554, -20.444433438214], [-54.5302668592768, -20.4471869259499], [-54.5350697772567, -20.4451945289404], [-54.5390855493456, -20.4479476908974], [-54.5382985905159, -20.4526931508959], [-54.5423143261603, -20.4554458880584], [-54.5415274011987, -20.4601909753684], [-54.545543100373, -20.4629432876479], [-54.5503455373153, -20.4609506116435], [-54.5543610127528, -20.4637025980186], [-54.5535742384954, -20.4684471613242], [-54.5487718719634, -20.4704398894645], [-54.5479850147528, -20.4751842310582], [-54.5431823780387, -20.4771768364797], [-54.5391665281791, -20.4744250482344], [-54.5399535022083, -20.4696805555118], [-54.5359376158951, -20.4669283422611], [-54.5311345684686, -20.4689207207649]]]}}