{"type": "Feature", "geometry": {"type": "MultiPolygon", "coordinates": [[[[-74.83136538059817, -14.970857272413074], [-74.82911601001983, -14.967322790522699], [-74.82420592463218, -14.966670836131572], [-74.82070940615688, -14.967684683582446], [-74.8192335601128, -14.970746692942562], [-74.82027407112572, -14.97517072645905], [-74.82353819341434, -14.976884343279956], [-74.83016955458112, -14.97557821533482], [-74.83136538059817, -14.970857272413074]]], [[[-74.87376348424947, -14.974821363117904], [-74.87706107868523, -14.97065520423525], [-74.87665449963448, -14.966888959445287], [-74.87156403840979, -14.963834609151093], [-74.8671966207648, -14.964476906518948], [-74.86520973245845, -14.968086798358554], [-74.86547292757402, -14.975620428353968], [-74.87023434500638, -14.977507852595341], [-74.87376348424947, -14.974821363117904]]], [[[-74.89731132429702, -14.97161937933107], [-74.89508055741115, -14.968745749950784], [-74.89011270451402, -14.96819335683977], [-74.88550118327603, -14.973821465520526], [-74.88670899697959, -14.97764585426832], [-74.89173354660048, -14.980604722430682], [-74.89338742891798, -14.985629666202088], [-74.89709568650781, -14.98720090144412], [-74.90012983012687, -14.985914921316217], [-74.90123342451083, -14.982900981100403], [-74.89718095290279, -14.976414141846583], [-74.89731132429702, -14.97161937933107]]], [[[-74.95722993161506, -14.84929957423217], [-74.95486239294036, -14.846992225770668], [-74.95170355442187, -14.83398966929356], [-74.953711266297, -14.824940574256344], [-74.94836206078106, -14.819112441979467], [-74.9289589172094, -14.815895701528364], [-74.92382932697822, -14.819122423597914], [-74.91806984680082, -14.818499619049577], [-74.91035306939848, -14.822033667932493], [-74.90959609661415, -14.82663029893893], [-74.91225681915206, -14.831121455569226], [-74.91245045406062, -14.836557936699572], [-74.9164940511977, -14.840511575629488], [-74.91898036526572, -14.846857048697535], [-74.92540952307473, -14.850762714642078], [-74.92382827389494, -14.857894390108978], [-74.92590516842833, -14.861356228345942], [-74.943224064383, -14.862915461942862], [-74.94780857535775, -14.86623966941281], [-74.95084984128955, -14.866411789636782], [-74.95685829569581, -14.863032625850954], [-74.96315442738994, -14.855788323434044], [-74.96234016738099, -14.851840888657149], [-74.95722993161506, -14.84929957423217]]], [[[-74.9377371403794, -14.966075919184398], [-74.93509871975962, -14.964532853116463], [-74.9294785616487, -14.964786687888598], [-74.92462512722717, -14.970662493202104], [-74.92505524497568, -14.974820876173624], [-74.93042044260785, -14.976934834153944], [-74.93549037429614, -14.975952912008449], [-74.93912956702208, -14.97204994141919], [-74.93930932828067, -14.96838613263985], [-74.9377371403794, -14.966075919184398]]], [[[-74.99326127993363, -14.9775920109476], [-74.99105584674543, -14.973801730293028], [-74.98654946152632, -14.972898319798613], [-74.9828539891534, -14.975371656436655], [-74.98235521146451, -14.97938903149292], [-74.98480557375274, -14.982641862305332], [-74.98964229908, -14.982590569922289], [-74.99217806408785, -14.981020538322026], [-74.99326127993363, -14.9775920109476]]], [[[-75.00868146800448, -14.91112864291889], [-75.00693776627277, -14.906277676575128], [-75.00205987525148, -14.905215735976324], [-74.99755009032204, -14.90709713779312], [-74.99463547559576, -14.912913828606602], [-74.9980756502548, -14.9167972041225], [-75.00597377080224, -14.917454106164776], [-75.00905558077987, -14.915105031714416], [-75.00868146800448, -14.91112864291889]]], [[[-75.09349367211111, -14.647529187845734], [-75.08785196314334, -14.64409926811131], [-75.08265663651868, -14.648452302650178], [-75.0834610002506, -14.652477188063301], [-75.07995546936954, -14.655176669895221], [-75.07906347521889, -14.65952973694157], [-75.08233718839415, -14.664496540393095], [-75.08546682939864, -14.665023177976828], [-75.08916729571972, -14.6628000424817], [-75.09475626539644, -14.65320530512283], [-75.09349367211111, -14.647529187845734]]], [[[-75.07564187930508, -14.651128635876136], [-75.07763814476102, -14.647674043647532], [-75.07192712800446, -14.63453303251139], [-75.06794655492193, -14.634134575415253], [-75.06164023949711, -14.638220224095264], [-75.05428492202502, -14.633044907266283], [-75.04952366818218, -14.635074389146936], [-75.04885788570382, -14.640098960425673], [-75.0533967765071, -14.648333161279291], [-75.0599711653916, -14.650378450380396], [-75.0654364695438, -14.649474850622886], [-75.0704287378813, -14.65236000212363], [-75.07564187930508, -14.651128635876136]]], [[[-75.11919554364295, -14.658781834287158], [-75.11672740912161, -14.655025463663387], [-75.11076908737012, -14.654209111841134], [-75.10782966486842, -14.65557384690033], [-75.10663773399207, -14.659125699700288], [-75.10868657906633, -14.663511030707003], [-75.11309276161093, -14.665036101355524], [-75.117984430592, -14.663595782602886], [-75.11919554364295, -14.658781834287158]]], [[[-75.14430206247866, -14.680883590047724], [-75.14231217114795, -14.677255429828064], [-75.1389967112625, -14.676291776742541], [-75.13324380902218, -14.679726554663668], [-75.13216654636146, -14.683292669607724], [-75.13523633517657, -14.686994467668733], [-75.14015820009993, -14.687254980545033], [-75.14385268572934, -14.685092424864441], [-75.14430206247866, -14.680883590047724]]], [[[-75.14400395920038, -14.811929633132388], [-75.14644731462957, -14.809060281718311], [-75.1456561212606, -14.805420135268777], [-75.1420991729596, -14.80340443276167], [-75.13784879666822, -14.804111817946026], [-75.1363505475265, -14.806807461319382], [-75.13731188368742, -14.810711698093098], [-75.14400395920038, -14.811929633132388]]]]}, "properties": {}}