{"type": "Feature", "properties": {"city": "Beja\u00efa", "country": "Algeria", "real_area": 87.15}, "geometry": {"type": "MultiLineString", "coordinates": [[[5.24497450401805, 36.6402048401497], [5.24053476501588, 36.6434553776579], [5.2347765757539, 36.6418021283745], [5.23345843283488, 36.6368985967248], [5.23789785804204, 36.6336482026174], [5.2436557399764, 36.6353011967741], [5.24809509015313, 36.6320502422781], [5.25385351796404, 36.6337027876939], [5.2551729031007, 36.638606542656], [5.25073323934465, 36.641857640631], [5.24497450401805, 36.6402048401497]], [[3.17916303168744, 36.7479978133545], [3.17797367710278, 36.7431165572228], [3.1824127961747, 36.7399734445587], [3.18804162385919, 36.7417114602309], [3.18923159996134, 36.7465928557896], [3.18479212686801, 36.7497360962634], [3.17916303168744, 36.7479978133545]], [[5.38853008310447, 36.1875669380326], [5.38720867908472, 36.1826548431925], [5.39162655665117, 36.1793824609565], [5.3973661459397, 36.1810220269466], [5.39868816496385, 36.1859342314985], [5.39426997970859, 36.1892067603637], [5.38853008310447, 36.1875669380326]], [[4.52061851813491, 36.4612080903926], [4.51934798583354, 36.4563080437194], [4.52377807362503, 36.4530876315951], [4.52947902037536, 36.4547671269352], [4.53075017154587, 36.4596672951376], [4.52631975710768, 36.4628878464856], [4.52061851813491, 36.4612080903926]], [[5.35804673709081, 36.6454431187789], [5.35672076219397, 36.6405386306038], [5.36116035851718, 36.637282201082], [5.36692624108718, 36.6389301155178], [5.36825283707177, 36.6438347137276], [5.36381292941219, 36.6470912874822], [5.35804673709081, 36.6454431187789]], [[5.01131957990823, 36.6995280345054], [5.01001473843925, 36.6946273703259], [5.01445683311717, 36.6913900076378], [5.02020408793481, 36.6930531675714], [5.02150955140807, 36.6979539465126], [5.01706713807189, 36.7011914507736], [5.01131957990823, 36.6995280345054]], [[4.68133285544495, 36.612487865487], [4.68005008867814, 36.6075887270178], [4.68448766665768, 36.6043651080747], [4.6902083359903, 36.6060404879661], [4.69149172365819, 36.6109397457271], [4.6870538211037, 36.6141635043199], [4.68133285544495, 36.612487865487]], [[2.93717915713236, 36.7361367358055], [2.93600533053549, 36.7312581550006], [2.94044256719386, 36.7281270100704], [2.94605398877786, 36.7298743199762], [2.94722843631212, 36.7347530434212], [2.94279084133073, 36.7378843143343], [2.93717915713236, 36.7361367358055]], [[5.16734660889767, 36.6676627074032], [5.16290557468829, 36.6709084851278], [5.15715060484598, 36.6692515864363], [5.15270949788923, 36.6724968033102], [5.15402304510578, 36.6773990615337], [5.14958154982343, 36.6806438601298], [5.14382682318278, 36.6789862578921], [5.13938525552388, 36.6822304955148], [5.13363107839241, 36.6805724453403], [5.13231877454373, 36.6756704131721], [5.13676002611654, 36.672426318066], [5.14251389763696, 36.6740841126267], [5.14695507704818, 36.6708394566257], [5.14564206898378, 36.6659371486559], [5.1500828601874, 36.6626920744372], [5.15583697522142, 36.6643491655483], [5.16027769389267, 36.6611035305572], [5.16603235773952, 36.6627601737359], [5.17047300358558, 36.6595139779947], [5.17622821592577, 36.6611701731243], [5.17754308859082, 36.6660728194319], [5.17310212742175, 36.6693191579849], [5.16734660889767, 36.6676627074032]], [[3.19865452520898, 36.6998426343736], [3.19746455454572, 36.6949603879314], [3.20190145291183, 36.6918146813854], [3.2075286752433, 36.6935510931016], [3.20871926680566, 36.6984334787393], [3.20428201514401, 36.7015793134795], [3.19865452520898, 36.6998426343736]], [[5.18066878865376, 36.6579234166554], [5.17935383384944, 36.653020607944], [5.18379401817656, 36.64977343372], [5.18954947231093, 36.6514289252724], [5.19086504848469, 36.6563318464451], [5.18642454916764, 36.6595791636193], [5.18066878865376, 36.6579234166554]], [[4.89701626775246, 36.6482815596709], [4.89571936918366, 36.6433810491609], [4.90015892093211, 36.6401477622983], [4.90589569183705, 36.6418148449499], [4.907193211759, 36.6467154718004], [4.90275333943492, 36.6499488996739], [4.89701626775246, 36.6482815596709]], [[3.05512847063419, 36.7727961200869], [3.05394667852823, 36.7679167135597], [3.05838634022482, 36.7647807616516], [3.06400815050622, 36.7665240895585], [3.06519056425725, 36.7714036371428], [3.06075054608793, 36.7745397157772], [3.05512847063419, 36.7727961200869]], [[4.06261618036766, 36.7050342046221], [4.05817517194492, 36.7082232017226], [4.05941993537075, 36.7131146402237], [4.05497854843093, 36.7163032108085], [4.04929273557889, 36.7146002083142], [4.04485130772915, 36.7177882177272], [4.03916607623097, 36.7160847819488], [4.03792255693801, 36.7111935991944], [4.04236364706095, 36.7080057242624], [4.04804859421293, 36.7097088976186], [4.05248964362985, 36.706520461597], [4.05124540829719, 36.7016289867775], [4.04556074550482, 36.6999260758669], [4.04431703811453, 36.6950345649646], [4.04875737164735, 36.6918458370955], [4.05444175006668, 36.6935484855375], [4.05568607931694, 36.6984401243025], [4.06137132308167, 36.7001426020363], [4.06581195302309, 36.6969531785751], [4.07149777745887, 36.698655223007], [4.07274325668495, 36.7035469532234], [4.06830228954451, 36.7067365113921], [4.06261618036766, 36.7050342046221]], [[4.90794398210739, 36.6695503404124], [4.9066460956688, 36.6646500846739], [4.91108667447948, 36.6614169355205], [4.90978870305535, 36.6565165171635], [4.91422889586111, 36.6532829482605], [4.91996738049066, 36.6549496566817], [4.92126597344017, 36.6598501911824], [4.91682546024685, 36.6630839011334], [4.91812396832053, 36.6679842730555], [4.91368306900386, 36.6712175631962], [4.90794398210739, 36.6695503404124]], [[3.10189060483853, 36.7511833762949], [3.10070611885354, 36.7463030745584], [3.09508301504924, 36.7445615414843], [3.09389904681818, 36.7396812146684], [3.09833756105292, 36.736542280368], [3.1039603990529, 36.7382835457236], [3.10839889936204, 36.7351440510184], [3.11402234457483, 36.7368848964288], [3.11520755546857, 36.7417655042012], [3.11076869982537, 36.7449051261653], [3.11195380724357, 36.7497855683522], [3.10751458202566, 36.7529247570215], [3.10189060483853, 36.7511833762949]], [[4.84057935791167, 36.6951825603346], [4.83928537320263, 36.6902833308551], [4.84372711076398, 36.6870543880565], [4.84243304031601, 36.6821549953594], [4.84687439227147, 36.6789256319008], [4.84558023613255, 36.6740260761662], [4.85002120252099, 36.6707962922068], [4.8487269607391, 36.6658965736148], [4.85316754159938, 36.6626663693137], [4.85890268591452, 36.6643357430476], [4.86019754936115, 36.6692355786125], [4.86593355137511, 36.6709047659109], [4.8672289510396, 36.6758045555327], [4.86278772695074, 36.6790350409967], [4.86408304114337, 36.6839346676606], [4.85964143128925, 36.6871647326614], [4.86093665996202, 36.6920641961871], [4.85649466430369, 36.6952938405656], [4.85075776176538, 36.6936238809341], [4.84631570218724, 36.6968529641226], [4.84057935791167, 36.6951825603346]], [[4.98460534385806, 36.8183994022446], [4.98330052013755, 36.8135009774458], [4.98774829218005, 36.8102688014038], [4.99350120796466, 36.8119349093484], [4.99480665529519, 36.8168334492255], [4.99035856324352, 36.8200657660949], [4.98460534385806, 36.8183994022446]], [[3.17884483980301, 36.7253289885223], [3.1776557981645, 36.7204473758862], [3.18209382301933, 36.7173035259087], [3.18772124337217, 36.7190411606644], [3.18891090622177, 36.7239229127448], [3.19453919886022, 36.725660393867], [3.19572938031629, 36.7305421201574], [3.19129064782914, 36.7336862259898], [3.18566208765868, 36.7319484775798], [3.18447252751391, 36.7270668906394], [3.17884483980301, 36.7253289885223]], [[5.40575115291047, 36.1924857710552], [5.40442859782423, 36.1875736087222], [5.40884670414637, 36.1843005251005], [5.41458767294454, 36.1859394571044], [5.41591084308672, 36.1908517289114], [5.41149242938831, 36.1941249592557], [5.40575115291047, 36.1924857710552]], [[2.94748903266189, 36.7573981678745], [2.94631427938953, 36.7525197990522], [2.95075260057895, 36.749388836434], [2.95636603334909, 36.751136116692], [2.95754140786517, 36.7560146280052], [2.95310272837316, 36.7591457165837], [2.94748903266189, 36.7573981678745]], [[5.01915180829448, 36.7289305334744], [5.01784605825129, 36.7240302942864], [5.02228956512095, 36.7207934881897], [5.02803914075028, 36.7224567798067], [5.02934551318893, 36.7273571336382], [5.03509594596056, 36.7290202343858], [5.03953970240046, 36.7257827252135], [5.03823270759138, 36.7208822568771], [5.03248257870031, 36.7192194122027], [5.03117612244795, 36.7143188945465], [5.02542685051821, 36.7126558590829], [5.02098373115373, 36.7158930851373], [5.01523501261448, 36.7142296029087], [5.01079182454439, 36.7174662675347], [5.00504365971328, 36.7158023386593], [5.00060040323031, 36.7190384418363], [4.99485279242481, 36.7173740664321], [4.99354874125527, 36.7124738442189], [4.98780198774418, 36.7108092788166], [4.98335898246357, 36.7140446792302], [4.98466241135912, 36.7189447863252], [4.99040946782165, 36.72060960814], [4.99171343478428, 36.7255096665498], [4.98726972291258, 36.7287447880021], [4.98857360562047, 36.7336446824283], [4.9841295064407, 36.7368793834656], [4.97838184410025, 36.735214048888], [4.973937677251, 36.7384481882376], [4.96819056994915, 36.7367824072489], [4.96688793225437, 36.7318827433561], [4.97133177933038, 36.728648745101], [4.97002905716052, 36.7237489171453], [4.97447251712604, 36.7205144984365], [4.97316971052897, 36.7156145065981], [4.96742406627689, 36.7139490488484], [4.96298092606104, 36.717183326421], [4.95723583691379, 36.7155174226751], [4.95593419038711, 36.7106174979831], [4.96037701075837, 36.7073833615281], [4.96612179751321, 36.7090490086627], [4.97056455077653, 36.7058143108562], [4.96926219757125, 36.7009141071083], [4.97370456392147, 36.6976789892274], [4.97944960300202, 36.6993439338526], [4.98075257830997, 36.704244252916], [4.98649847457938, 36.7059090080587], [4.99094109274944, 36.7026731876095], [4.99668754330076, 36.7043374965787], [4.9979916786294, 36.7092378824151], [5.00373898629432, 36.7109020014664], [5.00818185546939, 36.7076654782926], [5.01392971697086, 36.7093291508747], [5.0183725176542, 36.7060920663514], [5.02412093267476, 36.7077552923462], [5.02856366457372, 36.7045176464938], [5.02725766290183, 36.6996169162532], [5.03170000737489, 36.6963788507626], [5.03744867188117, 36.6980413738577], [5.04189094719849, 36.6948027471584], [5.04764016439956, 36.6964648234902], [5.05208237026847, 36.6932256356028], [5.05783213984647, 36.6948872650536], [5.05914000763658, 36.6997883384513], [5.06489063355591, 36.7014497769183], [5.06619903994766, 36.7063508010796], [5.07195052225996, 36.7080120483048], [5.07639329370442, 36.704772015419], [5.08214532781672, 36.7064328152904], [5.08345489511634, 36.7113339038864], [5.07901180615774, 36.7145740787156], [5.0803212901957, 36.7194750036855], [5.08607448544833, 36.7211358676531], [5.08738450853084, 36.726036742668], [5.08294071401948, 36.7292766398791], [5.0771872139491, 36.7276155201583], [5.07274334891744, 36.7308548557878], [5.07405266628895, 36.7357554529645], [5.07980647116926, 36.737416828418], [5.08111632771099, 36.7423173753585], [5.08687098950095, 36.7439785586351], [5.08818138536062, 36.7488790550998], [5.09393690411156, 36.7505400459413], [5.09524783943696, 36.7554404916905], [5.10100421520014, 36.7571012898388], [5.10231569013902, 36.7620016846329], [5.10807292296556, 36.7636622898295], [5.10938493766569, 36.7685626334289], [5.10493909663759, 36.7718022583125], [5.09918155828349, 36.7701413977255], [5.0947356460323, 36.7733804605134], [5.0889786595847, 36.7717191514438], [5.08453267640403, 36.7749576521151], [5.0787762421824, 36.7732958946806], [5.07746609630328, 36.7683958921006], [5.07171051958674, 36.7667339419897], [5.06726478380217, 36.7699717389034], [5.06857430668945, 36.7748716275328], [5.06412818253053, 36.7781090039082], [5.05837285371856, 36.7764463500977], [5.05392665951084, 36.779683164294], [5.04817188388226, 36.7780200624725], [5.04372561991923, 36.7812563144692], [5.03797139779287, 36.7795927647548], [5.03666374403397, 36.7746932188089], [5.03091037993097, 36.7730294771295], [5.02646436539698, 36.7762650256015], [5.02071155524403, 36.7746008363254], [5.01940506365875, 36.7697013544826], [5.02385075920604, 36.7664659472966], [5.02960326533781, 36.7681298806827], [5.03404889185231, 36.7648939114344], [5.03274169337942, 36.7599941501614], [5.02698949127692, 36.7583304726859], [5.02254418363056, 36.7615663005881], [5.0167925354177, 36.7599021757535], [5.01548649871183, 36.7550024790228], [5.01993148739436, 36.751766792448], [5.01862536668356, 36.7468669311719], [5.02306996762344, 36.7436308241006], [5.02882100813192, 36.7452944369328], [5.03326554009563, 36.7420577680765], [5.03195871283658, 36.7371576278509], [5.02620797619247, 36.7354942710507], [5.0249016876153, 36.7305940812243], [5.01915180829448, 36.7289305334744]]]}}