{"type": "Feature", "geometry": {"type": "MultiPolygon", "coordinates": [[[[68.43664021292824, 43.300251572220375], [68.44445515567662, 43.30114121370647], [68.46030107941462, 43.30925411336542], [68.46997865702012, 43.304351420477204], [68.4687788762952, 43.29957843466384], [68.46018431500285, 43.28958092797436], [68.45208537112126, 43.285550528043345], [68.43842608255656, 43.28226300115155], [68.43052072068338, 43.28282961948541], [68.42609007089604, 43.289301524389806], [68.42591894725396, 43.292442479025546], [68.43664021292824, 43.300251572220375]]], [[[68.47373397607477, 43.30641997890625], [68.47446292497435, 43.31756727763079], [68.47838795648101, 43.32268485656758], [68.49028350046216, 43.33003072810827], [68.50133305556713, 43.333229752735235], [68.51070143355801, 43.3325069139823], [68.51622620927526, 43.3272579677935], [68.51651300108067, 43.32431823345301], [68.51412254326858, 43.3200478345288], [68.49697897625302, 43.311879826780434], [68.48645740689997, 43.304346259462534], [68.47373397607477, 43.30641997890625]]], [[[68.47356291064101, 43.373578953994695], [68.47685337291222, 43.37766898895964], [68.4975094411408, 43.38490562385016], [68.50439507282088, 43.38123662331687], [68.5096748950032, 43.37232403451839], [68.50656418633687, 43.368533314509094], [68.49019240155253, 43.36524542821834], [68.47647780630308, 43.364442153492824], [68.47267540123961, 43.36727000249692], [68.47356291064101, 43.373578953994695]]], [[[68.43484880513437, 43.44622434279509], [68.43578008854685, 43.44945751880953], [68.44315803170552, 43.455670526636666], [68.45176673263614, 43.45914295019609], [68.45515489265833, 43.45874779791954], [68.46003965810894, 43.453943969137114], [68.45961804002353, 43.45057261912588], [68.45452845154735, 43.444975434292814], [68.44566677318991, 43.44070791527384], [68.43843173696298, 43.440751792343605], [68.43484880513437, 43.44622434279509]]], [[[68.34509509123106, 43.36683819761308], [68.34431937137435, 43.3708096848682], [68.35208434359612, 43.38405086565319], [68.35458901949214, 43.39772403628298], [68.36736415961691, 43.40564212831144], [68.36909155721864, 43.41167860608303], [68.37731570640162, 43.42073602302025], [68.40740309285458, 43.428227679063596], [68.41489038030706, 43.432734555388194], [68.42465366472543, 43.43084688851222], [68.42543438668622, 43.42595937100381], [68.42419378651307, 43.42316504729257], [68.38214148200534, 43.38525811303672], [68.3746953519672, 43.382165462441954], [68.3740410281173, 43.37918568481697], [68.37650954413263, 43.37292044335391], [68.36982140277372, 43.35207935658096], [68.36378157427106, 43.34045475952823], [68.35069854489937, 43.3389796771695], [68.3473992422293, 43.340678711707504], [68.34198887413942, 43.35541736093351], [68.34585828447872, 43.36329768115684], [68.34509509123106, 43.36683819761308]]], [[[68.15162933837318, 43.286587632657046], [68.1501266802412, 43.29463211408658], [68.15246210428452, 43.30797872147201], [68.15448416049419, 43.31058679186967], [68.167177222043, 43.30999812467105], [68.16906260388969, 43.307651378626886], [68.16941442760813, 43.30230931264008], [68.17216831104501, 43.30019459419122], [68.18452006633555, 43.3050708148212], [68.18494842933735, 43.30950123506979], [68.17685239906436, 43.3147531055914], [68.17636698552248, 43.319549952889574], [68.19587677426496, 43.34008655237813], [68.21412702423508, 43.33643680555916], [68.21924348295052, 43.32973130465331], [68.22854972157583, 43.33120029569362], [68.2367565519259, 43.32753835069612], [68.24074494827337, 43.330968053465476], [68.24271800891898, 43.33808976320477], [68.26510834911201, 43.34658223650897], [68.26599984698176, 43.34951069777269], [68.26434316586703, 43.36002058087624], [68.26163004181362, 43.361576531366524], [68.2561645862305, 43.361380256853906], [68.24975568622847, 43.36723838507388], [68.25311812003801, 43.372810234044444], [68.25143741594466, 43.37893453609894], [68.25270078409088, 43.384523667552614], [68.24187814187573, 43.39960705586087], [68.24273674322623, 43.40290496900344], [68.24938525165396, 43.4066076470543], [68.25456165421727, 43.41464378487075], [68.25241073160123, 43.42636966603332], [68.26133157700173, 43.43518547653059], [68.27345132229877, 43.44277629262758], [68.2802297185863, 43.45090175723836], [68.28420783624823, 43.45280116107985], [68.28557553079756, 43.45896701658663], [68.28870312148364, 43.463481604767864], [68.30085072900538, 43.470175643809384], [68.30687588203952, 43.47643674102749], [68.3115950196965, 43.47787604122659], [68.3184277369913, 43.48358738789339], [68.32078520983497, 43.49136812036007], [68.31657576357941, 43.49629954630553], [68.31616981156651, 43.49927632891171], [68.3194490592454, 43.504513612306084], [68.32520340233687, 43.508114278656635], [68.32570992885314, 43.51330547286603], [68.33092178486636, 43.52319496452919], [68.3321953873778, 43.531143084869505], [68.33863436101215, 43.53590687886283], [68.34615426809833, 43.53568801122072], [68.35124561233421, 43.53879543863985], [68.36095488259026, 43.53648546039511], [68.36336575827669, 43.530361767188], [68.36932111546561, 43.52672157895588], [68.37038408156666, 43.52024708815936], [68.37983309030895, 43.51301556494339], [68.37991714091153, 43.50861652231044], [68.34920546807669, 43.48771796394703], [68.33323236762429, 43.48412576765531], [68.32983587650772, 43.479306704393515], [68.33114646264066, 43.47386514111041], [68.33004412195189, 43.46840882842444], [68.32398836646105, 43.46043949117083], [68.31008833050059, 43.45773889283879], [68.30112044071613, 43.45786858479681], [68.29709058252232, 43.455023086441386], [68.29598484468589, 43.45214425073623], [68.29807244392786, 43.44227614848218], [68.28764477205792, 43.434966547546786], [68.28619467166577, 43.42773337094135], [68.2812464987431, 43.41989188768522], [68.27419958620469, 43.416693804823524], [68.27354352934863, 43.41370401267765], [68.27638847079547, 43.40306133827072], [68.27135694263193, 43.39488803809924], [68.26180645888692, 43.39007946201474], [68.26021119596147, 43.38627936400296], [68.26245521008819, 43.38323857210602], [68.26939268705802, 43.381608676793554], [68.28833680677197, 43.385522198328594], [68.30297279063124, 43.39136837935938], [68.3133364540202, 43.39112278940285], [68.31753048180762, 43.386112655620664], [68.31702159378034, 43.38219968823862], [68.30729426585862, 43.37248200084599], [68.28926702353527, 43.36324187121791], [68.286915471068, 43.35897718912665], [68.28743687764819, 43.3560149230136], [68.2961088386695, 43.35136339737264], [68.29689473338668, 43.34259729974768], [68.29978247432858, 43.34004995828574], [68.30798398681318, 43.34301000221524], [68.31784565578518, 43.342808247588934], [68.33023940843206, 43.34834738852244], [68.33657921973504, 43.34509869646782], [68.33779092430551, 43.341375333419855], [68.33262585988197, 43.33522296602012], [68.33324602881855, 43.330849176124836], [68.35663784833771, 43.320268808848894], [68.3586292709955, 43.31799999267084], [68.35776804162538, 43.30665948189873], [68.35316288771162, 43.29767363429324], [68.35529801441588, 43.29081850283761], [68.38867207190654, 43.276135567601195], [68.3990948421356, 43.27709161786666], [68.40656470064756, 43.2745735253709], [68.4104054129176, 43.27072485099126], [68.41151659697998, 43.26403729552853], [68.40722192321145, 43.258516516720675], [68.40581141095635, 43.25391289228071], [68.39691004111891, 43.24844248265383], [68.39062031426393, 43.2483081178154], [68.38557349387237, 43.2429504446756], [68.38269760062097, 43.242019291208166], [68.3740736848173, 43.24419565020089], [68.3704297735199, 43.25137815374284], [68.36161561618715, 43.25405788520708], [68.36092659659498, 43.26143801174786], [68.35841846346729, 43.2641685132528], [68.35325979909267, 43.263371778692154], [68.34653896195141, 43.25626637104298], [68.33183314159395, 43.25932254178513], [68.33001372362249, 43.26330476600847], [68.33364996361846, 43.27106786529528], [68.33043643166047, 43.277271393450796], [68.33021669158683, 43.282527638761415], [68.33319120670119, 43.29579732940855], [68.32428150581288, 43.30547494910975], [68.3195915765659, 43.302682652286414], [68.32063656886965, 43.29356030202367], [68.31521123004939, 43.28874880462436], [68.3157558423664, 43.28138908030512], [68.31093696669959, 43.275826653123886], [68.30697201099426, 43.27684846560251], [68.30296331268761, 43.28258242973385], [68.29464885619181, 43.28415137094121], [68.28999484066965, 43.28679609218579], [68.28387620618359, 43.28597973462967], [68.2763089939389, 43.29178385329404], [68.26792774610092, 43.291977465284425], [68.26631450858143, 43.28985546640748], [68.26596318254613, 43.284703724387256], [68.26264598734954, 43.2824184214918], [68.25798721803713, 43.28312020568895], [68.25228346821574, 43.28962965343058], [68.24038996980546, 43.28655877909254], [68.23820180038751, 43.28352304691295], [68.23897379826508, 43.278847274401976], [68.23667845310159, 43.27165972003733], [68.23813251356546, 43.26423009347693], [68.23672359325204, 43.25920099301301], [68.2344472342046, 43.25686625146539], [68.22864404678988, 43.25600188061091], [68.22122153929638, 43.2580536516511], [68.21344806598388, 43.26739719337683], [68.2089878437339, 43.269221782084415], [68.20000844211114, 43.26305807474262], [68.19394427325683, 43.26283131089288], [68.17910749808749, 43.25304989196233], [68.17572343005145, 43.252752263997564], [68.16130909053484, 43.26652583687139], [68.16033975354108, 43.27250625468344], [68.15162933837318, 43.286587632657046]], [[68.27077075823524, 43.30836651148411], [68.27675262386391, 43.30610934953455], [68.28385451805732, 43.31115711398967], [68.28866824399098, 43.30987660592489], [68.29380473459582, 43.31325395127599], [68.29879738830748, 43.313499580883004], [68.30093651552522, 43.315663283338075], [68.30147355560747, 43.32073503857439], [68.29319209365806, 43.327554198151304], [68.28973919338391, 43.32777089296008], [68.2867775778107, 43.32482582038248], [68.28551305827169, 43.31884306936254], [68.28279790652257, 43.31497070314636], [68.27575601348586, 43.31784394184051], [68.26773564490347, 43.31530418988126], [68.2670899735766, 43.31087835202435], [68.27077075823524, 43.30836651148411]], [[68.21132794382197, 43.31958878794096], [68.20856740563389, 43.32145787135778], [68.20555389668068, 43.32074033381603], [68.19747791968184, 43.31452513693679], [68.19731405472204, 43.30978137712671], [68.20502269658867, 43.30514033037531], [68.21016944102827, 43.30649648695334], [68.21425667657651, 43.31473032818114], [68.21132794382197, 43.31958878794096]], [[68.18840114532493, 43.303329159283386], [68.19152197542483, 43.30329363360877], [68.19369350723254, 43.30540167734521], [68.1937928265324, 43.308415408095875], [68.19175961056307, 43.31064217036043], [68.188681915958, 43.31079357306588], [68.18635707770709, 43.3087182754965], [68.186226935512, 43.305604628775455], [68.18840114532493, 43.303329159283386]]], [[[68.24778399561829, 43.36679537277855], [68.24342624857523, 43.36147841587905], [68.22109032573192, 43.355359361613445], [68.21830296715142, 43.356637650462154], [68.20990377442732, 43.36807297772232], [68.21179487340298, 43.371301646437736], [68.22032117271074, 43.374839387603636], [68.22668496351584, 43.37307027109555], [68.23819342593559, 43.376046799495626], [68.2409397844259, 43.374843260998695], [68.2448154325214, 43.36826658864271], [68.24778399561829, 43.36679537277855]]], [[[68.2431827362584, 43.20211193794844], [68.24019278007975, 43.20391314000805], [68.23950173207895, 43.20803957643143], [68.24715856184632, 43.21890697683104], [68.25117153320065, 43.22034512522549], [68.2569020989602, 43.21772313743515], [68.2585143067802, 43.213796593626846], [68.25717980710179, 43.20454938605771], [68.2431827362584, 43.20211193794844]]], [[[68.12522263990775, 43.2145785259996], [68.12405401242029, 43.21816136915963], [68.11323315476271, 43.225661126489705], [68.10548620811574, 43.22622552481751], [68.1017876294594, 43.2295861062105], [68.1052492093491, 43.2384932760428], [68.11086338347599, 43.24196058670282], [68.115152048931, 43.2472408761649], [68.12306094596646, 43.247134121582], [68.12669486867888, 43.24257946862987], [68.12900108768542, 43.23544357596024], [68.13296254559731, 43.23335201882344], [68.13898410080677, 43.23302787355803], [68.1454602627676, 43.22447918264209], [68.1397299262293, 43.20674017908351], [68.1376508619637, 43.20446152037206], [68.13216593714911, 43.20237102054161], [68.12555683991508, 43.204030755721114], [68.12398906495595, 43.20699605653859], [68.12522263990775, 43.2145785259996]]], [[[68.08206040755054, 43.16981634606571], [68.07919645391524, 43.16576410550135], [68.06867985002029, 43.16535918669691], [68.06247174768387, 43.17511519033974], [68.06241851349719, 43.17855299492695], [68.0647735341234, 43.180678243884884], [68.07339250383481, 43.18240911520447], [68.07823742031788, 43.17914222416766], [68.08206040755054, 43.16981634606571]]]]}, "properties": {}}