{"type": "Feature", "geometry": {"type": "MultiPolygon", "coordinates": [[[[-72.74206720724449, -41.55086253771379], [-72.74152355836885, -41.541089591629664], [-72.73990991462409, -41.5384066452265], [-72.73650238643856, -41.537594289245654], [-72.72736449189325, -41.54004399583856], [-72.72551155196619, -41.54784718480357], [-72.7282672491299, -41.55242698121603], [-72.72806748232153, -41.55743452925798], [-72.72973372102108, -41.55997942585137], [-72.73340532817356, -41.56059143588818], [-72.73866240049071, -41.557289950021094], [-72.74206720724449, -41.55086253771379]]], [[[-72.86527847863216, -41.487882395068766], [-72.86459036391996, -41.48472719485177], [-72.85841257589068, -41.47830520056404], [-72.8403241268146, -41.47912720924517], [-72.83717786787558, -41.48230054491065], [-72.83920417149592, -41.49358636116268], [-72.8455046585028, -41.497161406167194], [-72.84693135877752, -41.50366375916977], [-72.85088840812178, -41.50608477740446], [-72.85382298851809, -41.50563383490489], [-72.85698676102837, -41.50244371650895], [-72.86419852143288, -41.49288504047143], [-72.86527847863216, -41.487882395068766]]], [[[-73.10275119140303, -41.540849375764815], [-73.1064456379146, -41.53576361968708], [-73.10732229929918, -41.52565466778766], [-73.10564335627687, -41.52268216813892], [-73.09884269938286, -41.52175782335679], [-73.09354163141364, -41.52324348275856], [-73.08929403648634, -41.5200783771703], [-73.08507434419633, -41.51916430247541], [-73.07310847937467, -41.50342212154745], [-73.06391580031288, -41.501230807595995], [-73.0565431518544, -41.493140306569686], [-73.05140994225299, -41.49120373715401], [-73.04062003955411, -41.48230149902089], [-73.0352172148367, -41.4804131009394], [-73.02717362993094, -41.48284802138158], [-73.01896908828087, -41.47951648401907], [-73.01787499088019, -41.47630838529229], [-73.01897457954168, -41.47339570524757], [-73.02899613757323, -41.47141987882745], [-73.03219523900611, -41.46409774967406], [-73.0421483640553, -41.45369007414988], [-73.04213713737308, -41.45056668015333], [-73.03932011161719, -41.44636069879112], [-73.03994091354103, -41.440930500607955], [-73.0370134848663, -41.436720081861665], [-73.0321861749264, -41.43667285365737], [-73.0285596645576, -41.440143847718005], [-73.01825425015703, -41.44400061382681], [-73.0061419949785, -41.43409837026408], [-73.00408535894452, -41.42898127342085], [-73.00167162077507, -41.42718188636439], [-72.99144091525302, -41.428954072049905], [-72.98267922805022, -41.42742161306076], [-72.97595442561106, -41.43043061775763], [-72.97065779602532, -41.429494883426244], [-72.96562550730435, -41.4312116655178], [-72.96094320154893, -41.42714269517575], [-72.95889502874635, -41.420567091323804], [-72.95305942322912, -41.41821462861872], [-72.95001304720235, -41.418295291969756], [-72.94535818826472, -41.421126516588856], [-72.93819305325032, -41.416782455728956], [-72.93423266940567, -41.417006957023254], [-72.92744576521102, -41.42132478188724], [-72.92077524572548, -41.42196549021855], [-72.91671286007272, -41.41971151288347], [-72.91490785415121, -41.413503003457855], [-72.92153842509886, -41.405025570140026], [-72.92479760806742, -41.395773869531915], [-72.9250732325191, -41.39010982126023], [-72.92792705652536, -41.38765974315152], [-72.9545262733449, -41.390168989982826], [-72.95596545681316, -41.39321619754342], [-72.95405067904491, -41.4067040568661], [-72.95675706376137, -41.41011494083606], [-72.96855210564212, -41.407687629196246], [-72.97580757328294, -41.404013778228496], [-72.97709550293155, -41.40040206183265], [-72.97357804303998, -41.392609092905246], [-72.98034440135893, -41.38018935025926], [-72.98171571923561, -41.37449155007429], [-72.98468303845482, -41.37293171087853], [-72.99923875252584, -41.37331792062338], [-73.00227185294011, -41.37052047691061], [-73.00250595632114, -41.36591534275667], [-72.99821859696243, -41.3615640076293], [-72.99579627714019, -41.351529974378444], [-72.99537702230832, -41.33990408804067], [-72.99790032434713, -41.338074581379104], [-73.0070428091422, -41.33730029638284], [-73.01134942727788, -41.33191204980932], [-73.01886660186392, -41.33082289268512], [-73.02430689948764, -41.32600532542054], [-73.02555313369272, -41.32265641600643], [-73.02345335148384, -41.31572930198329], [-73.01834256964962, -41.313321879082444], [-73.01476586434018, -41.30776545601153], [-73.00537835078828, -41.30748854508958], [-73.00325498978785, -41.30177022113714], [-72.99725159599453, -41.29572367496462], [-72.97727258419164, -41.295693311560186], [-72.97506952194047, -41.29908862481852], [-72.9770850991414, -41.305629775838085], [-72.9744030645365, -41.31166380465216], [-72.97416781929427, -41.316870081294276], [-72.96882218006193, -41.321869079388826], [-72.96234280202808, -41.32354593091678], [-72.9573465243512, -41.322041380945585], [-72.95413253243687, -41.31471674416927], [-72.94682241711115, -41.310966457644135], [-72.94356203258032, -41.306644393342985], [-72.94066530317811, -41.30609232318517], [-72.93606042357709, -41.30784019093178], [-72.93442355556517, -41.31020072804962], [-72.93421282753998, -41.31578252907322], [-72.93686034943491, -41.320463756836844], [-72.93839869073867, -41.33150691220713], [-72.93720748167799, -41.333972184102386], [-72.9326701608326, -41.336561315824184], [-72.92824653210079, -41.3450836219216], [-72.92789856694259, -41.34832172177801], [-72.92993917986371, -41.35291569130323], [-72.93693917396499, -41.354049355937676], [-72.94768600935389, -41.35008502777475], [-72.9553310306514, -41.35290153094839], [-72.97457120946244, -41.34614014756479], [-72.977652717858, -41.34754499372164], [-72.9784686043895, -41.35118929701945], [-72.96947679521423, -41.36128977241765], [-72.96199257716479, -41.36303416675911], [-72.95980478669092, -41.371567102018425], [-72.95459771187588, -41.3739288762852], [-72.95028078860965, -41.37878781716491], [-72.93018602644858, -41.37954956824388], [-72.92437629174013, -41.37526105244224], [-72.91078789394224, -41.37466997021185], [-72.9050266041379, -41.377549114545644], [-72.89704236373643, -41.37584564346968], [-72.89370096641657, -41.37750577552671], [-72.88569049210349, -41.392063166355264], [-72.88719508642437, -41.3947694210124], [-72.89295846586272, -41.39811375213395], [-72.89842940881354, -41.41965570088686], [-72.89593638755012, -41.421947390460296], [-72.87351894780691, -41.42672228189543], [-72.8712229922177, -41.43093892357701], [-72.8775772932689, -41.441675889982854], [-72.88610585878018, -41.43989667647125], [-72.89137666573782, -41.44090522984931], [-72.89975916572475, -41.43636070168207], [-72.90278207442402, -41.438026024172544], [-72.90456937311733, -41.4427343127172], [-72.89709807009328, -41.451003823909815], [-72.8857379185302, -41.45546074759825], [-72.883788998237, -41.45758236616883], [-72.88469244367637, -41.46347035483882], [-72.88958759695078, -41.46719977987274], [-72.89049677778895, -41.470150581111525], [-72.88871406513105, -41.47310348065045], [-72.88179684241814, -41.476331669564445], [-72.87991766081932, -41.485056890849684], [-72.88062304628198, -41.488461734215335], [-72.88537130500723, -41.491446753581194], [-72.8887716818203, -41.49827581279406], [-72.89324917537103, -41.4988764054817], [-72.8986360996864, -41.49713803868212], [-72.90403120453172, -41.49087676977535], [-72.92142927746478, -41.479667135689645], [-72.93990135555333, -41.47712442305778], [-72.94455391683555, -41.479477196296926], [-72.94509546692456, -41.48654429921658], [-72.94743100542033, -41.48899256119234], [-72.95624148264321, -41.48838254285369], [-72.96629775692907, -41.49151285069662], [-72.9729887301625, -41.4899614662969], [-72.97597232514775, -41.4910690302638], [-72.97728809836083, -41.4942884110026], [-72.97513951663063, -41.5004458763612], [-72.97920891715171, -41.50802005249004], [-72.9789335656809, -41.51381621471772], [-72.98274600535527, -41.51808051787793], [-72.98981115968638, -41.51782193718175], [-72.99484287241762, -41.514403761788174], [-73.00092168764508, -41.51552146484289], [-73.00704499075304, -41.51085005676759], [-73.01343881773468, -41.51413059182869], [-73.02003873911394, -41.5125834007254], [-73.02648573595818, -41.518133071374514], [-73.03611920808892, -41.52179026752812], [-73.03706350460519, -41.524705461520924], [-73.03570002040226, -41.53021469179161], [-73.03828652341568, -41.53331203202352], [-73.04160559706808, -41.53380947871535], [-73.04616621172217, -41.531992878791534], [-73.05224807217463, -41.534983773922264], [-73.05991175311092, -41.53417263357934], [-73.06381376465445, -41.53938812152876], [-73.06650766050721, -41.54054796538324], [-73.08205511534479, -41.53858007664127], [-73.08852404064224, -41.53484985845084], [-73.09688805502716, -41.54346442415564], [-73.10061937020632, -41.54335916003361], [-73.10275119140303, -41.540849375764815]]], [[[-73.02246827937782, -41.57241873330497], [-73.0200396546156, -41.56868355676294], [-73.01854356535486, -41.55971582095173], [-73.01664896870072, -41.55773332004177], [-73.00815701352569, -41.55742498668929], [-73.00299747130546, -41.552318800248905], [-72.99601285417152, -41.54948694593154], [-72.9866523437326, -41.54991285785178], [-72.98273928063968, -41.552991123407075], [-72.98221888619122, -41.55743689533129], [-72.98648522386254, -41.56220717749595], [-72.99505111595562, -41.5646186511907], [-73.00531764592982, -41.56239777129613], [-73.00859213373941, -41.56530695455644], [-73.00667618749907, -41.5747512430492], [-72.9997959980018, -41.57645409354015], [-72.99324326891505, -41.58176146367882], [-72.9939444915355, -41.5876041342191], [-72.9917272709016, -41.59357519188466], [-72.99642053557264, -41.59793009423858], [-73.00501017037782, -41.59809134481165], [-73.01344902633014, -41.5925276791462], [-73.01465806362444, -41.589837849761885], [-73.01420495541814, -41.58193367889585], [-73.02186190132771, -41.58033888619982], [-73.0245437210618, -41.57788465385769], [-73.02472268924049, -41.57485093931119], [-73.02246827937782, -41.57241873330497]]], [[[-73.03695261362496, -41.255188032188514], [-73.03254937296549, -41.251017911266295], [-73.02168001963186, -41.250890825350666], [-73.01380159938992, -41.243070339404284], [-73.00825111135502, -41.24262357710332], [-72.99750046940811, -41.2496156920056], [-72.99613947635687, -41.25680913886293], [-72.98832799209893, -41.26305145601582], [-72.98444036915407, -41.274193353045504], [-72.99005771103003, -41.279285309876215], [-72.99549497636959, -41.276723012565334], [-73.00188907357953, -41.276461893005106], [-73.00680586216178, -41.28684749452184], [-73.01042027277236, -41.28805126794165], [-73.01413704984836, -41.28708725529388], [-73.01676796454007, -41.283126794387144], [-73.01223963915018, -41.2687016606122], [-73.0128263416117, -41.26571562764658], [-73.01572944467493, -41.26394540889936], [-73.03462321708967, -41.26415477834815], [-73.03687998235573, -41.261536592307095], [-73.03695261362496, -41.255188032188514]]], [[[-73.08850165132495, -41.42613310381103], [-73.08607224045548, -41.421014465636524], [-73.07773686259142, -41.42134941835308], [-73.06679732983275, -41.42746181510692], [-73.05428004799538, -41.425813139461525], [-73.05045207990236, -41.428842893836745], [-73.04972649092704, -41.43188527780197], [-73.05417608148082, -41.438559242414804], [-73.05879396894575, -41.44002498823219], [-73.06215135985939, -41.4383932631863], [-73.06623360262495, -41.43281467964729], [-73.07272588561413, -41.43367601273817], [-73.08529386830067, -41.43120347652271], [-73.08763834020496, -41.42949593538526], [-73.08850165132495, -41.42613310381103]]], [[[-73.09130104571467, -41.32386091907543], [-73.08901238186053, -41.31942608078236], [-73.08268914288641, -41.318273232188595], [-73.07658206393823, -41.32024101847862], [-73.05577116753838, -41.32155887216748], [-73.05296570475278, -41.324251184325774], [-73.05173816482464, -41.334249259498826], [-73.05445631796862, -41.33696346373294], [-73.06518844090002, -41.338099539894515], [-73.0676999662919, -41.33638418815768], [-73.06964872506718, -41.33155416555025], [-73.0728921771951, -41.330497119432295], [-73.07981744309298, -41.337409701305134], [-73.08475483217707, -41.33790763324069], [-73.09129684848817, -41.328385459121165], [-73.09130104571467, -41.32386091907543]]]]}, "properties": {}}