{"type": "Feature", "geometry": {"type": "MultiPolygon", "coordinates": [[[[-109.73251418052037, 23.017853574853547], [-109.73231876340063, 23.020611163806976], [-109.7299742607204, 23.022979846964912], [-109.72461417701709, 23.022919039315813], [-109.71829821185156, 23.026664152292277], [-109.71435941731748, 23.026392731174937], [-109.71231591052268, 23.023127785107796], [-109.71344369642216, 23.014697306883846], [-109.71226106080042, 23.005880085739946], [-109.71471940289689, 23.003948871444997], [-109.71822806218837, 23.004251231967256], [-109.72285498664291, 23.008532020705484], [-109.72478284815298, 23.012793392591924], [-109.73060170812354, 23.014985122292952], [-109.73251418052037, 23.017853574853547]]], [[[-109.99679336207272, 22.8889318480954], [-109.99579599740743, 22.894575791516015], [-109.99014213663376, 22.89631853078796], [-109.98792903957157, 22.898992967914143], [-109.98953693133633, 22.908513504091236], [-109.98325492787107, 22.915445242940617], [-109.97692679818329, 22.91490406371721], [-109.97187074938759, 22.919377932308194], [-109.96320713140096, 22.920458071971673], [-109.9487696058238, 22.915948799892544], [-109.94443602507853, 22.9116806023707], [-109.93988378371137, 22.912808097196635], [-109.93896103766131, 22.91644352903225], [-109.94193468745272, 22.923152236375802], [-109.9505451626075, 22.933572505331618], [-109.95045969560465, 22.947010224884743], [-109.94357813045657, 22.95314535779319], [-109.93491348673523, 22.949627636781194], [-109.93193387226896, 22.95005482107364], [-109.93009575767599, 22.952438499644774], [-109.9295908241614, 22.957698206720902], [-109.92584872733603, 22.961690068895006], [-109.92175189178158, 22.9608906121535], [-109.91510490582263, 22.95187054233893], [-109.91595556247155, 22.946550312443996], [-109.9137827216001, 22.940397313584054], [-109.9162236139625, 22.93378117341008], [-109.91334196356118, 22.925594984896854], [-109.91300618684869, 22.917778198691856], [-109.9166201786153, 22.911744005354784], [-109.91511185272795, 22.907434900348395], [-109.91063579429778, 22.905450725250194], [-109.90759991074172, 22.90602061130502], [-109.90123811497001, 22.912975615381438], [-109.90216513117201, 22.919809094010557], [-109.900831830185, 22.922691796181812], [-109.88917845921607, 22.923451482020774], [-109.88649835107717, 22.925904014849845], [-109.88434741815469, 22.931509501745435], [-109.87688828660797, 22.933909767889087], [-109.87326089274205, 22.93218117451417], [-109.87061411263616, 22.924799944249678], [-109.86590630950839, 22.922826973447318], [-109.85995630743558, 22.917584943297758], [-109.85647021327831, 22.911523364015462], [-109.85327388554138, 22.910433851391904], [-109.8501825108234, 22.912510239726306], [-109.84749281587322, 22.921131495762168], [-109.84257101408038, 22.92523183362486], [-109.82916700718489, 22.929613361289594], [-109.8144729018225, 22.939737958983542], [-109.81350372081037, 22.94269184763002], [-109.81515638741801, 22.94828980317929], [-109.81103256509907, 22.956326882540523], [-109.80643365060848, 22.962374406960436], [-109.80003472199024, 22.962673299088863], [-109.79748714994095, 22.964902018181945], [-109.79752296049499, 22.968828613863668], [-109.80172364321405, 22.974520939654216], [-109.79889976025066, 22.97934545783596], [-109.79502870478385, 22.9801891190455], [-109.78842851625663, 22.975775103103746], [-109.77707692120794, 22.981227101012653], [-109.77236865200034, 22.97867971292833], [-109.77172243633305, 22.974948692470566], [-109.7733743041314, 22.97201067476277], [-109.79626983889536, 22.960970025716225], [-109.79843146592782, 22.950579951281338], [-109.80276782963111, 22.947398140725607], [-109.8048473274517, 22.94208514170025], [-109.81164283584, 22.93851943830467], [-109.81133517135918, 22.930409672609112], [-109.81315959876439, 22.924859344518882], [-109.83798522507256, 22.908530171223795], [-109.84284205016993, 22.899014993570212], [-109.85580511172492, 22.89443485346687], [-109.86116307648354, 22.895110927860042], [-109.86694567873522, 22.892729855916834], [-109.87065455089113, 22.89376581370446], [-109.87646858895299, 22.89954179727112], [-109.88313871929773, 22.898461127987318], [-109.88650599870364, 22.893929850501507], [-109.89537380981233, 22.890947913996502], [-109.90101546797156, 22.885236637749834], [-109.90108734457914, 22.880898431266242], [-109.89669320094478, 22.87558471317098], [-109.89923826324781, 22.87128184830647], [-109.92503528804731, 22.868182959219425], [-109.93984298784078, 22.86916659511143], [-109.94695682273516, 22.872240178877604], [-109.95240161912277, 22.870200030254583], [-109.9584425548258, 22.870690409398136], [-109.96091179404563, 22.874043943382024], [-109.95923063042004, 22.87916510138205], [-109.96018348398985, 22.886091105717416], [-109.96425808841875, 22.89017838570412], [-109.96588276518972, 22.896121189246795], [-109.9701454524956, 22.898317758048815], [-109.97310686562511, 22.897646061008036], [-109.97577167106307, 22.8941745715309], [-109.9770574997521, 22.889751259157666], [-109.97553681808488, 22.88296671013746], [-109.9773085902004, 22.87924839613336], [-109.98011699677502, 22.877613264457604], [-109.9831514238277, 22.877676436138636], [-109.99170715429318, 22.882807858003996], [-109.99563533075862, 22.88589600331008], [-109.99679336207272, 22.8889318480954]]], [[[-110.02323259002037, 22.907914525866033], [-110.02429883168337, 22.91178036684457], [-110.02161405621007, 22.91458579947413], [-110.01295718291261, 22.914498136927413], [-110.00641550334397, 22.91746962818851], [-110.002430543745, 22.914440874179384], [-110.00299260772509, 22.90889295976568], [-110.01295833921972, 22.900747677319785], [-110.01741021842851, 22.901587408673254], [-110.02323259002037, 22.907914525866033]]]]}, "properties": {}}