{"type": "Feature", "properties": {"city": "Cabo San Lucas", "country": "Mexico", "real_area": 43.49}, "geometry": {"type": "LineString", "coordinates": [[-109.982554259414, 22.9025746734955], [-109.978076509366, 22.9058297950644], [-109.972774358815, 22.9038828894284], [-109.971950272173, 22.898680982546], [-109.966648484237, 22.8967338649756], [-109.962170469249, 22.8999885338841], [-109.956868730403, 22.8980410840818], [-109.956045320166, 22.8928390859085], [-109.9507439442, 22.8908914245178], [-109.949920826139, 22.8856894144987], [-109.944619813126, 22.8837415417441], [-109.943796987203, 22.8785395201235], [-109.938496337217, 22.8765914362293], [-109.934018199933, 22.879845253132], [-109.928717599923, 22.8778968373807], [-109.924239128489, 22.8811504011153], [-109.918938578768, 22.8792016535165], [-109.918116813503, 22.873999463253], [-109.912816627264, 22.8720505049828], [-109.908337893431, 22.8753036158253], [-109.903037757985, 22.8733543258392], [-109.898558690683, 22.8766071832685], [-109.899379687106, 22.8818095302104], [-109.894900214683, 22.8850623335871], [-109.895721118659, 22.8902647476957], [-109.901021879607, 22.8922142802496], [-109.9018430757, 22.897416683169], [-109.897363126259, 22.9006696316746], [-109.892062052571, 22.8987199778219], [-109.88758176981, 22.901972672369], [-109.882280747601, 22.9000226864732], [-109.877800131763, 22.9032751269196], [-109.878620465974, 22.9084777525697], [-109.883921800792, 22.9104278598864], [-109.888402488771, 22.9071752201163], [-109.893703875192, 22.9091249952776], [-109.8981842299, 22.9058721013671], [-109.90348566761, 22.9078215443631], [-109.907965688802, 22.9045683964545], [-109.913267177487, 22.9065175072755], [-109.914088957933, 22.9117198870832], [-109.919390810375, 22.9136687867009], [-109.920212883056, 22.918871154586], [-109.915732718697, 22.9221247012407], [-109.916554699031, 22.9273271354128], [-109.921857228365, 22.9292759444918], [-109.922679501008, 22.9344783663347], [-109.918198859641, 22.937732057499], [-109.919021039933, 22.9429345452354], [-109.914539992939, 22.9461881813247], [-109.91536208084, 22.9513907347229], [-109.920665600528, 22.9533395736498], [-109.921487980848, 22.9585421141501], [-109.926791864424, 22.9604907408928], [-109.931273054233, 22.9572367064158], [-109.930450289135, 22.9520342443955], [-109.934931073156, 22.9487801547244], [-109.940234693451, 22.950728327866], [-109.944715142789, 22.9474739839595], [-109.950018812916, 22.9494218241942], [-109.95449892733, 22.9461672261948], [-109.953675300755, 22.9409649872986], [-109.94837194431, 22.9390172675328], [-109.94754861013, 22.9338150156536], [-109.952028247889, 22.9305605624472], [-109.957331290646, 22.9325081617541], [-109.961810593382, 22.9292534548188], [-109.960986782662, 22.9240513480337], [-109.9556840536, 22.9221038691758], [-109.954860535205, 22.9169017497317], [-109.959339361513, 22.9136471881914], [-109.964641776873, 22.9155945466102], [-109.969120268061, 22.9123397317048], [-109.974422732444, 22.9142867576575], [-109.978900888266, 22.9110316895296], [-109.984203401358, 22.9129783830068], [-109.988681221573, 22.9097230617991], [-109.98785645855, 22.9045212467687], [-109.982554259414, 22.9025746734955]]}}