{"type": "Feature", "geometry": {"type": "MultiPolygon", "coordinates": [[[[-110.80050652841338, 29.145846625863776], [-110.80024104449387, 29.150292241096224], [-110.79440447678572, 29.154093127731407], [-110.78898372784593, 29.155125955875288], [-110.78476670364405, 29.151417215286745], [-110.78494633641608, 29.146745264181888], [-110.7916515504156, 29.140229991339776], [-110.79513128500867, 29.140637799388767], [-110.80050652841338, 29.145846625863776]]], [[[-110.83568108385653, 28.92777840862549], [-110.83019479796332, 28.937256947352374], [-110.82178785353396, 28.936995926534664], [-110.8161333861231, 28.940215458586703], [-110.81222929067974, 28.93771456953836], [-110.81195526178594, 28.932234264740025], [-110.8234640506782, 28.920303200514013], [-110.83450752060284, 28.91931207589238], [-110.83741753258919, 28.922764359647783], [-110.83568108385653, 28.92777840862549]]], [[[-110.83083294066618, 29.19080046688693], [-110.8265805722835, 29.18854299153244], [-110.82540960196411, 29.181809813422536], [-110.82724875536891, 29.17859975760665], [-110.83178565299889, 29.17772761788653], [-110.83506382167803, 29.179755142700404], [-110.83623863035541, 29.185930327956886], [-110.83490873208979, 29.188808010164973], [-110.83083294066618, 29.19080046688693]]], [[[-110.84420843283583, 29.10997138118385], [-110.84032303132433, 29.11660232690156], [-110.83502805877711, 29.118813823119552], [-110.82883061245222, 29.113518721267152], [-110.8262938841129, 29.105267461937096], [-110.83059375996162, 29.10121804291315], [-110.83914415604528, 29.10138291560872], [-110.84481616261773, 29.10516334125325], [-110.84420843283583, 29.10997138118385]]], [[[-110.83174434123868, 29.03010889708493], [-110.83735528806496, 29.028809880834785], [-110.84049644008782, 29.03131051295247], [-110.84026360024377, 29.034711345462732], [-110.83589918841707, 29.040110770167257], [-110.83113934364323, 29.040203989665933], [-110.82866170739446, 29.037828252969614], [-110.82864012557836, 29.034073296579905], [-110.83174434123868, 29.03010889708493]]], [[[-110.8555698528236, 29.272260294044237], [-110.85534303458638, 29.278322601063937], [-110.85213251723995, 29.28088839712522], [-110.84393996428024, 29.279009164213456], [-110.84154705612039, 29.27401090850388], [-110.84244842665531, 29.270777671514107], [-110.84519798758241, 29.26922283129925], [-110.85259879214853, 29.269905602291047], [-110.8555698528236, 29.272260294044237]]], [[[-110.89869791889232, 29.173220411374682], [-110.89797501291649, 29.185008955639095], [-110.8913659138859, 29.194494200445693], [-110.88849713544626, 29.195641359125908], [-110.87591902066916, 29.1943292757082], [-110.86889958288899, 29.200610379356103], [-110.86245537393577, 29.19811901893502], [-110.86015536254259, 29.186586536146958], [-110.84887348856074, 29.185517213773856], [-110.8438321317592, 29.177320984805828], [-110.8469032419097, 29.170832370093443], [-110.85316653513216, 29.169609839930715], [-110.8563434987301, 29.171915239116895], [-110.86064320667455, 29.18217718384477], [-110.87107425090468, 29.182848734572726], [-110.87378688710353, 29.18144007093378], [-110.87565529025485, 29.174023952276247], [-110.8749534415431, 29.16812088876113], [-110.87679315755621, 29.1635504118383], [-110.88370727529754, 29.160628516278425], [-110.8853048380686, 29.15763524222752], [-110.88373031544404, 29.15424135745085], [-110.8777040316053, 29.151304129875985], [-110.87482109515676, 29.141769172808186], [-110.87688657644114, 29.138454223790365], [-110.88142753815877, 29.135607327093766], [-110.88342626162022, 29.13059683770722], [-110.88594938295925, 29.129385569438146], [-110.89213664706932, 29.13139598317029], [-110.89398648498931, 29.134599129518467], [-110.89322887610047, 29.14781647246138], [-110.88781304212414, 29.15432325672366], [-110.88737916315725, 29.157406767344423], [-110.88964575677684, 29.160044921890464], [-110.89746063737404, 29.162208287737606], [-110.89892611783168, 29.165583057970004], [-110.89869791889232, 29.173220411374682]]], [[[-110.86973165777663, 29.08762887699681], [-110.86062011138493, 29.094916234337855], [-110.85614860082119, 29.09475542806586], [-110.85375819133138, 29.092216353369512], [-110.85496712697329, 29.087920589135074], [-110.86516726097511, 29.08008735034008], [-110.8705701861559, 29.082034420355125], [-110.8711871626251, 29.084907419498276], [-110.86973165777663, 29.08762887699681]]], [[[-110.86687665941791, 28.96579537833743], [-110.86593524236731, 28.970667273996074], [-110.86202559699184, 28.97299842554348], [-110.85642978435362, 28.971041456776145], [-110.85437353048289, 28.96669550694523], [-110.85601827693027, 28.962871385406732], [-110.85874091606452, 28.96148351879546], [-110.86382962907177, 28.962486845521102], [-110.86687665941791, 28.96579537833743]]], [[[-110.87941105759653, 29.026553687402448], [-110.87590124918673, 29.033733451351196], [-110.8688902416773, 29.03345810776794], [-110.8674532403629, 29.028615972220013], [-110.86912848624488, 29.017126201980652], [-110.87421080769545, 29.014861742613775], [-110.87750416857617, 29.015948744887215], [-110.88060914722331, 29.022868220233264], [-110.87941105759653, 29.026553687402448]]], [[[-110.89196684906264, 29.220189885040703], [-110.88973273429824, 29.225307894644498], [-110.88339317709836, 29.226239382033935], [-110.87584248187969, 29.221823757491265], [-110.87589494050488, 29.21409213830538], [-110.88171781396383, 29.207258290730117], [-110.88981688879343, 29.2071463175205], [-110.89234467862234, 29.210288354981568], [-110.89196684906264, 29.220189885040703]]], [[[-110.89161653104124, 29.255710020714112], [-110.89043689426748, 29.26786304146338], [-110.88668500679263, 29.269471166526305], [-110.88159604451144, 29.267155095964604], [-110.88026983298363, 29.263576402462167], [-110.8818295105479, 29.254765400397826], [-110.88500572341087, 29.250067077493053], [-110.88458496288504, 29.240779205049595], [-110.88771665754804, 29.237579538643676], [-110.89398496289682, 29.23798074354961], [-110.89658258833988, 29.240839387481408], [-110.89643991149309, 29.247728152849433], [-110.89188014284483, 29.251939417874492], [-110.89161653104124, 29.255710020714112]]], [[[-110.9451300263226, 29.01809541407298], [-110.94706394506544, 29.02269428053708], [-110.9463541843157, 29.025924147279145], [-110.94253101204175, 29.028820761324976], [-110.94046109993049, 29.03368073419199], [-110.9359734785722, 29.03570555118103], [-110.93350192249332, 29.04026387553633], [-110.92953599017314, 29.042858300020363], [-110.92043473704065, 29.04091271867178], [-110.91656762145806, 29.036279391904216], [-110.91017436943503, 29.03425824989695], [-110.90423792921906, 29.036645418258573], [-110.89427298521032, 29.03585443190924], [-110.8923823695083, 29.033482278838143], [-110.8924125464161, 29.029279138040497], [-110.89524993509458, 29.025800206834152], [-110.89664289098867, 29.02033804790696], [-110.90319450214604, 29.016610726411905], [-110.90379058066956, 29.010194331985797], [-110.90596895505332, 29.005897093238236], [-110.90508568313398, 29.002999940654647], [-110.89830874104327, 28.996871684342157], [-110.8964073230288, 28.992561145519776], [-110.89694957629654, 28.989582524236415], [-110.90257698367328, 28.985592279341944], [-110.90897076893086, 28.986146499676657], [-110.91304475113671, 28.98947050986348], [-110.91855232692684, 28.999105595497234], [-110.92169638404391, 29.000425855014345], [-110.92699254184693, 28.99690905403025], [-110.9352092919776, 28.995959717659975], [-110.94027835184349, 28.986952506239543], [-110.94547662600337, 28.98751755733783], [-110.94771496609204, 28.99097556187455], [-110.94694556661415, 28.997374486130603], [-110.94029744690324, 29.000848927714895], [-110.93880272526908, 29.00448014117572], [-110.93919824098637, 29.010670090931807], [-110.94429380127413, 29.014474617354885], [-110.9451300263226, 29.01809541407298]]], [[[-110.91724567086621, 29.11694822600455], [-110.91241652116183, 29.118163291723114], [-110.90940307318844, 29.11665145357419], [-110.90452755300053, 29.10871716819981], [-110.90644663564552, 29.10416553037505], [-110.91340430310478, 29.1041311697264], [-110.9182687298118, 29.10802844494383], [-110.91921383190805, 29.114061562511], [-110.91724567086621, 29.11694822600455]]], [[[-110.91634738412212, 29.158191090194766], [-110.91412641442965, 29.162694825803328], [-110.90826667552182, 29.162874565567492], [-110.9060503534865, 29.159919826463796], [-110.90638229147538, 29.153259829747245], [-110.90903761244152, 29.15111544167828], [-110.9144311511462, 29.151394815576698], [-110.91655224652109, 29.15401550202737], [-110.91634738412212, 29.158191090194766]]], [[[-110.9542818859729, 29.099269376632265], [-110.95144534925737, 29.101510070343167], [-110.94461315141005, 29.101238714157297], [-110.94227906069688, 29.09877888908926], [-110.94206581813279, 29.09415966599356], [-110.94516055371592, 29.09170266085705], [-110.95195313505754, 29.092428311331762], [-110.95427792439938, 29.094852866384123], [-110.9542818859729, 29.099269376632265]]], [[[-110.96058147804791, 29.130715361231246], [-110.9633899242441, 29.136507434572536], [-110.96059473853953, 29.143337595970305], [-110.94789899355442, 29.14470451949234], [-110.9448151522586, 29.143208223273213], [-110.94351973791241, 29.136883650004098], [-110.95026315270226, 29.132177243516338], [-110.95278364021618, 29.12837355025992], [-110.95776999416027, 29.126955968196203], [-110.96058147804791, 29.130715361231246]]], [[[-110.96816892690556, 28.941238605458683], [-110.96944410791949, 28.944252423079995], [-110.96816086062621, 28.94923449235636], [-110.96265249284953, 28.950376412274643], [-110.95979730458006, 28.949161806406288], [-110.95820799663508, 28.943322365945022], [-110.95945716150281, 28.94024676425753], [-110.96429586470217, 28.939171168894248], [-110.96816892690556, 28.941238605458683]]], [[[-110.96885947935225, 29.02453708752656], [-110.96531466382037, 29.025300205795727], [-110.96005840946385, 29.023605155723068], [-110.95914748752067, 29.020410376808286], [-110.96103824499066, 29.015478829297038], [-110.96418369378257, 29.01452405067648], [-110.97187754662511, 29.0167101888925], [-110.97218778214899, 29.02205291092167], [-110.96885947935225, 29.02453708752656]]], [[[-110.97722659947267, 29.06619600677278], [-110.97906451139703, 29.071388395160263], [-110.97627609493408, 29.074672031006717], [-110.9627413652013, 29.07381707337329], [-110.95979897448984, 29.070991315269566], [-110.95998345799494, 29.064264637758285], [-110.96270884495567, 29.061576178109405], [-110.97027831005866, 29.060467006823878], [-110.97722659947267, 29.06619600677278]]], [[[-110.9751203955705, 28.98435327754856], [-110.9737164104509, 28.990409903449965], [-110.97007351659944, 28.99280500709344], [-110.96651846017511, 28.992070370998434], [-110.9629757524675, 28.9875075445722], [-110.96446250618708, 28.982379919506354], [-110.96989240244898, 28.97921108991611], [-110.97379624428882, 28.980332256480718], [-110.9751203955705, 28.98435327754856]]], [[[-111.04758981613061, 29.144590832791287], [-111.04272024867389, 29.146029041936004], [-111.03807370413126, 29.15903606753494], [-111.03018161765496, 29.1633170725155], [-111.02865954202748, 29.177880116918494], [-111.0173185628463, 29.1850376291573], [-111.01429812143003, 29.19335420582578], [-111.00153799121794, 29.19498483967299], [-110.9979776473206, 29.193058408745973], [-110.9953703127327, 29.184383219557503], [-110.9871160998005, 29.18384062447928], [-110.98438079333476, 29.180917545420595], [-110.98470940369559, 29.175229068470255], [-110.990331546426, 29.173053106795454], [-110.99223570977854, 29.17065255712461], [-110.99048899695939, 29.162601867580992], [-110.99296173909391, 29.157634352195792], [-110.9925184259463, 29.154079444759613], [-110.98778766694298, 29.15219128638101], [-110.98286487774656, 29.158410263141125], [-110.97740328073868, 29.15896562697002], [-110.97511448693928, 29.15640785369864], [-110.97358448803702, 29.146457089508317], [-110.97600991594449, 29.142721853023296], [-110.9833861669753, 29.141947849133917], [-110.98829786612794, 29.135479062734774], [-111.00213877628067, 29.13257021279433], [-111.01762814171772, 29.1337970890783], [-111.01951379988209, 29.130997267398108], [-111.0200181672111, 29.120680186192875], [-111.02473517481135, 29.118152020479904], [-111.02844565265806, 29.120578438331155], [-111.02999120057979, 29.12685640151109], [-111.02949302001771, 29.133085756903355], [-111.03189202882942, 29.135959919109137], [-111.03814254192235, 29.135353459649263], [-111.04450623625712, 29.13034867575373], [-111.05064445541345, 29.129224281070385], [-111.05355238099182, 29.130563021041244], [-111.05539199082763, 29.14241272808274], [-111.05270964438694, 29.144610611497097], [-111.04758981613061, 29.144590832791287]]], [[[-111.04279618731661, 29.075918566373268], [-111.04398632851895, 29.079644470103393], [-111.04181457229087, 29.086567558433202], [-111.0346497739555, 29.092447689775828], [-111.03775132859835, 29.104271371108215], [-111.03628009844475, 29.107904415331756], [-111.02915991014314, 29.10855076849161], [-111.02527200945785, 29.10459009491656], [-111.02049210389792, 29.103348058789898], [-111.01627970167581, 29.098917550913644], [-111.0091680498275, 29.101917164483222], [-111.00105939307764, 29.099817251907815], [-110.99772899136237, 29.104079385739016], [-111.0007380447166, 29.109934503855904], [-111.00019373257106, 29.116323036387247], [-110.9952038887974, 29.11985298737805], [-110.98948534891178, 29.118077093199968], [-110.98858015078943, 29.11070637081493], [-110.98998149830635, 29.105841144090395], [-110.98856361501313, 29.10090525751868], [-110.99047700712417, 29.094144166945952], [-110.9885442563216, 29.09179966306562], [-110.98192697999043, 29.090050663118753], [-110.98046741961582, 29.085608971230176], [-110.98183971668824, 29.08238008226689], [-110.98708557340241, 29.080990569849114], [-110.98909589078688, 29.078625711437073], [-110.98696791675525, 29.06653400206746], [-110.98845637132415, 29.063203022974346], [-110.99210865839268, 29.062297814569323], [-110.99726719156727, 29.065677983488314], [-111.00596135767162, 29.065615767563713], [-111.0108467162842, 29.060096307050323], [-111.01609355361838, 29.058100325588065], [-111.02033773962484, 29.061683539318995], [-111.02255364247999, 29.068234800539475], [-111.03830808552635, 29.06828555120958], [-111.04279618731661, 29.075918566373268]], [[-111.01039256571278, 29.091764197308375], [-111.01708076389883, 29.087682903731476], [-111.01695780623224, 29.084589026338936], [-111.01384428390662, 29.08134897207368], [-111.005095340536, 29.083831478975227], [-111.00283334552286, 29.086390746219028], [-111.00220047323519, 29.08970345675188], [-111.0037515525628, 29.09241897465759], [-111.00760341640976, 29.093119527356837], [-111.01039256571278, 29.091764197308375]]], [[[-110.98981491574797, 28.94437871638726], [-110.98917700792751, 28.952206661611932], [-110.98644530124862, 28.953605535678804], [-110.98265215425249, 28.952683808652306], [-110.98121969375337, 28.948849019617317], [-110.98254179138982, 28.93903045633717], [-110.98524176613854, 28.937601402217755], [-110.98853022958939, 28.938303563638147], [-110.99013711950211, 28.940793321166925], [-110.98981491574797, 28.94437871638726]]], [[[-110.9951343245142, 28.974078293290322], [-110.99222136290513, 28.97621585343742], [-110.98466091896911, 28.97573617709598], [-110.98276844113718, 28.972914637153178], [-110.98322877985458, 28.96660802114894], [-110.98611254738822, 28.964706346846867], [-110.99378034102695, 28.965284058909333], [-110.99561294025573, 28.968118143609843], [-110.9951343245142, 28.974078293290322]]], [[[-111.08692111073337, 28.971974725613233], [-111.08264868688971, 28.972780275561693], [-111.07731976279308, 28.969595706752347], [-111.07107966214944, 28.97155523549595], [-111.03670136120088, 28.9646855645448], [-111.02370304781735, 28.966442836668847], [-111.0209881043008, 28.96306432440606], [-111.02264120986597, 28.95567809953638], [-111.01903441652952, 28.949573667605613], [-111.01434669822451, 28.95052335428081], [-111.01246053663976, 28.957129178537894], [-111.0102612857126, 28.95912246338955], [-111.00691420167696, 28.959155484345544], [-111.00202262861505, 28.956450304448506], [-111.0012162379195, 28.952903203717014], [-111.00376971762407, 28.948568539069502], [-111.00411372435089, 28.941913816471608], [-111.00908821979165, 28.938084887278972], [-111.0125019390758, 28.93770655529913], [-111.01686233970719, 28.94003568325588], [-111.03189751083728, 28.94209620808041], [-111.03707720178585, 28.94797802634683], [-111.061179977337, 28.952029202676083], [-111.06442712002831, 28.950274321433827], [-111.06782022537574, 28.941873686771654], [-111.07606473089714, 28.94250383606287], [-111.079556060268, 28.947081843263938], [-111.07912662190499, 28.954544932451487], [-111.08315582576252, 28.961426303346364], [-111.0885272394838, 28.966205643548875], [-111.08692111073337, 28.971974725613233]]], [[[-111.07525636778819, 29.006444516183098], [-111.07456787735502, 29.010255193750858], [-111.07115634405511, 29.01443800567266], [-111.06445920184218, 29.01497105309199], [-111.06118202228899, 29.01116902415416], [-111.05956761384266, 29.004670730881177], [-111.0465208647928, 29.001571484585668], [-111.04461330947656, 28.99684291791693], [-111.04786141171692, 28.992515444134067], [-111.0514790096191, 28.991893471546668], [-111.05927745410128, 28.99512978101036], [-111.06289975293507, 29.001440333012447], [-111.07255622544592, 29.001800212368394], [-111.07525636778819, 29.006444516183098]]], [[[-111.0777681936738, 29.070188904328578], [-111.08089469024482, 29.069896811848015], [-111.08943109689709, 29.063728842668013], [-111.09395336299302, 29.064584129907054], [-111.0959109547487, 29.067439919491104], [-111.09428376741513, 29.07636361847318], [-111.09243702720295, 29.078759467647494], [-111.08455371218076, 29.07776018061001], [-111.07967534928227, 29.081364183331207], [-111.0730700282053, 29.08255976638949], [-111.06914874876497, 29.08559478615833], [-111.0638909893531, 29.084725758642307], [-111.06255660805779, 29.080643970370915], [-111.06375765264433, 29.077638672994844], [-111.07461987011203, 29.070393110106007], [-111.0777681936738, 29.070188904328578]]], [[[-111.10376494994874, 29.09061181080299], [-111.10485198161666, 29.094162802094633], [-111.10181015495463, 29.100178306880032], [-111.09422028604513, 29.099407463192936], [-111.09167423606013, 29.097484855036203], [-111.0913271612717, 29.094359043069957], [-111.09427251171358, 29.088759616448552], [-111.10376494994874, 29.09061181080299]]], [[[-111.12107869181854, 29.045331631622293], [-111.12143595288344, 29.05326791938334], [-111.11845114389398, 29.055502400408056], [-111.11511901001492, 29.05513587209513], [-111.11195053530226, 29.050856145039432], [-111.11208385734729, 29.0402674251759], [-111.11484498248412, 29.038403395575703], [-111.11937101535509, 29.03887603329036], [-111.12123396862786, 29.041299092014228], [-111.12107869181854, 29.045331631622293]]], [[[-111.2114232621581, 29.001162180185965], [-111.19548205285736, 29.001842417013293], [-111.18964651761081, 28.995751320691955], [-111.18935588301166, 28.9920268234593], [-111.20607109218645, 28.979826979580885], [-111.20975082063129, 28.97960426551289], [-111.22097862458469, 28.993555674616676], [-111.21727819497241, 29.0003184163184], [-111.2114232621581, 29.001162180185965]]]]}, "properties": {}}