{"type": "Feature", "properties": {"city": "Hermosillo", "country": "Mexico", "real_area": 145.85}, "geometry": {"type": "MultiLineString", "coordinates": [[[-110.986295752371, 29.0764156155963], [-110.980713360169, 29.0745369211886], [-110.979804953608, 29.069375846299], [-110.98447852243, 29.0660935493861], [-110.99006055347, 29.0679721590681], [-110.9947337236, 29.064689521157], [-111.000315772518, 29.0665677062229], [-111.004988543684, 29.0632847274684], [-111.010570610116, 29.0651624879231], [-111.015242982045, 29.06187916848], [-111.020825065629, 29.0637565043283], [-111.025497038049, 29.0604728443517], [-111.031079138422, 29.0623497555986], [-111.035750711059, 29.0590657552435], [-111.034840128706, 29.0539050121523], [-111.029258390038, 29.0520281851448], [-111.028348131267, 29.0468672703253], [-111.022766770824, 29.0449901031748], [-111.018095307605, 29.0482737665192], [-111.012513964044, 29.0463961749973], [-111.007842101493, 29.0496794980281], [-111.002260775175, 29.0478014821298], [-111.001351672736, 29.0426402277761], [-111.006023480149, 29.03935707325], [-111.005114284771, 29.0341957316631], [-110.999533698397, 29.0323174607209], [-110.994861946257, 29.0356004467211], [-110.989281377581, 29.0337217516275], [-110.988372922107, 29.0285601553116], [-110.982792732393, 29.0266811209411], [-110.98188460034, 29.0215193539964], [-110.986556241529, 29.0182367051114], [-110.985648016407, 29.0130748513983], [-110.990319203711, 29.009792030952], [-110.989410885564, 29.0046300906955], [-110.983831796448, 29.0027508871738], [-110.982923801594, 28.9975887768336], [-110.977345091361, 28.9957092346651], [-110.972674015368, 28.998991717804], [-110.97358159386, 29.0041539117595], [-110.968910064162, 29.0074362234448], [-110.969817549499, 29.0125983309419], [-110.965145566055, 29.0158804709324], [-110.966052958191, 29.0210424917459], [-110.961380520958, 29.0243244598004], [-110.955800747692, 29.0224442385013], [-110.954893772183, 29.0172821343627], [-110.94931437852, 29.0154015744402], [-110.948407726352, 29.010239300303], [-110.953080051194, 29.0069576693172], [-110.952173305695, 29.0017953085815], [-110.946594651961, 28.9999144956506], [-110.945688229719, 28.9947519653066], [-110.940109955642, 28.9928708142816], [-110.935437743732, 28.9961521081148], [-110.929859489439, 28.9942705336068], [-110.925186880818, 28.9975514869243], [-110.919608646671, 28.995669488929], [-110.91493564161, 28.9989501015767], [-110.915840813688, 29.0041128807244], [-110.921419407661, 29.0059949644562], [-110.922324903, 29.0111575742359], [-110.927903877217, 29.0130393199988], [-110.928809695858, 29.0182017601754], [-110.934389050225, 29.020083167755], [-110.935295192211, 29.0252454380934], [-110.940874926634, 29.0271265072756], [-110.941781392006, 29.0322886075406], [-110.937107706085, 29.0355697215942], [-110.938014077993, 29.0407317345856], [-110.933339938295, 29.0440126758462], [-110.934246216693, 29.049174601339], [-110.939827051794, 29.0510555026226], [-110.944501248116, 29.0477743930327], [-110.950082102865, 29.0496548700251], [-110.950989121755, 29.0548165418547], [-110.946314868944, 29.0580978197531], [-110.947221794412, 29.0632594037744], [-110.9425470876, 29.0665405085308], [-110.936965511876, 29.0646598609951], [-110.932290407692, 29.0679406241677], [-110.933196822538, 29.0731022030606], [-110.92852126436, 29.0763827926629], [-110.922939348206, 29.0745016351882], [-110.918263392977, 29.0777818828651], [-110.919169296893, 29.0829434561144], [-110.924751573393, 29.0848246990185], [-110.925657800995, 29.0899861010302], [-110.920981334703, 29.0932663427687], [-110.921887468616, 29.0984276560026], [-110.917210548203, 29.1017077234475], [-110.918116588383, 29.1068689476789], [-110.923699966505, 29.1087500218569], [-110.928376943949, 29.1054697864263], [-110.933960342308, 29.1073504354965], [-110.938636922346, 29.1040698577001], [-110.944220340578, 29.1059500816668], [-110.945127539491, 29.1111109685565], [-110.940450902783, 29.1143917143506], [-110.941358008137, 29.1195525119984], [-110.946942167637, 29.1214324809332], [-110.947849596888, 29.1265931062493], [-110.953434136818, 29.1284727347956], [-110.954341890007, 29.1336331875454], [-110.959926810274, 29.1355124754894], [-110.960834887444, 29.1406727554381], [-110.956157626874, 29.1439538304842], [-110.95706561057, 29.1491140205024], [-110.962651272356, 29.1509930523856], [-110.963559580117, 29.1561530692136], [-110.969145622185, 29.158031759966], [-110.973822995057, 29.15475034922], [-110.97940905577, 29.1566286140746], [-110.984086029657, 29.1533468607332], [-110.989672108651, 29.1552246996948], [-110.990581575413, 29.1603843764176], [-110.996168034139, 29.1622618738095], [-110.997077825046, 29.167421376713], [-111.002664663412, 29.1692985323218], [-111.003574778505, 29.1744578611715], [-110.998897637859, 29.1777401180036], [-110.999807659783, 29.18289935622], [-111.005395239775, 29.1847762539655], [-111.010072435736, 29.1814938293452], [-111.015660033096, 29.1833703007476], [-111.020336828895, 29.1800875335568], [-111.025924443261, 29.1819635786212], [-111.030600838622, 29.1786804690149], [-111.02968956478, 29.1735214822133], [-111.034365504795, 29.1702381982319], [-111.033454138048, 29.1650791210071], [-111.027867248389, 29.1632032437226], [-111.026956205822, 29.1580439922042], [-111.031631635849, 29.154760702049], [-111.037218163151, 29.1566364954682], [-111.0418931926, 29.1533528634599], [-111.040981640178, 29.1481936060621], [-111.035395475235, 29.1463178964916], [-111.034484246906, 29.1411584651093], [-111.02889846065, 29.1392824136207], [-111.024223540523, 29.1425657095807], [-111.018637770959, 29.1406892323364], [-111.017727283637, 29.1355295431991], [-111.0224021489, 29.1322464152949], [-111.027987556373, 29.1341228084884], [-111.032662021461, 29.1308393389834], [-111.038247445489, 29.1327153065387], [-111.042921510129, 29.1294314955881], [-111.04850695035, 29.1313070375104], [-111.053180614269, 29.1280228852693], [-111.058766070318, 29.1298980015642], [-111.063439333243, 29.1266135081879], [-111.062527086047, 29.1214540667393], [-111.056941992497, 29.1195790341262], [-111.056030069261, 29.1144194190771], [-111.06070282304, 29.1111349212195], [-111.059790807211, 29.1059752173191], [-111.054206454089, 29.1040999267455], [-111.053294762134, 29.0989400496338], [-111.047710787032, 29.0970644176476], [-111.043038141675, 29.1003485789216], [-111.037454182587, 29.0984725217673], [-111.036543230982, 29.093312387324], [-111.030959650237, 29.0914359890827], [-111.030049022427, 29.0862756819772], [-111.024465820119, 29.0843989428623], [-111.019792883813, 29.0876824266816], [-111.020703095015, 29.0928428179122], [-111.016029704067, 29.0961261290706], [-111.010446156894, 29.0942488807021], [-111.00953636239, 29.0890884054963], [-111.014209698337, 29.085805262618], [-111.013299810891, 29.0806446990398], [-111.007717004173, 29.0787671944285], [-111.006807440441, 29.0736064587375], [-111.001225012577, 29.071728613792], [-110.996551787039, 29.0750114200466], [-110.990969376825, 29.0731331503725], [-110.986295752371, 29.0764156155963]], [[-110.997588513566, 29.051084464692], [-110.998497523021, 29.0562456315875], [-110.993824807173, 29.0595284419447], [-110.988243137296, 29.0576499169721], [-110.987334544458, 29.0524886663513], [-110.992007204854, 29.0492060244125], [-110.997588513566, 29.051084464692]], [[-110.960609755807, 28.990069084257], [-110.955938338142, 28.9933510586582], [-110.956845176927, 28.9985135057673], [-110.962423849856, 29.0003938951063], [-110.967095323605, 28.9971117520525], [-110.966188068366, 28.9919493883285], [-110.960609755807, 28.990069084257]], [[-111.044976913804, 29.0815840063072], [-111.040304777598, 29.0848681715433], [-111.041215821925, 29.0900283943738], [-111.046799418912, 29.0919043675592], [-111.051471609444, 29.0886200339458], [-111.050560148689, 29.0834598955403], [-111.044976913804, 29.0815840063072]]]}}