{"type": "FeatureCollection", "features": [{"type": "Feature", "properties": {"threshold": 70}, "geometry": {"type": "MultiPolygon", "coordinates": [[[[70.41872045954887, 52.94592552212463], [70.41177062379646, 52.945621442314014], [70.4117825900431, 52.95165956031837], [70.41812997421968, 52.95138495665567], [70.42013214976078, 52.95481181586726], [70.4230283701809, 52.95499595920752], [70.42952999044265, 52.949783758813], [70.43622716672121, 52.9493164024279], [70.44049651078608, 52.946698808267016], [70.44068852949954, 52.943773776700105], [70.43044930803384, 52.94152757648956], [70.42326608810137, 52.946188335975116], [70.41872045954887, 52.94592552212463]]], [[[70.3555314950774, 53.10360259882524], [70.35738505008311, 53.10708695511841], [70.36203689121994, 53.10785245887537], [70.37022503928463, 53.10545625276723], [70.3689664688022, 53.10080641037536], [70.36521324894366, 53.099932035271564], [70.35540117701422, 53.10135191573313], [70.3555314950774, 53.10360259882524]]], [[[70.28993575896358, 53.08706778902634], [70.28900134180053, 53.091262568539605], [70.29685218806685, 53.095785642503785], [70.31797331946368, 53.092359157455405], [70.3134645814423, 53.080906709397176], [70.32177494163085, 53.07624078408879], [70.32122556021902, 53.06651313966605], [70.31498617215384, 53.06647625639477], [70.30182355677951, 53.07342154962615], [70.30264593532236, 53.07916004779243], [70.29944213547046, 53.08325733917496], [70.28993575896358, 53.08706778902634]]], [[[70.14464979817568, 52.944612873006704], [70.15038821196109, 52.944577292604436], [70.15359314550713, 52.94878771660221], [70.16582479735801, 52.94507271072436], [70.16962384888411, 52.94629645575287], [70.17019362111343, 52.951718892260516], [70.15298473304395, 52.95708703769962], [70.15108356521182, 52.96409151279778], [70.15510307332653, 52.96763953227232], [70.16482672326971, 52.96744536565527], [70.17001333739773, 52.96073042653801], [70.17691014882473, 52.95723285534105], [70.18369179070744, 52.95691283882448], [70.1905538366759, 52.952259611385436], [70.205316015697, 52.95375178337644], [70.20827635155727, 52.951376351177046], [70.22523932567145, 52.94935240600034], [70.22084605608242, 52.94230666891425], [70.21554831909428, 52.940857099444756], [70.20744786666111, 52.93148873693491], [70.20290426980304, 52.92994210241055], [70.20124922735201, 52.92252737393629], [70.19590893025699, 52.9193415065258], [70.18471953737875, 52.920349163494485], [70.18069329315605, 52.915233482083224], [70.17585485298953, 52.91510677936571], [70.173027857704, 52.92024552598278], [70.16463042862532, 52.92059430863768], [70.162917276451, 52.913408323791884], [70.15384787403649, 52.91647519975711], [70.16279109862515, 52.920217209280544], [70.16213911662446, 52.9228298060341], [70.1400302089195, 52.924347763457874], [70.14043496243893, 52.92869627879007], [70.16095048904036, 52.93137954341592], [70.16343171904036, 52.93674612770496], [70.16205025941673, 52.93973661197786], [70.15499420028213, 52.94167207374477], [70.15070337124298, 52.93911160993373], [70.1428067028626, 52.93926390038294], [70.14464979817568, 52.944612873006704]]], [[[70.228497095031, 52.95178890195103], [70.2288355895974, 52.95341164733202], [70.23909293952457, 52.95478598813333], [70.24240113979945, 52.957012763347066], [70.25633418869656, 52.95507195280786], [70.257902621786, 52.96074723306358], [70.26158931191272, 52.96166498940779], [70.26938807296139, 52.96092785794925], [70.27180875039815, 52.95810879741572], [70.26613854785637, 52.95319828901178], [70.25587080954497, 52.95358787908732], [70.252753599193, 52.94964302707283], [70.24582840342124, 52.95150559348902], [70.23622850241094, 52.9491842839842], [70.228497095031, 52.95178890195103]]]]}}, {"type": "Feature", "properties": {"threshold": 80}, "geometry": {"type": "MultiPolygon", "coordinates": [[[[70.41872045954887, 52.94592552212463], [70.41177062379646, 52.945621442314014], [70.4117825900431, 52.95165956031837], [70.41812997421968, 52.95138495665567], [70.42019974342122, 52.954855102131404], [70.42413290290985, 52.95497399611261], [70.43053217714349, 52.950378281504904], [70.44060161277329, 52.947870671626795], [70.44063169960644, 52.94249836621511], [70.43035219018984, 52.94153747762604], [70.42326608810137, 52.946188335975116], [70.41872045954887, 52.94592552212463]]], [[[70.35150115778698, 53.10184272884061], [70.35786041744286, 53.10969145346851], [70.36572783885974, 53.11021003880231], [70.37021001156866, 53.10678737204799], [70.36843564452661, 53.0999295358986], [70.35671478766017, 53.09942061939484], [70.35124144491785, 53.10021747374454], [70.35150115778698, 53.10184272884061]]], [[[70.28817261159107, 53.090247225653194], [70.29694848946514, 53.09579905240309], [70.3190675752835, 53.09291153456351], [70.32021618360528, 53.090570025544565], [70.3158650877769, 53.089045746087855], [70.31512233726211, 53.083478001427174], [70.31717117922076, 53.07768951842065], [70.32159618641545, 53.07645143462668], [70.3236834806896, 53.07256799534356], [70.3231525633706, 53.06584316526241], [70.30568355821691, 53.064110790455295], [70.30700021485269, 53.07040991485128], [70.30156136106471, 53.07306858162938], [70.30247086099216, 53.07951635159643], [70.29870837979607, 53.08381602920626], [70.29101035988336, 53.08575531125868], [70.28817261159107, 53.090247225653194]]], [[[70.30385698481803, 53.06344169184496], [70.30289748002222, 53.057678217805396], [70.29641117460947, 53.05636458231996], [70.29300204067752, 53.05877648661777], [70.29632319359648, 53.062683988079236], [70.30385698481803, 53.06344169184496]]], [[[70.14163791765225, 52.94121597916148], [70.14286547292801, 52.94449646369391], [70.14972613991202, 52.94549599584178], [70.15030038062974, 52.94938499153977], [70.15802789542786, 52.949329991949874], [70.16428650551944, 52.946801542241715], [70.16764023465551, 52.948031118181994], [70.16304516824363, 52.954860520151584], [70.15298473304395, 52.95708703769962], [70.15108356521182, 52.96409151279778], [70.15500536572954, 52.96763175000825], [70.16482672326971, 52.96744536565527], [70.17001333739773, 52.96073042653801], [70.17478467725606, 52.96000875243187], [70.17694635047775, 52.95722320663118], [70.18369179070744, 52.95691283882448], [70.18704633806875, 52.95336099388048], [70.205316015697, 52.95375178337644], [70.20771799904932, 52.95152800674369], [70.21930699340199, 52.94930179203372], [70.22520708912754, 52.95027073603877], [70.224977857924, 52.94591575894782], [70.20276015167673, 52.929785541803085], [70.20109367058294, 52.922376309685376], [70.19539080536191, 52.91918076212733], [70.18418017582678, 52.92020151032912], [70.18017527264689, 52.915072670444786], [70.17419370956571, 52.9159505946521], [70.17256238135353, 52.92045117530085], [70.16520705614734, 52.92067562210152], [70.16258779221666, 52.91898483004385], [70.16481298616301, 52.91442580363527], [70.1615219541943, 52.9134451656529], [70.15385596505593, 52.91709833793642], [70.16259937259697, 52.92008058095819], [70.16213911662446, 52.9228298060341], [70.14024249420166, 52.92414899734421], [70.1403609633451, 52.92865702538215], [70.16095048904036, 52.93137954341592], [70.16344900644481, 52.936913765566274], [70.15441254299013, 52.94028627578425], [70.14307090793122, 52.93918527433192], [70.14163791765225, 52.94121597916148]]], [[[70.22637851826056, 52.95134678905762], [70.22682073632436, 52.95343246344375], [70.23356336237713, 52.954001833232034], [70.2353485927798, 52.957086278587106], [70.24674314347658, 52.95758462809139], [70.25633418869656, 52.95507195280786], [70.257902621786, 52.96074723306358], [70.26158931191272, 52.96166498940779], [70.26938807296139, 52.96092785794925], [70.27180875039815, 52.95810879741572], [70.27035154414959, 52.953827977345355], [70.25637668901913, 52.95375549647917], [70.252753599193, 52.94964302707283], [70.2440189547868, 52.95091549835258], [70.23622850241094, 52.9491842839842], [70.23139227275094, 52.95157904442895], [70.22637851826056, 52.95134678905762]]]]}}, {"type": "Feature", "properties": {"threshold": 90}, "geometry": {"type": "MultiPolygon", "coordinates": [[[[70.41872045954887, 52.94592552212463], [70.41177062379646, 52.945621442314014], [70.4117825900431, 52.95165956031837], [70.41812997421968, 52.95138495665567], [70.42019974342122, 52.954855102131404], [70.42413290290985, 52.95497399611261], [70.43130591622172, 52.950116383728975], [70.43969541764419, 52.95092473313987], [70.44063169960644, 52.94249836621511], [70.43035219018984, 52.94153747762604], [70.42326608810137, 52.946188335975116], [70.41872045954887, 52.94592552212463]]], [[[70.35146838950801, 53.10183140830348], [70.35881963204656, 53.11087225265026], [70.36581639984206, 53.11018357956785], [70.37018879544699, 53.107450007106344], [70.3685257981994, 53.0999539426374], [70.3516227228127, 53.0982613663716], [70.35146838950801, 53.10183140830348]]], [[[70.28817261159107, 53.090247225653194], [70.29801415078047, 53.09761320946554], [70.32314748388401, 53.09408343149041], [70.32304923021123, 53.090880767550495], [70.3158650877769, 53.089045746087855], [70.3150986131696, 53.08365657461159], [70.31731940152922, 53.07753419496216], [70.3257038141017, 53.07254550254837], [70.3230966246608, 53.06401799827755], [70.30568355821691, 53.064110790455295], [70.30700021485269, 53.07040991485128], [70.30156136106471, 53.07306858162938], [70.30247086099216, 53.07951635159643], [70.29870837979607, 53.08381602920626], [70.29101035988336, 53.08575531125868], [70.28817261159107, 53.090247225653194]]], [[[70.30385698481803, 53.06344169184496], [70.30893799150084, 53.05700331466179], [70.29641117460947, 53.05636458231996], [70.29300204067752, 53.05877648661777], [70.29632319359648, 53.062683988079236], [70.30385698481803, 53.06344169184496]]], [[[70.28520273902107, 52.788203858485794], [70.28612579476203, 52.79101886979853], [70.29463904076327, 52.78835194640014], [70.29760008183372, 52.78198852409562], [70.28920235731199, 52.78321325777274], [70.28520273902107, 52.788203858485794]]], [[[70.14163791765225, 52.94121597916148], [70.15021066229419, 52.94936041649168], [70.16158496635127, 52.947497798188834], [70.16507034939289, 52.94883443308056], [70.16304516824363, 52.954860520151584], [70.15295303354469, 52.957143375388384], [70.15108356521182, 52.96409151279778], [70.15500536572954, 52.96763175000825], [70.16482672326971, 52.96744536565527], [70.17001333739773, 52.96073042653801], [70.17478467725606, 52.96000875243187], [70.17694635047775, 52.95722320663118], [70.18369179070744, 52.95691283882448], [70.1867644359834, 52.95343598400322], [70.20541321483869, 52.95374206576791], [70.20771799904932, 52.95152800674369], [70.21959746599391, 52.949263994498715], [70.22331173339623, 52.950264593281176], [70.2238838071468, 52.953493338361135], [70.23334017671488, 52.95388382239474], [70.23525261865866, 52.95707281657965], [70.24674314347658, 52.95758462809139], [70.25633418869656, 52.95507195280786], [70.257902621786, 52.96074723306358], [70.26158931191272, 52.96166498940779], [70.26938807296139, 52.96092785794925], [70.27183099417707, 52.958050833534834], [70.27035154414959, 52.953827977345355], [70.25637668901913, 52.95375549647917], [70.252753599193, 52.94964302707283], [70.2440189547868, 52.95091549835258], [70.23622850241094, 52.9491842839842], [70.23139227275094, 52.95157904442895], [70.22623038589938, 52.951280346560324], [70.224977857924, 52.94591575894782], [70.20276015167673, 52.929785541803085], [70.20109367058294, 52.922376309685376], [70.19539080536191, 52.91918076212733], [70.18418017582678, 52.92020151032912], [70.18017527264689, 52.915072670444786], [70.17419370956571, 52.9159505946521], [70.17256238135353, 52.92045117530085], [70.16520705614734, 52.92067562210152], [70.16258779221666, 52.91898483004385], [70.16481298616301, 52.91442580363527], [70.1615219541943, 52.9134451656529], [70.15385596505593, 52.91709833793642], [70.16259937259697, 52.92008058095819], [70.16213911662446, 52.9228298060341], [70.14024249420166, 52.92414899734421], [70.1403609633451, 52.92865702538215], [70.16095048904036, 52.93137954341592], [70.16344900644481, 52.936913765566274], [70.15441254299013, 52.94028627578425], [70.14307090793122, 52.93918527433192], [70.14163791765225, 52.94121597916148]]], [[[69.93635027364276, 52.86335961071125], [69.93648745216748, 52.86766203175498], [69.94411331514799, 52.869670817459365], [69.96341390942642, 52.867285764796286], [69.95902084110615, 52.86184775242421], [69.95328583260655, 52.86078357978282], [69.95412954952721, 52.85666255543325], [69.94937875493461, 52.853861998093215], [69.9457271703157, 52.85723907382709], [69.9373523916663, 52.858413304120766], [69.93635027364276, 52.86335961071125]]]]}}, {"type": "Feature", "properties": {"threshold": 95}, "geometry": {"type": "MultiPolygon", "coordinates": [[[[70.41872045954887, 52.94592552212463], [70.41177062379646, 52.945621442314014], [70.4117825900431, 52.95165956031837], [70.41812997421968, 52.95138495665567], [70.42019974342122, 52.954855102131404], [70.42413290290985, 52.95497399611261], [70.43130591622172, 52.950116383728975], [70.43969541764419, 52.95092473313987], [70.44063169960644, 52.94249836621511], [70.43035219018984, 52.94153747762604], [70.42326608810137, 52.946188335975116], [70.41872045954887, 52.94592552212463]]], [[[70.35146838950801, 53.10183140830348], [70.35881963204656, 53.11087225265026], [70.36581639984206, 53.11018357956785], [70.37018879544699, 53.107450007106344], [70.3685257981994, 53.0999539426374], [70.3516227228127, 53.0982613663716], [70.35146838950801, 53.10183140830348]]], [[[70.28817261159107, 53.090247225653194], [70.29801415078047, 53.09761320946554], [70.32314748388401, 53.09408343149041], [70.32304923021123, 53.090880767550495], [70.3158650877769, 53.089045746087855], [70.3150986131696, 53.08365657461159], [70.31731940152922, 53.07753419496216], [70.3257038141017, 53.07254550254837], [70.3230966246608, 53.06401799827755], [70.30568355821691, 53.064110790455295], [70.30700021485269, 53.07040991485128], [70.30156136106471, 53.07306858162938], [70.30247086099216, 53.07951635159643], [70.29870837979607, 53.08381602920626], [70.29101035988336, 53.08575531125868], [70.28817261159107, 53.090247225653194]]], [[[70.30385698481803, 53.06344169184496], [70.30893799150084, 53.05700331466179], [70.29641117460947, 53.05636458231996], [70.29300204067752, 53.05877648661777], [70.29632319359648, 53.062683988079236], [70.30385698481803, 53.06344169184496]]], [[[70.28520273902107, 52.788203858485794], [70.28614374101821, 52.791627295938724], [70.29463904076327, 52.78835194640014], [70.29760008183372, 52.78198852409562], [70.28920235731199, 52.78321325777274], [70.28520273902107, 52.788203858485794]]], [[[70.14163791765225, 52.94121597916148], [70.15021066229419, 52.94936041649168], [70.16158496635127, 52.947497798188834], [70.16507034939289, 52.94883443308056], [70.16304516824363, 52.954860520151584], [70.15295303354469, 52.957143375388384], [70.15108356521182, 52.96409151279778], [70.15500536572954, 52.96763175000825], [70.16482672326971, 52.96744536565527], [70.17001333739773, 52.96073042653801], [70.17478467725606, 52.96000875243187], [70.17694635047775, 52.95722320663118], [70.18369179070744, 52.95691283882448], [70.1867644359834, 52.95343598400322], [70.20541321483869, 52.95374206576791], [70.20771799904932, 52.95152800674369], [70.21959746599391, 52.949263994498715], [70.22331173339623, 52.950264593281176], [70.2238838071468, 52.953493338361135], [70.23334017671488, 52.95388382239474], [70.23525261865866, 52.95707281657965], [70.24674314347658, 52.95758462809139], [70.25633418869656, 52.95507195280786], [70.257902621786, 52.96074723306358], [70.26158931191272, 52.96166498940779], [70.26938807296139, 52.96092785794925], [70.27183099417707, 52.958050833534834], [70.27035154414959, 52.953827977345355], [70.25637668901913, 52.95375549647917], [70.252753599193, 52.94964302707283], [70.2440189547868, 52.95091549835258], [70.23622850241094, 52.9491842839842], [70.23139227275094, 52.95157904442895], [70.22623038589938, 52.951280346560324], [70.224977857924, 52.94591575894782], [70.20276015167673, 52.929785541803085], [70.20109367058294, 52.922376309685376], [70.19539080536191, 52.91918076212733], [70.18418017582678, 52.92020151032912], [70.18017527264689, 52.915072670444786], [70.17419370956571, 52.9159505946521], [70.17256238135353, 52.92045117530085], [70.16520705614734, 52.92067562210152], [70.16258779221666, 52.91898483004385], [70.16481298616301, 52.91442580363527], [70.1615219541943, 52.9134451656529], [70.15385596505593, 52.91709833793642], [70.16259937259697, 52.92008058095819], [70.16213911662446, 52.9228298060341], [70.14024249420166, 52.92414899734421], [70.1403609633451, 52.92865702538215], [70.16095048904036, 52.93137954341592], [70.16344900644481, 52.936913765566274], [70.15441254299013, 52.94028627578425], [70.14307090793122, 52.93918527433192], [70.14163791765225, 52.94121597916148]]], [[[69.93630674649789, 52.86728174294411], [69.94953076930993, 52.86965081497211], [69.95258759006872, 52.867765951989945], [69.96293539517873, 52.86764841017391], [69.96340656936239, 52.865224575169236], [69.95886737570528, 52.86177357875177], [69.95362347680451, 52.861068649532925], [69.9540952058556, 52.85660680127705], [69.94798412275063, 52.85384994996197], [69.94597605601393, 52.85713147821332], [69.93724542681136, 52.858512988202584], [69.93630674649789, 52.86728174294411]]], [[[69.86009984092901, 52.827664316123936], [69.85955450073794, 52.836080336056256], [69.87403310777142, 52.835974621026885], [69.8738449191507, 52.82659811463526], [69.86009984092901, 52.827664316123936]]]]}}]}