{"type": "FeatureCollection", "features": [{"type": "Feature", "properties": {"threshold": 70}, "geometry": {"type": "MultiPolygon", "coordinates": [[[[-47.7588406278424, -15.744656745315929], [-47.75969153973667, -15.738336998602744], [-47.75691491119242, -15.733910413858762], [-47.74809134242041, -15.733087982981937], [-47.745400568497466, -15.7451807466979], [-47.748952159746075, -15.751327747989558], [-47.74141143836511, -15.760644038781173], [-47.74354507292876, -15.768098422434763], [-47.74810152988249, -15.767815353871946], [-47.74914502855035, -15.756426786882976], [-47.756336374619025, -15.75382687750721], [-47.7588406278424, -15.744656745315929]]], [[[-47.792369026796194, -15.896323265319845], [-47.78949867849921, -15.890150365004036], [-47.78379276496393, -15.891173943373346], [-47.78043687422176, -15.88510870305941], [-47.776314732888814, -15.885456652484862], [-47.77114246777992, -15.895490110596176], [-47.766140860634515, -15.893689370610847], [-47.767621720348465, -15.882719719343001], [-47.77093427670033, -15.87963984273866], [-47.77084216098872, -15.872016906320814], [-47.76370262124968, -15.868971572417589], [-47.762879532684, -15.880203543503804], [-47.75916887649961, -15.884394369793961], [-47.759200270192515, -15.898617694069497], [-47.75104871719446, -15.901433880906279], [-47.74858292752155, -15.912898981673633], [-47.75162293769371, -15.915764212212656], [-47.76332424245184, -15.918076164764576], [-47.768692436377734, -15.914488677262007], [-47.77100877628788, -15.909307974771902], [-47.77925279075487, -15.910514138406375], [-47.79047135586307, -15.903655121447832], [-47.792369026796194, -15.896323265319845]]], [[[-47.87332759196684, -15.655088010206251], [-47.85660029424673, -15.651118357776346], [-47.853429011305835, -15.658360190471617], [-47.8499775160504, -15.659203244751335], [-47.84731172450957, -15.651586929587191], [-47.83723943711885, -15.641512598121258], [-47.82991727962394, -15.641741121010842], [-47.82781236261039, -15.647264910470483], [-47.81621037700209, -15.648633976044353], [-47.80518442811863, -15.644398548363185], [-47.78926351807417, -15.646213721028603], [-47.777121060290774, -15.643096366843256], [-47.77195433015232, -15.64698066752189], [-47.76783952477805, -15.644041226898347], [-47.75382501801555, -15.645130939283593], [-47.748491325951996, -15.659807437947752], [-47.74962819464289, -15.666936433212458], [-47.75405679183182, -15.6662625855149], [-47.75669278958368, -15.656825011219297], [-47.76154515929187, -15.65632200713667], [-47.770772125784625, -15.648607375827574], [-47.77936591219442, -15.655276008528485], [-47.79406678481019, -15.661309412534617], [-47.79644453249488, -15.665725008411766], [-47.8054044679272, -15.666523410455929], [-47.81186314015132, -15.663684096163323], [-47.817331086491535, -15.652741795824825], [-47.836063839776244, -15.649982101683305], [-47.83722239106536, -15.655005903639891], [-47.83246805332822, -15.661067663013132], [-47.82727977335289, -15.664253337809626], [-47.82043487292185, -15.663062076770016], [-47.817227468286056, -15.665245083379075], [-47.81654800113701, -15.671764252083218], [-47.82696812226312, -15.679221046055678], [-47.81418998771006, -15.688185212454487], [-47.813432553417655, -15.694709103224007], [-47.818365656443866, -15.695901106873091], [-47.83587813593522, -15.6896887595562], [-47.83942590405203, -15.686020063116713], [-47.839056230258954, -15.676911010613088], [-47.85765082748933, -15.676331671551688], [-47.858824562087015, -15.66325898641035], [-47.862666480670725, -15.660138724724979], [-47.873360931920466, -15.658985422680475], [-47.87332759196684, -15.655088010206251]], [[-47.840160083684275, -15.674398143750903], [-47.838288918401595, -15.67715556486831], [-47.83206710094178, -15.676805723737026], [-47.82993099906029, -15.672147718395864], [-47.83347210702256, -15.670364269410264], [-47.840160083684275, -15.674398143750903]]], [[[-47.788902744023396, -15.75946040530921], [-47.77837096135045, -15.75798936836624], [-47.773708333631376, -15.763368803918867], [-47.77602098009331, -15.783317244624508], [-47.7881276072104, -15.779544701422441], [-47.786296299825246, -15.772632472518513], [-47.789734017722566, -15.766990799566942], [-47.788902744023396, -15.75946040530921]]], [[[-47.825070066821624, -15.869851059184644], [-47.82581322353478, -15.866970625981343], [-47.82273198953799, -15.865331070252617], [-47.8190198808181, -15.85577450885107], [-47.82045423988956, -15.847349265593069], [-47.81384861441766, -15.845694316136578], [-47.81028485203913, -15.839515686380414], [-47.81074268748995, -15.836284261350254], [-47.81495620838124, -15.835237986254658], [-47.81764708874936, -15.830854079609733], [-47.81648665881069, -15.828163109301334], [-47.812147675557014, -15.827398954112518], [-47.8093600758856, -15.834498003586718], [-47.801304110020766, -15.83488243010951], [-47.79322858826164, -15.842986047580577], [-47.77736577087348, -15.842021298418258], [-47.77763670145614, -15.844792763783593], [-47.78587016665007, -15.847189708989461], [-47.78985066631148, -15.85376375798152], [-47.795072513528986, -15.853299465708595], [-47.793391866659796, -15.846896276868794], [-47.79533686497723, -15.844471130616], [-47.80039773967784, -15.846317680201956], [-47.801603167929215, -15.85112352169984], [-47.81006721695786, -15.849781039609558], [-47.81119917924399, -15.856758611799801], [-47.80884249291028, -15.86088023959417], [-47.812261685723485, -15.864530583605266], [-47.80982195136973, -15.869873061270784], [-47.811415491982935, -15.875863650643378], [-47.80819813609086, -15.878568474845673], [-47.801558023206425, -15.87548471463194], [-47.80275736869918, -15.88385226458586], [-47.8092583724497, -15.886370034165205], [-47.82319067821727, -15.88358632560853], [-47.825070066821624, -15.869851059184644]]], [[[-47.890514471602344, -15.716814290906672], [-47.89046959675909, -15.713310383201405], [-47.88484307970347, -15.710075428225403], [-47.88360650948033, -15.703620332306578], [-47.87885043426564, -15.701930338848587], [-47.87919548585837, -15.694589227363354], [-47.86863456020592, -15.690512592608558], [-47.865925972410686, -15.700285157769446], [-47.87184472846378, -15.708414625405066], [-47.87195745439438, -15.716451878519804], [-47.866526128536314, -15.720424763071925], [-47.85365440348316, -15.717897209768958], [-47.85187529935048, -15.725762792827199], [-47.854335395762135, -15.731032213173831], [-47.84360648244617, -15.738899129751996], [-47.847316351814875, -15.749374310884958], [-47.84975225669695, -15.751285215559493], [-47.85691002624673, -15.749409776010468], [-47.858504961346966, -15.74319948753513], [-47.865536261084586, -15.738263723674287], [-47.861930745851524, -15.728962936212085], [-47.85629086999169, -15.727680533705009], [-47.85717051336567, -15.723734593256074], [-47.861930516374905, -15.723788829093612], [-47.86280427267696, -15.72779883113098], [-47.86746558615306, -15.727194476669887], [-47.87207016978604, -15.723482194862008], [-47.87267970555407, -15.717284529957357], [-47.87872322473889, -15.715693522679123], [-47.880600056915604, -15.72119711030853], [-47.877337822430015, -15.728850637164859], [-47.880904684191904, -15.730345615860205], [-47.89067167520781, -15.72412568746598], [-47.890514471602344, -15.716814290906672]]], [[[-47.90437709837897, -15.738783550131057], [-47.90341649791182, -15.730367483918455], [-47.89657558144524, -15.729374382327594], [-47.893825762503404, -15.739279075893021], [-47.88109885959004, -15.745495927801535], [-47.87448985241255, -15.766389010393068], [-47.872562011504854, -15.784482971801868], [-47.87752473757249, -15.785340332562033], [-47.88302339638575, -15.780910334736662], [-47.8902745706003, -15.782682824881608], [-47.89563862501142, -15.775746922472619], [-47.89922000530084, -15.761886302370243], [-47.90313914024003, -15.75812331104637], [-47.90437709837897, -15.738783550131057]]], [[[-47.93163684902568, -15.824139643114881], [-47.92168877540022, -15.816884849370979], [-47.91455035651136, -15.80640445942887], [-47.909745572652476, -15.806652276840296], [-47.89896945200115, -15.7982855204301], [-47.889985910637435, -15.796717874376709], [-47.88013979892204, -15.80308065831706], [-47.88197248467055, -15.81031800870658], [-47.88910688370099, -15.817115501991383], [-47.88989953299514, -15.82107087562302], [-47.89400542596189, -15.821729089712298], [-47.91878797062113, -15.839776127327161], [-47.91715075344276, -15.847281775945227], [-47.91938415364621, -15.84874718542443], [-47.92553080256052, -15.848294354984413], [-47.925440632022365, -15.844994871328634], [-47.92045321536408, -15.840406038598031], [-47.92867750771165, -15.834373745290524], [-47.93163684902568, -15.824139643114881]]], [[[-47.94943488337476, -15.808501750208919], [-47.9394728328069, -15.776486178244976], [-47.93345240178497, -15.77703999183008], [-47.92573019299056, -15.78257550119935], [-47.923747427825354, -15.78537556659016], [-47.92875188874247, -15.79094226337183], [-47.9267347373689, -15.793573740171551], [-47.92161238903563, -15.790651724510175], [-47.921883397907806, -15.785556430909944], [-47.919237091143245, -15.78332211883429], [-47.912998657988666, -15.784451769518515], [-47.91463971672614, -15.794501394556479], [-47.912600028663846, -15.799538047317123], [-47.936723751557565, -15.811621732727028], [-47.948147447073985, -15.811486323006184], [-47.94943488337476, -15.808501750208919]]], [[[-47.95866823587884, -16.106803281505634], [-47.95688013248628, -16.102500544793546], [-47.95955874284664, -16.093861924439956], [-47.950018055373725, -16.092754960643923], [-47.9447814614288, -16.08730078958445], [-47.93857296589993, -16.086849350257708], [-47.9399469797506, -16.078751221088236], [-47.933499023030215, -16.076059572558535], [-47.93152448490635, -16.07841972822182], [-47.93356730711036, -16.08631279612113], [-47.93008643535778, -16.093383334311394], [-47.93767869477228, -16.097048423613856], [-47.934701419468205, -16.104325722735428], [-47.94571676799341, -16.107414299111575], [-47.94226801975696, -16.11602940817251], [-47.94783650468921, -16.123115084456334], [-47.95746656865392, -16.121115483564918], [-47.95866823587884, -16.106803281505634]]], [[[-48.16551417590593, -15.797668306123247], [-48.165013271468176, -15.793785274411581], [-48.156213814515475, -15.79577037741886], [-48.15415309456168, -15.790805097790736], [-48.14990774578029, -15.789842247983586], [-48.14693783377401, -15.796722019725497], [-48.156220654783716, -15.797842078654364], [-48.15694841335015, -15.803764799187654], [-48.13777279550431, -15.805167093505412], [-48.13440138975347, -15.799390861766952], [-48.14417373825772, -15.786666493313634], [-48.14298411418352, -15.777081850109395], [-48.13623447779505, -15.776896219439891], [-48.13359918245064, -15.782344616425242], [-48.12261419099746, -15.782880767643812], [-48.11485753147119, -15.791350372351483], [-48.10083321293468, -15.793829463585238], [-48.09149420518189, -15.799475366676559], [-48.086508558224345, -15.798955333089957], [-48.07712039112477, -15.803361549622089], [-48.06519270694269, -15.80013892229719], [-48.06100672908426, -15.810896167608771], [-48.05489579557428, -15.814565126857913], [-48.05361228922105, -15.823052535274071], [-48.0485560139568, -15.826473925617208], [-48.04226760271455, -15.824377003318721], [-48.04081940146618, -15.820104436452004], [-48.04712647552683, -15.81447662895511], [-48.04462301205171, -15.807422438636651], [-48.04642596495297, -15.801604456120021], [-48.054323284786136, -15.799950249948242], [-48.05595811064557, -15.792268155551874], [-48.0350100139397, -15.790619368390246], [-48.03260841517051, -15.79373441448206], [-48.027970750139794, -15.793987122354373], [-48.025157974728955, -15.789215573465864], [-48.01764805901491, -15.788465364297561], [-48.01527961672931, -15.798617068055416], [-48.00908810678615, -15.801066613765858], [-48.006748549477344, -15.807949264434798], [-47.99575260556581, -15.80837053623775], [-47.98592749516269, -15.80443237219776], [-47.982142062167846, -15.80958197726249], [-47.97404559220641, -15.808709142116108], [-47.97100791784809, -15.811559462557783], [-47.972568336869095, -15.832841467737788], [-47.966259957723054, -15.834595117176093], [-47.96365682912725, -15.846011567663062], [-47.95832328738701, -15.848233621286276], [-47.953334412536925, -15.846749401692582], [-47.95194894798039, -15.849852213115454], [-47.9538248701083, -15.860888432407995], [-47.95681092206064, -15.863508781814016], [-47.95754282409132, -15.88142280307735], [-47.9673632516681, -15.87663424022481], [-47.96983173404266, -15.884123512298022], [-47.98304086994342, -15.884904538716471], [-47.98644423027061, -15.887275528390516], [-47.9923915725854, -15.882217529290218], [-48.00453721988641, -15.882005669850212], [-48.00702130348521, -15.894071498980297], [-48.01978144200883, -15.899098664170133], [-48.023732815999914, -15.89355692126135], [-48.025857958799556, -15.877274696216487], [-48.041995752777886, -15.872119925212454], [-48.03731823315922, -15.862805443441562], [-48.04076641083222, -15.857666937243081], [-48.05197546702951, -15.855978510249848], [-48.056851300522844, -15.859168866609544], [-48.053875376695885, -15.86574480844937], [-48.05540683167143, -15.871964466515113], [-48.05149392962901, -15.876442634900341], [-48.054028738756955, -15.886649211832633], [-48.038347240841624, -15.901900942559603], [-48.04517171287235, -15.910327255250504], [-48.04103898854242, -15.929692332608674], [-48.03663238827068, -15.93501911202361], [-48.0304157705832, -15.936390999559228], [-48.032864864087394, -15.943182933165025], [-48.028892924893064, -15.947897107898834], [-48.031080750835606, -15.953073172617806], [-48.02647785411564, -15.960468787809345], [-48.031245243832686, -15.966124644590298], [-48.04040680401642, -15.966994578736944], [-48.04144070800676, -15.97655594610211], [-48.047388659674674, -15.976595028677657], [-48.05275370358305, -15.954054801493145], [-48.04893974641953, -15.95373441462021], [-48.04437558194488, -15.959097222431222], [-48.040757711501676, -15.95880645066364], [-48.03979198288936, -15.953689645565692], [-48.044077474742735, -15.947235857854446], [-48.04011446052802, -15.944325247167411], [-48.039774413793246, -15.940659472175637], [-48.043877723502064, -15.93846747495528], [-48.04432540475522, -15.929782706730412], [-48.0504218495467, -15.927852040616072], [-48.052853477616374, -15.918972250870622], [-48.06936766638697, -15.916399805225224], [-48.07320243366698, -15.911568653124233], [-48.069354822342476, -15.905941848046567], [-48.063348644795035, -15.905773747641774], [-48.058129725028635, -15.902234005361551], [-48.056847725099885, -15.89397194523241], [-48.05941900453854, -15.8866530536217], [-48.0654195855356, -15.88465040809978], [-48.12739644783806, -15.90332737375032], [-48.12976686388228, -15.902858019884409], [-48.132458361388174, -15.89320254952304], [-48.14446350879553, -15.898939956199559], [-48.151595134014464, -15.895291331290881], [-48.15335562141262, -15.887444954344064], [-48.15200247393941, -15.883382779018493], [-48.14302138038115, -15.881780497660966], [-48.139782479371874, -15.888608230815903], [-48.132108950719086, -15.890270335521866], [-48.13194884095294, -15.882300544666125], [-48.11885047668726, -15.87242112288491], [-48.10639133113907, -15.872268646728854], [-48.10004610555887, -15.862027728203381], [-48.07848096345738, -15.853123220809676], [-48.072550053859175, -15.841870919110852], [-48.06180386108757, -15.843026909148305], [-48.06638805748267, -15.827966985688319], [-48.07220026216309, -15.826339041848279], [-48.07383587088343, -15.831543236436035], [-48.08007710628709, -15.83660198135748], [-48.0921779933445, -15.838466955157402], [-48.098840600611695, -15.844537391500769], [-48.11356945238374, -15.85099097191181], [-48.118673957024605, -15.849013314607168], [-48.12069036366543, -15.842688027903327], [-48.12841187343905, -15.84749590220576], [-48.131756808008426, -15.843640354701828], [-48.14222694151994, -15.841349816179427], [-48.14099543502981, -15.832765361840211], [-48.14920877983762, -15.825697607618627], [-48.15986793272152, -15.82790968851219], [-48.161709497334726, -15.82484318608034], [-48.15986911854104, -15.812700423617105], [-48.16551417590593, -15.797668306123247]], [[-48.026596366998255, -15.855447409303292], [-48.02563525407317, -15.863461566487674], [-48.019176480908534, -15.868699072046539], [-48.00693336957137, -15.867832640143009], [-48.005344486538654, -15.861128366848158], [-48.00044666601191, -15.85837592578403], [-47.985552027557446, -15.862817573927227], [-47.985063708839924, -15.86951040471445], [-47.982281946830945, -15.871342734842004], [-47.96798063638871, -15.86495390236348], [-47.969496401276075, -15.862257435428013], [-47.976862188008425, -15.86277790732478], [-47.980583998347484, -15.860095721008308], [-47.97985503572696, -15.852077088469297], [-47.98904022241053, -15.847495860213531], [-47.98998956043184, -15.833871314173146], [-47.995618293647844, -15.830928911591926], [-47.998171475146336, -15.824705347348983], [-47.99591824649204, -15.819471155734918], [-48.00008577100197, -15.814916344733968], [-48.008546526947015, -15.819386679123776], [-48.00498600030162, -15.824434154392089], [-48.004235400698015, -15.833645347687012], [-48.0094576598222, -15.842623013537974], [-48.00370968226236, -15.845564292674782], [-48.00378383497675, -15.850573281596077], [-48.01650951662846, -15.855677780679525], [-48.02396890754057, -15.849036765466714], [-48.02814344550181, -15.85182195180335], [-48.026596366998255, -15.855447409303292]], [[-48.02813761512855, -15.829032999160267], [-48.02808174214016, -15.832217325898323], [-48.023573842504774, -15.83359311877923], [-48.01739931705353, -15.82521605075809], [-48.01071999549293, -15.823824910112041], [-48.01010001679803, -15.820261459021008], [-48.01709317394909, -15.819871802255767], [-48.01832732744956, -15.824079543615138], [-48.02323859391945, -15.823910243555193], [-48.02813761512855, -15.829032999160267]], [[-48.04254779325238, -15.845379796692], [-48.03853648339188, -15.849022144009009], [-48.036188418835664, -15.844109979039704], [-48.04057724210371, -15.842272545964306], [-48.04254779325238, -15.845379796692]], [[-48.05192632111475, -15.849542395502466], [-48.0555920018296, -15.847722589490003], [-48.05683238944192, -15.851626976317615], [-48.05341289948042, -15.852926884035764], [-48.05192632111475, -15.849542395502466]], [[-48.09068033678884, -15.81425062776025], [-48.09421826194773, -15.815006496036908], [-48.09655841009076, -15.81923547218027], [-48.08994494679707, -15.821204960446577], [-48.08600939886026, -15.828185203871387], [-48.07187242159434, -15.824872594241295], [-48.07363209889682, -15.81531655145977], [-48.08287379108405, -15.817008665857882], [-48.08662473565409, -15.813612327267016], [-48.09068033678884, -15.81425062776025]], [[-48.0907467618213, -15.878190528688561], [-48.08888482519106, -15.882480185874137], [-48.08288581676167, -15.879324410700423], [-48.08498155173455, -15.875970025348927], [-48.0907467618213, -15.878190528688561]]], [[[-48.06099636667983, -16.049477434237968], [-48.049266717480435, -16.04856557490031], [-48.04014618228114, -16.039071160470517], [-48.0381382931545, -16.0237382372299], [-48.03066834894666, -16.024275926594054], [-48.02098687107307, -16.01572943076755], [-48.01687862223782, -16.015684691413664], [-48.01385156395237, -16.022411266486642], [-48.01986129031626, -16.029371871748754], [-48.01325214047702, -16.04024730755034], [-48.01804986369632, -16.0451901478607], [-48.01895384186682, -16.06103327175868], [-48.01543734169241, -16.06474850398661], [-48.01030430275179, -16.064400779642245], [-48.00918689727405, -16.05645891540691], [-48.00325885849983, -16.052525148489963], [-48.00250333201434, -16.047860440610265], [-47.963012123381056, -16.04927741919587], [-47.96263123943305, -16.054452537367027], [-47.97077204870601, -16.059058261207134], [-47.96957043951849, -16.066586361479626], [-47.97454394222203, -16.072033324596926], [-47.972685860481484, -16.074807615109165], [-47.967201548122475, -16.07420031305327], [-47.968117493574724, -16.083013865727253], [-47.98220298721806, -16.087297831457953], [-47.9810259738361, -16.095139574546614], [-47.98581957203881, -16.098748604608016], [-47.98858904606394, -16.09413571419463], [-47.987698997715384, -16.088680193883196], [-47.99440323720053, -16.084951090562765], [-47.99428011040959, -16.07889297526277], [-47.988483631614024, -16.07197931353487], [-47.98729207074563, -16.064651499834454], [-47.996561694074416, -16.06058466256267], [-48.00248614886862, -16.074054911693707], [-48.01568832925773, -16.073048782704248], [-48.01757946037354, -16.069249181679993], [-48.025750575367795, -16.067300329983656], [-48.027278158203885, -16.071104108874845], [-48.024845622500365, -16.076398386786813], [-48.02923288341456, -16.08013758765914], [-48.028508651530196, -16.09283089373632], [-48.03639513048572, -16.095724788826537], [-48.04536840710316, -16.088191919930583], [-48.03908469035882, -16.06998195318114], [-48.035276275469386, -16.066441592123585], [-48.03598501842199, -16.062244676352883], [-48.04150195937417, -16.057135247372038], [-48.04811629057776, -16.061924882576832], [-48.05724077163548, -16.061733382634493], [-48.06096109114127, -16.05627477404627], [-48.06099636667983, -16.049477434237968]]], [[[-48.00404427736539, -15.77680783755722], [-48.00096435664689, -15.773063041984022], [-47.985231280486836, -15.773326100023933], [-47.980929644416, -15.781686076374594], [-47.97163571434876, -15.785120965433922], [-47.96641822954511, -15.792700000120393], [-47.969711767017515, -15.796437192258972], [-47.977256463457984, -15.793774447325006], [-47.98957620077526, -15.794465638369754], [-47.99274235274478, -15.788555101793659], [-48.00251184116124, -15.787487698380223], [-48.00404427736539, -15.77680783755722]]], [[[-48.00333595978508, -15.994510395293938], [-47.99400076632764, -15.989734384316533], [-47.98558018718113, -15.991775433479855], [-47.98692857449289, -16.00801728185226], [-47.98316534666139, -16.010958570645034], [-47.98356054642028, -16.01920544953576], [-47.98814025634954, -16.019028389028744], [-47.98820810628596, -16.009098575263828], [-47.998901603164015, -16.00499166138081], [-48.004058216653334, -15.997271243361638], [-48.00333595978508, -15.994510395293938]]], [[[-48.07058231052799, -16.017441913579948], [-48.07116624876571, -16.012717058142414], [-48.061129204910834, -16.00683066647105], [-48.063321955861475, -15.998883942656407], [-48.050210764034496, -15.995676030158467], [-48.04849611262019, -16.006568714326498], [-48.042524385989125, -16.010125120215783], [-48.04366359937485, -16.01906797191764], [-48.046656830812914, -16.021750065980374], [-48.05013120059601, -16.020552298551777], [-48.04972233504866, -16.007564892635635], [-48.05208194540822, -16.005434458944094], [-48.06073406775424, -16.007859027043875], [-48.0591011159205, -16.01818910307514], [-48.07058231052799, -16.017441913579948]]], [[[-48.205713133555214, -15.672219541280429], [-48.20464943879891, -15.654851958592412], [-48.200670893326, -15.651281706316848], [-48.19158908527504, -15.652356550015172], [-48.18801079140646, -15.66309059996621], [-48.19543946841522, -15.668145599311892], [-48.1959085916771, -15.681761533269817], [-48.199090222310076, -15.689772058988217], [-48.205238639291615, -15.687599179620385], [-48.205713133555214, -15.672219541280429]]]]}}, {"type": "Feature", "properties": {"threshold": 80}, "geometry": {"type": "MultiPolygon", "coordinates": [[[[-47.792369026796194, -15.896323265319845], [-47.79034632669757, -15.890139419301654], [-47.78333567121379, -15.890551457901154], [-47.7804256072019, -15.884288355081964], [-47.776314732888814, -15.885456652484862], [-47.77178540022354, -15.895010566125402], [-47.76831834059757, -15.895392122385765], [-47.76635496905752, -15.892111382508965], [-47.76935125489889, -15.887865123051762], [-47.76804163096702, -15.882596198683157], [-47.77177066626537, -15.87880862277283], [-47.771523928324015, -15.86999310894784], [-47.76491059539534, -15.86561582857722], [-47.74890763306488, -15.86864068414921], [-47.751731858115704, -15.877075544320993], [-47.75520982726738, -15.877120293212128], [-47.757278104816486, -15.872798488486715], [-47.760466743010426, -15.872307446806152], [-47.76292701924615, -15.87943463060286], [-47.756648276893465, -15.886067547153107], [-47.760018781894985, -15.88979053789861], [-47.75899306724664, -15.899056553292922], [-47.75134922553535, -15.901163246844398], [-47.74928370058183, -15.904134774684715], [-47.74853277297501, -15.91274625489019], [-47.75148704209861, -15.916510904922099], [-47.765930828207985, -15.917187957764444], [-47.77100877628788, -15.909307974771902], [-47.77925279075487, -15.910514138406375], [-47.79047135586307, -15.903655121447832], [-47.792369026796194, -15.896323265319845]]], [[[-47.87379818767595, -15.65835520775193], [-47.87414151435877, -15.654251471481716], [-47.85850876051909, -15.650254320838929], [-47.853264205395725, -15.658557196330415], [-47.84975075788496, -15.659102921135101], [-47.84731172450957, -15.651586929587191], [-47.83732148249607, -15.641523307375282], [-47.82991727962394, -15.641741121010842], [-47.82781236261039, -15.647264910470483], [-47.81621037700209, -15.648633976044353], [-47.805102381024966, -15.644387826940667], [-47.78926351807417, -15.646213721028603], [-47.77697611835634, -15.64310510909856], [-47.7717050705153, -15.646983821364504], [-47.765268138102805, -15.643246273692187], [-47.753562305314766, -15.644516085850233], [-47.7468636852346, -15.664751022073526], [-47.75011956948683, -15.667213452676414], [-47.75412725439125, -15.666220451882307], [-47.75669278958368, -15.656825011219297], [-47.76154515929187, -15.65632200713667], [-47.7703018174655, -15.650030474172086], [-47.774274741392354, -15.65452006363537], [-47.78134128451072, -15.655796773322312], [-47.78537048984887, -15.660943229133952], [-47.79659816260106, -15.66578437540566], [-47.805486202553304, -15.666510590661172], [-47.81186314015132, -15.663684096163323], [-47.817448281330684, -15.652737271382112], [-47.82984842740512, -15.652248788940662], [-47.83446247863489, -15.649181969577718], [-47.837285706836276, -15.65475983959458], [-47.8326586243931, -15.660911957611464], [-47.82727977335289, -15.664253337809626], [-47.82043487292185, -15.663062076770016], [-47.817200613015174, -15.665320966231446], [-47.81654800113701, -15.671764252083218], [-47.82696812226312, -15.679221046055678], [-47.81418998771006, -15.688185212454487], [-47.813432553417655, -15.694709103224007], [-47.818365656443866, -15.695901106873091], [-47.83581753085028, -15.689743422652915], [-47.840211423926476, -15.686157915877903], [-47.84161912211406, -15.678518658583899], [-47.852250680961916, -15.675000077666205], [-47.85759641404235, -15.677200630672882], [-47.85898009328087, -15.663070235819028], [-47.862666480670725, -15.660138724724979], [-47.87379818767595, -15.65835520775193]], [[-47.832552000561925, -15.676026265559914], [-47.82996242587281, -15.673406084228944], [-47.83233930737054, -15.670796085540475], [-47.8353612804747, -15.673447910795009], [-47.832552000561925, -15.676026265559914]]], [[[-47.83565250577248, -15.855915876101339], [-47.813364876915095, -15.84460592938753], [-47.81018457831512, -15.837319299040978], [-47.81585288351925, -15.83435198648651], [-47.81771162869166, -15.829487910332883], [-47.80908645064853, -15.826989400700906], [-47.8068155324253, -15.819160664304032], [-47.8018115173009, -15.820196204081322], [-47.80055886620532, -15.824123077250611], [-47.80289431877232, -15.827278527391393], [-47.80885186579825, -15.828290710495509], [-47.808301765899905, -15.833700558488374], [-47.80297628610857, -15.833219845530476], [-47.789252427933036, -15.843050031974304], [-47.784066617617185, -15.840755402523348], [-47.77641533331068, -15.842250359401964], [-47.78304816534003, -15.852210321936536], [-47.7942713756185, -15.853744918056885], [-47.79711091767766, -15.850191626170213], [-47.80943759307328, -15.850882644910389], [-47.81061503324892, -15.856103773136725], [-47.8071264258005, -15.859382398600683], [-47.807279133962055, -15.862987277672186], [-47.81114031703202, -15.866098543380925], [-47.80944224099473, -15.87256236494475], [-47.803769562504556, -15.873113757620299], [-47.80098583502184, -15.866974403413241], [-47.79488368882272, -15.866185046441085], [-47.79331815648491, -15.872501804044777], [-47.78788331395928, -15.874922690474483], [-47.78708682084124, -15.88099382812365], [-47.78943224524067, -15.884947712966573], [-47.79207036057878, -15.884585520115511], [-47.79714791343125, -15.87339939465845], [-47.80125576968547, -15.876266677614552], [-47.80205681216712, -15.883936894335246], [-47.80841075352867, -15.886381051294231], [-47.82320211822306, -15.884406643569047], [-47.82586524432238, -15.86638219403538], [-47.820862983138525, -15.858598451190662], [-47.82335222127271, -15.857030659729725], [-47.83271497812863, -15.858969901041892], [-47.83565250577248, -15.855915876101339]], [[-47.798551832117184, -15.84849477201972], [-47.794868638323614, -15.849824359950436], [-47.793785355832455, -15.845547892227392], [-47.79722514075565, -15.844743033469866], [-47.798551832117184, -15.84849477201972]]], [[[-47.890662413818234, -15.720814617454494], [-47.890628762861745, -15.71358957248451], [-47.88484307970347, -15.710075428225403], [-47.881797551371086, -15.695439795250918], [-47.86870039458997, -15.690463938993787], [-47.865056233322896, -15.69865566511179], [-47.8678433159671, -15.706377182179882], [-47.871856230486145, -15.709234921640256], [-47.87195745439438, -15.716451878519804], [-47.86667672556523, -15.719835695702255], [-47.85405806199916, -15.717628250539079], [-47.850506571534126, -15.72260278603366], [-47.84441843476486, -15.72376106733111], [-47.844501290713175, -15.729719993657724], [-47.852087348108235, -15.731896015229655], [-47.843625523114795, -15.738821060449055], [-47.84726611683668, -15.749310530459011], [-47.84975225669695, -15.751285215559493], [-47.857091281625095, -15.749246290926166], [-47.858504961346966, -15.74319948753513], [-47.865582134165784, -15.738109766599592], [-47.86199391776996, -15.72879768192197], [-47.87192536021235, -15.72367678954477], [-47.873064572102045, -15.71695762937505], [-47.88032390918546, -15.71772388826621], [-47.87732871816307, -15.728710208600873], [-47.880586983371266, -15.731170254857776], [-47.88640350105784, -15.729228721247715], [-47.890662413818234, -15.720814617454494]]], [[[-47.918178003143325, -15.742271293778032], [-47.91688633805748, -15.737410341277895], [-47.90602555445782, -15.7382948964956], [-47.90341649791182, -15.730367483918455], [-47.89672576377376, -15.728520692543418], [-47.893825762503404, -15.739279075893021], [-47.88114728565285, -15.745430851661537], [-47.87209932292639, -15.777986150796973], [-47.87517516810856, -15.794245922362377], [-47.878903135164705, -15.794083231148202], [-47.88405683570146, -15.782605127780693], [-47.89034896364777, -15.782647536317866], [-47.89643729197431, -15.775800720459271], [-47.899090524036225, -15.771304114538367], [-47.8983323816552, -15.764229869365778], [-47.90429135245381, -15.753908801993763], [-47.91210046342874, -15.753553504867634], [-47.915141528179035, -15.744301556147196], [-47.918178003143325, -15.742271293778032]], [[-47.909798301172664, -15.748473614117167], [-47.90704116593028, -15.751577836578901], [-47.90393689614798, -15.749714626490015], [-47.90662707764465, -15.744032039127287], [-47.909798301172664, -15.748473614117167]]], [[[-47.932064361229614, -15.824089386309392], [-47.921518694881364, -15.816708175143551], [-47.916256524456074, -15.807201958416586], [-47.909745572652476, -15.806652276840296], [-47.89896945200115, -15.7982855204301], [-47.889985910637435, -15.796717874376709], [-47.88013979892204, -15.80308065831706], [-47.88197248467055, -15.81031800870658], [-47.889082917085766, -15.8170884946324], [-47.88989953299514, -15.82107087562302], [-47.89400542596189, -15.821729089712298], [-47.918177648557, -15.839506660153159], [-47.91715075344276, -15.847281775945227], [-47.91938415364621, -15.84874718542443], [-47.92553080256052, -15.848294354984413], [-47.925440632022365, -15.844994871328634], [-47.92045321536408, -15.840406038598031], [-47.92867750771165, -15.834373745290524], [-47.932064361229614, -15.824089386309392]]], [[[-48.16551417590593, -15.797668306123247], [-48.16500052440571, -15.792965206871884], [-48.15620724470955, -15.794805261982628], [-48.15414039381443, -15.789985021366189], [-48.149895062780764, -15.789022168448561], [-48.14357822914553, -15.798605948176741], [-48.144297135648856, -15.804416695086848], [-48.137577668247566, -15.80501671287167], [-48.13440138975347, -15.799390861766952], [-48.14501881689235, -15.786533444198996], [-48.143881342443215, -15.777133298893059], [-48.13791567234339, -15.77605168756283], [-48.133713027832485, -15.781629310835589], [-48.123303828028625, -15.78212610374423], [-48.11451377928357, -15.791384439971488], [-48.08734316112981, -15.798123162821943], [-48.077368214095586, -15.803334365004742], [-48.06519270694269, -15.80013892229719], [-48.06100672908426, -15.810896167608771], [-48.05489579557428, -15.814565126857913], [-48.05361228922105, -15.823052535274071], [-48.04830744315296, -15.826453748697295], [-48.04226760271455, -15.824377003318721], [-48.04081940146618, -15.820104436452004], [-48.04712647552683, -15.81447662895511], [-48.04462301205171, -15.807422438636651], [-48.04655107524219, -15.801395550024635], [-48.056137451641156, -15.79809141245344], [-48.05504225638767, -15.791401278466022], [-48.035699833838734, -15.789796294778514], [-48.03283807482137, -15.793621198030106], [-48.027970750139794, -15.793987122354373], [-48.025157974728955, -15.789215573465864], [-48.017725642098284, -15.788437263462892], [-48.01527961672931, -15.798617068055416], [-48.00903335946414, -15.801126807670016], [-48.00734123068284, -15.807510822088908], [-47.998070479287136, -15.808677234779273], [-47.991516578810376, -15.8033424807307], [-47.99355605711697, -15.79947832820222], [-47.99223437697185, -15.790978385801957], [-48.00510140816165, -15.78738747046955], [-48.00290532019018, -15.782346922581524], [-48.00416870771393, -15.774403569792009], [-48.0008581210694, -15.771412012367042], [-47.995899785192435, -15.774271136383305], [-47.991623230644215, -15.771551008848853], [-47.98606628433498, -15.772494263863603], [-47.97965387938948, -15.780982513111248], [-47.96822267213708, -15.787682627985664], [-47.96635465627202, -15.7924681779093], [-47.971200797417985, -15.798819681855349], [-47.97769912436825, -15.798757694909485], [-47.98141212000412, -15.795428987950018], [-47.99024271163956, -15.799873347225818], [-47.99116012622766, -15.802887459032823], [-47.98554324695968, -15.804571478428947], [-47.98190984301142, -15.80968484291486], [-47.97412736025827, -15.808696251337468], [-47.97139262566272, -15.810890218186259], [-47.97209548897304, -15.831862547643025], [-47.966259957723054, -15.834595117176093], [-47.96209185598507, -15.846030735340157], [-47.95832328738701, -15.848233621286276], [-47.953256795495115, -15.846777484693694], [-47.95194894798039, -15.849852213115454], [-47.95887995513781, -15.892445119826023], [-47.95570195051419, -15.89335192493448], [-47.95048836965997, -15.889475480142348], [-47.943314098062466, -15.89853246723179], [-47.93140018685513, -15.8896770329043], [-47.924027659145295, -15.891599364098438], [-47.92202700693035, -15.898075795392606], [-47.916220504988594, -15.897933000319444], [-47.915129205687585, -15.891145768982614], [-47.91198870130951, -15.8899513150685], [-47.90701578942564, -15.891882834967642], [-47.90688088107728, -15.895236742915726], [-47.91082907064425, -15.902189268564527], [-47.9197272201808, -15.904595528885658], [-47.92899280771205, -15.902643281968773], [-47.93252377551459, -15.904758309485802], [-47.93181418260336, -15.913910237246265], [-47.94040233385981, -15.914742332901993], [-47.9469747198583, -15.924204044024465], [-47.93479390201287, -15.932473220823153], [-47.934623480316205, -15.935133546413722], [-47.952366382404435, -15.943523189494547], [-47.95708474356087, -15.9433658801143], [-47.96079172317639, -15.938804977889212], [-47.956916509131155, -15.928657282896067], [-47.961605955164764, -15.919795865861223], [-47.95282354922071, -15.91819143148675], [-47.95192145806193, -15.912048734462122], [-47.94738175694764, -15.906367621918683], [-47.95828152588079, -15.90187953482019], [-47.9597847251475, -15.906268773059063], [-47.96669615394846, -15.910117615538747], [-47.96401777976826, -15.919879251139006], [-47.97060010773647, -15.929259384997879], [-47.966945278074576, -15.942074340269908], [-47.97896173066081, -15.942305376982825], [-47.9776520980386, -15.932204421525595], [-47.97302955731233, -15.927204270865975], [-47.97908473643848, -15.90814351522304], [-47.984841955873804, -15.902377067539579], [-47.984810399842374, -15.896983035945679], [-47.979074342557034, -15.895882785509407], [-47.977345026188296, -15.908473604175821], [-47.97221833128108, -15.910865060556569], [-47.96807448941293, -15.903405239681426], [-47.972097358666524, -15.897158378877174], [-47.97090217178268, -15.893420928101886], [-47.96555258848087, -15.892424415439717], [-47.96572757632249, -15.8867230762348], [-47.98272130237245, -15.884916143309477], [-47.987311970954984, -15.88725662884238], [-47.99362152135341, -15.882350659242656], [-48.004297427713134, -15.88193889449061], [-48.006603557678716, -15.88383003373558], [-48.00702130348521, -15.894071498980297], [-48.01986153770936, -15.899078053636645], [-48.02459256525233, -15.894365223886794], [-48.025857958799556, -15.877274696216487], [-48.04285545430381, -15.872928159910687], [-48.037896132398444, -15.861003411387038], [-48.04202121884248, -15.85691476465147], [-48.05290582044604, -15.85675967271955], [-48.056686143859885, -15.8609446366196], [-48.053875376695885, -15.86574480844937], [-48.05540683167143, -15.871964466515113], [-48.051504892179935, -15.876363136728521], [-48.05324541909713, -15.884759705952472], [-48.03837402410699, -15.901825042051144], [-48.03856322958664, -15.90593502539814], [-48.044917231284344, -15.909933743946448], [-48.041314506298306, -15.929021216965566], [-48.03732885517516, -15.932383719072917], [-48.03080460984789, -15.931841501662568], [-48.028695820421845, -15.93477451105207], [-48.03259679267159, -15.943574871592421], [-48.028880600432316, -15.947076946233246], [-48.03058033893617, -15.953121332538041], [-48.025696536128216, -15.958533913870214], [-48.026855847586944, -15.964348045869537], [-48.023209939839994, -15.968718105089575], [-48.033961698096334, -15.977570974930545], [-48.043212079973905, -15.978137801796912], [-48.04215004614093, -15.98673776340839], [-48.04587935611912, -15.988921250649575], [-48.04888041335418, -15.984922380410415], [-48.046432456356115, -15.97849269473224], [-48.05127612902701, -15.975944211343899], [-48.04982357889923, -15.971388597141242], [-48.052834889632315, -15.966898581300425], [-48.05078938480144, -15.962545792932685], [-48.05275370358305, -15.954054801493145], [-48.048092027325424, -15.953746420379284], [-48.04489881277613, -15.958477072579964], [-48.04149451272024, -15.958201229702519], [-48.04070197313034, -15.953048069704558], [-48.04405583343289, -15.946275309945872], [-48.039774413793246, -15.940659472175637], [-48.04384337997787, -15.938540470734857], [-48.044444208712726, -15.930800009003324], [-48.0504218495467, -15.927852040616072], [-48.052853477616374, -15.918972250870622], [-48.06936766638697, -15.916399805225224], [-48.07320243366698, -15.911568653124233], [-48.069354822342476, -15.905941848046567], [-48.063348644795035, -15.905773747641774], [-48.058129725028635, -15.902234005361551], [-48.056941512631965, -15.893961921248286], [-48.059224011700465, -15.886818183468227], [-48.065160467157156, -15.884586824750912], [-48.068376512822994, -15.88855032644357], [-48.08054744176304, -15.888475240855609], [-48.12739644783806, -15.90332737375032], [-48.130601603576224, -15.902025644980869], [-48.132458361388174, -15.89320254952304], [-48.14446350879553, -15.898939956199559], [-48.151595134014464, -15.895291331290881], [-48.15335562141262, -15.887444954344064], [-48.151142366158425, -15.882575065363346], [-48.14302138038115, -15.881780497660966], [-48.13984960132553, -15.883895224433529], [-48.13931890494475, -15.888675374497799], [-48.13249656937561, -15.889908218100182], [-48.13106343630131, -15.879852560574541], [-48.1265024969018, -15.87894120140331], [-48.12053248503534, -15.871576576590758], [-48.107690956866094, -15.87303889916397], [-48.104007558364486, -15.868636813201848], [-48.10357731749929, -15.862899038648576], [-48.079824623266845, -15.852961314691985], [-48.071762091276234, -15.84110301826481], [-48.06704455894641, -15.84370421004541], [-48.06180386108757, -15.843026909148305], [-48.06633758465186, -15.82824569025874], [-48.07220026216309, -15.826339041848279], [-48.07383587088343, -15.831543236436035], [-48.08007710628709, -15.83660198135748], [-48.0921779933445, -15.838466955157402], [-48.10397409633393, -15.847745043440698], [-48.11356945238374, -15.85099097191181], [-48.118673957024605, -15.849013314607168], [-48.121182121027395, -15.842610157975944], [-48.124629375647714, -15.84322559624663], [-48.12699616355234, -15.847489330516781], [-48.136062085472396, -15.849025778714482], [-48.137154237814364, -15.843385651865166], [-48.14407475468794, -15.83941732301572], [-48.143109129436084, -15.830308101871177], [-48.15013885337875, -15.825361212097885], [-48.16080488754452, -15.827762813449624], [-48.16068568335589, -15.810026779972775], [-48.16551417590593, -15.797668306123247]], [[-47.966842876536795, -15.884372240179292], [-47.9623741448122, -15.88658874662411], [-47.96106496023896, -15.882302908030535], [-47.96428116817423, -15.88087375104803], [-47.966842876536795, -15.884372240179292]], [[-48.026596366998255, -15.855447409303292], [-48.02574967335226, -15.863246970377556], [-48.020311008681574, -15.868225555688996], [-48.00788670225075, -15.868098133307136], [-48.005344486538654, -15.861128366848158], [-48.00068786966221, -15.858430865795816], [-47.98551424737638, -15.859972993827222], [-47.98133559507803, -15.85175691765059], [-47.9890818032373, -15.847426482839632], [-47.99022524229994, -15.834068932413079], [-47.99548565473478, -15.83194377545169], [-47.99769384792788, -15.826683151321708], [-48.00184305623638, -15.826368336249772], [-48.008897280090466, -15.84176410611942], [-48.00366810741073, -15.845633671636753], [-48.00383414330889, -15.85063701271601], [-48.0163644640442, -15.85568670605339], [-48.02455644244079, -15.849446837991684], [-48.02814344550181, -15.85182195180335], [-48.026596366998255, -15.855447409303292]], [[-48.00338631928542, -15.817071963792996], [-48.001189915025044, -15.822770396311599], [-47.99623113226155, -15.821330082418442], [-47.99883997662322, -15.81605154267215], [-48.00338631928542, -15.817071963792996]], [[-48.01494393439057, -15.819608197293494], [-48.016464096145256, -15.823719121532127], [-48.01071999549293, -15.823824910112041], [-48.01050549854836, -15.819655322383381], [-48.01494393439057, -15.819608197293494]], [[-48.02616500135319, -15.833403553763777], [-48.021355932234734, -15.831945597501297], [-48.01905580473961, -15.824117948447169], [-48.023004720270585, -15.82380243851074], [-48.026554953855346, -15.826951693220813], [-48.02822685090654, -15.831031589888743], [-48.02616500135319, -15.833403553763777]], [[-48.042538391211885, -15.844952098929085], [-48.04037025539879, -15.848679186338918], [-48.03685228103752, -15.847460738195052], [-48.037911616353256, -15.842490907193284], [-48.042538391211885, -15.844952098929085]], [[-48.09068033678884, -15.81425062776025], [-48.09421826194773, -15.815006496036908], [-48.09655841009076, -15.81923547218027], [-48.08994494679707, -15.821204960446577], [-48.08600939886026, -15.828185203871387], [-48.07187242159434, -15.824872594241295], [-48.07389643877553, -15.815522463152893], [-48.08287379108405, -15.817008665857882], [-48.08662473565409, -15.813612327267016], [-48.09068033678884, -15.81425062776025]], [[-48.0907467618213, -15.878190528688561], [-48.08888482519106, -15.882480185874137], [-48.08288581676167, -15.879324410700423], [-48.08498155173455, -15.875970025348927], [-48.0907467618213, -15.878190528688561]], [[-48.14987035238888, -15.799550902355517], [-48.15391545016401, -15.800420517785108], [-48.15369934203807, -15.803937776595554], [-48.14806683660315, -15.80366057185931], [-48.14987035238888, -15.799550902355517]]], [[[-47.95014769593481, -15.808351754681444], [-47.94763795656627, -15.79233001611809], [-47.93705999638783, -15.774991150520334], [-47.93189311242218, -15.760474716889386], [-47.92653849462586, -15.756895265911139], [-47.92613864397614, -15.762815616735836], [-47.932426975580206, -15.776409922492634], [-47.923883539200446, -15.784911944225987], [-47.918837232294486, -15.782373246345193], [-47.913035354084315, -15.783566425933902], [-47.91441287841724, -15.794220443945544], [-47.91228388620861, -15.799175427496165], [-47.93162864811841, -15.810870221927656], [-47.94806567495714, -15.811499204358565], [-47.95014769593481, -15.808351754681444]]], [[[-47.96017043416794, -16.093656523976193], [-47.94929492400466, -16.09193979447576], [-47.943992766672835, -16.086532516092095], [-47.939589299722144, -16.08633999971966], [-47.93991044729541, -16.07867920749843], [-47.9361766939197, -16.074334257676004], [-47.93335944470819, -16.074534018577495], [-47.93008643535778, -16.093383334311394], [-47.93767869477228, -16.097048423613856], [-47.934701419468205, -16.104325722735428], [-47.94558754222389, -16.107200935832676], [-47.9422813642012, -16.116108572952648], [-47.94977147503727, -16.124011264305587], [-47.95756942763276, -16.120897212030417], [-47.959096320036046, -16.106752871776465], [-47.95722184888502, -16.10293631961749], [-47.96062246824959, -16.097884498606277], [-47.96017043416794, -16.093656523976193]]], [[[-48.06099636667983, -16.049477434237968], [-48.04837562738704, -16.047965643562367], [-48.03972819121231, -16.038444157146703], [-48.038257134099325, -16.02384985271451], [-48.03066834894666, -16.024275926594054], [-48.02619167001776, -16.01898518339259], [-48.01763662849417, -16.014880713891046], [-48.013838204878624, -16.022332109202196], [-48.01986129031626, -16.029371871748754], [-48.01325214047702, -16.04024730755034], [-48.01804986369632, -16.0451901478607], [-48.01895384186682, -16.06103327175868], [-48.01543734169241, -16.06474850398661], [-48.01011683218806, -16.064241227060116], [-48.009150347641004, -16.05638691731564], [-48.00311324810122, -16.05200031402126], [-48.00332688168169, -16.0462081992399], [-47.99287670648775, -16.044702024265806], [-47.98997419918272, -16.04718394581985], [-47.963012123381056, -16.04927741919587], [-47.96263123943305, -16.054452537367027], [-47.96904092070507, -16.057600999156268], [-47.96957043951849, -16.066586361479626], [-47.97457199619043, -16.072273291207985], [-47.972685860481484, -16.074807615109165], [-47.9672431699673, -16.07413093192454], [-47.966462081863995, -16.083932743491154], [-47.982007636902964, -16.08714734041775], [-47.97935371793986, -16.096803626540865], [-47.98581957203881, -16.098748604608016], [-47.98858904606394, -16.09413571419463], [-47.987698997715384, -16.088680193883196], [-47.99440323720053, -16.084951090562765], [-47.99428011040959, -16.07889297526277], [-47.988483631614024, -16.07197931353487], [-47.98729207074563, -16.064651499834454], [-47.99631606848532, -16.060540984750855], [-48.00248614886862, -16.074054911693707], [-48.01568832925773, -16.073048782704248], [-48.022729135277594, -16.067055659626625], [-48.025750575367795, -16.067300329983656], [-48.02682663195123, -16.070268227274983], [-48.02395917919763, -16.07469092057047], [-48.02914470958173, -16.079649233026817], [-48.028508651530196, -16.09283089373632], [-48.03647282013973, -16.095696661936824], [-48.04536840710316, -16.088191919930583], [-48.03598501842199, -16.062244676352883], [-48.0423793304855, -16.057802555696572], [-48.04811629057776, -16.061924882576832], [-48.05724077163548, -16.061733382634493], [-48.06096109114127, -16.05627477404627], [-48.06099636667983, -16.049477434237968]]], [[[-48.07058231052799, -16.017441913579948], [-48.07116624876571, -16.012717058142414], [-48.061053216555464, -16.006600644890604], [-48.06495519013808, -15.994759090078313], [-48.050210764034496, -15.995676030158467], [-48.04849611262019, -16.006568714326498], [-48.04250541874669, -16.010203196288103], [-48.04453649146588, -16.020696224535424], [-48.047995382122366, -16.021731044229547], [-48.050995834406876, -16.01883056630777], [-48.04970151612823, -16.007805532248916], [-48.05183387028379, -16.005461658092873], [-48.06024389361852, -16.008083415128052], [-48.0591011159205, -16.01818910307514], [-48.07058231052799, -16.017441913579948]]], [[[-48.20578498491406, -15.670472423871516], [-48.204636652019786, -15.654031912697246], [-48.198106361950714, -15.649678703738363], [-48.192422698741595, -15.65152415474738], [-48.18801079140646, -15.66309059996621], [-48.19543946841522, -15.668145599311892], [-48.195921971932776, -15.681840672717488], [-48.19916857633842, -15.689797931218921], [-48.205265343354036, -15.687523273864077], [-48.20578498491406, -15.670472423871516]]]]}}, {"type": "Feature", "properties": {"threshold": 90}, "geometry": {"type": "MultiPolygon", "coordinates": [[[[-47.792369026796194, -15.896323265319845], [-47.79034632669757, -15.890139419301654], [-47.78332438803327, -15.889731112261273], [-47.7804256072019, -15.884288355081964], [-47.776314732888814, -15.885456652484862], [-47.77134813393506, -15.895353268321873], [-47.7668528788551, -15.893932498353621], [-47.76936233079531, -15.887785620820317], [-47.76813407822289, -15.882371842188231], [-47.773446820715215, -15.878864950856672], [-47.7733827447405, -15.871304403064737], [-47.76528763138672, -15.864924349610089], [-47.756073964364724, -15.863298313840822], [-47.74807116928611, -15.869471825189613], [-47.760061235398304, -15.89003671804309], [-47.758857152809796, -15.899259140764139], [-47.75134922553535, -15.901163246844398], [-47.74928370058183, -15.904134774684715], [-47.74853277297501, -15.91274625489019], [-47.75148704209861, -15.916510904922099], [-47.765930828207985, -15.917187957764444], [-47.769599944752656, -15.91523308791406], [-47.77100877628788, -15.909307974771902], [-47.77925279075487, -15.910514138406375], [-47.79047135586307, -15.903655121447832], [-47.792369026796194, -15.896323265319845]]], [[[-47.87621416575209, -15.656991950611587], [-47.87574793937497, -15.653375630982008], [-47.85751722336586, -15.650274164697272], [-47.853264205395725, -15.658557196330415], [-47.8499775160504, -15.659203244751335], [-47.84731172450957, -15.651586929587191], [-47.83723943711885, -15.641512598121258], [-47.82991727962394, -15.641741121010842], [-47.82781236261039, -15.647264910470483], [-47.81621037700209, -15.648633976044353], [-47.805102381024966, -15.644387826940667], [-47.78926351807417, -15.646213721028603], [-47.77697611835634, -15.64310510909856], [-47.7717050705153, -15.646983821364504], [-47.765268138102805, -15.643246273692187], [-47.75361710539093, -15.644455950056324], [-47.74600597575008, -15.66394126018204], [-47.75003899394019, -15.667194970738482], [-47.75405679183182, -15.6662625855149], [-47.75669278958368, -15.656825011219297], [-47.76154515929187, -15.65632200713667], [-47.7703018174655, -15.650030474172086], [-47.774274741392354, -15.65452006363537], [-47.78134128451072, -15.655796773322312], [-47.78537048984887, -15.660943229133952], [-47.79659816260106, -15.66578437540566], [-47.805486202553304, -15.666510590661172], [-47.81186314015132, -15.663684096163323], [-47.817448281330684, -15.652737271382112], [-47.82984842740512, -15.652248788940662], [-47.83446247863489, -15.649181969577718], [-47.837285706836276, -15.65475983959458], [-47.8326586243931, -15.660911957611464], [-47.82727977335289, -15.664253337809626], [-47.82043487292185, -15.663062076770016], [-47.817200613015174, -15.665320966231446], [-47.81654800113701, -15.671764252083218], [-47.82696812226312, -15.679221046055678], [-47.81418998771006, -15.688185212454487], [-47.813432553417655, -15.694709103224007], [-47.818365656443866, -15.695901106873091], [-47.83308917850387, -15.691543092963673], [-47.84583335812155, -15.683917751813473], [-47.8474577040973, -15.676943800352179], [-47.85249995719917, -15.674996826503934], [-47.85759641404235, -15.677200630672882], [-47.85930325356231, -15.662891194648337], [-47.87621416575209, -15.656991950611587]]], [[[-47.838314136840296, -15.847769100635967], [-47.836398352234696, -15.841450591577578], [-47.8389645738619, -15.834133407365233], [-47.834786248954146, -15.831072634767184], [-47.83052551882851, -15.832525031373152], [-47.828015623227635, -15.850657071940203], [-47.814913433380035, -15.845433327794455], [-47.810982247355945, -15.837551828174613], [-47.817579736926234, -15.83262915315584], [-47.817625024995856, -15.829263153935454], [-47.81004739136059, -15.826757357448285], [-47.80689391543598, -15.81918667773404], [-47.79726335585599, -15.821762722680868], [-47.79305344279805, -15.810293420242248], [-47.78712834878316, -15.819959515106172], [-47.789017273610185, -15.826370181798412], [-47.79430600517051, -15.828244168386577], [-47.79870929897204, -15.82257113549237], [-47.803358435855934, -15.82795142203537], [-47.80851225727833, -15.827937581544838], [-47.80894420398025, -15.831483583837013], [-47.798727969849324, -15.832454256853948], [-47.79826490356686, -15.837483839283069], [-47.79083414979005, -15.841421950425623], [-47.773809053238054, -15.83907957100948], [-47.77660929535171, -15.848682867479637], [-47.78296977074169, -15.85218430163166], [-47.794416463051405, -15.853736140362004], [-47.79678361714863, -15.850480101711772], [-47.80202121124199, -15.851996887436378], [-47.806307522337946, -15.849868431953297], [-47.809802483792105, -15.854395052891816], [-47.8071150697464, -15.85856206740547], [-47.80724269815034, -15.862915226727287], [-47.81052999933953, -15.865828763219088], [-47.80943086563678, -15.87174203630755], [-47.80473007673318, -15.872328575906808], [-47.80176615354306, -15.866916508069735], [-47.79488368882272, -15.866185046441085], [-47.78788331395928, -15.874922690474483], [-47.78708682084124, -15.88099382812365], [-47.78951291140178, -15.884966165558621], [-47.792021877000586, -15.884650585798706], [-47.79403699522955, -15.877029245712272], [-47.79730694033518, -15.874728209408207], [-47.80205681216712, -15.883936894335246], [-47.8082654535838, -15.886376034538387], [-47.82329090303523, -15.885998627973512], [-47.82587433628134, -15.866522628042679], [-47.821804902882775, -15.863072913644684], [-47.82168161458269, -15.859123949231005], [-47.825519030064974, -15.857515470160028], [-47.82926611157104, -15.860667714703279], [-47.83554865450169, -15.857990268886978], [-47.83486778798826, -15.853108177953557], [-47.838314136840296, -15.847769100635967]]], [[[-47.799076792578255, -15.789491986565823], [-47.80258839299687, -15.786724067492177], [-47.7963318797173, -15.78001519293836], [-47.78910156966784, -15.778551832611852], [-47.78655049593032, -15.773582726518756], [-47.791215317515224, -15.760614662280918], [-47.78207551765429, -15.757090288370948], [-47.77646538749326, -15.758936760897944], [-47.77276974614098, -15.763686016019115], [-47.774866179700396, -15.783065186497147], [-47.78721510209577, -15.78160644857979], [-47.79126651056627, -15.788003716962747], [-47.799076792578255, -15.789491986565823]]], [[[-47.89148532328279, -15.719143973119763], [-47.89051983277847, -15.713374153275062], [-47.88473763785208, -15.709849192135566], [-47.88544180146845, -15.70471120735843], [-47.882048230207324, -15.70171880521953], [-47.88169088464996, -15.695317325496593], [-47.87195288062524, -15.69031864463032], [-47.866174276265724, -15.691541576722694], [-47.86183573302914, -15.688017045490357], [-47.85681139736005, -15.688158326576238], [-47.85489161756309, -15.691709872747099], [-47.85947421378687, -15.693999404287435], [-47.871991297253416, -15.714187750032593], [-47.85405806199916, -15.717628250539079], [-47.844369999465364, -15.723826136478458], [-47.844501290713175, -15.729719993657724], [-47.85122896142801, -15.732269192982198], [-47.84360648244617, -15.738899129751996], [-47.84726611683668, -15.749310530459011], [-47.84975225669695, -15.751285215559493], [-47.857091281625095, -15.749246290926166], [-47.858504961346966, -15.74319948753513], [-47.865582134165784, -15.738109766599592], [-47.86199391776996, -15.72879768192197], [-47.87192536021235, -15.72367678954477], [-47.873064572102045, -15.71695762937505], [-47.88032390918546, -15.71772388826621], [-47.87732871816307, -15.728710208600873], [-47.88066906499498, -15.731180941412521], [-47.88645827476734, -15.72916855503111], [-47.89148532328279, -15.719143973119763]]], [[[-47.918811400228755, -15.741050085912928], [-47.91494378196573, -15.735692929266445], [-47.9054396112826, -15.73784544685267], [-47.90341649791182, -15.730367483918455], [-47.89664401693831, -15.728533549593944], [-47.89349164050264, -15.73078073341598], [-47.89399075494317, -15.739089133350854], [-47.88293347574739, -15.743653025524424], [-47.87588740948759, -15.754507194358672], [-47.87303473938021, -15.754751090641898], [-47.870101132135346, -15.75102486506749], [-47.866071444961904, -15.75377478461758], [-47.86607727630744, -15.75815315180156], [-47.87404389967853, -15.76229417060819], [-47.870718730189495, -15.770686613593103], [-47.87123675882686, -15.781145597157208], [-47.86879165136144, -15.783772937430683], [-47.870018343111205, -15.793439798932418], [-47.87833752949805, -15.79438566271809], [-47.88304941346675, -15.791626372595625], [-47.8837076205904, -15.782971381799143], [-47.891447799466505, -15.782430576859541], [-47.8924843248102, -15.777944411298984], [-47.89905633438234, -15.772278347201713], [-47.89746387931037, -15.76735361422974], [-47.89933453264215, -15.761671758295666], [-47.90524327722332, -15.754530052679424], [-47.913008048437185, -15.7534874905007], [-47.918811400228755, -15.741050085912928]]], [[[-47.93162501800064, -15.823319399540864], [-47.921518694881364, -15.816708175143551], [-47.916256524456074, -15.807201958416586], [-47.909745572652476, -15.806652276840296], [-47.89809891523352, -15.796656286720987], [-47.88990583154526, -15.796738432348596], [-47.88013979892204, -15.80308065831706], [-47.88197248467055, -15.81031800870658], [-47.889082917085766, -15.8170884946324], [-47.88989953299514, -15.82107087562302], [-47.918177648557, -15.839506660153159], [-47.91715075344276, -15.847281775945227], [-47.91938415364621, -15.84874718542443], [-47.92553080256052, -15.848294354984413], [-47.925428809034536, -15.844174624329504], [-47.92045321536408, -15.840406038598031], [-47.92867750771165, -15.834373745290524], [-47.93162501800064, -15.823319399540864]]], [[[-48.16551417590593, -15.797668306123247], [-48.16507219795966, -15.793005395701446], [-48.15608951216391, -15.794097534415506], [-48.154184229212255, -15.789223552702868], [-48.15072932632789, -15.788189807650053], [-48.14357822914553, -15.798605948176741], [-48.14402336737455, -15.804527566955258], [-48.137577668247566, -15.80501671287167], [-48.13440138975347, -15.799390861766952], [-48.14501881689235, -15.786533444198996], [-48.14472824657881, -15.77712104969235], [-48.13791567234339, -15.77605168756283], [-48.13394541609663, -15.781512513712588], [-48.12344856560694, -15.782048495944517], [-48.11533200396525, -15.790765971656985], [-48.1071563857213, -15.793701270156122], [-48.094904133542684, -15.793914030160405], [-48.077368214095586, -15.803334365004742], [-48.06519270694269, -15.80013892229719], [-48.06100672908426, -15.810896167608771], [-48.05489579557428, -15.814565126857913], [-48.05361228922105, -15.823052535274071], [-48.04830744315296, -15.826453748697295], [-48.04226760271455, -15.824377003318721], [-48.0407742863138, -15.82034193971882], [-48.04712647552683, -15.81447662895511], [-48.04462301205171, -15.807422438636651], [-48.04655107524219, -15.801395550024635], [-48.056137451641156, -15.79809141245344], [-48.05490053810667, -15.790481296017209], [-48.03568761096546, -15.78897612625991], [-48.0330547116497, -15.79348604348081], [-48.027970750139794, -15.793987122354373], [-48.02442545838543, -15.787674099772424], [-48.01770134317358, -15.786796898804687], [-48.01500878281173, -15.799021972360382], [-48.00908810678615, -15.801066613765858], [-48.006748549477344, -15.807949264434798], [-47.998070479287136, -15.808677234779273], [-47.99377689595246, -15.805986960988932], [-47.99223437697185, -15.790978385801957], [-48.00514297432264, -15.787318092957143], [-48.00295914263375, -15.768283170060064], [-48.00019442914368, -15.768321319779457], [-47.99654241466608, -15.773571286806096], [-47.985074471653405, -15.772583415919074], [-47.979595329013634, -15.780308870933375], [-47.9682107222237, -15.786862408165952], [-47.96556841482321, -15.793363664699276], [-47.96147160147201, -15.794082613122217], [-47.95207468240421, -15.790140080338805], [-47.94585450156626, -15.790573874719602], [-47.93623434403074, -15.767799828588553], [-47.93005818206492, -15.757084554862042], [-47.92653849462586, -15.756895265911139], [-47.92703272609133, -15.76608523295407], [-47.93233475004863, -15.776634313259706], [-47.922904714402186, -15.785066019737467], [-47.90965689905318, -15.77611458567257], [-47.908104575413674, -15.797731922857075], [-47.916409592724186, -15.799993501483467], [-47.931550260666725, -15.810844255806119], [-47.949034578894235, -15.812030326144844], [-47.949937072589144, -15.828048001235237], [-47.95393514614653, -15.835152406574384], [-47.95972749488299, -15.834218691066832], [-47.96181903880963, -15.831088187404255], [-47.95723377876145, -15.816669944987828], [-47.9500147481756, -15.812855574042514], [-47.95671165482335, -15.803246171207775], [-47.96017176300823, -15.803959393160042], [-47.96276154475144, -15.811165231362658], [-47.970457522609095, -15.811878331664309], [-47.97176643053595, -15.824259823206603], [-47.96242503325192, -15.845647462941733], [-47.95860669250982, -15.847996405830921], [-47.95409220040722, -15.845945702291225], [-47.95196794819353, -15.849774139960529], [-47.95474581813337, -15.8693647059422], [-47.95061564377804, -15.875542063574315], [-47.9547102438938, -15.879040517098778], [-47.9554341835734, -15.88425109591438], [-47.951065331925825, -15.885488982251616], [-47.94710500718959, -15.892222883050584], [-47.941933490688854, -15.895219411973581], [-47.924789947233684, -15.884902481426085], [-47.90876646221468, -15.881871390473169], [-47.90504718872618, -15.885611181214648], [-47.90505148398174, -15.890106156316373], [-47.911307751986364, -15.908303713731366], [-47.923844616316266, -15.911904761462855], [-47.92990338705078, -15.911043959822663], [-47.93461723039552, -15.915738450971203], [-47.939255854558986, -15.915571414050842], [-47.94559161969735, -15.91991099321192], [-47.945638259046085, -15.926834063018298], [-47.9345271998329, -15.932871446018046], [-47.94007347831101, -15.94109633709306], [-47.97317785712833, -15.947280491031709], [-47.97943823957996, -15.94361144119006], [-47.97991583559783, -15.936351853032141], [-47.98704907417448, -15.935085558443143], [-47.9825228732958, -15.926188764027621], [-47.97460917684329, -15.921025410625118], [-47.97991576532052, -15.915643534679718], [-47.97983884266075, -15.907644070632537], [-47.988970605702, -15.894936673447823], [-47.98811784213698, -15.886651133548018], [-47.99362152135341, -15.882350659242656], [-48.00520023294453, -15.882222769066054], [-48.00702130348521, -15.894071498980297], [-48.01993915971687, -15.899049945002883], [-48.02459256525233, -15.894365223886794], [-48.025857958799556, -15.877274696216487], [-48.04371516256181, -15.873736390180456], [-48.037896132398444, -15.861003411387038], [-48.04202121884248, -15.85691476465147], [-48.05269638839874, -15.856628451827632], [-48.05668250319977, -15.860703180398586], [-48.053875376695885, -15.86574480844937], [-48.05540683167143, -15.871964466515113], [-48.051504892179935, -15.876363136728521], [-48.053176482294575, -15.884991788591156], [-48.034987482690795, -15.905307344476313], [-48.04170181158495, -15.90757156492367], [-48.04336397924096, -15.911723674631174], [-48.040296164006904, -15.92089823982892], [-48.041314506298306, -15.929021216965566], [-48.037264114211226, -15.932333594697973], [-48.03080460984789, -15.931841501662568], [-48.02873016944523, -15.934701516912199], [-48.03255166722435, -15.943812377137249], [-48.028822515512985, -15.946410760550078], [-48.030419211899705, -15.953577840833168], [-48.02311141411757, -15.962156786950297], [-48.02328839361666, -15.969930249676247], [-48.03071136437305, -15.974673279146248], [-48.03034959683094, -15.979880600975545], [-48.03279002564863, -15.981788643427342], [-48.039160822948176, -15.980149176256086], [-48.0458917841886, -15.989741396147911], [-48.04886292427731, -15.985900099192094], [-48.04847360266868, -15.979506126755608], [-48.05297174797981, -15.975920138685185], [-48.05032021178056, -15.971165805966894], [-48.052834889632315, -15.966898581300425], [-48.05078938480144, -15.962545792932685], [-48.05275370358305, -15.954054801493145], [-48.043083014154284, -15.952589508787021], [-48.044021158626784, -15.946118648572257], [-48.039774413793246, -15.940659472175637], [-48.04384337997787, -15.938540470734857], [-48.044118114030326, -15.933162655054925], [-48.047940957061236, -15.931988751166086], [-48.052853477616374, -15.918972250870622], [-48.06936766638697, -15.916399805225224], [-48.07320243366698, -15.911568653124233], [-48.069354822342476, -15.905941848046567], [-48.063348644795035, -15.905773747641774], [-48.058129725028635, -15.902234005361551], [-48.056941512631965, -15.893961921248286], [-48.059224011700465, -15.886818183468227], [-48.065160467157156, -15.884586824750912], [-48.068376512822994, -15.88855032644357], [-48.08054744176304, -15.888475240855609], [-48.12739644783806, -15.90332737375032], [-48.13061430360165, -15.902845731350798], [-48.132458361388174, -15.89320254952304], [-48.14446350879553, -15.898939956199559], [-48.151595134014464, -15.895291331290881], [-48.15335562141262, -15.887444954344064], [-48.151989703707706, -15.882562708074976], [-48.14302138038115, -15.881780497660966], [-48.13984960132553, -15.883895224433529], [-48.13931890494475, -15.888675374497799], [-48.13272848473385, -15.889997270055627], [-48.13192346538413, -15.880660370827304], [-48.12053248503534, -15.871576576590758], [-48.10639133113907, -15.872268646728854], [-48.10343527373053, -15.861979141038185], [-48.08066431424971, -15.853467468009926], [-48.07169041129492, -15.841062798364982], [-48.06222390213427, -15.841802963110755], [-48.06633758465186, -15.82824569025874], [-48.07220026216309, -15.826339041848279], [-48.07383587088343, -15.831543236436035], [-48.08007710628709, -15.83660198135748], [-48.09698077785955, -15.840853461029434], [-48.10312686543279, -15.847757186791167], [-48.11356945238374, -15.85099097191181], [-48.118673957024605, -15.849013314607168], [-48.121182121027395, -15.842610157975944], [-48.124629375647714, -15.84322559624663], [-48.12699616355234, -15.847489330516781], [-48.136062085472396, -15.849025778714482], [-48.137154237814364, -15.843385651865166], [-48.14407475468794, -15.83941732301572], [-48.143109129436084, -15.830308101871177], [-48.15013885337875, -15.825361212097885], [-48.16080488754452, -15.827762813449624], [-48.16068568335589, -15.810026779972775], [-48.16551417590593, -15.797668306123247]], [[-47.95846273860245, -15.890226543516883], [-47.95611363035229, -15.893078016990051], [-47.95315519446826, -15.890646344864075], [-47.9557953802791, -15.886877382319733], [-47.95846273860245, -15.890226543516883]], [[-47.96416570240027, -15.910397702536471], [-47.96424074194096, -15.914479129942816], [-47.96069099502534, -15.915038580876336], [-47.959304636367925, -15.90905831380449], [-47.96416570240027, -15.910397702536471]], [[-47.96490652791988, -15.941752864277827], [-47.96179530660726, -15.940006297061261], [-47.9636551612982, -15.93687399769046], [-47.966742982437665, -15.938742893318006], [-47.96490652791988, -15.941752864277827]], [[-47.978985597990665, -15.88954378950729], [-47.97878607190749, -15.899960962827304], [-47.9735182528592, -15.90116924009667], [-47.969112199610215, -15.887088074601191], [-47.97682281627233, -15.88584527722405], [-47.978985597990665, -15.88954378950729]], [[-47.98528608080447, -15.80245949446402], [-47.98190984301142, -15.80968484291486], [-47.96925237190097, -15.808257491314746], [-47.97066746226734, -15.804810788642603], [-47.973953897364424, -15.805568699252348], [-47.982387054808505, -15.800661971577798], [-47.98528608080447, -15.80245949446402]], [[-48.026596366998255, -15.855447409303292], [-48.02574967335226, -15.863246970377556], [-48.020311008681574, -15.868225555688996], [-48.00788670225075, -15.868098133307136], [-48.00510820283927, -15.860906132002192], [-48.00044666601191, -15.85837592578403], [-47.98613341347657, -15.859177361641638], [-47.98133559507803, -15.85175691765059], [-47.99042765648181, -15.847412669867278], [-47.99579655147061, -15.85265274648394], [-48.00193935227621, -15.849398354183807], [-48.0163644640442, -15.85568670605339], [-48.02431108280857, -15.84940314821366], [-48.02814344550181, -15.85182195180335], [-48.026596366998255, -15.855447409303292]], [[-48.00676338350266, -15.839410299041061], [-48.00851953266206, -15.843175032926416], [-48.00185744452883, -15.84734870487358], [-47.99002622317471, -15.84352777816911], [-47.99058962464296, -15.835873482223018], [-47.99770049134801, -15.831889752317336], [-48.00488224209224, -15.835385836691373], [-48.00676338350266, -15.839410299041061]], [[-48.020006816855414, -15.827991706216716], [-48.019780709749064, -15.824592473713997], [-48.02323859391945, -15.823910243555193], [-48.02625515180615, -15.83125650461943], [-48.02151612418851, -15.831568412255399], [-48.020006816855414, -15.827991706216716]], [[-48.09068033678884, -15.81425062776025], [-48.09421826194773, -15.815006496036908], [-48.09655841009076, -15.81923547218027], [-48.08994494679707, -15.821204960446577], [-48.08600939886026, -15.828185203871387], [-48.07221460868624, -15.824640181061513], [-48.07381499538246, -15.81575991137056], [-48.08287379108405, -15.817008665857882], [-48.08662473565409, -15.813612327267016], [-48.09068033678884, -15.81425062776025]], [[-48.0907467618213, -15.878190528688561], [-48.08888482519106, -15.882480185874137], [-48.08288581676167, -15.879324410700423], [-48.08498155173455, -15.875970025348927], [-48.0907467618213, -15.878190528688561]]], [[[-47.96470702088799, -16.101119605531025], [-47.96162536196515, -16.097662184424593], [-47.96021530966708, -16.088817293765114], [-47.94959442631811, -16.091691349577076], [-47.939862819061766, -16.085689415547517], [-47.9390379915738, -16.077050434044665], [-47.93335944470819, -16.074534018577495], [-47.93008643535778, -16.093383334311394], [-47.93767869477228, -16.097048423613856], [-47.934701419468205, -16.104325722735428], [-47.94571676799341, -16.107414299111575], [-47.94226801975696, -16.11602940817251], [-47.94776915746162, -16.123068230359916], [-47.95272766620294, -16.123989841102098], [-47.95741810169652, -16.121180585732123], [-47.95759891784555, -16.112083422963966], [-47.960191971213845, -16.10749968781328], [-47.96489566381672, -16.107066097816283], [-47.96470702088799, -16.101119605531025]]], [[[-48.06099636667983, -16.049477434237968], [-48.04837562738704, -16.047965643562367], [-48.03972819121231, -16.038444157146703], [-48.038257134099325, -16.02384985271451], [-48.030461535086395, -16.023427342425013], [-48.01763662849417, -16.014880713891046], [-48.013838204878624, -16.022332109202196], [-48.0191573254429, -16.03006080651314], [-48.01325214047702, -16.04024730755034], [-48.01804986369632, -16.0451901478607], [-48.01895384186682, -16.06103327175868], [-48.01543734169241, -16.06474850398661], [-48.01030430275179, -16.064400779642245], [-48.009150347641004, -16.05638691731564], [-48.003030024695434, -16.05176730371888], [-48.00385758041024, -16.045727971585023], [-47.997308680631065, -16.04616074244605], [-47.994796344474366, -16.043046256766914], [-47.98700650325809, -16.047113136157503], [-47.963012123381056, -16.04927741919587], [-47.96263123943305, -16.054452537367027], [-47.96904092070507, -16.057600999156268], [-47.96957043951849, -16.066586361479626], [-47.97457199619043, -16.072273291207985], [-47.972685860481484, -16.074807615109165], [-47.9672431699673, -16.07413093192454], [-47.964789761029294, -16.085596687110716], [-47.97653330218307, -16.0844252733843], [-47.98179797058192, -16.087016086126578], [-47.982998762641444, -16.089708246671886], [-47.97935371793986, -16.096803626540865], [-47.98581957203881, -16.098748604608016], [-47.98858904606394, -16.09413571419463], [-47.987698997715384, -16.088680193883196], [-47.99440323720053, -16.084951090562765], [-47.99428011040959, -16.07889297526277], [-47.988483631614024, -16.07197931353487], [-47.98729207074563, -16.064651499834454], [-47.99631606848532, -16.060540984750855], [-48.00248614886862, -16.074054911693707], [-48.01568832925773, -16.073048782704248], [-48.022729135277594, -16.067055659626625], [-48.025750575367795, -16.067300329983656], [-48.02682663195123, -16.070268227274983], [-48.02395917919763, -16.07469092057047], [-48.02914470958173, -16.079649233026817], [-48.028508651530196, -16.09283089373632], [-48.03647282013973, -16.095696661936824], [-48.04536840710316, -16.088191919930583], [-48.035987875158675, -16.062543469119923], [-48.043954558099095, -16.059268268297313], [-48.04819703644435, -16.06194322175653], [-48.05724077163548, -16.061733382634493], [-48.06096109114127, -16.05627477404627], [-48.06099636667983, -16.049477434237968]]], [[[-48.205855164263134, -15.669120839285418], [-48.20462386588456, -15.653211866612006], [-48.198106361950714, -15.649678703738363], [-48.192422698741595, -15.65152415474738], [-48.18801079140646, -15.66309059996621], [-48.19543946841522, -15.668145599311892], [-48.195921971932776, -15.681840672717488], [-48.19916857633842, -15.689797931218921], [-48.205265343354036, -15.687523273864077], [-48.205855164263134, -15.669120839285418]]]]}}, {"type": "Feature", "properties": {"threshold": 95}, "geometry": {"type": "MultiPolygon", "coordinates": [[[[-47.838314136840296, -15.847769100635967], [-47.836398352234696, -15.841450591577578], [-47.8389645738619, -15.834133407365233], [-47.834786248954146, -15.831072634767184], [-47.83052551882851, -15.832525031373152], [-47.82820842806849, -15.850077767161125], [-47.814913433380035, -15.845433327794455], [-47.810982247355945, -15.837551828174613], [-47.817579736926234, -15.83262915315584], [-47.817625024995856, -15.829263153935454], [-47.81004739136059, -15.826757357448285], [-47.80689391543598, -15.81918667773404], [-47.79746082340431, -15.821516490332344], [-47.79305344279805, -15.810293420242248], [-47.78466933985623, -15.824018028622802], [-47.78471769992062, -15.831053702044654], [-47.79606406710218, -15.82838037640716], [-47.79875534128297, -15.830750521336642], [-47.798556443074865, -15.83709250253488], [-47.790342132835065, -15.841499089996768], [-47.773809053238054, -15.83907957100948], [-47.77660929535171, -15.848682867479637], [-47.78296977074169, -15.85218430163166], [-47.794416463051405, -15.853736140362004], [-47.79678361714863, -15.850480101711772], [-47.80202121124199, -15.851996887436378], [-47.806307522337946, -15.849868431953297], [-47.809802483792105, -15.854395052891816], [-47.8071150697464, -15.85856206740547], [-47.80724269815034, -15.862915226727287], [-47.81052999933953, -15.865828763219088], [-47.80942907364422, -15.871402104376205], [-47.80463661223124, -15.872294560368188], [-47.80176615354306, -15.866916508069735], [-47.79481778348362, -15.866233689084984], [-47.78788331395928, -15.874922690474483], [-47.78710007399341, -15.881073016641217], [-47.78999516292373, -15.885749176282143], [-47.79730694033518, -15.874728209408207], [-47.79967441403727, -15.876557969778084], [-47.80037293146651, -15.884779199632606], [-47.80432421145737, -15.884585695642375], [-47.80828821760422, -15.888016691086483], [-47.82329090303523, -15.885998627973512], [-47.82587433628134, -15.866522628042679], [-47.82168161458269, -15.859123949231005], [-47.825519030064974, -15.857515470160028], [-47.82926611157104, -15.860667714703279], [-47.83554865450169, -15.857990268886978], [-47.83494219675129, -15.853298830462379], [-47.838314136840296, -15.847769100635967]], [[-47.80612852653049, -15.832292198561255], [-47.80424296814902, -15.829223952450265], [-47.807414966802135, -15.827387925425953], [-47.80927199665199, -15.830482321721677], [-47.80612852653049, -15.832292198561255]]], [[[-47.789626185993804, -15.888470290402948], [-47.78508261766471, -15.890543139212049], [-47.77840282700422, -15.884345633436043], [-47.771959527380325, -15.894837523589997], [-47.768123328379716, -15.89524137748317], [-47.76633379399869, -15.892352050903687], [-47.76935125489889, -15.887865123051762], [-47.76797235067235, -15.88282824467227], [-47.77341993360362, -15.878940834497493], [-47.77333923915333, -15.871007218900122], [-47.76215002492751, -15.86328221253516], [-47.76011290943501, -15.858426372084187], [-47.75495917553796, -15.860133049406556], [-47.752595979899475, -15.8670657996051], [-47.74795127786601, -15.870828197622096], [-47.75985794541922, -15.889316932858886], [-47.75931502028093, -15.898148148085804], [-47.75104871719446, -15.901433880906279], [-47.74866290878916, -15.91303930442968], [-47.75334086517667, -15.917383309798923], [-47.76316641562478, -15.918124708673789], [-47.769551447575225, -15.915298150466938], [-47.77100877628788, -15.909307974771902], [-47.779172650671434, -15.91053466422266], [-47.78788494539369, -15.905377302256207], [-47.792441222755485, -15.901436863798482], [-47.789626185993804, -15.888470290402948]]], [[[-47.87621416575209, -15.656991950611587], [-47.87574793937497, -15.653375630982008], [-47.85751722336586, -15.650274164697272], [-47.853264205395725, -15.658557196330415], [-47.8499775160504, -15.659203244751335], [-47.848169704484825, -15.652396238442805], [-47.83723943711885, -15.641512598121258], [-47.82991727962394, -15.641741121010842], [-47.82781236261039, -15.647264910470483], [-47.81621037700209, -15.648633976044353], [-47.805102381024966, -15.644387826940667], [-47.78926351807417, -15.646213721028603], [-47.77697611835634, -15.64310510909856], [-47.7717050705153, -15.646983821364504], [-47.765268138102805, -15.643246273692187], [-47.75361710539093, -15.644455950056324], [-47.74600597575008, -15.66394126018204], [-47.75003899394019, -15.667194970738482], [-47.75405679183182, -15.6662625855149], [-47.75669278958368, -15.656825011219297], [-47.76154515929187, -15.65632200713667], [-47.7703018174655, -15.650030474172086], [-47.774274741392354, -15.65452006363537], [-47.78134128451072, -15.655796773322312], [-47.78537048984887, -15.660943229133952], [-47.79659816260106, -15.66578437540566], [-47.805486202553304, -15.666510590661172], [-47.81186314015132, -15.663684096163323], [-47.817448281330684, -15.652737271382112], [-47.82984842740512, -15.652248788940662], [-47.83446247863489, -15.649181969577718], [-47.837285706836276, -15.65475983959458], [-47.8326586243931, -15.660911957611464], [-47.817200613015174, -15.665320966231446], [-47.81654800113701, -15.671764252083218], [-47.82696812226312, -15.679221046055678], [-47.81418998771006, -15.688185212454487], [-47.813432553417655, -15.694709103224007], [-47.818365656443866, -15.695901106873091], [-47.83308917850387, -15.691543092963673], [-47.84583335812155, -15.683917751813473], [-47.8474577040973, -15.676943800352179], [-47.85249995719917, -15.674996826503934], [-47.85759641404235, -15.677200630672882], [-47.85930325356231, -15.662891194648337], [-47.87621416575209, -15.656991950611587]]], [[[-47.89148532328279, -15.719143973119763], [-47.89051983277847, -15.713374153275062], [-47.88473763785208, -15.709849192135566], [-47.88543024859231, -15.703890920670752], [-47.882163103200725, -15.700927422307547], [-47.88169088464996, -15.695317325496593], [-47.8617459543559, -15.687170739273903], [-47.85681139736005, -15.688158326576238], [-47.85485520718691, -15.691637825897628], [-47.86204414462984, -15.698580317024582], [-47.86178972870107, -15.70303347260239], [-47.86739631865667, -15.707901443049526], [-47.8678689770053, -15.712873968489388], [-47.84432838211497, -15.723895490670808], [-47.844501290713175, -15.729719993657724], [-47.85122896142801, -15.732269192982198], [-47.84360648244617, -15.738899129751996], [-47.84726611683668, -15.749310530459011], [-47.84975225669695, -15.751285215559493], [-47.857091281625095, -15.749246290926166], [-47.858504961346966, -15.74319948753513], [-47.865582134165784, -15.738109766599592], [-47.86199391776996, -15.72879768192197], [-47.87192536021235, -15.72367678954477], [-47.873064572102045, -15.71695762937505], [-47.88032390918546, -15.71772388826621], [-47.87732871816307, -15.728710208600873], [-47.88066906499498, -15.731180941412521], [-47.88645827476734, -15.72916855503111], [-47.89148532328279, -15.719143973119763]]], [[[-48.16551417590593, -15.797668306123247], [-48.16507219795966, -15.793005395701446], [-48.15744103817627, -15.793525438913615], [-48.15574668343839, -15.788267311369529], [-48.15072932632789, -15.788189807650053], [-48.14357822914553, -15.798605948176741], [-48.14402336737455, -15.804527566955258], [-48.137577668247566, -15.80501671287167], [-48.13440138975347, -15.799390861766952], [-48.14501881689235, -15.786533444198996], [-48.14472824657881, -15.77712104969235], [-48.13791567234339, -15.77605168756283], [-48.13394541609663, -15.781512513712588], [-48.12344856560694, -15.782048495944517], [-48.11533200396525, -15.790765971656985], [-48.1071563857213, -15.793701270156122], [-48.0932101041964, -15.793938162421096], [-48.09024170820468, -15.797664901464858], [-48.077368214095586, -15.803334365004742], [-48.06519270694269, -15.80013892229719], [-48.06100672908426, -15.810896167608771], [-48.05489579557428, -15.814565126857913], [-48.05361228922105, -15.823052535274071], [-48.04806211218872, -15.826410081813078], [-48.04226760271455, -15.824377003318721], [-48.0407742863138, -15.82034193971882], [-48.04712647552683, -15.81447662895511], [-48.04462301205171, -15.807422438636651], [-48.04655107524219, -15.801395550024635], [-48.05617177605063, -15.79801841867359], [-48.05389416583583, -15.789599585781376], [-48.035605858927646, -15.788989038208246], [-48.0330547116497, -15.79348604348081], [-48.027970750139794, -15.793987122354373], [-48.02442545838543, -15.787674099772424], [-48.01770134317358, -15.786796898804687], [-48.01527961672931, -15.798617068055416], [-48.00903335946414, -15.801126807670016], [-48.00715883203987, -15.80767554292914], [-47.9949919301725, -15.806991669729085], [-47.99227955047472, -15.790740883255316], [-48.00514297432264, -15.787318092957143], [-48.004438864272586, -15.768139417994602], [-48.00026024654015, -15.768272627834], [-47.99654241466608, -15.773571286806096], [-47.985074471653405, -15.772583415919074], [-47.97978679766256, -15.78014385514022], [-47.97327002588866, -15.780996712607969], [-47.96196953869026, -15.794099497440829], [-47.945544625946056, -15.790208463326778], [-47.938165064710134, -15.773983856802765], [-47.941364793602254, -15.768623438107635], [-47.93619767561761, -15.76769227842177], [-47.93334997501514, -15.76309523058422], [-47.936996964297, -15.75946324606442], [-47.936465879924036, -15.754300356885736], [-47.92996873221705, -15.754360869484868], [-47.92608810412114, -15.757343717400824], [-47.92449163391108, -15.766119405135719], [-47.932562275906875, -15.775699704519777], [-47.92409391466842, -15.78482521747478], [-47.91632616052389, -15.781166892120305], [-47.91229384245793, -15.775863554296006], [-47.91435385723864, -15.770880236210711], [-47.912225893803246, -15.767007796619259], [-47.89935459571316, -15.770222933496111], [-47.89746387931037, -15.76735361422974], [-47.89933453264215, -15.761671758295666], [-47.913008048437185, -15.7534874905007], [-47.919002255690145, -15.740462521951375], [-47.914863174920235, -15.735674515404542], [-47.90494040378701, -15.737484555071772], [-47.90351029178234, -15.730499477263697], [-47.90027876623428, -15.728473459080499], [-47.894532938216784, -15.729605740947493], [-47.89399075494317, -15.739089133350854], [-47.88293347574739, -15.743653025524424], [-47.875991659652875, -15.752636504868855], [-47.86908867959214, -15.751038207215368], [-47.866071444961904, -15.75377478461758], [-47.86613373200213, -15.758211850286965], [-47.87378986615326, -15.761365943075065], [-47.87258554398851, -15.767657987624618], [-47.86809023823789, -15.769723523120895], [-47.86141008442254, -15.764324754391033], [-47.85680507061971, -15.774905834743883], [-47.85699671889211, -15.778719426210344], [-47.861371236366026, -15.781451360587509], [-47.86572668496457, -15.771761459161876], [-47.869065286907194, -15.771072502355869], [-47.87147612814164, -15.776964614392885], [-47.86794399814239, -15.782884322875532], [-47.86910313301922, -15.792572002631008], [-47.878192497428465, -15.794394489149619], [-47.88554240067647, -15.79159785332684], [-47.88956214928009, -15.793946078282861], [-47.88908782233974, -15.797483247163163], [-47.88013979892204, -15.80308065831706], [-47.88197248467055, -15.81031800870658], [-47.88996168524531, -15.82112392141282], [-47.91801670831518, -15.839322119418059], [-47.91715075344276, -15.847281775945227], [-47.91938415364621, -15.84874718542443], [-47.92561101814153, -15.848067407889523], [-47.92102037079944, -15.839343561860803], [-47.93110716444879, -15.831029693086743], [-47.93943910674029, -15.83281278207886], [-47.9396816088394, -15.826149746821834], [-47.933119077397315, -15.825042278264696], [-47.92187592419463, -15.817044532970982], [-47.91618930171591, -15.807155074335778], [-47.90996717305212, -15.806763165455934], [-47.898245925833045, -15.796729865973015], [-47.89198045835618, -15.795618695052429], [-47.89198920881325, -15.792737300345102], [-47.89762221727924, -15.788630479621297], [-47.89389427211456, -15.783439756223025], [-47.89802895769198, -15.772935764893234], [-47.903219938187846, -15.774419075280282], [-47.907591287638816, -15.780138668761587], [-47.90828518570192, -15.79872767106314], [-47.9168504186267, -15.800404453182587], [-47.931550260666725, -15.810844255806119], [-47.94628361540455, -15.812488149709141], [-47.94932380439166, -15.819421228305771], [-47.94946102044729, -15.82769463490135], [-47.94656295341701, -15.830456016264426], [-47.949611175165806, -15.839237724603603], [-47.96180803938339, -15.831167686965223], [-47.95726543909339, -15.81591793042209], [-47.950330938870266, -15.812947289882825], [-47.954808914118814, -15.804429400209454], [-47.9600258857641, -15.803769478847155], [-47.96418098687913, -15.813288253001195], [-47.963340509536806, -15.818373078702523], [-47.96881539336667, -15.8189165298183], [-47.971529248252494, -15.822849678784843], [-47.962413060404174, -15.844827243321225], [-47.952806310670105, -15.847226012341924], [-47.95474581813337, -15.8693647059422], [-47.95061564377804, -15.875542063574315], [-47.95538269061184, -15.883181221110148], [-47.948486082904424, -15.887218840936663], [-47.94664851853939, -15.89253412230002], [-47.94094472699676, -15.8946850801418], [-47.92052863847531, -15.88331929734724], [-47.910069924677295, -15.880120429777033], [-47.90497326845981, -15.882406037227202], [-47.904240766760296, -15.891837243206838], [-47.91149465097204, -15.908566390392526], [-47.927824695874186, -15.911291311628151], [-47.94580115487083, -15.920990205879331], [-47.945638259046085, -15.926834063018298], [-47.9345271998329, -15.932871446018046], [-47.94022061419183, -15.941169867129844], [-47.95023245456725, -15.941849873245182], [-47.95400374935167, -15.945129735840121], [-47.959396194253806, -15.944347225619218], [-47.963459427705665, -15.948293113938746], [-47.97310020816901, -15.947308586993218], [-47.97667543139035, -15.944028665890126], [-47.982097898934214, -15.947215434418446], [-47.988557850647375, -15.945351337099963], [-47.986952209466516, -15.932823581045577], [-47.97988704442257, -15.923704671843828], [-47.97461152657758, -15.921269097774788], [-47.97991576532052, -15.915643534679718], [-47.97983884266075, -15.907644070632537], [-47.988970605702, -15.894936673447823], [-47.987962313921706, -15.886839981984618], [-47.99362152135341, -15.882350659242656], [-48.0049683577305, -15.882133568470602], [-48.00702130348521, -15.894071498980297], [-48.01993915971687, -15.899049945002883], [-48.02459256525233, -15.894365223886794], [-48.025857958799556, -15.877274696216487], [-48.04371516256181, -15.873736390180456], [-48.0427946086081, -15.868877091338529], [-48.03734573259598, -15.863046206216502], [-48.04076641083222, -15.857666937243081], [-48.0517576873252, -15.856318199624516], [-48.05561024976468, -15.859574056655909], [-48.05547576419078, -15.871732384028622], [-48.05149392962901, -15.876442634900341], [-48.05308437261138, -15.88521621420687], [-48.034962854483226, -15.903667023725715], [-48.03524198108534, -15.906861523789376], [-48.041499232037914, -15.907430552753372], [-48.04336397924096, -15.911723674631174], [-48.040296164006904, -15.92089823982892], [-48.04121088512516, -15.929215294844909], [-48.03080460984789, -15.931841501662568], [-48.02873016944523, -15.934701516912199], [-48.030789567352855, -15.942601043006086], [-48.02799088863129, -15.948302703809873], [-48.03058033893617, -15.953121332538041], [-48.021440477295485, -15.963820936577061], [-48.02341892869632, -15.970134154580295], [-48.0302333409444, -15.974297486061923], [-48.03034959683094, -15.979880600975545], [-48.03925884157727, -15.98102288967568], [-48.044638695050416, -15.989817441392328], [-48.04796209976255, -15.989410993368], [-48.048381463711856, -15.979730557544661], [-48.05297174797981, -15.975920138685185], [-48.05032021178056, -15.971165805966894], [-48.052834889632315, -15.966898581300425], [-48.05078938480144, -15.962545792932685], [-48.05275370358305, -15.954054801493145], [-48.043083014154284, -15.952589508787021], [-48.044021158626784, -15.946118648572257], [-48.039774413793246, -15.940659472175637], [-48.04384337997787, -15.938540470734857], [-48.044118114030326, -15.933162655054925], [-48.04878858471975, -15.931976761977621], [-48.052853477616374, -15.918972250870622], [-48.069290048032684, -15.91642793173128], [-48.073191480550975, -15.911648151013985], [-48.069354822342476, -15.905941848046567], [-48.063348644795035, -15.905773747641774], [-48.058129725028635, -15.902234005361551], [-48.056941512631965, -15.893961921248286], [-48.059224011700465, -15.886818183468227], [-48.065160467157156, -15.884586824750912], [-48.068376512822994, -15.88855032644357], [-48.07472588881155, -15.887029712445234], [-48.12981395554533, -15.903292334136584], [-48.132906425912665, -15.892989962908487], [-48.143206574627854, -15.898977747108946], [-48.1514798609565, -15.895406303958902], [-48.15499919331067, -15.884139938329303], [-48.15343706544818, -15.881640535793991], [-48.14293960682309, -15.88179345548232], [-48.13984960132553, -15.883895224433529], [-48.13931890494475, -15.888675374497799], [-48.132065282885236, -15.889666467006533], [-48.1342290728308, -15.880401454968176], [-48.122548107449056, -15.87503411646361], [-48.120306938218945, -15.87147728273551], [-48.10746920669941, -15.872928245061972], [-48.10171559386374, -15.860363216967311], [-48.07980458717222, -15.852659394546535], [-48.073397284893815, -15.841858899733547], [-48.06239439033231, -15.841986073134164], [-48.0664721165701, -15.828031403762902], [-48.07220026216309, -15.826339041848279], [-48.07383587088343, -15.831543236436035], [-48.08007710628709, -15.83660198135748], [-48.09698077785955, -15.840853461029434], [-48.10312686543279, -15.847757186791167], [-48.11356945238374, -15.85099097191181], [-48.118673957024605, -15.849013314607168], [-48.121182121027395, -15.842610157975944], [-48.124629375647714, -15.84322559624663], [-48.12699616355234, -15.847489330516781], [-48.136062085472396, -15.849025778714482], [-48.137154237814364, -15.843385651865166], [-48.14407475468794, -15.83941732301572], [-48.143109129436084, -15.830308101871177], [-48.15013885337875, -15.825361212097885], [-48.16080488754452, -15.827762813449624], [-48.163245578917014, -15.815118261070015], [-48.16159795739376, -15.80936944940648], [-48.16551417590593, -15.797668306123247]], [[-47.98528608080447, -15.80245949446402], [-47.98190984301142, -15.80968484291486], [-47.96930671633154, -15.808334598467537], [-47.97063874149392, -15.804822568263527], [-47.97946541382597, -15.803655716964032], [-47.982387054808505, -15.800661971577798], [-47.98528608080447, -15.80245949446402]], [[-47.979078853518196, -15.895876720508133], [-47.97817043267858, -15.900747233266102], [-47.97308707088245, -15.900927142114615], [-47.97160758442766, -15.891035010799284], [-47.97845388161806, -15.889117748734456], [-47.979078853518196, -15.895876720508133]], [[-48.026596366998255, -15.855447409303292], [-48.02574967335226, -15.863246970377556], [-48.020311008681574, -15.868225555688996], [-48.00788670225075, -15.868098133307136], [-48.00510820283927, -15.860906132002192], [-48.0005287979273, -15.858386556992231], [-47.993485965922915, -15.86021136059118], [-47.98559324432747, -15.857523031819197], [-47.98133559507803, -15.85175691765059], [-47.99042765648181, -15.847412669867278], [-47.99579655147061, -15.85265274648394], [-48.00316558139272, -15.85067868968365], [-48.0163644640442, -15.85568670605339], [-48.02431108280857, -15.84940314821366], [-48.02814344550181, -15.85182195180335], [-48.026596366998255, -15.855447409303292]], [[-48.00676338328522, -15.839410299002319], [-48.00851953266206, -15.843175032926416], [-48.00200318033393, -15.847001224470267], [-47.99002622317471, -15.84352777816911], [-47.99276304795384, -15.836372876570106], [-48.00676338328522, -15.839410299002319]], [[-48.09068033678884, -15.81425062776025], [-48.09421826194773, -15.815006496036908], [-48.09655841009076, -15.81923547218027], [-48.08994494679707, -15.821204960446577], [-48.08578769685134, -15.828309815444236], [-48.072204171646824, -15.824538211072003], [-48.07381499538246, -15.81575991137056], [-48.08287379108405, -15.817008665857882], [-48.08662473565409, -15.813612327267016], [-48.09068033678884, -15.81425062776025]], [[-48.0907467618213, -15.878190528688561], [-48.08888482519106, -15.882480185874137], [-48.08288581676167, -15.879324410700423], [-48.08498155173455, -15.875970025348927], [-48.0907467618213, -15.878190528688561]]], [[[-48.06099636667983, -16.049477434237968], [-48.04837562738704, -16.047965643562367], [-48.03972819121231, -16.038444157146703], [-48.038257134099325, -16.02384985271451], [-48.030461535086395, -16.023427342425013], [-48.02182252158828, -16.014897324685588], [-48.01763662849417, -16.014880713891046], [-48.013838204878624, -16.022332109202196], [-48.01911200074093, -16.030298533682664], [-48.0123916964093, -16.039439068166143], [-48.01804986369632, -16.0451901478607], [-48.01895384186682, -16.06103327175868], [-48.01543734169241, -16.06474850398661], [-48.00994643836805, -16.064064674876107], [-48.009150347641004, -16.05638691731564], [-48.003030024695434, -16.05176730371888], [-48.00330228269344, -16.04456785181529], [-47.99743273784388, -16.045400772179033], [-47.992852195440605, -16.043061660851624], [-47.98810687597244, -16.046354974869534], [-47.963012123381056, -16.04927741919587], [-47.96263123943305, -16.054452537367027], [-47.96904092070507, -16.057600999156268], [-47.96957043951849, -16.066586361479626], [-47.974575588954316, -16.072514761039898], [-47.972685860481484, -16.074807615109165], [-47.96729162462224, -16.074065829725548], [-47.96316393871933, -16.08599867990091], [-47.97628439950175, -16.08440506702106], [-47.98179797058192, -16.087016086126578], [-47.982998762641444, -16.089708246671886], [-47.97935371793986, -16.096803626540865], [-47.98581957203881, -16.098748604608016], [-47.98858904606394, -16.09413571419463], [-47.987698997715384, -16.088680193883196], [-47.99440323720053, -16.084951090562765], [-47.99428011040959, -16.07889297526277], [-47.988483631614024, -16.07197931353487], [-47.98729207074563, -16.064651499834454], [-47.99631606848532, -16.060540984750855], [-48.00248614886862, -16.074054911693707], [-48.01568832925773, -16.073048782704248], [-48.022729135277594, -16.067055659626625], [-48.025750575367795, -16.067300329983656], [-48.02682663195123, -16.070268227274983], [-48.02395917919763, -16.07469092057047], [-48.02914470958173, -16.079649233026817], [-48.028508651530196, -16.09283089373632], [-48.03647282013973, -16.095696661936824], [-48.04536840710316, -16.088191919930583], [-48.035987875158675, -16.062543469119923], [-48.043954558099095, -16.059268268297313], [-48.04819703644435, -16.06194322175653], [-48.05724077163548, -16.061733382634493], [-48.06096109114127, -16.05627477404627], [-48.06099636667983, -16.049477434237968]]], [[[-47.96039387903929, -16.088754431327807], [-47.95001656462622, -16.091886441502425], [-47.93969212585532, -16.085504023459322], [-47.939976035753396, -16.078826349811873], [-47.93624402078583, -16.074381118940206], [-47.933474948364, -16.074419125427163], [-47.931586422411975, -16.078045646921698], [-47.930115490902374, -16.093458464398307], [-47.93767869477228, -16.097048423613856], [-47.934701419468205, -16.104325722735428], [-47.94558754222389, -16.107200935832676], [-47.9422813642012, -16.116108572952648], [-47.94977147503727, -16.124011264305587], [-47.95741810169652, -16.121180585732123], [-47.95940797014446, -16.108390011012037], [-47.96499850921384, -16.106847825402443], [-47.96577585265997, -16.100697712718], [-47.96171574706598, -16.097783197454298], [-47.96039387903929, -16.088754431327807]]]]}}]}