{"type": "Feature", "properties": {"city": "Birigui", "country": "Brazil", "real_area": 37.11}, "geometry": {"type": "LineString", "coordinates": [[-50.3219324080084, -21.3108056431339], [-50.3210917194731, -21.3155538765066], [-50.3161415409825, -21.3174482131428], [-50.3120320202782, -21.314594294346], [-50.3128728123089, -21.3098459540106], [-50.3087632887003, -21.3069916280476], [-50.3096041085365, -21.3022429026265], [-50.3054945820506, -21.2993881696011], [-50.3063354296865, -21.2946390592095], [-50.3022259003501, -21.2917839192257], [-50.3030667757798, -21.2870344239787], [-50.2989572436198, -21.2841788771405], [-50.2997981468373, -21.2794289971535], [-50.3047484787866, -21.2775347708832], [-50.305589306364, -21.2727846131406], [-50.3105394285907, -21.2708901939789], [-50.3113801805171, -21.2661397586489], [-50.3072709136669, -21.2632836355305], [-50.3081116933927, -21.2585328157691], [-50.3040024236777, -21.2556762860647], [-50.304843231197, -21.2509250819874], [-50.3097932049934, -21.2490305145987], [-50.3106339368685, -21.2442790332958], [-50.3155837008819, -21.2423842734953], [-50.3196927022825, -21.2452409726889], [-50.3246422256412, -21.2433459982648], [-50.328751089764, -21.2462023757141], [-50.3279105648548, -21.2509536427964], [-50.3320194259435, -21.2538096136453], [-50.3311789288659, -21.258560496471], [-50.3352877868936, -21.2614160606152], [-50.3344473176534, -21.2661665590687], [-50.3385561725932, -21.269021716404], [-50.3377157311964, -21.2737718303698], [-50.3418245830214, -21.2766265807921], [-50.3467737416681, -21.2747313021457], [-50.3508824557202, -21.2775857304874], [-50.3500421457654, -21.2823353525296], [-50.3541508566015, -21.2851893737801], [-50.3590997426467, -21.2832938579502], [-50.3632083154382, -21.2861475570066], [-50.368156959689, -21.2842518264283], [-50.3722653942384, -21.2871052032517], [-50.3772137964635, -21.285209257976], [-50.3813220925736, -21.2880623125271], [-50.3804821215149, -21.2928112272739], [-50.375533750628, -21.2947071950885], [-50.3714253194702, -21.2918542256081], [-50.3664767064687, -21.2937499786701], [-50.3656365559154, -21.2984987236755], [-50.3697451220453, -21.3013516080902], [-50.3746937037648, -21.2994558325559], [-50.378802131504, -21.3023083945897], [-50.3837504710198, -21.3004124042474], [-50.387858760171, -21.3032646438613], [-50.3870188449574, -21.3080127886779], [-50.3820705368454, -21.3099088015365], [-50.3779621125517, -21.3070566470529], [-50.3730135621471, -21.3089524450482], [-50.3721734673924, -21.3137004199674], [-50.3672247061851, -21.3155960254426], [-50.3631160084824, -21.3127436335949], [-50.3581670053562, -21.3146390240493], [-50.3540581695088, -21.3117863097512], [-50.349108924695, -21.3136814851337], [-50.3449999509004, -21.3108284484242], [-50.3400504646307, -21.3127234086838], [-50.3359413530862, -21.3098700496021], [-50.3309916255921, -21.3117647946878], [-50.3268823764953, -21.308911113273], [-50.3219324080084, -21.3108056431339]]}}