{"type": "Feature", "properties": {"city": "Atyrau", "country": "Kazakhstan", "real_area": 121.06}, "geometry": {"type": "MultiLineString", "coordinates": [[[51.8007707962175, 47.0145836305189], [51.8080021150262, 47.0138977305298], [51.8124462089226, 47.0179445631329], [51.809658416568, 47.0226776461395], [51.8141034195653, 47.0267245619155], [51.8113152853371, 47.0314576562915], [51.8040814644133, 47.0321434126726], [51.8012923044162, 47.036876096011], [51.7940580257125, 47.0375610908381], [51.7896141586677, 47.033513474317], [51.7823806743018, 47.0341977796304], [51.7779382846843, 47.0301498961334], [51.7807288106889, 47.0254180575044], [51.7762873294347, 47.0213702574588], [51.7790775126206, 47.0166384300415], [51.7863084947869, 47.0159539802497], [51.7890976530773, 47.0112217418121], [51.7963281785446, 47.0105365309201], [51.8007707962175, 47.0145836305189]], [[51.8491120541816, 47.0949086177978], [51.8446577170014, 47.090861665397], [51.8374147912077, 47.09154837445], [51.8329619343544, 47.08750115231], [51.8357514353604, 47.0827675719122], [51.8312994905786, 47.0787204310748], [51.8340886496092, 47.0739868608239], [51.829637616543, 47.069939801521], [51.8324264336642, 47.0652062416182], [51.8279763119575, 47.0611592640818], [51.820737940847, 47.0618454958213], [51.8162892978967, 47.0577982496709], [51.8190784581418, 47.0530651223946], [51.8263155765323, 47.0523788191903], [51.8307647872351, 47.0564257147284], [51.8380026988633, 47.0557387209325], [51.8424533879602, 47.0597853477231], [51.8496920923953, 47.0590976630541], [51.8541442600061, 47.0631440207159], [51.8613837568169, 47.0624556448924], [51.8641698329906, 47.0577208406128], [51.8597170988424, 47.0536748339477], [51.8625028341872, 47.0489400405761], [51.8580510117794, 47.0448941156296], [51.8608364063607, 47.0401593333676], [51.8680729372242, 47.0394700543285], [51.8725253255531, 47.0435156281769], [51.8797626473656, 47.0428256581205], [51.8825463287112, 47.0380900437959], [51.8780933749506, 47.0340448211629], [51.8808767162523, 47.0293092183212], [51.8764246741288, 47.0252640776071], [51.8792076754515, 47.0205284864495], [51.886442032555, 47.0198376144385], [51.8892240077532, 47.0151016135858], [51.8964579032932, 47.0144099806484], [51.9009110745604, 47.0184544186121], [51.9081457590059, 47.0177620947478], [51.9126004061254, 47.021806263032], [51.9098198049978, 47.0265431067456], [51.9142753644872, 47.0305873566689], [51.91149442433, 47.0353242122238], [51.9159508965454, 47.0393685435539], [51.9131696172943, 47.0441054107486], [51.9059311777648, 47.0447975252642], [51.9031488711592, 47.0495339825615], [51.9076056921169, 47.0535787466806], [51.9048230459929, 47.0583152152298], [51.9092807802639, 47.0623600603072], [51.906497794557, 47.0670965399068], [51.8992563861802, 47.0677877530239], [51.8964723722937, 47.0725238220807], [51.9009304551533, 47.0765690994138], [51.9081731171436, 47.0758779561589], [51.9126326791117, 47.0799229624561], [51.9198761313136, 47.0792311266403], [51.924337172508, 47.0832758615199], [51.9215541968211, 47.0880127838925], [51.9260161528824, 47.0920575987848], [51.9332616492701, 47.091365139491], [51.9360439350251, 47.0866277959427], [51.9432889663469, 47.0859345741622], [51.9477529663454, 47.0899787650615], [51.9449713710744, 47.0947165296847], [51.9494362869057, 47.0987608000992], [51.9566833619153, 47.0980669538109], [51.9611497578067, 47.1021109514136], [51.9583685149821, 47.1068491473972], [51.9628358275475, 47.1108932240334], [51.9700849466027, 47.1101987524571], [51.9745537398274, 47.1142425556504], [51.9717728505329, 47.1189811826618], [51.9762425612734, 47.1230250644066], [51.9734613335593, 47.1277637013866], [51.9662097024601, 47.1284580357958], [51.9634274434831, 47.1331962617302], [51.9678975082216, 47.1372405740698], [51.9651149103993, 47.1419788095848], [51.9695858932467, 47.1460232000265], [51.9768400380809, 47.1453290026586], [51.9796219428254, 47.1405903463459], [51.9751503959768, 47.136546308197], [51.9779319621743, 47.1318076614499], [51.9851843820505, 47.1311126321385], [51.9896564924076, 47.135156317878], [51.996909700623, 47.1344605933833], [52.0013832928377, 47.1385040044165], [51.9986031138601, 47.143243492485], [51.9913486486178, 47.1439391489121], [51.9885674375049, 47.1486782259211], [51.9930413856563, 47.1527220670998], [52.0002971083486, 47.1520264787086], [52.0047725393255, 47.1560700446817], [52.0019916843848, 47.1608095516196], [52.0064680352826, 47.1648531947128], [52.0036868422653, 47.1695927107832], [51.9964286034031, 47.1702881631976], [51.9936463771628, 47.1750272676495], [51.9863876688464, 47.175721955767], [51.9836044092761, 47.1804606483278], [51.976345231892, 47.1811545719922], [51.9735609388846, 47.1858928523891], [51.96630129282, 47.1865860114443], [51.9618271989374, 47.1825409586821], [51.9545683438281, 47.1832334217565], [51.9517823235166, 47.187970868807], [51.9562558519107, 47.1920162736948], [51.9635159662685, 47.1913238794047], [51.967990979933, 47.1953690091203], [51.9752518854325, 47.1946759186148], [51.9797283844841, 47.1987207727751], [51.976943412955, 47.2034590697147], [51.9696812475962, 47.2041520917024], [51.9668952417967, 47.2088899758329], [51.9713720961059, 47.2129352587559], [51.9685857505862, 47.2176731506693], [51.9613218559361, 47.2183653387968], [51.9585344756755, 47.223102817442], [51.9512701124063, 47.2237942400396], [51.9467943903217, 47.2197482528822], [51.9395308198195, 47.2204389788894], [51.935056584715, 47.2163927163274], [51.9378453532201, 47.2116560796851], [51.9451076631495, 47.210965284551], [51.9478953974275, 47.2062282344682], [51.9434215154853, 47.202182400585], [51.9462089094449, 47.1974453583153], [51.9417359470335, 47.1933996014188], [51.9445230007392, 47.1886625671636], [51.9400509574986, 47.1846168874868], [51.9428376710148, 47.1798798614473], [51.9500957347306, 47.1791880940719], [51.9528814152155, 47.1744506554236], [51.9484097250546, 47.1704054051751], [51.9511950657773, 47.1656679751305], [51.9467242941936, 47.1616228025511], [51.9394687473293, 47.1623147080591], [51.9349994594435, 47.1582692614392], [51.9277447040368, 47.1589604719989], [51.9232768997315, 47.1549147517213], [51.926063284822, 47.1501781726948], [51.9333167826254, 47.1494868927873], [51.9361021360285, 47.1447499016252], [51.9316346832497, 47.1407046115409], [51.9344196967858, 47.1359676296017], [51.9299531610222, 47.1319224181344], [51.9227021771554, 47.1326138368317], [51.9199164724587, 47.137350397584], [51.9243824426262, 47.1413959608277], [51.9215963977649, 47.1461325308177], [51.9143436916686, 47.146823116293], [51.9115566153766, 47.1515592740616], [51.9043034441948, 47.1522490955703], [51.899838606697, 47.1482028291249], [51.8925862282815, 47.1488919565308], [51.8881228740099, 47.1448454175753], [51.8909113310431, 47.1401101026243], [51.8864488925656, 47.1360636428165], [51.8892370084783, 47.1313283369466], [51.8847754854368, 47.1272819565189], [51.8775264135058, 47.1279705307037], [51.8747376083497, 47.1327054149993], [51.867488073437, 47.1333932255641], [51.8630286000852, 47.1293462223809], [51.8557798590548, 47.130033339923], [51.8513218680865, 47.1259860656255], [51.8440739213717, 47.126672490427], [51.8412827095011, 47.1314061185387], [51.8340343014368, 47.1320917796624], [51.8295783615046, 47.1280438838923], [51.8223307488109, 47.1287288526062], [51.8178762913856, 47.1246806866198], [51.8206688773544, 47.1199479025275], [51.8279152341392, 47.1192628623606], [51.8323702607009, 47.1233106777404], [51.839617412667, 47.1226249453973], [51.8424082822329, 47.1178913264257], [51.8379526870262, 47.1138438617702], [51.8407432143533, 47.1091102521401], [51.8479886497622, 47.1084236852745], [51.8507781479238, 47.103689663283], [51.8463228978319, 47.0996426300598], [51.8491120541816, 47.0949086177978]], [[51.875863081112, 47.0610774398125], [51.8831029081389, 47.0603876105067], [51.8858872697671, 47.0556519738207], [51.8931266346804, 47.0549613826233], [51.8959099687451, 47.0502253354955], [51.8914546254486, 47.0461803010855], [51.8842165131191, 47.0468709624402], [51.8814324916647, 47.0516065880462], [51.8741939174556, 47.052296487712], [51.8714088686935, 47.0570317027908], [51.875863081112, 47.0610774398125]], [[51.8147063407375, 46.9909183326696], [51.8174920836372, 46.9861848749601], [51.8247199871482, 46.9854973102155], [51.829163397141, 46.9895432746565], [51.826378337411, 46.9942771544604], [51.8191491843566, 46.9949646477303], [51.8147063407375, 46.9909183326696]], [[51.8245258278175, 47.1598050561141], [51.8273197860301, 47.1550722373568], [51.8345711689902, 47.1543874828168], [51.8390298511771, 47.1584356183651], [51.8362365809192, 47.1631688591232], [51.8289839403563, 47.1638535423337], [51.8245258278175, 47.1598050561141]], [[51.8330174175758, 47.0293974846126], [51.8358038417951, 47.0246635574344], [51.8430375380539, 47.023975588466], [51.8474860613439, 47.0280216177979], [51.8447003220175, 47.0327559669125], [51.8374653743461, 47.0334438647602], [51.8330174175758, 47.0293974846126]], [[51.779703952855, 46.980836136365], [51.7824917419705, 46.9761039455342], [51.7897172690073, 46.9754184461339], [51.7941562557446, 46.9794652097377], [51.7913691481523, 46.9841978229606], [51.7841423721377, 46.9848832501887], [51.779703952855, 46.980836136365]]]}}