{"type": "Feature", "properties": {"city": "Los Algarrobos", "country": "Panama", "real_area": 66.85}, "geometry": {"type": "MultiLineString", "coordinates": [[[-82.3985722823059, 8.45868255918511], [-82.4027292458463, 8.45602790285951], [-82.4023298512673, 8.45130042882835], [-82.3977733653733, 8.44922765273246], [-82.3936163722305, 8.45188247270169], [-82.3940158945786, 8.45660990510971], [-82.3985722823059, 8.45868255918511]], [[-82.3874613851057, 8.43089688138681], [-82.387861025024, 8.43562545129961], [-82.3924177336064, 8.43769863070325], [-82.39657490051, 8.43504336211903], [-82.3961753883631, 8.43031475050827], [-82.4003326994616, 8.42765919709104], [-82.3999332333149, 8.42293017873578], [-82.3953763282777, 8.42085675544189], [-82.3912189876026, 8.42351247246856], [-82.3866620694688, 8.42143896973361], [-82.3825048435754, 8.42409456560035], [-82.3829045652736, 8.42882350054244], [-82.3874613851057, 8.43089688138681]], [[-82.4206225445504, 8.56410738526384], [-82.4247783762594, 8.56145591550855], [-82.4293331588079, 8.56352593178809], [-82.4334891043638, 8.56087433968698], [-82.4330902973582, 8.55615256764255], [-82.4285354170338, 8.55408242893571], [-82.428136528282, 8.54936028977833], [-82.4322926476216, 8.54670824810453], [-82.4368476256867, 8.54877850925239], [-82.437246386666, 8.55350068961954], [-82.4418012528901, 8.55557074729518], [-82.4459574557783, 8.55291874709224], [-82.4505123076909, 8.55498872370382], [-82.4546686239698, 8.55233660138562], [-82.4542701185996, 8.54761433889162], [-82.4497151691298, 8.54554423971698], [-82.4455588225929, 8.54819652561287], [-82.4410038587198, 8.54612634543519], [-82.4406051437754, 8.54140375685932], [-82.4360500680047, 8.53933337325668], [-82.4356512713011, 8.53461041771542], [-82.4398076781653, 8.53195780463403], [-82.4394089274986, 8.52723444107198], [-82.4348536421661, 8.52516373176445], [-82.4344548097337, 8.52044000144216], [-82.4386113904397, 8.51778693926759], [-82.4382126040464, 8.51306280111272], [-82.4336571091367, 8.51099176632262], [-82.4332582409712, 8.50626726161291], [-82.4374149955298, 8.50361375051641], [-82.4370161734055, 8.49888883816256], [-82.4324604689033, 8.4968174781125], [-82.4320615650001, 8.49209219940946], [-82.4362184934222, 8.48943823956259], [-82.4358196355624, 8.48471255340414], [-82.4312637214525, 8.48264086831694], [-82.4308647818071, 8.4779148160152], [-82.4263087558874, 8.4758429283998], [-82.4259097344564, 8.47111651008654], [-82.4213535967896, 8.46904442008461], [-82.4171965784642, 8.47169887063409], [-82.4175957277049, 8.47642524759463], [-82.4221517674667, 8.47849721537186], [-82.4225508349281, 8.48322322637832], [-82.4183939904278, 8.48587722822793], [-82.413838048606, 8.48380538266179], [-82.4096813182481, 8.48645926289163], [-82.4100805595109, 8.49118482504321], [-82.4059239731766, 8.49383841992093], [-82.4063232604376, 8.49856357449617], [-82.4108790062739, 8.50063517568084], [-82.411278211775, 8.50535996407919], [-82.4071217991947, 8.5080131097924], [-82.4075210506919, 8.51273749042576], [-82.4120765870191, 8.51480876681587], [-82.412475756763, 8.51953278106663], [-82.408319517926, 8.52218547744403], [-82.4087187336639, 8.52690908374143], [-82.4045626388295, 8.52956149432948], [-82.4049619005527, 8.53428469255932], [-82.4095171293837, 8.53635552169406], [-82.4099163093667, 8.5410783532619], [-82.4144714267215, 8.54314897939472], [-82.4148705249644, 8.54787144416926], [-82.4107146335814, 8.55052324136224], [-82.411113777814, 8.55524529780745], [-82.4069580303863, 8.55789680890262], [-82.4024031090281, 8.55582642729953], [-82.39824747594, 8.55847781595619], [-82.3986467938469, 8.56319942241563], [-82.4032016171542, 8.56526968177441], [-82.4036008533404, 8.5699909212193], [-82.4081555652783, 8.57206097729298], [-82.4085547197439, 8.57678184959228], [-82.4131093202496, 8.57885170223973], [-82.4172648642219, 8.57620080491322], [-82.4218194511136, 8.57827057637942], [-82.4259751090861, 8.57561955650487], [-82.4255762100538, 8.5708986014475], [-82.4210215253161, 8.5688287075815], [-82.4206225445504, 8.56410738526384]], [[-82.4148014326803, 8.44333519862571], [-82.4152006534492, 8.44806312115066], [-82.4197571124044, 8.45013573764323], [-82.4201562513808, 8.45486329462701], [-82.4159990592195, 8.4575181937043], [-82.4114426982475, 8.45544569935464], [-82.4072856203017, 8.45810047708854], [-82.4076849331012, 8.4628275855615], [-82.412241196055, 8.46489995778175], [-82.4163982442221, 8.46224534364498], [-82.4209544935729, 8.46431763589168], [-82.4251116558423, 8.46166290037484], [-82.4296678913789, 8.46373511261501], [-82.4300668667708, 8.4684619381203], [-82.4346229905038, 8.47053394802156], [-82.4387802366173, 8.46787925470348], [-82.4383813890716, 8.46315238798367], [-82.4338251675606, 8.46108025578298], [-82.4334262382163, 8.45635302320048], [-82.428869904845, 8.4542806887085], [-82.4284708937021, 8.44955309039529], [-82.4326283437798, 8.44689778532903], [-82.4371847749507, 8.44897024208636], [-82.4413423387872, 8.44631481590821], [-82.440943501564, 8.44158676951621], [-82.4451012091882, 8.43893105885788], [-82.4496577238223, 8.44100355803831], [-82.4500564331542, 8.44573164552345], [-82.4546128356951, 8.44780394241375], [-82.4587706264792, 8.44514827420681], [-82.45837204506, 8.44042014572649], [-82.4625299794782, 8.43776419324288], [-82.4621314441625, 8.43303565811147], [-82.4662895221881, 8.43037942147996], [-82.4708461050392, 8.43245188332621], [-82.4750042960998, 8.4297955259815], [-82.4746059348604, 8.42506654349821], [-82.4700492545908, 8.42299395916218], [-82.4658910329845, 8.4256504798127], [-82.4613343378071, 8.42357781567755], [-82.4571762293491, 8.42623421565164], [-82.4526195194754, 8.42416147175025], [-82.4522208204982, 8.41943220550746], [-82.4563789593257, 8.41677564218106], [-82.4559803064477, 8.41204596955194], [-82.4514233868065, 8.40997290126472], [-82.4472652176725, 8.41262962795313], [-82.4427082835742, 8.41055648008813], [-82.4423094209349, 8.40582648326297], [-82.4464676203123, 8.40316959320287], [-82.4460688037593, 8.39843919014113], [-82.4415116599059, 8.39636571827001], [-82.4411127615152, 8.39163495019064], [-82.43655550565, 8.38956127674078], [-82.4323972459749, 8.3922184935733], [-82.4278399760114, 8.39014474082856], [-82.423681830241, 8.39280183710335], [-82.4240809844326, 8.39753252268159], [-82.4199229826478, 8.40018933486894], [-82.4203221828892, 8.40491961420445], [-82.4161643251165, 8.40757614217542], [-82.4116072372565, 8.40550255428908], [-82.4074494937323, 8.40815896143353], [-82.4078488678528, 8.41288879293213], [-82.412405857665, 8.41496225877847], [-82.4128051499798, 8.41969172528221], [-82.4173620281896, 8.42176498959485], [-82.4177612386988, 8.42649409097134], [-82.4136036988333, 8.42914988658702], [-82.4140029553729, 8.43387858129983], [-82.4098455595489, 8.4365340922858], [-82.4102448621102, 8.44126238021977], [-82.4148014326803, 8.44333519862571]], [[-82.427440867878, 8.38541364912317], [-82.4315991576075, 8.38275626888998], [-82.431200095541, 8.37802477117309], [-82.4266426158411, 8.37595069499254], [-82.4224842961204, 8.37860823863604], [-82.4179268025616, 8.37653408334938], [-82.4137685969722, 8.37919150650874], [-82.4141679148143, 8.38392292149419], [-82.418725310374, 8.38599695474856], [-82.4228834860854, 8.38333969503631], [-82.427440867878, 8.38541364912317]]]}}