{"type": "FeatureCollection", "features": [{"type": "Feature", "properties": {"threshold": 70}, "geometry": {"type": "MultiPolygon", "coordinates": [[[[80.84002034887702, 20.753125825011395], [80.84851074905399, 20.753646938159854], [80.84754264703332, 20.744435962876558], [80.83946813453365, 20.745347917853714], [80.84002034887702, 20.753125825011395]]], [[[80.83511682660733, 20.71799156020962], [80.83433779056448, 20.725362897081023], [80.84240936916738, 20.726289783116936], [80.84253663638022, 20.717887496944392], [80.83511682660733, 20.71799156020962]]], [[[80.82570719363558, 20.688095724126132], [80.82597206169913, 20.695626710478365], [80.8366010372953, 20.695415068454437], [80.83380251516509, 20.68379536323163], [80.8294909315347, 20.683750547398017], [80.82570719363558, 20.688095724126132]]], [[[80.81706545798446, 20.736551400690352], [80.81615856431256, 20.74210443454922], [80.82099055603425, 20.744994927962814], [80.82893222028974, 20.740427767584308], [80.8266512217322, 20.73457524174062], [80.81706545798446, 20.736551400690352]]], [[[80.76734328507385, 20.896718590073228], [80.77371934143264, 20.89844587421526], [80.77690726094457, 20.89664901065139], [80.7787573603685, 20.88824920237456], [80.7689573828766, 20.888124682280967], [80.76734328507385, 20.896718590073228]]], [[[80.72943368709403, 20.765514401608733], [80.72852052915346, 20.77268238621697], [80.73654632884903, 20.783556618895425], [80.75084771536592, 20.78370972762294], [80.75405526331821, 20.781745075415973], [80.75126681890352, 20.7668932485837], [80.74484298277883, 20.768906363199857], [80.73550442705375, 20.76432632786968], [80.72943368709403, 20.765514401608733]]], [[[80.71296968180214, 20.786793327440932], [80.71314760832644, 20.795476493828165], [80.721222106802, 20.796409092801028], [80.72136061572456, 20.78558383626104], [80.71624115235001, 20.783681205593563], [80.71296968180214, 20.786793327440932]]], [[[80.66749893290704, 20.763287085497762], [80.66767955058631, 20.769547105925177], [80.67451727783353, 20.770646708506742], [80.68441121383256, 20.76640624852019], [80.6855173863594, 20.760028047475405], [80.67892339848508, 20.75617177669005], [80.67163828533778, 20.75613882282646], [80.66749893290704, 20.763287085497762]]], [[[80.67429826788708, 20.799045000953836], [80.67539083307145, 20.80435277026337], [80.6806182372549, 20.804537041834994], [80.68452509558314, 20.800877794893886], [80.68453645229424, 20.795415465111798], [80.67826885676423, 20.793352811292618], [80.67429826788708, 20.799045000953836]]], [[[80.64967370022597, 20.859362810152405], [80.65837413787985, 20.860105787982203], [80.6612605752538, 20.854800077461945], [80.66023214801349, 20.85089957781898], [80.65043478035015, 20.85076829920609], [80.64967370022597, 20.859362810152405]]], [[[80.63567557266514, 20.783605749681858], [80.64330936799927, 20.787558639371216], [80.64946412782683, 20.7844702808379], [80.65652900919402, 20.78593936056801], [80.65969476304228, 20.77767232133404], [80.6562410147748, 20.77547587615369], [80.64955372015953, 20.778174119940118], [80.63715746610995, 20.77708965461928], [80.63567557266514, 20.783605749681858]]], [[[80.6448129500025, 20.91590140580998], [80.64412731955888, 20.924582673346766], [80.65306606033873, 20.926328058993125], [80.65492527146343, 20.917121993767594], [80.65091669549001, 20.913592618512908], [80.6448129500025, 20.91590140580998]]], [[[80.63557395853239, 20.82464509551909], [80.63859736143715, 20.82865165062532], [80.6435449378287, 20.828722387286394], [80.6466714635038, 20.82584352407874], [80.6467104429263, 20.821263373149026], [80.63877325774703, 20.819902582124225], [80.63557395853239, 20.82464509551909]]], [[[80.6279194617511, 20.87528332406983], [80.62980754895412, 20.88028642893449], [80.63560665615039, 20.88041905027915], [80.6388159766943, 20.877521348996677], [80.6388754676552, 20.873017885772263], [80.63579240440014, 20.870001663586113], [80.63014155144307, 20.869943745171337], [80.6279194617511, 20.87528332406983]]], [[[80.6176452890419, 20.8234582522896], [80.6167325983684, 20.82820236433327], [80.62070428494827, 20.831096529823935], [80.63037267108487, 20.827350236881376], [80.63022295316883, 20.824182561023882], [80.62552080551895, 20.82148959620475], [80.6176452890419, 20.8234582522896]]], [[[80.60407225762184, 20.79261703080189], [80.6090711763704, 20.79879903636006], [80.62098057504797, 20.79267193382206], [80.62276837021729, 20.78413361103112], [80.6155178800067, 20.778012768616065], [80.61852541065899, 20.77141709368915], [80.61543192068093, 20.765760798542164], [80.61126589959892, 20.765785191529883], [80.60829301901352, 20.769411139227856], [80.60742219279085, 20.774063758052197], [80.61259587995218, 20.780509765611516], [80.61028792121941, 20.78737625919119], [80.60407225762184, 20.79261703080189]]], [[[80.56267532983101, 20.552847985288686], [80.56478005717848, 20.55795053285264], [80.5752005625755, 20.555302167249227], [80.58189544492609, 20.55763090809422], [80.58868396863599, 20.56929076120622], [80.59791790133256, 20.568297104266414], [80.6006851160876, 20.571742089067573], [80.60999771576385, 20.57251315550949], [80.61135323962054, 20.579408254212105], [80.61430807544433, 20.581432152662014], [80.62061595741282, 20.57950020327007], [80.62063978637546, 20.56985626166096], [80.6123513391618, 20.567842559912194], [80.61016130913916, 20.55989728218491], [80.60301708823638, 20.555694291765803], [80.59641028520913, 20.556221708179706], [80.5938205883638, 20.551735224869738], [80.58059755799206, 20.54692197760867], [80.58221596886308, 20.53768037267889], [80.57836334529675, 20.533079532918425], [80.57210017106226, 20.534942339458215], [80.57098808542749, 20.54372188350348], [80.56355028660546, 20.543742789695145], [80.56267532983101, 20.552847985288686]]], [[[80.5992139324742, 20.970420244001748], [80.59824917667932, 20.975820769291115], [80.6011182419526, 20.97871573236437], [80.60834864880754, 20.977005532546066], [80.60653189941449, 20.968599314675554], [80.5992139324742, 20.970420244001748]]], [[[80.59533038734509, 20.81208599387202], [80.59536536125982, 20.816176567972647], [80.60003764657044, 20.818907111783766], [80.60631583544411, 20.816870641981275], [80.60633001946536, 20.811408367976398], [80.60243813800699, 20.80854066598934], [80.59741192513242, 20.808562710730158], [80.59533038734509, 20.81208599387202]]], [[[80.58680772174259, 20.79027008280937], [80.58584379407796, 20.79567066302002], [80.58884852566598, 20.798653820208916], [80.59688580130339, 20.79591932737136], [80.59483456039047, 20.78917127400316], [80.58680772174259, 20.79027008280937]]], [[[80.5602231912748, 20.808084006976202], [80.56296584512255, 20.813088216963376], [80.5744302824444, 20.81727582132384], [80.5813345520791, 20.81291200020617], [80.57946866509184, 20.805376421868548], [80.56966503119547, 20.804561702423378], [80.56915372807917, 20.80071308096152], [80.57377717876817, 20.79644884015958], [80.5725748367397, 20.78915789392702], [80.56279343913731, 20.790970747266513], [80.56487509868755, 20.800047355105377], [80.5602231912748, 20.808084006976202]]], [[[80.55251241884123, 20.697692378573617], [80.56152242201702, 20.698461941939854], [80.56402936478538, 20.693313575107275], [80.57377815661962, 20.690293961577957], [80.57392016422678, 20.681892026657025], [80.56606605604856, 20.681639453229504], [80.56098415012539, 20.68882996169234], [80.5546713267285, 20.68900139413278], [80.55179157362038, 20.691882234337122], [80.55251241884123, 20.697692378573617]]], [[[80.55703091015303, 20.949620054188475], [80.5562113769107, 20.95809794282951], [80.56162179045792, 20.960970601201677], [80.56553559776131, 20.957314247231647], [80.56555136656273, 20.951852091286977], [80.56157997985761, 20.948148949052438], [80.55703091015303, 20.949620054188475]]], [[[80.54093024658349, 20.730678295723674], [80.54544863756709, 20.737070453137118], [80.54481760376862, 20.744023491078803], [80.55019952986991, 20.75000586378505], [80.56171287234137, 20.748308590083326], [80.56264289053983, 20.740891461264624], [80.55328473720542, 20.736382912461355], [80.5559693408769, 20.72185715568631], [80.55223769993745, 20.718073339078025], [80.54864443358838, 20.71801690656845], [80.54070951237205, 20.72542406434969], [80.54093024658349, 20.730678295723674]]], [[[80.54705523375341, 20.582583086496715], [80.54614910794534, 20.5849037440553], [80.54995619626077, 20.588546441665606], [80.55711824124371, 20.588234524655196], [80.55422067589585, 20.57906050416064], [80.54705523375341, 20.582583086496715]]], [[[80.50126860772457, 20.91150407195788], [80.50050062751767, 20.914399296067923], [80.50606882485408, 20.919625869490517], [80.51946334231019, 20.91809446791889], [80.52187272531508, 20.916583085404504], [80.52080691458436, 20.908540321373874], [80.52386633754487, 20.907014695410933], [80.52771139359416, 20.909102273935275], [80.5307186219302, 20.920328633880484], [80.53788752398648, 20.919593513391906], [80.54152140467636, 20.907998086397296], [80.53251603880801, 20.905625089156963], [80.53138113098699, 20.901288410743575], [80.54424460783896, 20.894880280690447], [80.54727061649716, 20.898843643475157], [80.54359642700219, 20.907250643093438], [80.54794440464818, 20.907652816342715], [80.55094456409543, 20.904978015390743], [80.55376986113917, 20.88838012316077], [80.55064591921584, 20.882731000021668], [80.55361462578205, 20.87407856380563], [80.54795086529116, 20.871703989520164], [80.54913680503708, 20.88262078039921], [80.54433444269631, 20.88660750607943], [80.54053049227382, 20.8849879903667], [80.53715803040176, 20.877154124520473], [80.5326339644996, 20.87714182431296], [80.52890383784585, 20.88236634902626], [80.52757846743899, 20.892122035960455], [80.51944008837204, 20.89438129505728], [80.52074457907274, 20.907570920180437], [80.50126860772457, 20.91150407195788]]], [[[80.51434932913799, 20.898713426107655], [80.5118890048779, 20.893090039636327], [80.5028785006051, 20.893044885947695], [80.50049990629076, 20.89520907091652], [80.50363009218853, 20.901068176438468], [80.51091938572385, 20.901916088792202], [80.51434932913799, 20.898713426107655]]], [[[80.54130240256103, 20.784500467330705], [80.54042817207913, 20.787700221673767], [80.54444546286835, 20.789736325757314], [80.54923460121641, 20.78970317135375], [80.55145253484342, 20.786775901222455], [80.5503700229909, 20.78052984546215], [80.5541102845657, 20.770315872823964], [80.54837076824225, 20.764763279630643], [80.54214448205518, 20.766898770433627], [80.54367492368958, 20.780582774412654], [80.54130240256103, 20.784500467330705]]], [[[80.51838902606409, 20.68012727091412], [80.51605495042568, 20.686102887325664], [80.52363038131166, 20.686291209789797], [80.53052310814569, 20.683013027127988], [80.53614944240738, 20.69359491875739], [80.54041658610305, 20.69171211616932], [80.54405048013886, 20.684098645772377], [80.54098374979017, 20.677535838047703], [80.53218971004635, 20.678832904884406], [80.5296808255099, 20.672613197940148], [80.51872685608757, 20.676741789930322], [80.51838902606409, 20.68012727091412]]], [[[80.51569305940697, 20.76412023369726], [80.5183668817804, 20.76930493728623], [80.52328444702681, 20.77030517985115], [80.52587853348577, 20.76440742154151], [80.53256684451149, 20.762639649588696], [80.53437020841612, 20.755569764312575], [80.52626053912, 20.74457106040815], [80.51909111969974, 20.74488154940577], [80.52195975033457, 20.759318276656227], [80.51569305940697, 20.76412023369726]]], [[[80.50422339736227, 20.796817719965283], [80.50600668110562, 20.807797529047598], [80.51103570896825, 20.810425914652406], [80.50691118964919, 20.82247017687152], [80.51289090973714, 20.823573760449566], [80.51712097663146, 20.819826708120214], [80.5227302574402, 20.819395643076835], [80.5255351301882, 20.814363354641408], [80.5211681084647, 20.813248198895042], [80.52011777975565, 20.80921219801528], [80.51533104890916, 20.808540315110108], [80.51450154450545, 20.8050192570206], [80.51865798469521, 20.8022472218674], [80.52293123928759, 20.79322430112455], [80.51867046728265, 20.792125912062073], [80.51462166376092, 20.795310681666532], [80.50663774169078, 20.794514896503784], [80.50422339736227, 20.796817719965283]]], [[[80.50482835643115, 20.873587675922607], [80.51560393976787, 20.87757800466619], [80.51941756575212, 20.873845769901198], [80.5184605561077, 20.864354136531063], [80.51406641133076, 20.863210988037622], [80.5060892245149, 20.8681353917807], [80.50482835643115, 20.873587675922607]]], [[[80.49066985141732, 20.74023779038406], [80.4898335047983, 20.744602514493348], [80.4930513124436, 20.74759090426443], [80.5020559278362, 20.746790307347197], [80.50609118688165, 20.743765646166526], [80.50597851300121, 20.739122583399624], [80.50115006058493, 20.73634326940428], [80.49066985141732, 20.74023779038406]]], [[[80.44263665603016, 20.72817783008609], [80.44603196028444, 20.736447689148502], [80.44173766599761, 20.747683954683904], [80.4505132058347, 20.753095037117458], [80.45542668515321, 20.748380837791007], [80.45004565363105, 20.735716917691917], [80.45192442750466, 20.728650499690588], [80.45620512469748, 20.728138475863094], [80.46055101020475, 20.734580117814254], [80.46798211491497, 20.733663784516757], [80.4701274225082, 20.728985395754833], [80.47704851263428, 20.729784742991647], [80.49054662367408, 20.726314750989555], [80.49609611938766, 20.731426246836982], [80.50355255646784, 20.726065064085944], [80.50187660970053, 20.713477129325433], [80.49890071758179, 20.708953724838885], [80.48528119797749, 20.705866178717425], [80.48464699991503, 20.699481626852357], [80.47902168693413, 20.697441076986507], [80.47492266392757, 20.69192010643635], [80.46943559415097, 20.696134249964654], [80.45736392774879, 20.692212836853308], [80.45678800670129, 20.702228953442855], [80.4530349756025, 20.704520587795866], [80.45386911923288, 20.71129900874358], [80.46128295410054, 20.713189172641286], [80.46223027697836, 20.716914398771646], [80.45549575998692, 20.722913978407746], [80.44990855524912, 20.72015285239808], [80.44283918884413, 20.724327306217145], [80.44263665603016, 20.72817783008609]]], [[[80.45694246832485, 20.69167238717004], [80.46243619430354, 20.68118526638594], [80.47197889526646, 20.67630939892773], [80.46919958251674, 20.66781154738262], [80.45453016687962, 20.661586943691944], [80.45129950823596, 20.65784259067398], [80.4455964303765, 20.660589744162593], [80.44372375961603, 20.668457352266998], [80.44554628726814, 20.674407390755462], [80.45007750069504, 20.678210666896394], [80.44888388740986, 20.688889337268122], [80.45694246832485, 20.69167238717004]]], [[[80.48299079425638, 20.784443072249513], [80.48487573187367, 20.788640011047015], [80.49152458928366, 20.790395434449966], [80.49823647855615, 20.782199397646693], [80.49352158206985, 20.777594212263438], [80.48865735600951, 20.7775002324984], [80.48299079425638, 20.784443072249513]]], [[[80.48607976282959, 20.859461287175517], [80.48528845949026, 20.865215256540996], [80.49078977684263, 20.865343270715876], [80.49264989392991, 20.8585621708239], [80.48607976282959, 20.859461287175517]]], [[[80.46556666727292, 20.867631321511436], [80.47609664538737, 20.86939980125579], [80.47646590929949, 20.86282891382702], [80.47177502696616, 20.856684409675044], [80.46545095918901, 20.859418284881297], [80.46556666727292, 20.867631321511436]]], [[[80.47834378350346, 20.871807463244494], [80.47921750002071, 20.8813510263852], [80.48729217662407, 20.883102392627798], [80.49018501576894, 20.87779969646126], [80.48916087760723, 20.873898254612193], [80.47834378350346, 20.871807463244494]]], [[[80.47362056756714, 20.922013379253617], [80.48178095773825, 20.923592410401593], [80.48226200048474, 20.91850386015771], [80.47512700011676, 20.9180465380789], [80.47362056756714, 20.922013379253617]]], [[[80.45343084649734, 20.883699586642525], [80.45425936506633, 20.890965649219734], [80.4606181564235, 20.891905087704483], [80.46077551414074, 20.88108048675183], [80.45463023735282, 20.880828029148432], [80.45343084649734, 20.883699586642525]]], [[[80.43425766582543, 20.78690050937898], [80.43676886227901, 20.790912038441522], [80.44272198137125, 20.79181355124677], [80.44852796218107, 20.785765953519036], [80.45424588759687, 20.78515590728029], [80.45439534888654, 20.77949157157097], [80.45283738961066, 20.777378252979908], [80.44722413755596, 20.779727098485964], [80.44125813369628, 20.778206067271622], [80.43662312115791, 20.78003932231565], [80.43425766582543, 20.78690050937898]]], [[[80.43448656453741, 20.839446066446474], [80.44426215581231, 20.840281064765136], [80.44474412499065, 20.83519259259163], [80.43503575764353, 20.834725311053845], [80.43448656453741, 20.839446066446474]]], [[[80.4323067007977, 20.53135764303546], [80.43327452347968, 20.540406788846056], [80.43713228534236, 20.54306281723965], [80.44305190427035, 20.542053945278358], [80.44137329415663, 20.532025291407248], [80.43828732260316, 20.530168005328054], [80.4323067007977, 20.53135764303546]]], [[[80.36989417497581, 20.902688549739928], [80.3689698254859, 20.908238800958827], [80.373493046334, 20.911909825158382], [80.37060506637215, 20.916664465712234], [80.37143305468025, 20.924250738744732], [80.37429335288199, 20.92795709885021], [80.38436369245433, 20.92330427756227], [80.38928991288051, 20.926563229217372], [80.39872012542469, 20.925510240579467], [80.40219164004739, 20.9172320976455], [80.39990186596208, 20.91531832355456], [80.3909925507428, 20.9159687710885], [80.38358419940478, 20.908678160366478], [80.38280009621415, 20.90369700924685], [80.38531160262994, 20.901651926211702], [80.39695915343441, 20.906230922784783], [80.39730666387028, 20.898400273829125], [80.39444059152487, 20.891246993818122], [80.38767393161508, 20.89144435168787], [80.38134913859757, 20.886537707088056], [80.38534192206792, 20.879800067553916], [80.38226573133424, 20.87331271573001], [80.3753755078838, 20.874216810263896], [80.36993309751206, 20.883395618837746], [80.37354504980377, 20.898944150686553], [80.36989417497581, 20.902688549739928]]], [[[80.3711710945748, 20.835810292189603], [80.3811544710205, 20.8393211994789], [80.3874507153392, 20.832620545435024], [80.396243630472, 20.835238584623227], [80.39843021456127, 20.832053933057487], [80.39664121675878, 20.82365073172689], [80.3933805281459, 20.821595487131198], [80.38671471239122, 20.825163474722217], [80.37829929671494, 20.82406251082403], [80.37638041218476, 20.82872559140129], [80.37104372092263, 20.831635719647277], [80.3711710945748, 20.835810292189603]]], [[[80.37511999284082, 20.964388455447235], [80.38321056268009, 20.966944253102053], [80.38754556028597, 20.9639627402852], [80.38668261574954, 20.95776423316511], [80.38279019799546, 20.953758983355876], [80.38679149067005, 20.94603613054673], [80.38450456197315, 20.937101994016718], [80.37566966270025, 20.944067921827926], [80.3810998352049, 20.954093678119595], [80.37481103209478, 20.95926510449365], [80.37511999284082, 20.964388455447235]]]]}}, {"type": "Feature", "properties": {"threshold": 80}, "geometry": {"type": "MultiPolygon", "coordinates": [[[[80.84002034887702, 20.753125825011395], [80.84851074905399, 20.753646938159854], [80.84754264703332, 20.744435962876558], [80.83946813453365, 20.745347917853714], [80.84002034887702, 20.753125825011395]]], [[[80.83511682660733, 20.71799156020962], [80.83433779056448, 20.725362897081023], [80.84240936916738, 20.726289783116936], [80.84253663638022, 20.717887496944392], [80.83511682660733, 20.71799156020962]]], [[[80.82570719363558, 20.688095724126132], [80.82597206169913, 20.695626710478365], [80.8366010372953, 20.695415068454437], [80.83380251516509, 20.68379536323163], [80.8294909315347, 20.683750547398017], [80.82570719363558, 20.688095724126132]]], [[[80.81706545798446, 20.736551400690352], [80.81615856431256, 20.74210443454922], [80.82099055603425, 20.744994927962814], [80.82893222028974, 20.740427767584308], [80.8266512217322, 20.73457524174062], [80.81706545798446, 20.736551400690352]]], [[[80.76734328507385, 20.896718590073228], [80.77371934143264, 20.89844587421526], [80.77690726094457, 20.89664901065139], [80.7787573603685, 20.88824920237456], [80.7689573828766, 20.888124682280967], [80.76734328507385, 20.896718590073228]]], [[[80.72943368709403, 20.765514401608733], [80.72852052915346, 20.77268238621697], [80.73654632884903, 20.783556618895425], [80.75084771536592, 20.78370972762294], [80.75405526331821, 20.781745075415973], [80.75126681890352, 20.7668932485837], [80.74484298277883, 20.768906363199857], [80.73550442705375, 20.76432632786968], [80.72943368709403, 20.765514401608733]]], [[[80.71296968180214, 20.786793327440932], [80.71314760832644, 20.795476493828165], [80.721222106802, 20.796409092801028], [80.72136061572456, 20.78558383626104], [80.71624115235001, 20.783681205593563], [80.71296968180214, 20.786793327440932]]], [[[80.66749893290704, 20.763287085497762], [80.66767955058631, 20.769547105925177], [80.67451727783353, 20.770646708506742], [80.68441121383256, 20.76640624852019], [80.6855173863594, 20.760028047475405], [80.67892339848508, 20.75617177669005], [80.67163828533778, 20.75613882282646], [80.66749893290704, 20.763287085497762]]], [[[80.67515705669226, 20.796418699635556], [80.67559227558559, 20.80449384311719], [80.6806182372549, 20.804537041834994], [80.68448903573268, 20.800949126118514], [80.68329276581326, 20.794203653891355], [80.67834799109615, 20.793326352081483], [80.67515705669226, 20.796418699635556]]], [[[80.64967370022597, 20.859362810152405], [80.65837413787985, 20.860105787982203], [80.6612605752538, 20.854800077461945], [80.66023214801349, 20.85089957781898], [80.65043478035015, 20.85076829920609], [80.64967370022597, 20.859362810152405]]], [[[80.63567557266514, 20.783605749681858], [80.64330936799927, 20.787558639371216], [80.64946412782683, 20.7844702808379], [80.65652900919402, 20.78593936056801], [80.65969476304228, 20.77767232133404], [80.6562410147748, 20.77547587615369], [80.64955372015953, 20.778174119940118], [80.63715746610995, 20.77708965461928], [80.63567557266514, 20.783605749681858]]], [[[80.6448129500025, 20.91590140580998], [80.64412731955888, 20.924582673346766], [80.65306606033873, 20.926328058993125], [80.65492527146343, 20.917121993767594], [80.65091669549001, 20.913592618512908], [80.6448129500025, 20.91590140580998]]], [[[80.63557395853239, 20.82464509551909], [80.63859736143715, 20.82865165062532], [80.6444040774687, 20.828724171981072], [80.6467104429263, 20.821263373149026], [80.63877325774703, 20.819902582124225], [80.63557395853239, 20.82464509551909]]], [[[80.6279194617511, 20.87528332406983], [80.62980754895412, 20.88028642893449], [80.63560665615039, 20.88041905027915], [80.6388159766943, 20.877521348996677], [80.6388754676552, 20.873017885772263], [80.63579240440014, 20.870001663586113], [80.63014155144307, 20.869943745171337], [80.6279194617511, 20.87528332406983]]], [[[80.6176452890419, 20.8234582522896], [80.6167325983684, 20.82820236433327], [80.62070428494827, 20.831096529823935], [80.63037267108487, 20.827350236881376], [80.63022295316883, 20.824182561023882], [80.62552080551895, 20.82148959620475], [80.6176452890419, 20.8234582522896]]], [[[80.60407225762184, 20.79261703080189], [80.6090711763704, 20.79879903636006], [80.62098057504797, 20.79267193382206], [80.62276837021729, 20.78413361103112], [80.6155178800067, 20.778012768616065], [80.61852541065899, 20.77141709368915], [80.61543192068093, 20.765760798542164], [80.61126589959892, 20.765785191529883], [80.60829301901352, 20.769411139227856], [80.60742219279085, 20.774063758052197], [80.61259587995218, 20.780509765611516], [80.61028792121941, 20.78737625919119], [80.60407225762184, 20.79261703080189]]], [[[80.56267532983101, 20.552847985288686], [80.56478005717848, 20.55795053285264], [80.5752005625755, 20.555302167249227], [80.58189544492609, 20.55763090809422], [80.58775057346764, 20.569254772619274], [80.5980919180963, 20.568757547734396], [80.60131134984736, 20.573258094791704], [80.6097776794918, 20.57240793636232], [80.61138891763828, 20.579479732797736], [80.61446270965871, 20.581492874287534], [80.62061595741282, 20.57950020327007], [80.6205470380666, 20.569724875191344], [80.61252946140085, 20.568011112376578], [80.61199064726497, 20.561628446196096], [80.59855324774095, 20.55517472970808], [80.59639756003193, 20.550125752504705], [80.58808867089675, 20.55091204942548], [80.58163536830563, 20.54628489387771], [80.58221596886308, 20.53768037267889], [80.57836334529675, 20.533079532918425], [80.57210017106226, 20.534942339458215], [80.57098808542749, 20.54372188350348], [80.56269046064634, 20.544548367757475], [80.56267532983101, 20.552847985288686]]], [[[80.60052407980638, 20.57516675563101], [80.5936646356628, 20.5759672231927], [80.58899401136121, 20.582930318042003], [80.59158885896125, 20.593094382137544], [80.59563320167923, 20.596816218461186], [80.60179106349386, 20.59458267498095], [80.59872151474458, 20.586601885098627], [80.6035571827126, 20.57981143991667], [80.60052407980638, 20.57516675563101]]], [[[80.5992139324742, 20.970420244001748], [80.59824917667932, 20.975820769291115], [80.6011182419526, 20.97871573236437], [80.60834864880754, 20.977005532546066], [80.60653189941449, 20.968599314675554], [80.5992139324742, 20.970420244001748]]], [[[80.59533038734509, 20.81208599387202], [80.59536536125982, 20.816176567972647], [80.60003764657044, 20.818907111783766], [80.60631583544411, 20.816870641981275], [80.60633001946536, 20.811408367976398], [80.60243813800699, 20.80854066598934], [80.59741192513242, 20.808562710730158], [80.59533038734509, 20.81208599387202]]], [[[80.58680772174259, 20.79027008280937], [80.58584379407796, 20.79567066302002], [80.58884852566598, 20.798653820208916], [80.59688580130339, 20.79591932737136], [80.59483456039047, 20.78917127400316], [80.58680772174259, 20.79027008280937]]], [[[80.5602231912748, 20.808084006976202], [80.56296584512255, 20.813088216963376], [80.5744302824444, 20.81727582132384], [80.5813345520791, 20.81291200020617], [80.57946866509184, 20.805376421868548], [80.56966503119547, 20.804561702423378], [80.56915372807917, 20.80071308096152], [80.57377717876817, 20.79644884015958], [80.5725748367397, 20.78915789392702], [80.56279343913731, 20.790970747266513], [80.56487509868755, 20.800047355105377], [80.5602231912748, 20.808084006976202]]], [[[80.55251241884123, 20.697692378573617], [80.56058259526533, 20.699293885205527], [80.56402936478538, 20.693313575107275], [80.57542731423808, 20.690345081112255], [80.57482603560679, 20.682765433927422], [80.564199083932, 20.68251684811738], [80.561179758561, 20.68868809367413], [80.55496605271625, 20.688854127020115], [80.55192012796641, 20.691592451610354], [80.55251241884123, 20.697692378573617]]], [[[80.55703091015303, 20.949620054188475], [80.5562113769107, 20.95809794282951], [80.56162179045792, 20.960970601201677], [80.56553559776131, 20.957314247231647], [80.56555136656273, 20.951852091286977], [80.56157997985761, 20.948148949052438], [80.55703091015303, 20.949620054188475]]], [[[80.54093024658349, 20.730678295723674], [80.54544863756709, 20.737070453137118], [80.54481760376862, 20.744023491078803], [80.55019952986991, 20.75000586378505], [80.56171287234137, 20.748308590083326], [80.56264289053983, 20.740891461264624], [80.55328473720542, 20.736382912461355], [80.5559693408769, 20.72185715568631], [80.55223769993745, 20.718073339078025], [80.54864443358838, 20.71801690656845], [80.54070951237205, 20.72542406434969], [80.54093024658349, 20.730678295723674]]], [[[80.54682682875521, 20.588633378301], [80.55518574528766, 20.590087791901922], [80.55704871062962, 20.580074720610185], [80.54984448883786, 20.579136831475214], [80.54612484337638, 20.583554324039564], [80.54682682875521, 20.588633378301]]], [[[80.50126860772457, 20.91150407195788], [80.50050062751767, 20.914399296067923], [80.50606882485408, 20.919625869490517], [80.51946334231019, 20.91809446791889], [80.52187272531508, 20.916583085404504], [80.52080691458436, 20.908540321373874], [80.52386633754487, 20.907014695410933], [80.52771139359416, 20.909102273935275], [80.5307186219302, 20.920328633880484], [80.53788752398648, 20.919593513391906], [80.54137266332437, 20.908486397860383], [80.55110291553534, 20.904701496703353], [80.55376986113917, 20.88838012316077], [80.55064591921584, 20.882731000021668], [80.55361462578205, 20.87407856380563], [80.54591868154407, 20.871356399338698], [80.54119138443814, 20.878696464991947], [80.5326339644996, 20.87714182431296], [80.52890383784585, 20.88236634902626], [80.52757846743899, 20.892122035960455], [80.51944008837204, 20.89438129505728], [80.52074457907274, 20.907570920180437], [80.50126860772457, 20.91150407195788]], [[80.54003665667815, 20.882338787263667], [80.54321782181256, 20.87998974752934], [80.54718561975383, 20.884007025419635], [80.54332976330517, 20.886558434612823], [80.54003665667815, 20.882338787263667]], [[80.53134336169019, 20.90258047599337], [80.54256621282295, 20.895410594986576], [80.54626955927738, 20.897263985052458], [80.54189278414948, 20.907256290969926], [80.53296116790246, 20.90585022724814], [80.53134336169019, 20.90258047599337]]], [[[80.51434932913799, 20.898713426107655], [80.5118890048779, 20.893090039636327], [80.5028785006051, 20.893044885947695], [80.50049990629076, 20.89520907091652], [80.50363009218853, 20.901068176438468], [80.51091938572385, 20.901916088792202], [80.51434932913799, 20.898713426107655]]], [[[80.54130240256103, 20.784500467330705], [80.54042817207913, 20.787700221673767], [80.54444546286835, 20.789736325757314], [80.54923460121641, 20.78970317135375], [80.55145253484342, 20.786775901222455], [80.5503700229909, 20.78052984546215], [80.5541102845657, 20.770315872823964], [80.54837076824225, 20.764763279630643], [80.54214448205518, 20.766898770433627], [80.54367492368958, 20.780582774412654], [80.54130240256103, 20.784500467330705]]], [[[80.51408040728101, 20.679232328019733], [80.51471347672866, 20.686266333472886], [80.5227695336147, 20.687096556584304], [80.53095356161977, 20.683242477103015], [80.53512831557346, 20.69435409739305], [80.54093312203233, 20.694369661335525], [80.54398205608648, 20.69071128126528], [80.5430285642301, 20.679389712172703], [80.54059347497254, 20.677470613751623], [80.53262308078385, 20.679095169844604], [80.52812710571662, 20.671847021534475], [80.51450762905543, 20.676689357324918], [80.51408040728101, 20.679232328019733]]], [[[80.50422339736227, 20.796817719965283], [80.50597100169979, 20.807726030454546], [80.5110329754462, 20.81161521500142], [80.50507445747321, 20.819223206604246], [80.50600226767244, 20.82240412415483], [80.5109139630445, 20.82600286289196], [80.51517297168192, 20.82203450174495], [80.5217908221416, 20.823478650771893], [80.52728639381947, 20.815247303901266], [80.52130137786138, 20.812563296187626], [80.51451471354483, 20.80478178411244], [80.52032570292413, 20.802315328985618], [80.5246963926205, 20.79410035369002], [80.51875358042989, 20.79211455648057], [80.51462166376092, 20.795310681666532], [80.50663774169078, 20.794514896503784], [80.50422339736227, 20.796817719965283]]], [[[80.53023686489976, 20.811359118468364], [80.53919867548333, 20.810444241959285], [80.5399669908562, 20.80123644512667], [80.53017237699821, 20.801321462067516], [80.53023686489976, 20.811359118468364]]], [[[80.51569305940697, 20.76412023369726], [80.5183668817804, 20.76930493728623], [80.52328444702681, 20.77030517985115], [80.52587853348577, 20.76440742154151], [80.53256684451149, 20.762639649588696], [80.53437020841612, 20.755569764312575], [80.52626053912, 20.74457106040815], [80.51909111969974, 20.74488154940577], [80.52195975033457, 20.759318276656227], [80.51569305940697, 20.76412023369726]]], [[[80.50526012946587, 20.874352845570726], [80.51324196126687, 20.877691467302363], [80.5199711677439, 20.876735558037417], [80.51841070428695, 20.864290560311108], [80.51406641133076, 20.863210988037622], [80.50602157938285, 20.868182243737674], [80.50526012946587, 20.874352845570726]]], [[[80.50133467702203, 20.66242287988311], [80.50146743653097, 20.665815088082738], [80.50867377422233, 20.669066680143935], [80.50869301772704, 20.663082193388195], [80.50133467702203, 20.66242287988311]]], [[[80.49066985141732, 20.74023779038406], [80.4898335047983, 20.744602514493348], [80.4930513124436, 20.74759090426443], [80.5020559278362, 20.746790307347197], [80.50609118688165, 20.743765646166526], [80.50597851300121, 20.739122583399624], [80.50115006058493, 20.73634326940428], [80.49066985141732, 20.74023779038406]]], [[[80.43858511160627, 20.727811138211138], [80.44430105977733, 20.73710242083298], [80.44090702101794, 20.747755617619497], [80.45034859393714, 20.753125289621455], [80.45542668515321, 20.748380837791007], [80.45004565363105, 20.735716917691917], [80.45233099779882, 20.728368824653653], [80.45620512469748, 20.728138475863094], [80.46055101020475, 20.734580117814254], [80.46798211491497, 20.733663784516757], [80.4701274225082, 20.728985395754833], [80.47704851263428, 20.729784742991647], [80.49054662367408, 20.726314750989555], [80.49593153924043, 20.731456543697526], [80.5025304912103, 20.727954496763203], [80.50359681953917, 20.722521794327193], [80.50001384406872, 20.70996389537567], [80.48528119797749, 20.705866178717425], [80.48464699991503, 20.699481626852357], [80.47902168693413, 20.697441076986507], [80.47499451294925, 20.69196092889456], [80.46943559415097, 20.696134249964654], [80.45736392774879, 20.692212836853308], [80.45678800670129, 20.702228953442855], [80.4530349756025, 20.704520587795866], [80.45386911923288, 20.71129900874358], [80.46148545415808, 20.713331462038884], [80.46212791537631, 20.717123672827384], [80.45549575998692, 20.722913978407746], [80.45047102058004, 20.719215173515888], [80.44138976123303, 20.721700246814894], [80.43841973873013, 20.723707798993278], [80.43858511160627, 20.727811138211138]]], [[[80.45694246832485, 20.69167238717004], [80.46257555268122, 20.681763456184964], [80.47188132177685, 20.68007638734396], [80.47457907006638, 20.672514611453245], [80.47373437341193, 20.665006614006153], [80.46953680316018, 20.661919864304473], [80.46430352836715, 20.665284431345917], [80.45431389684185, 20.661464006719722], [80.45129950823596, 20.65784259067398], [80.4455964303765, 20.660589744162593], [80.44372375961603, 20.668457352266998], [80.44554628726814, 20.674407390755462], [80.45007750069504, 20.678210666896394], [80.44888388740986, 20.688889337268122], [80.45694246832485, 20.69167238717004]]], [[[80.48299079425638, 20.784443072249513], [80.48487573187367, 20.788640011047015], [80.49152458928366, 20.790395434449966], [80.49823647855615, 20.782199397646693], [80.49352158206985, 20.777594212263438], [80.48865735600951, 20.7775002324984], [80.48299079425638, 20.784443072249513]]], [[[80.48343147473409, 20.858456381533383], [80.4855460291904, 20.865415238025573], [80.4935859306447, 20.863493414227868], [80.49240045754912, 20.855939095494954], [80.48573634604348, 20.855051124297322], [80.48343147473409, 20.858456381533383]]], [[[80.46556666727292, 20.867631321511436], [80.4764088259951, 20.869453938797875], [80.47646590929949, 20.86282891382702], [80.47177502696616, 20.856684409675044], [80.4654566684183, 20.85780288894272], [80.46556666727292, 20.867631321511436]]], [[[80.4782697104186, 20.871215185835556], [80.4794452656916, 20.882851298155302], [80.4748133871842, 20.885293871223986], [80.47469513516575, 20.89140569735848], [80.48077736162418, 20.894569417184822], [80.48327543796549, 20.89143184515812], [80.4823562192888, 20.8847164700213], [80.48827342212705, 20.882186067959964], [80.49020359181652, 20.87594844788099], [80.48625480059387, 20.87204116364524], [80.4782697104186, 20.871215185835556]]], [[[80.47509467353538, 20.83288367577219], [80.47698132346143, 20.83627116302059], [80.48114172991805, 20.836384789778016], [80.48345070700721, 20.83054174825749], [80.47552025284307, 20.82755801313205], [80.47509467353538, 20.83288367577219]]], [[[80.47243429187313, 20.922716997864985], [80.4817781811697, 20.924400104139316], [80.48226200048474, 20.91850386015771], [80.47254811658763, 20.918038593197032], [80.47243429187313, 20.922716997864985]]], [[[80.45694990849373, 20.805559456242694], [80.45838734949416, 20.813698512660626], [80.46634609215961, 20.808340678515698], [80.46407246127983, 20.8040989901253], [80.45694990849373, 20.805559456242694]]], [[[80.45343084649734, 20.883699586642525], [80.45523422552434, 20.891888017074862], [80.45860109214654, 20.892854438413792], [80.46246196604204, 20.890183931575507], [80.46151662849273, 20.880971264897358], [80.45463315304792, 20.88002033467155], [80.45343084649734, 20.883699586642525]]], [[[80.45336397807536, 20.863798013098517], [80.4526698102312, 20.870826499854157], [80.45904264754154, 20.869231356037353], [80.45906116968196, 20.86405475214647], [80.45336397807536, 20.863798013098517]]], [[[80.43383638590083, 20.837596746208114], [80.43486439974468, 20.840983655728387], [80.44326934052033, 20.842065188034862], [80.44582458142271, 20.847322508148178], [80.44853158110598, 20.847564220168305], [80.4516085825418, 20.84544878045928], [80.45124687183737, 20.837549926063858], [80.45505465582589, 20.83503394302376], [80.45507430821401, 20.8295717993066], [80.44880860523836, 20.827500799666574], [80.44560690111352, 20.83422410350424], [80.43683625473214, 20.833896925080044], [80.43383638590083, 20.837596746208114]]], [[[80.43425766582543, 20.78690050937898], [80.43676886227901, 20.790912038441522], [80.44272198137125, 20.79181355124677], [80.44852796218107, 20.785765953519036], [80.45424588759687, 20.78515590728029], [80.45439534888654, 20.77949157157097], [80.45283738961066, 20.777378252979908], [80.44722413755596, 20.779727098485964], [80.44125813369628, 20.778206067271622], [80.43662312115791, 20.78003932231565], [80.43425766582543, 20.78690050937898]]], [[[80.4323067007977, 20.53135764303546], [80.43327452347968, 20.540406788846056], [80.43713228534236, 20.54306281723965], [80.44305190427035, 20.542053945278358], [80.44137329415663, 20.532025291407248], [80.43828732260316, 20.530168005328054], [80.4323067007977, 20.53135764303546]]], [[[80.40944842472567, 20.92232281466944], [80.41140801731014, 20.925753654644723], [80.41713657020867, 20.925852869829516], [80.42213008972638, 20.920077351209514], [80.41254481411704, 20.91537386216826], [80.40944842472567, 20.92232281466944]]], [[[80.39565009655648, 20.944937412181474], [80.40079785039336, 20.94758482611862], [80.40568779132482, 20.94255973962419], [80.39861610429206, 20.93876768859407], [80.39548905112012, 20.94002647652164], [80.39565009655648, 20.944937412181474]]], [[[80.36989417497581, 20.902688549739928], [80.3689698254859, 20.908238800958827], [80.373493046334, 20.911909825158382], [80.37060506637215, 20.916664465712234], [80.37143305468025, 20.924250738744732], [80.37429335288199, 20.92795709885021], [80.38436369245433, 20.92330427756227], [80.38937301448827, 20.926575114712577], [80.4004394441632, 20.92551628687836], [80.40224145895738, 20.91729570657945], [80.39990186596208, 20.91531832355456], [80.39077675505052, 20.91586168524849], [80.38680629509193, 20.90797780028074], [80.39056131806781, 20.903981368697092], [80.39781547905986, 20.907041637896494], [80.39984314643252, 20.898923798364507], [80.39437327986165, 20.89119970901271], [80.38767393161508, 20.89144435168787], [80.38148671121041, 20.88674664965078], [80.38534192206792, 20.879800067553916], [80.38226573133424, 20.87331271573001], [80.3753755078838, 20.874216810263896], [80.36993309751206, 20.883395618837746], [80.37354504980377, 20.898944150686553], [80.36989417497581, 20.902688549739928]]], [[[80.3711710945748, 20.835810292189603], [80.3811544710205, 20.8393211994789], [80.3874507153392, 20.832620545435024], [80.396243630472, 20.835238584623227], [80.39843021456127, 20.832053933057487], [80.39664121675878, 20.82365073172689], [80.3933805281459, 20.821595487131198], [80.38680873207107, 20.825068166414272], [80.37829929671494, 20.82406251082403], [80.37638041218476, 20.82872559140129], [80.37104372092263, 20.831635719647277], [80.3711710945748, 20.835810292189603]]], [[[80.37511999284082, 20.964388455447235], [80.38335789770882, 20.966937988747148], [80.38838009389869, 20.963232406719435], [80.38276635692615, 20.953522253491357], [80.38935707821537, 20.941353918473162], [80.38802906079468, 20.93552589229425], [80.38378618721465, 20.935584994981337], [80.37569829270005, 20.943993666781296], [80.37656773880188, 20.950338004771627], [80.3810998352049, 20.954093678119595], [80.37481103209478, 20.95926510449365], [80.37511999284082, 20.964388455447235]]]]}}, {"type": "Feature", "properties": {"threshold": 90}, "geometry": {"type": "MultiPolygon", "coordinates": [[[[80.84002034887702, 20.753125825011395], [80.84851074905399, 20.753646938159854], [80.84754264703332, 20.744435962876558], [80.83946813453365, 20.745347917853714], [80.84002034887702, 20.753125825011395]]], [[[80.83511682660733, 20.71799156020962], [80.83433779056448, 20.725362897081023], [80.84240936916738, 20.726289783116936], [80.84253663638022, 20.717887496944392], [80.83511682660733, 20.71799156020962]]], [[[80.82570719363558, 20.688095724126132], [80.82597206169913, 20.695626710478365], [80.8366010372953, 20.695415068454437], [80.83380251516509, 20.68379536323163], [80.8294909315347, 20.683750547398017], [80.82570719363558, 20.688095724126132]]], [[[80.81706545798446, 20.736551400690352], [80.81615856431256, 20.74210443454922], [80.82099055603425, 20.744994927962814], [80.82893222028974, 20.740427767584308], [80.8266512217322, 20.73457524174062], [80.81706545798446, 20.736551400690352]]], [[[80.76734328507385, 20.896718590073228], [80.77371934143264, 20.89844587421526], [80.77690726094457, 20.89664901065139], [80.7787573603685, 20.88824920237456], [80.7689573828766, 20.888124682280967], [80.76734328507385, 20.896718590073228]]], [[[80.72943368709403, 20.765514401608733], [80.72852052915346, 20.77268238621697], [80.73654632884903, 20.783556618895425], [80.75084771536592, 20.78370972762294], [80.75405526331821, 20.781745075415973], [80.75126681890352, 20.7668932485837], [80.74484298277883, 20.768906363199857], [80.73550442705375, 20.76432632786968], [80.72943368709403, 20.765514401608733]]], [[[80.71296968180214, 20.786793327440932], [80.71314760832644, 20.795476493828165], [80.721222106802, 20.796409092801028], [80.72136061572456, 20.78558383626104], [80.71624115235001, 20.783681205593563], [80.71296968180214, 20.786793327440932]]], [[[80.66749893290704, 20.763287085497762], [80.66767955058631, 20.769547105925177], [80.67451727783353, 20.770646708506742], [80.68441121383256, 20.76640624852019], [80.6855173863594, 20.760028047475405], [80.67892339848508, 20.75617177669005], [80.67163828533778, 20.75613882282646], [80.66749893290704, 20.763287085497762]]], [[[80.67515705669226, 20.796418699635556], [80.67559227558559, 20.80449384311719], [80.6806182372549, 20.804537041834994], [80.68448903573268, 20.800949126118514], [80.68329276581326, 20.794203653891355], [80.67834799109615, 20.793326352081483], [80.67515705669226, 20.796418699635556]]], [[[80.64967370022597, 20.859362810152405], [80.65837413787985, 20.860105787982203], [80.6612605752538, 20.854800077461945], [80.66023214801349, 20.85089957781898], [80.65043478035015, 20.85076829920609], [80.64967370022597, 20.859362810152405]]], [[[80.63567557266514, 20.783605749681858], [80.64330936799927, 20.787558639371216], [80.64946412782683, 20.7844702808379], [80.65652900919402, 20.78593936056801], [80.65969476304228, 20.77767232133404], [80.6562410147748, 20.77547587615369], [80.64955372015953, 20.778174119940118], [80.63715746610995, 20.77708965461928], [80.63567557266514, 20.783605749681858]]], [[[80.6448129500025, 20.91590140580998], [80.64412731955888, 20.924582673346766], [80.65306606033873, 20.926328058993125], [80.65492527146343, 20.917121993767594], [80.65091669549001, 20.913592618512908], [80.6448129500025, 20.91590140580998]]], [[[80.63557395853239, 20.82464509551909], [80.63859736143715, 20.82865165062532], [80.6444040774687, 20.828724171981072], [80.6467104429263, 20.821263373149026], [80.63877325774703, 20.819902582124225], [80.63557395853239, 20.82464509551909]]], [[[80.6279194617511, 20.87528332406983], [80.62980754895412, 20.88028642893449], [80.63560665615039, 20.88041905027915], [80.6388159766943, 20.877521348996677], [80.6388754676552, 20.873017885772263], [80.63579240440014, 20.870001663586113], [80.63014155144307, 20.869943745171337], [80.6279194617511, 20.87528332406983]]], [[[80.6176452890419, 20.8234582522896], [80.6167325983684, 20.82820236433327], [80.62070428494827, 20.831096529823935], [80.63037267108487, 20.827350236881376], [80.63022295316883, 20.824182561023882], [80.62552080551895, 20.82148959620475], [80.6176452890419, 20.8234582522896]]], [[[80.60407225762184, 20.79261703080189], [80.6090711763704, 20.79879903636006], [80.62098057504797, 20.79267193382206], [80.62276837021729, 20.78413361103112], [80.6155178800067, 20.778012768616065], [80.61852541065899, 20.77141709368915], [80.61543192068093, 20.765760798542164], [80.61126589959892, 20.765785191529883], [80.60829301901352, 20.769411139227856], [80.60742219279085, 20.774063758052197], [80.61259587995218, 20.780509765611516], [80.61028792121941, 20.78737625919119], [80.60407225762184, 20.79261703080189]]], [[[80.56267532983101, 20.552847985288686], [80.56478005717848, 20.55795053285264], [80.5752005625755, 20.555302167249227], [80.58189544492609, 20.55763090809422], [80.58946160318898, 20.570874327083313], [80.59785046772467, 20.568687955941577], [80.60131134984736, 20.573258094791704], [80.61040072841638, 20.57278054853432], [80.61259462529577, 20.580620580590086], [80.62061595741282, 20.57950020327007], [80.6205470380666, 20.569724875191344], [80.61252946140085, 20.568011112376578], [80.6120404423609, 20.561691996617533], [80.59880536334398, 20.554967572446223], [80.59811480778343, 20.549321996495863], [80.58833616970124, 20.550959031100977], [80.58163536830563, 20.54628489387771], [80.58221596886308, 20.53768037267889], [80.57836334529675, 20.533079532918425], [80.57210017106226, 20.534942339458215], [80.57098808542749, 20.54372188350348], [80.56269046064634, 20.544548367757475], [80.56267532983101, 20.552847985288686]]], [[[80.60052407980638, 20.57516675563101], [80.58866415105891, 20.576688784036204], [80.58642511402826, 20.581308711333033], [80.59065671924384, 20.58634909069023], [80.59076887793482, 20.592356100017184], [80.59563320167923, 20.596816218461186], [80.60179106349386, 20.59458267498095], [80.59872151474458, 20.586601885098627], [80.6035571827126, 20.57981143991667], [80.60052407980638, 20.57516675563101]]], [[[80.5992139324742, 20.970420244001748], [80.59824917667932, 20.975820769291115], [80.6011182419526, 20.97871573236437], [80.60834864880754, 20.977005532546066], [80.60653189941449, 20.968599314675554], [80.5992139324742, 20.970420244001748]]], [[[80.59533038734509, 20.81208599387202], [80.59536536125982, 20.816176567972647], [80.60003764657044, 20.818907111783766], [80.60631583544411, 20.816870641981275], [80.60633001946536, 20.811408367976398], [80.60243813800699, 20.80854066598934], [80.59741192513242, 20.808562710730158], [80.59533038734509, 20.81208599387202]]], [[[80.58680772174259, 20.79027008280937], [80.58584379407796, 20.79567066302002], [80.58884852566598, 20.798653820208916], [80.59688580130339, 20.79591932737136], [80.59483456039047, 20.78917127400316], [80.58680772174259, 20.79027008280937]]], [[[80.5602231912748, 20.808084006976202], [80.56296584512255, 20.813088216963376], [80.5744302824444, 20.81727582132384], [80.5813345520791, 20.81291200020617], [80.57946866509184, 20.805376421868548], [80.56966503119547, 20.804561702423378], [80.56915372807917, 20.80071308096152], [80.57377717876817, 20.79644884015958], [80.5725748367397, 20.78915789392702], [80.56279343913731, 20.790970747266513], [80.56487509868755, 20.800047355105377], [80.5602231912748, 20.808084006976202]]], [[[80.56782011113354, 20.599343692801767], [80.56772523045585, 20.60379812221875], [80.57493238258846, 20.606239209647615], [80.57862259122483, 20.601719333135943], [80.57668919263814, 20.591373739085054], [80.5686135661728, 20.592969272528588], [80.56782011113354, 20.599343692801767]]], [[[80.51167004435878, 20.680103740740286], [80.51155502279285, 20.685039725639545], [80.51642244115118, 20.68869431965266], [80.53095356161977, 20.683242477103015], [80.5351233927099, 20.695969541061928], [80.54325492213746, 20.697664135234618], [80.55057564388643, 20.69454904806901], [80.55551959964305, 20.69971474373129], [80.55432796906979, 20.705126510605037], [80.55756173596515, 20.709805827544912], [80.56112410552676, 20.70925922450748], [80.56080907167035, 20.6998624998003], [80.56346250347528, 20.693818701205792], [80.57579240135907, 20.689833815730534], [80.57386396677835, 20.681833367074706], [80.56630966438573, 20.68158267916248], [80.56098415012539, 20.68882996169234], [80.55496605271625, 20.688854127020115], [80.54875603009468, 20.692752508110384], [80.54345713288434, 20.686775738992207], [80.5430285642301, 20.679389712172703], [80.54059347497254, 20.677470613751623], [80.53262308078385, 20.679095169844604], [80.52882507071202, 20.67180313171109], [80.51364936205152, 20.676686938490736], [80.51167004435878, 20.680103740740286]]], [[[80.55703091015303, 20.949620054188475], [80.5562113769107, 20.95809794282951], [80.56162179045792, 20.960970601201677], [80.56553559776131, 20.957314247231647], [80.56555136656273, 20.951852091286977], [80.56157997985761, 20.948148949052438], [80.55703091015303, 20.949620054188475]]], [[[80.54093024658349, 20.730678295723674], [80.54544863756709, 20.737070453137118], [80.54481760376862, 20.744023491078803], [80.55019952986991, 20.75000586378505], [80.56171287234137, 20.748308590083326], [80.56264289053983, 20.740891461264624], [80.55328473720542, 20.736382912461355], [80.5559693408769, 20.72185715568631], [80.55223769993745, 20.718073339078025], [80.54864443358838, 20.71801690656845], [80.54070951237205, 20.72542406434969], [80.54093024658349, 20.730678295723674]]], [[[80.54705523375341, 20.582583086496715], [80.54609136220488, 20.587983572560663], [80.54823588469742, 20.590157437457794], [80.55309186739083, 20.59105735638038], [80.55711824124371, 20.588234524655196], [80.55679151824977, 20.579874846997793], [80.5501390050836, 20.578989567192643], [80.54705523375341, 20.582583086496715]]], [[[80.50126860772457, 20.91150407195788], [80.50050062751767, 20.914399296067923], [80.50606882485408, 20.919625869490517], [80.51946334231019, 20.91809446791889], [80.52187272531508, 20.916583085404504], [80.52080691458436, 20.908540321373874], [80.52386633754487, 20.907014695410933], [80.52771139359416, 20.909102273935275], [80.5307186219302, 20.920328633880484], [80.53788752398648, 20.919593513391906], [80.54137266332437, 20.908486397860383], [80.55110291553534, 20.904701496703353], [80.55376986113917, 20.88838012316077], [80.55064591921584, 20.882731000021668], [80.55361462578205, 20.87407856380563], [80.54591868154407, 20.871356399338698], [80.54109030088011, 20.878679105645304], [80.5326339644996, 20.87714182431296], [80.52890383784585, 20.88236634902626], [80.52757846743899, 20.892122035960455], [80.51944008837204, 20.89438129505728], [80.52074457907274, 20.907570920180437], [80.50126860772457, 20.91150407195788]], [[80.54003665667815, 20.882338787263667], [80.54321782181256, 20.87998974752934], [80.54718561975383, 20.884007025419635], [80.54332976330517, 20.886558434612823], [80.54003665667815, 20.882338787263667]], [[80.53134336169019, 20.90258047599337], [80.53360124636565, 20.899586421083388], [80.5417093620114, 20.90120542069785], [80.53945656765679, 20.906136143473724], [80.53296116790246, 20.90585022724814], [80.53134336169019, 20.90258047599337]]], [[[80.51434932913799, 20.898713426107655], [80.5118890048779, 20.893090039636327], [80.5028785006051, 20.893044885947695], [80.50049990629076, 20.89520907091652], [80.50363009218853, 20.901068176438468], [80.51091938572385, 20.901916088792202], [80.51434932913799, 20.898713426107655]]], [[[80.54130240256103, 20.784500467330705], [80.54042817207913, 20.787700221673767], [80.54444546286835, 20.789736325757314], [80.54923460121641, 20.78970317135375], [80.55145253484342, 20.786775901222455], [80.5503700229909, 20.78052984546215], [80.5541102845657, 20.770315872823964], [80.54837076824225, 20.764763279630643], [80.54214448205518, 20.766898770433627], [80.54367492368958, 20.780582774412654], [80.54130240256103, 20.784500467330705]]], [[[80.50006976626486, 20.81437913376894], [80.5009108696367, 20.818414244265856], [80.51067047336839, 20.825944782083024], [80.51517297168192, 20.82203450174495], [80.52328161631654, 20.823583781053532], [80.52935424479476, 20.814284986425715], [80.53918885630073, 20.813675087448136], [80.54195250379912, 20.804053410674314], [80.54075864411102, 20.801191518058516], [80.53538301843473, 20.79946062949282], [80.53043113389373, 20.80112296107268], [80.52878862409953, 20.81307607659596], [80.52367216016498, 20.81381020141494], [80.51450154450545, 20.8050192570206], [80.52463071054406, 20.799096440062467], [80.52464656066115, 20.794036779248074], [80.5189007417119, 20.792108171419983], [80.51437945568217, 20.795379025245364], [80.50655620992838, 20.79453385235887], [80.50335563085409, 20.798585109873997], [80.50622690742794, 20.80980457349948], [80.50006976626486, 20.81437913376894]]], [[[80.51569305940697, 20.76412023369726], [80.5183668817804, 20.76930493728623], [80.52328444702681, 20.77030517985115], [80.52587853348577, 20.76440742154151], [80.53256684451149, 20.762639649588696], [80.53437020841612, 20.755569764312575], [80.52626053912, 20.74457106040815], [80.51909111969974, 20.74488154940577], [80.52195975033457, 20.759318276656227], [80.51569305940697, 20.76412023369726]]], [[[80.50526012946587, 20.874352845570726], [80.51324196126687, 20.877691467302363], [80.52131070623254, 20.877714236779607], [80.52888434509804, 20.869519529231418], [80.52409507206794, 20.863265773626665], [80.5141479795435, 20.86319202944758], [80.5050405318872, 20.86909867593806], [80.50526012946587, 20.874352845570726]]], [[[80.4973428063229, 20.669977124996368], [80.50171793596847, 20.674067550560856], [80.50767002655786, 20.67401027532256], [80.5106303701058, 20.67100522989451], [80.5087989664595, 20.663204452640972], [80.49731272613047, 20.663757047357123], [80.4973428063229, 20.669977124996368]]], [[[80.49066985141732, 20.74023779038406], [80.4898335047983, 20.744602514493348], [80.4930513124436, 20.74759090426443], [80.5020559278362, 20.746790307347197], [80.50609118688165, 20.743765646166526], [80.50597851300121, 20.739122583399624], [80.50115006058493, 20.73634326940428], [80.49066985141732, 20.74023779038406]]], [[[80.43858511160627, 20.727811138211138], [80.44430105977733, 20.73710242083298], [80.44090702101794, 20.747755617619497], [80.45034859393714, 20.753125289621455], [80.45542668515321, 20.748380837791007], [80.45004565363105, 20.735716917691917], [80.45233099779882, 20.728368824653653], [80.45620512469748, 20.728138475863094], [80.46055101020475, 20.734580117814254], [80.46798211491497, 20.733663784516757], [80.4701274225082, 20.728985395754833], [80.47704851263428, 20.729784742991647], [80.49054662367408, 20.726314750989555], [80.49593153924043, 20.731456543697526], [80.5025304912103, 20.727954496763203], [80.50359681953917, 20.722521794327193], [80.50001384406872, 20.70996389537567], [80.48528119797749, 20.705866178717425], [80.48464699991503, 20.699481626852357], [80.47902168693413, 20.697441076986507], [80.47499451294925, 20.69196092889456], [80.46943559415097, 20.696134249964654], [80.45736392774879, 20.692212836853308], [80.45678800670129, 20.702228953442855], [80.4530349756025, 20.704520587795866], [80.45386911923288, 20.71129900874358], [80.46148545415808, 20.713331462038884], [80.46212791537631, 20.717123672827384], [80.45549575998692, 20.722913978407746], [80.45047102058004, 20.719215173515888], [80.44138976123303, 20.721700246814894], [80.43841973873013, 20.723707798993278], [80.43858511160627, 20.727811138211138]]], [[[80.45694246832485, 20.69167238717004], [80.46257555268122, 20.681763456184964], [80.47188132177685, 20.68007638734396], [80.47457907006638, 20.672514611453245], [80.47373437341193, 20.665006614006153], [80.46953680316018, 20.661919864304473], [80.46430352836715, 20.665284431345917], [80.45431389684185, 20.661464006719722], [80.45129950823596, 20.65784259067398], [80.4455964303765, 20.660589744162593], [80.44372375961603, 20.668457352266998], [80.44554628726814, 20.674407390755462], [80.45007750069504, 20.678210666896394], [80.44888388740986, 20.688889337268122], [80.45694246832485, 20.69167238717004]]], [[[80.48299079425638, 20.784443072249513], [80.48487573187367, 20.788640011047015], [80.49152458928366, 20.790395434449966], [80.49823647855615, 20.782199397646693], [80.49352158206985, 20.777594212263438], [80.48865735600951, 20.7775002324984], [80.48299079425638, 20.784443072249513]]], [[[80.48343147473409, 20.858456381533383], [80.4855460291904, 20.865415238025573], [80.4935859306447, 20.863493414227868], [80.49240045754912, 20.855939095494954], [80.48573634604348, 20.855051124297322], [80.48343147473409, 20.858456381533383]]], [[[80.45284968410304, 20.870962439815653], [80.45703393600877, 20.872630268323388], [80.46343442754426, 20.866729326385247], [80.46935663424678, 20.870272419421056], [80.47687195141705, 20.87034865059999], [80.47643785998109, 20.862754467051403], [80.47184695179338, 20.856725234217585], [80.46674751857849, 20.85663505648171], [80.46391399257764, 20.864669606568462], [80.45264068387814, 20.863285152775166], [80.45284968410304, 20.870962439815653]]], [[[80.47751915101519, 20.87090579880228], [80.4794452656916, 20.882851298155302], [80.47395113251818, 20.886098926307632], [80.47383284428408, 20.892210750352454], [80.47991230121619, 20.896182197136515], [80.48326283935997, 20.891509930114793], [80.4823562192888, 20.8847164700213], [80.48827342212705, 20.882186067959964], [80.49020359181652, 20.87594844788099], [80.48625480059387, 20.87204116364524], [80.47751915101519, 20.87090579880228]]], [[[80.4729902469996, 20.916768530981727], [80.47202136402878, 20.922168296345], [80.47416941566438, 20.924343075023746], [80.47989522199308, 20.9252478776684], [80.48393191394374, 20.922427072759593], [80.48103286915385, 20.913252134905765], [80.4729902469996, 20.916768530981727]]], [[[80.47329995501941, 20.827921792306658], [80.47245291129045, 20.835227529920868], [80.48050446941814, 20.837897301960574], [80.48334402923805, 20.830327927829718], [80.47329995501941, 20.827921792306658]]], [[[80.45694990849373, 20.805559456242694], [80.45609205739845, 20.8098472791912], [80.4588874484933, 20.814306738649233], [80.46611401633896, 20.813521678391407], [80.46722120128926, 20.809568197471062], [80.46442849766682, 20.804301165451488], [80.45694990849373, 20.805559456242694]]], [[[80.43876795717541, 20.89819253246268], [80.44150512318177, 20.904006277078427], [80.44840131130564, 20.90406927876344], [80.44974576411589, 20.89252871522566], [80.44076168380502, 20.89212483724174], [80.43876795717541, 20.89819253246268]]], [[[80.45407550958153, 20.890789541361187], [80.45828906785879, 20.892891025855974], [80.46258901032044, 20.890789463111464], [80.4635275564397, 20.88225038827674], [80.46045364434828, 20.877615680725867], [80.4541710718314, 20.879646701631238], [80.45407550958153, 20.890789541361187]]], [[[80.43451385861293, 20.83294901433006], [80.43479709697064, 20.8409363867769], [80.44298398005412, 20.84250653121823], [80.44537471650908, 20.848388338503327], [80.45316562445502, 20.84653839876398], [80.45514125504472, 20.829939475049038], [80.4531152259497, 20.827636012715903], [80.44859269928557, 20.827621522649213], [80.44470661629757, 20.833780696134713], [80.43451385861293, 20.83294901433006]]], [[[80.43425766582543, 20.78690050937898], [80.43676886227901, 20.790912038441522], [80.44272198137125, 20.79181355124677], [80.44852796218107, 20.785765953519036], [80.45424588759687, 20.78515590728029], [80.45439534888654, 20.77949157157097], [80.45283738961066, 20.777378252979908], [80.44722413755596, 20.779727098485964], [80.44125813369628, 20.778206067271622], [80.43662312115791, 20.78003932231565], [80.43425766582543, 20.78690050937898]]], [[[80.4323067007977, 20.53135764303546], [80.43327452347968, 20.540406788846056], [80.43713228534236, 20.54306281723965], [80.44305190427035, 20.542053945278358], [80.44137329415663, 20.532025291407248], [80.43828732260316, 20.530168005328054], [80.4323067007977, 20.53135764303546]]], [[[80.36989417497581, 20.902688549739928], [80.3689698254859, 20.908238800958827], [80.373493046334, 20.911909825158382], [80.37060506637215, 20.916664465712234], [80.37143305468025, 20.924250738744732], [80.3744326053225, 20.928045257215317], [80.38461565347487, 20.923281878345673], [80.38928991288051, 20.926563229217372], [80.40002493235178, 20.925774407391287], [80.40529933476327, 20.919906479192097], [80.41140801731014, 20.925753654644723], [80.41899203486862, 20.926668122482223], [80.4224714572972, 20.936250876563218], [80.42801175733092, 20.933556669797326], [80.42787788053275, 20.929377007381426], [80.42031738663728, 20.926054148501436], [80.42215811471645, 20.917870843088256], [80.41999218509159, 20.915478876596037], [80.410750310412, 20.913771478966016], [80.40463045135535, 20.91908729752575], [80.40006641868472, 20.91534967957306], [80.39004862246408, 20.915258508690933], [80.38872066093435, 20.90495251632388], [80.39158799577072, 20.904069523947104], [80.39931531219591, 20.907976028104706], [80.40244178847523, 20.899009513260783], [80.39720546039936, 20.89763072746362], [80.39437327986165, 20.89119970901271], [80.38767393161508, 20.89144435168787], [80.38148671121041, 20.88674664965078], [80.38534192206792, 20.879800067553916], [80.38226573133424, 20.87331271573001], [80.3753755078838, 20.874216810263896], [80.36993309751206, 20.883395618837746], [80.37354504980377, 20.898944150686553], [80.36989417497581, 20.902688549739928]]], [[[80.41381884802233, 20.90376085648502], [80.42022166965518, 20.909690251257448], [80.42387989244833, 20.906743024678658], [80.42075582703623, 20.900074839422636], [80.41666521419788, 20.900121300338466], [80.41381884802233, 20.90376085648502]]], [[[80.40996891788953, 20.95805938767862], [80.4090992409789, 20.96476988890522], [80.41178989755649, 20.96910775247558], [80.41813691939997, 20.96935157244284], [80.42012857900569, 20.96016518932367], [80.40996891788953, 20.95805938767862]]], [[[80.40920333666476, 20.776983128039454], [80.41127239669952, 20.779619544506144], [80.41399777315686, 20.778430398916772], [80.4149619295823, 20.773051050214818], [80.41281683861416, 20.77087555882372], [80.40907806064956, 20.772000831626915], [80.40920333666476, 20.776983128039454]]], [[[80.37511999284082, 20.964388455447235], [80.37966724357625, 20.966913010066058], [80.3855412728832, 20.965959386389034], [80.38844991595637, 20.962865203267242], [80.38836007567089, 20.959314243028604], [80.38279019799546, 20.953758983355876], [80.38565806807412, 20.947646752635908], [80.39355835216848, 20.944077498758208], [80.40087711218722, 20.947558498107266], [80.40638386823562, 20.944114008964153], [80.40726037104592, 20.93986520183271], [80.4007675010619, 20.934717603117925], [80.39419824954415, 20.938664970559216], [80.39052916434495, 20.935508232109598], [80.38371847457549, 20.935631796583866], [80.37566966270025, 20.944067921827926], [80.37571129129947, 20.94952718387478], [80.3810998352049, 20.954093678119595], [80.37481103209478, 20.95926510449365], [80.37511999284082, 20.964388455447235]]], [[[80.39287092722235, 20.982841459145618], [80.39600722625394, 20.987175488214856], [80.40297657194397, 20.984054983377682], [80.39793400979592, 20.97750364637499], [80.39374342238611, 20.9785868287578], [80.39287092722235, 20.982841459145618]]], [[[80.3711710945748, 20.835810292189603], [80.3811544710205, 20.8393211994789], [80.3874507153392, 20.832620545435024], [80.396243630472, 20.835238584623227], [80.39843021456127, 20.832053933057487], [80.39664121675878, 20.82365073172689], [80.3933805281459, 20.821595487131198], [80.38680873207107, 20.825068166414272], [80.37829929671494, 20.82406251082403], [80.37638041218476, 20.82872559140129], [80.37104372092263, 20.831635719647277], [80.3711710945748, 20.835810292189603]]], [[[80.37940199727349, 20.759248975226367], [80.3859978191047, 20.76097296946856], [80.38994127448595, 20.75747741077432], [80.39099659693512, 20.752775053492407], [80.38813906800054, 20.74906896908588], [80.38177601060522, 20.75077317888235], [80.37940199727349, 20.759248975226367]]]]}}, {"type": "Feature", "properties": {"threshold": 95}, "geometry": {"type": "MultiPolygon", "coordinates": [[[[80.84002034887702, 20.753125825011395], [80.84851074905399, 20.753646938159854], [80.84754264703332, 20.744435962876558], [80.83946813453365, 20.745347917853714], [80.84002034887702, 20.753125825011395]]], [[[80.83511682660733, 20.71799156020962], [80.83433779056448, 20.725362897081023], [80.84240936916738, 20.726289783116936], [80.84253663638022, 20.717887496944392], [80.83511682660733, 20.71799156020962]]], [[[80.82570719363558, 20.688095724126132], [80.82597206169913, 20.695626710478365], [80.8366010372953, 20.695415068454437], [80.83380251516509, 20.68379536323163], [80.8294909315347, 20.683750547398017], [80.82570719363558, 20.688095724126132]]], [[[80.81706545798446, 20.736551400690352], [80.81615856431256, 20.74210443454922], [80.82099055603425, 20.744994927962814], [80.82893222028974, 20.740427767584308], [80.8266512217322, 20.73457524174062], [80.81706545798446, 20.736551400690352]]], [[[80.76734328507385, 20.896718590073228], [80.77371934143264, 20.89844587421526], [80.77690726094457, 20.89664901065139], [80.7787573603685, 20.88824920237456], [80.7689573828766, 20.888124682280967], [80.76734328507385, 20.896718590073228]]], [[[80.72943368709403, 20.765514401608733], [80.72852052915346, 20.77268238621697], [80.73654632884903, 20.783556618895425], [80.75084771536592, 20.78370972762294], [80.75405526331821, 20.781745075415973], [80.75126681890352, 20.7668932485837], [80.74484298277883, 20.768906363199857], [80.73550442705375, 20.76432632786968], [80.72943368709403, 20.765514401608733]]], [[[80.71296968180214, 20.786793327440932], [80.71314760832644, 20.795476493828165], [80.721222106802, 20.796409092801028], [80.72136061572456, 20.78558383626104], [80.71624115235001, 20.783681205593563], [80.71296968180214, 20.786793327440932]]], [[[80.66749893290704, 20.763287085497762], [80.66767955058631, 20.769547105925177], [80.67451727783353, 20.770646708506742], [80.68441121383256, 20.76640624852019], [80.6855173863594, 20.760028047475405], [80.67892339848508, 20.75617177669005], [80.67163828533778, 20.75613882282646], [80.66749893290704, 20.763287085497762]]], [[[80.67515705669226, 20.796418699635556], [80.67559227558559, 20.80449384311719], [80.6806182372549, 20.804537041834994], [80.68448903573268, 20.800949126118514], [80.68329276581326, 20.794203653891355], [80.67834799109615, 20.793326352081483], [80.67515705669226, 20.796418699635556]]], [[[80.64967370022597, 20.859362810152405], [80.65837413787985, 20.860105787982203], [80.6612605752538, 20.854800077461945], [80.66023214801349, 20.85089957781898], [80.65043478035015, 20.85076829920609], [80.64967370022597, 20.859362810152405]]], [[[80.63567557266514, 20.783605749681858], [80.64330936799927, 20.787558639371216], [80.64946412782683, 20.7844702808379], [80.65652900919402, 20.78593936056801], [80.65969476304228, 20.77767232133404], [80.6562410147748, 20.77547587615369], [80.64955372015953, 20.778174119940118], [80.63715746610995, 20.77708965461928], [80.63567557266514, 20.783605749681858]]], [[[80.6448129500025, 20.91590140580998], [80.64412731955888, 20.924582673346766], [80.65306606033873, 20.926328058993125], [80.65492527146343, 20.917121993767594], [80.65091669549001, 20.913592618512908], [80.6448129500025, 20.91590140580998]]], [[[80.63557395853239, 20.82464509551909], [80.63859736143715, 20.82865165062532], [80.6444040774687, 20.828724171981072], [80.6467104429263, 20.821263373149026], [80.63877325774703, 20.819902582124225], [80.63557395853239, 20.82464509551909]]], [[[80.6279194617511, 20.87528332406983], [80.62980754895412, 20.88028642893449], [80.63560665615039, 20.88041905027915], [80.6388159766943, 20.877521348996677], [80.6388754676552, 20.873017885772263], [80.63579240440014, 20.870001663586113], [80.63014155144307, 20.869943745171337], [80.6279194617511, 20.87528332406983]]], [[[80.6176452890419, 20.8234582522896], [80.6167325983684, 20.82820236433327], [80.62070428494827, 20.831096529823935], [80.63037267108487, 20.827350236881376], [80.63022295316883, 20.824182561023882], [80.62552080551895, 20.82148959620475], [80.6176452890419, 20.8234582522896]]], [[[80.60407225762184, 20.79261703080189], [80.6090711763704, 20.79879903636006], [80.62098057504797, 20.79267193382206], [80.62276837021729, 20.78413361103112], [80.6155178800067, 20.778012768616065], [80.61852541065899, 20.77141709368915], [80.61543192068093, 20.765760798542164], [80.61126589959892, 20.765785191529883], [80.60829301901352, 20.769411139227856], [80.60742219279085, 20.774063758052197], [80.61259587995218, 20.780509765611516], [80.61028792121941, 20.78737625919119], [80.60407225762184, 20.79261703080189]]], [[[80.56267532983101, 20.552847985288686], [80.56478005717848, 20.55795053285264], [80.5752005625755, 20.555302167249227], [80.58189544492609, 20.55763090809422], [80.58946160318898, 20.570874327083313], [80.59785046772467, 20.568687955941577], [80.60131134984736, 20.573258094791704], [80.61040072841638, 20.57278054853432], [80.61259462529577, 20.580620580590086], [80.62061595741282, 20.57950020327007], [80.6205470380666, 20.569724875191344], [80.61252946140085, 20.568011112376578], [80.6120404423609, 20.561691996617533], [80.59880536334398, 20.554967572446223], [80.59811480778343, 20.549321996495863], [80.58833616970124, 20.550959031100977], [80.58163536830563, 20.54628489387771], [80.58221596886308, 20.53768037267889], [80.57836334529675, 20.533079532918425], [80.57210017106226, 20.534942339458215], [80.57098808542749, 20.54372188350348], [80.56269046064634, 20.544548367757475], [80.56267532983101, 20.552847985288686]]], [[[80.60052407980638, 20.57516675563101], [80.58874318746929, 20.576662363775657], [80.58127866957345, 20.58129633724834], [80.5825606064859, 20.585397205966586], [80.59017352601475, 20.58554842820827], [80.5907332067192, 20.59228461739511], [80.59563320167923, 20.596816218461186], [80.60179106349386, 20.59458267498095], [80.59872151474458, 20.586601885098627], [80.6035571827126, 20.57981143991667], [80.60052407980638, 20.57516675563101]]], [[[80.5992139324742, 20.970420244001748], [80.59824917667932, 20.975820769291115], [80.6011182419526, 20.97871573236437], [80.60834864880754, 20.977005532546066], [80.60653189941449, 20.968599314675554], [80.5992139324742, 20.970420244001748]]], [[[80.59533038734509, 20.81208599387202], [80.59536536125982, 20.816176567972647], [80.60003764657044, 20.818907111783766], [80.60631583544411, 20.816870641981275], [80.60633001946536, 20.811408367976398], [80.60243813800699, 20.80854066598934], [80.59741192513242, 20.808562710730158], [80.59533038734509, 20.81208599387202]]], [[[80.58680772174259, 20.79027008280937], [80.58584379407796, 20.79567066302002], [80.58884852566598, 20.798653820208916], [80.59688580130339, 20.79591932737136], [80.59483456039047, 20.78917127400316], [80.58680772174259, 20.79027008280937]]], [[[80.5602231912748, 20.808084006976202], [80.56296584512255, 20.813088216963376], [80.5744302824444, 20.81727582132384], [80.5813345520791, 20.81291200020617], [80.57946866509184, 20.805376421868548], [80.56966503119547, 20.804561702423378], [80.56915372807917, 20.80071308096152], [80.57377717876817, 20.79644884015958], [80.5725748367397, 20.78915789392702], [80.56279343913731, 20.790970747266513], [80.56487509868755, 20.800047355105377], [80.5602231912748, 20.808084006976202]]], [[[80.5675361019391, 20.593754620383283], [80.56761927394278, 20.603675898022843], [80.57064775829451, 20.60642969345622], [80.57651833483875, 20.606343190759855], [80.57861593075938, 20.60414253897571], [80.57765294492768, 20.59149805374285], [80.56819855037206, 20.591132493888214], [80.5675361019391, 20.593754620383283]]], [[[80.51080514496468, 20.681718560567703], [80.51650542412311, 20.68870614122295], [80.53095356161977, 20.683242477103015], [80.53519987690402, 20.696804083415863], [80.54333798205414, 20.697652766642324], [80.55057564388643, 20.69454904806901], [80.55551959964305, 20.69971474373129], [80.55432796906979, 20.705126510605037], [80.5576447343282, 20.70981762957172], [80.56112410552676, 20.70925922450748], [80.56080907167035, 20.6998624998003], [80.56346250347528, 20.693818701205792], [80.57580493351462, 20.689755721275162], [80.57386396677835, 20.681833367074706], [80.56630966438573, 20.68158267916248], [80.56098415012539, 20.68882996169234], [80.55496605271625, 20.688854127020115], [80.54874956119482, 20.692330038672555], [80.54355317876092, 20.68699569250154], [80.5430285642301, 20.679389712172703], [80.54059347497254, 20.677470613751623], [80.53239940701167, 20.67897426454947], [80.52874458777549, 20.670983592828467], [80.51357725081863, 20.67672733882352], [80.51080514496468, 20.681718560567703]]], [[[80.55703091015303, 20.949620054188475], [80.5562113769107, 20.95809794282951], [80.56162179045792, 20.960970601201677], [80.56553559776131, 20.957314247231647], [80.56555136656273, 20.951852091286977], [80.56157997985761, 20.948148949052438], [80.55703091015303, 20.949620054188475]]], [[[80.54093024658349, 20.730678295723674], [80.54544863756709, 20.737070453137118], [80.54481760376862, 20.744023491078803], [80.55019952986991, 20.75000586378505], [80.56171287234137, 20.748308590083326], [80.56264289053983, 20.740891461264624], [80.55328473720542, 20.736382912461355], [80.5559693408769, 20.72185715568631], [80.55223769993745, 20.718073339078025], [80.54864443358838, 20.71801690656845], [80.54070951237205, 20.72542406434969], [80.54093024658349, 20.730678295723674]]], [[[80.54705523375341, 20.582583086496715], [80.54609136220488, 20.587983572560663], [80.54823588469742, 20.590157437457794], [80.55309186739083, 20.59105735638038], [80.55711824124371, 20.588234524655196], [80.55679151824977, 20.579874846997793], [80.5501390050836, 20.578989567192643], [80.54705523375341, 20.582583086496715]]], [[[80.50126860772457, 20.91150407195788], [80.50050062751767, 20.914399296067923], [80.50606882485408, 20.919625869490517], [80.51946334231019, 20.91809446791889], [80.52187272531508, 20.916583085404504], [80.52080691458436, 20.908540321373874], [80.52386633754487, 20.907014695410933], [80.52771139359416, 20.909102273935275], [80.5307186219302, 20.920328633880484], [80.53788752398648, 20.919593513391906], [80.54137266332437, 20.908486397860383], [80.55110291553534, 20.904701496703353], [80.55376986113917, 20.88838012316077], [80.55064591921584, 20.882731000021668], [80.55361462578205, 20.87407856380563], [80.54591868154407, 20.871356399338698], [80.54109030088011, 20.878679105645304], [80.5326339644996, 20.87714182431296], [80.52890383784585, 20.88236634902626], [80.52757846743899, 20.892122035960455], [80.51944008837204, 20.89438129505728], [80.52074457907274, 20.907570920180437], [80.50126860772457, 20.91150407195788]], [[80.54003665667815, 20.882338787263667], [80.54321782181256, 20.87998974752934], [80.54718561975383, 20.884007025419635], [80.54332976330517, 20.886558434612823], [80.54003665667815, 20.882338787263667]], [[80.53134336169019, 20.90258047599337], [80.53360124636565, 20.899586421083388], [80.5417093620114, 20.90120542069785], [80.53945656765679, 20.906136143473724], [80.53296116790246, 20.90585022724814], [80.53134336169019, 20.90258047599337]]], [[[80.51434932913799, 20.898713426107655], [80.5118890048779, 20.893090039636327], [80.5028785006051, 20.893044885947695], [80.50049990629076, 20.89520907091652], [80.50363009218853, 20.901068176438468], [80.51091938572385, 20.901916088792202], [80.51434932913799, 20.898713426107655]]], [[[80.54130240256103, 20.784500467330705], [80.54042817207913, 20.787700221673767], [80.54444546286835, 20.789736325757314], [80.54923460121641, 20.78970317135375], [80.55145253484342, 20.786775901222455], [80.5503700229909, 20.78052984546215], [80.5541102845657, 20.770315872823964], [80.54837076824225, 20.764763279630643], [80.54214448205518, 20.766898770433627], [80.54367492368958, 20.780582774412654], [80.54130240256103, 20.784500467330705]]], [[[80.49920538730869, 20.81599203956615], [80.51067047336839, 20.825944782083024], [80.51517297168192, 20.82203450174495], [80.52619298960315, 20.82325502655155], [80.53014032492536, 20.829863379559338], [80.53450673183228, 20.830857468064693], [80.53755369497283, 20.8288147336716], [80.5375703668218, 20.82335251649769], [80.52934182622307, 20.820806580777454], [80.52825392753772, 20.817414134822663], [80.53832489360022, 20.815288199198818], [80.54107277452637, 20.801553540291238], [80.53507143319104, 20.79942220891137], [80.53029135965672, 20.801210229536185], [80.52897483529829, 20.812646100821873], [80.52585565139643, 20.81429617653904], [80.51451060770837, 20.806064509221226], [80.5156532616285, 20.80300773705144], [80.52084987459968, 20.802549770909476], [80.52463071054406, 20.799096440062467], [80.52459034202452, 20.793978103890463], [80.5189007417119, 20.792108171419983], [80.51437945568217, 20.795379025245364], [80.50647704620424, 20.794560231944136], [80.50335563085409, 20.798585109873997], [80.50587437562662, 20.809006356872594], [80.49920945447242, 20.813349604027355], [80.49920538730869, 20.81599203956615]]], [[[80.51569305940697, 20.76412023369726], [80.5183668817804, 20.76930493728623], [80.52328444702681, 20.77030517985115], [80.52587853348577, 20.76440742154151], [80.53256684451149, 20.762639649588696], [80.53437020841612, 20.755569764312575], [80.52626053912, 20.74457106040815], [80.51909111969974, 20.74488154940577], [80.52195975033457, 20.759318276656227], [80.51569305940697, 20.76412023369726]]], [[[80.50526012946587, 20.874352845570726], [80.51324196126687, 20.877691467302363], [80.5213922818165, 20.877695274847092], [80.52874957377838, 20.87173870496495], [80.52973106295887, 20.867022111049824], [80.5265940106412, 20.86324609657876], [80.51406641133076, 20.863210988037622], [80.50499026887802, 20.869161966281396], [80.50526012946587, 20.874352845570726]]], [[[80.4973428063229, 20.669977124996368], [80.50171793596847, 20.674067550560856], [80.50767002655786, 20.67401027532256], [80.5106303701058, 20.67100522989451], [80.5087989664595, 20.663204452640972], [80.49731272613047, 20.663757047357123], [80.4973428063229, 20.669977124996368]]], [[[80.49066985141732, 20.74023779038406], [80.4898335047983, 20.744602514493348], [80.4930513124436, 20.74759090426443], [80.5020559278362, 20.746790307347197], [80.50609118688165, 20.743765646166526], [80.50597851300121, 20.739122583399624], [80.50115006058493, 20.73634326940428], [80.49066985141732, 20.74023779038406]]], [[[80.43858511160627, 20.727811138211138], [80.44430105977733, 20.73710242083298], [80.44090702101794, 20.747755617619497], [80.45034859393714, 20.753125289621455], [80.45542668515321, 20.748380837791007], [80.45004565363105, 20.735716917691917], [80.45233099779882, 20.728368824653653], [80.45620512469748, 20.728138475863094], [80.46055101020475, 20.734580117814254], [80.46798211491497, 20.733663784516757], [80.4701274225082, 20.728985395754833], [80.47704851263428, 20.729784742991647], [80.49054662367408, 20.726314750989555], [80.49593153924043, 20.731456543697526], [80.5025304912103, 20.727954496763203], [80.50359681953917, 20.722521794327193], [80.50001384406872, 20.70996389537567], [80.48528119797749, 20.705866178717425], [80.48464699991503, 20.699481626852357], [80.47902168693413, 20.697441076986507], [80.47499451294925, 20.69196092889456], [80.46943559415097, 20.696134249964654], [80.45736392774879, 20.692212836853308], [80.45678800670129, 20.702228953442855], [80.4530349756025, 20.704520587795866], [80.45386911923288, 20.71129900874358], [80.46148545415808, 20.713331462038884], [80.46212791537631, 20.717123672827384], [80.45549575998692, 20.722913978407746], [80.45047102058004, 20.719215173515888], [80.44138976123303, 20.721700246814894], [80.43841973873013, 20.723707798993278], [80.43858511160627, 20.727811138211138]]], [[[80.45694246832485, 20.69167238717004], [80.46257555268122, 20.681763456184964], [80.47188132177685, 20.68007638734396], [80.47457907006638, 20.672514611453245], [80.47373437341193, 20.665006614006153], [80.46953680316018, 20.661919864304473], [80.46430352836715, 20.665284431345917], [80.45431389684185, 20.661464006719722], [80.45129950823596, 20.65784259067398], [80.4455964303765, 20.660589744162593], [80.44372375961603, 20.668457352266998], [80.44554628726814, 20.674407390755462], [80.45007750069504, 20.678210666896394], [80.44888388740986, 20.688889337268122], [80.45694246832485, 20.69167238717004]]], [[[80.48299079425638, 20.784443072249513], [80.48487573187367, 20.788640011047015], [80.49152458928366, 20.790395434449966], [80.49823647855615, 20.782199397646693], [80.49352158206985, 20.777594212263438], [80.48865735600951, 20.7775002324984], [80.48299079425638, 20.784443072249513]]], [[[80.48343147473409, 20.858456381533383], [80.4855460291904, 20.865415238025573], [80.4935859306447, 20.863493414227868], [80.49240045754912, 20.855939095494954], [80.48573634604348, 20.855051124297322], [80.48343147473409, 20.858456381533383]]], [[[80.45330990817816, 20.862087449437446], [80.45242491988787, 20.87033553147056], [80.4546598512186, 20.872622717703756], [80.45890386376936, 20.87175411757576], [80.46318256981804, 20.866751844401755], [80.46935663424678, 20.870272419421056], [80.47687195141705, 20.87034865059999], [80.47643785998109, 20.862754467051403], [80.47169919121018, 20.856650408257128], [80.46653158417642, 20.856755800979652], [80.46356937251251, 20.86238332489413], [80.45330990817816, 20.862087449437446]]], [[[80.47751915101519, 20.87090579880228], [80.4794452656916, 20.882851298155302], [80.47309168641942, 20.886096280562537], [80.47297054414258, 20.893015798658492], [80.47991230121619, 20.896182197136515], [80.48326283935997, 20.891509930114793], [80.4823562192888, 20.8847164700213], [80.48827342212705, 20.882186067959964], [80.49020359181652, 20.87594844788099], [80.48625480059387, 20.87204116364524], [80.47751915101519, 20.87090579880228]]], [[[80.47299871501639, 20.91434545055325], [80.47200930389266, 20.922090136395028], [80.47403010635222, 20.924254996866907], [80.47989522199308, 20.9252478776684], [80.48383817795492, 20.922557965763158], [80.48031535385482, 20.912529899747543], [80.47299871501639, 20.91434545055325]]], [[[80.46912306040925, 20.83371865821122], [80.47847433364579, 20.8388190116675], [80.48347085754075, 20.830618420194952], [80.47388357912779, 20.827533806938263], [80.46912306040925, 20.83371865821122]]], [[[80.46388435135519, 20.84415507289224], [80.46735285071027, 20.849872459427047], [80.47028208113312, 20.849881545322084], [80.47051573474205, 20.844233330634378], [80.46773677014224, 20.840658430860156], [80.46394853327801, 20.840646618725042], [80.46388435135519, 20.84415507289224]]], [[[80.45694990849373, 20.805559456242694], [80.45609205739845, 20.8098472791912], [80.4588874484933, 20.814306738649233], [80.46611401633896, 20.813521678391407], [80.46722120128926, 20.809568197471062], [80.46442849766682, 20.804301165451488], [80.45694990849373, 20.805559456242694]]], [[[80.4286991678908, 20.89430683224612], [80.43686767031443, 20.895980752414946], [80.44329316947453, 20.904860414315777], [80.4487541056069, 20.903740035927793], [80.45060799464571, 20.895349104604723], [80.44844782020918, 20.89134210476124], [80.43734550356857, 20.8930886319755], [80.42897817807447, 20.888775522257102], [80.4286991678908, 20.89430683224612]]], [[[80.45407550958153, 20.890789541361187], [80.45828906785879, 20.892891025855974], [80.46258901032044, 20.890789463111464], [80.46353042476913, 20.881442692750987], [80.46045364434828, 20.877615680725867], [80.4541710718314, 20.879646701631238], [80.45407550958153, 20.890789541361187]]], [[[80.43451385861293, 20.83294901433006], [80.43479709697064, 20.8409363867769], [80.44298398005412, 20.84250653121823], [80.44537471650908, 20.848388338503327], [80.45316562445502, 20.84653839876398], [80.45514125504472, 20.829939475049038], [80.4531152259497, 20.827636012715903], [80.4487325439748, 20.82753432232611], [80.44485715030542, 20.831770621926932], [80.43451385861293, 20.83294901433006]]], [[[80.43425766582543, 20.78690050937898], [80.43676886227901, 20.790912038441522], [80.44272198137125, 20.79181355124677], [80.44852796218107, 20.785765953519036], [80.45424588759687, 20.78515590728029], [80.45439534888654, 20.77949157157097], [80.45283738961066, 20.777378252979908], [80.44722413755596, 20.779727098485964], [80.44125813369628, 20.778206067271622], [80.43662312115791, 20.78003932231565], [80.43425766582543, 20.78690050937898]]], [[[80.4323067007977, 20.53135764303546], [80.43327452347968, 20.540406788846056], [80.43713228534236, 20.54306281723965], [80.44305190427035, 20.542053945278358], [80.44137329415663, 20.532025291407248], [80.43828732260316, 20.530168005328054], [80.4323067007977, 20.53135764303546]]], [[[80.39287092722235, 20.982841459145618], [80.39576352659088, 20.987117239880185], [80.401658807683, 20.98629659595706], [80.40388941856986, 20.982141944672183], [80.41232322166897, 20.97718649816132], [80.4128215563111, 20.970151287737238], [80.41892455518766, 20.969394861375868], [80.42147201203962, 20.965509573381667], [80.43011261994785, 20.96700955628913], [80.42962083422867, 20.96268802715069], [80.42101197115733, 20.96104994587688], [80.40958661590038, 20.95178945617688], [80.40820719483703, 20.958476210288072], [80.40119983104776, 20.958142185209905], [80.39716066491823, 20.960960964279213], [80.40185918072329, 20.969597897024023], [80.39287092722235, 20.982841459145618]], [[80.41025430362927, 20.96685996242283], [80.41011639401593, 20.97054887394529], [80.40592306707389, 20.97021033832025], [80.40648031024921, 20.966555389606125], [80.41025430362927, 20.96685996242283]]], [[[80.36989417497581, 20.902688549739928], [80.3689698254859, 20.908238800958827], [80.373493046334, 20.911909825158382], [80.37060506637215, 20.916664465712234], [80.37143305468025, 20.924250738744732], [80.3744326053225, 20.928045257215317], [80.38461565347487, 20.923281878345673], [80.38928991288051, 20.926563229217372], [80.40002493235178, 20.925774407391287], [80.40529933476327, 20.919906479192097], [80.41140801731014, 20.925753654644723], [80.41853177497451, 20.92672460879779], [80.41869665646814, 20.934187140607623], [80.422465263687, 20.937866245761718], [80.42801175733092, 20.933556669797326], [80.42787788053275, 20.929377007381426], [80.42022895719789, 20.925836425043187], [80.42205555117471, 20.917431644332993], [80.41554047566896, 20.913262635869494], [80.4115338144974, 20.912993090248982], [80.40423177359978, 20.918038326165313], [80.39998496202762, 20.9153302037173], [80.39004862246408, 20.915258508690933], [80.38872066093435, 20.90495251632388], [80.40017487170878, 20.907979047906224], [80.4032981041716, 20.89982020150792], [80.39720546039936, 20.89763072746362], [80.39437327986165, 20.89119970901271], [80.38767393161508, 20.89144435168787], [80.38148671121041, 20.88674664965078], [80.38534192206792, 20.879800067553916], [80.38226573133424, 20.87331271573001], [80.3753755078838, 20.874216810263896], [80.36993309751206, 20.883395618837746], [80.37354504980377, 20.898944150686553], [80.36989417497581, 20.902688549739928]]], [[[80.41850759245156, 20.910209726019957], [80.42390060688425, 20.906666484429064], [80.42067437563774, 20.900055373528797], [80.41364199463621, 20.90227909445885], [80.41370888748212, 20.90685418161651], [80.41850759245156, 20.910209726019957]]], [[[80.40920333666476, 20.776983128039454], [80.41270720845874, 20.779597850711625], [80.41495449961478, 20.774980456122947], [80.41086628274674, 20.76998160622926], [80.40920333666476, 20.776983128039454]]], [[[80.37511999284082, 20.964388455447235], [80.37966724357625, 20.966913010066058], [80.3855412728832, 20.965959386389034], [80.38846256567773, 20.95975345834395], [80.38283862589684, 20.953992378161885], [80.38550650180446, 20.947837200520976], [80.39330635727987, 20.944099910334327], [80.39952218013381, 20.94759953030728], [80.40439877812287, 20.945921678625144], [80.40726990681291, 20.937442155081758], [80.40412324348851, 20.9347177633807], [80.39941268443184, 20.93475863727832], [80.39419824954415, 20.938664970559216], [80.39052916434495, 20.935508232109598], [80.38371847457549, 20.935631796583866], [80.37566966270025, 20.944067921827926], [80.37571129129947, 20.94952718387478], [80.3810998352049, 20.954093678119595], [80.37481103209478, 20.95926510449365], [80.37511999284082, 20.964388455447235]]], [[[80.3711710945748, 20.835810292189603], [80.3811544710205, 20.8393211994789], [80.3874507153392, 20.832620545435024], [80.396243630472, 20.835238584623227], [80.39843021456127, 20.832053933057487], [80.39664121675878, 20.82365073172689], [80.3933805281459, 20.821595487131198], [80.38680873207107, 20.825068166414272], [80.37829929671494, 20.82406251082403], [80.37638041218476, 20.82872559140129], [80.37104372092263, 20.831635719647277], [80.3711710945748, 20.835810292189603]]], [[[80.37940199727349, 20.759248975226367], [80.3859978191047, 20.76097296946856], [80.38994127448595, 20.75747741077432], [80.39099659693512, 20.752775053492407], [80.38813906800054, 20.74906896908588], [80.38177601060522, 20.75077317888235], [80.37940199727349, 20.759248975226367]]]]}}]}