{"type": "Feature", "properties": {"city": "S\u00e3o Mateus", "country": "Brazil", "real_area": 32.35}, "geometry": {"type": "MultiLineString", "coordinates": [[[-39.843105850651, -18.7317947301404], [-39.8421751210151, -18.7366542517049], [-39.837121314168, -18.7383028859547], [-39.8329983112634, -18.7350920535393], [-39.827944553762, -18.7367404596194], [-39.823821654041, -18.7335294053716], [-39.8187679461439, -18.7351775832901], [-39.8146451498151, -18.7319663073219], [-39.8095914917805, -18.7336142570867], [-39.8054687990526, -18.7304027595104], [-39.8063997433866, -18.7255432635903], [-39.8114533268607, -18.7238952586681], [-39.8155760405491, -18.7271068048347], [-39.8206296739744, -18.7254585718412], [-39.8247524911253, -18.7286698964213], [-39.8298061742435, -18.7270214353484], [-39.8307369657862, -18.7221615947003], [-39.8266141279039, -18.7189502215244], [-39.8275449275978, -18.7140900556959], [-39.8325985114743, -18.7124412566739], [-39.8367213699973, -18.7156526784293], [-39.8417750032276, -18.7140036514765], [-39.8427057036293, -18.7091431479107], [-39.8477593117505, -18.7074938382326], [-39.8518822936621, -18.7107050869181], [-39.8569359507092, -18.7090555493757], [-39.8610590352507, -18.7122665763161], [-39.8661127409652, -18.7106168109015], [-39.8670432880698, -18.7057559639223], [-39.8720969682261, -18.7041059160745], [-39.8762201752329, -18.7073167697704], [-39.8812739036288, -18.7056664941171], [-39.8853972127095, -18.7088771258657], [-39.8904509890865, -18.7072266223993], [-39.8945744000326, -18.7104370320888], [-39.8996282241323, -18.7087863008015], [-39.9037517367348, -18.7119964883201], [-39.9088056082987, -18.7103455292043], [-39.9129292223489, -18.7135554944402], [-39.9119989453572, -18.7184163700803], [-39.9069450001813, -18.720067274972], [-39.9028214056213, -18.7168573584363], [-39.8977675078208, -18.7185080354173], [-39.896837130921, -18.7233685746296], [-39.8917832069939, -18.7250189693322], [-39.890852784327, -18.7298791774811], [-39.8857988343834, -18.731529289762], [-39.881675380939, -18.7283192483268], [-39.8766214789684, -18.7299691325554], [-39.8724981275958, -18.7267588688836], [-39.8674442738567, -18.7284085250677], [-39.8665136975341, -18.7332683903174], [-39.8706370288674, -18.7364786052844], [-39.8697064607766, -18.7413381449894], [-39.8646525074421, -18.7429874637959], [-39.8637218936732, -18.7478466719067], [-39.8678452871429, -18.7510565671138], [-39.8669146816006, -18.7559154494153], [-39.8618606286908, -18.757564430577], [-39.8577372553942, -18.7543545841449], [-39.8586679148219, -18.7494957077873], [-39.8545446238394, -18.7462855902783], [-39.8554752914751, -18.7414263881628], [-39.8513520828293, -18.7382159997483], [-39.8522827586665, -18.733356472033], [-39.84815963238, -18.7301458128848], [-39.843105850651, -18.7317947301404]], [[-39.7476200741066, -18.7355890826693], [-39.7485513762835, -18.7307302857522], [-39.7536047532017, -18.7290839885532], [-39.7545360100941, -18.7242248592534], [-39.7595893635304, -18.7225782782385], [-39.7637115351253, -18.7257908821722], [-39.7687649399736, -18.724144073053], [-39.7728872162121, -18.7273564559399], [-39.77195606601, -18.7322155994152], [-39.766902586187, -18.733862352979], [-39.7659713906379, -18.7387211641763], [-39.7700937282881, -18.7419332288051], [-39.7691625407688, -18.746791714602], [-39.7641089622296, -18.7484381287449], [-39.7631777293708, -18.7532962819985], [-39.7581241271713, -18.7549424121198], [-39.7540018329076, -18.7517304446549], [-39.7489482822819, -18.7533763463593], [-39.7448260930067, -18.7501641576487], [-39.7457574324679, -18.7453060186764], [-39.7416353263744, -18.7420935602855], [-39.7425666738165, -18.7372350959098], [-39.7476200741066, -18.7355890826693]], [[-39.8698348544932, -18.6911721112439], [-39.8657118118912, -18.6879607169001], [-39.8666423297795, -18.6830988894119], [-39.8716958363645, -18.6814484502652], [-39.8758188990151, -18.6846598931293], [-39.8748884350444, -18.6895217266085], [-39.8698348544932, -18.6911721112439]]]}}