{"type": "Feature", "geometry": {"type": "MultiPolygon", "coordinates": [[[[99.08350187246431, 3.0651814631791163], [99.08608757657633, 3.069027702561395], [99.0910337383445, 3.068201875738806], [99.09473099484309, 3.0596269273347265], [99.09365754869735, 3.055240996013196], [99.09046435332425, 3.054053035324742], [99.08686405407421, 3.0559813807622795], [99.08341858274746, 3.060460066293041], [99.08350187246431, 3.0651814631791163]]], [[[99.0867951762654, 3.092008758311394], [99.09100340598799, 3.09222008351723], [99.09343416145467, 3.089516301169679], [99.09288397041347, 3.0821085467206597], [99.09008976853998, 3.079605162223708], [99.0859851596882, 3.0798737788101023], [99.08377825339127, 3.082516498207801], [99.08378069183227, 3.0892053383619116], [99.0867951762654, 3.092008758311394]]], [[[99.06388699762705, 3.0357830570532776], [99.06722521049947, 3.0375962124063633], [99.07013644015055, 3.036881727619486], [99.07214631559044, 3.0342265690507975], [99.07207632100119, 3.030022302762274], [99.06813388477273, 3.027245742168651], [99.0641364614932, 3.0279554365374355], [99.06205579320557, 3.032256842008183], [99.06388699762705, 3.0357830570532776]]], [[[99.0788955116505, 3.026958976795132], [99.08349583196679, 3.0295007564948415], [99.08893564268068, 3.0274136591599023], [99.09108291200292, 3.0221337841462703], [99.09033029821634, 3.0184836719233936], [99.08484127976986, 3.0147549197541252], [99.08164710587609, 3.016145006552295], [99.0788955116505, 3.026958976795132]]], [[[99.08546319469137, 3.0087628502054593], [99.08939404175952, 3.00712268194409], [99.09086470805632, 3.0044499260967874], [99.08977734591753, 3.000408215984811], [99.08698221646434, 2.9985808675705723], [99.0831001011336, 2.99964296709885], [99.08126766006212, 3.002416869718984], [99.08259498760957, 3.006445926839207], [99.08546319469137, 3.0087628502054593]]], [[[99.07808090277433, 2.9595911887097692], [99.07646184082685, 2.9563474216202317], [99.07324551814594, 2.955330091822464], [99.07050806177368, 2.9569714185439206], [99.06945226288738, 2.960698601212583], [99.07103084271654, 2.9633676319413804], [99.07443497295692, 2.9643390695409084], [99.0771258271672, 2.9627580169805303], [99.07808090277433, 2.9595911887097692]]], [[[99.0311702178017, 2.9454405324067], [99.02847122200883, 2.9469867706843496], [99.02769540687798, 2.9502732462081065], [99.0293413598858, 2.9529407018323193], [99.03266009279211, 2.9536648904678056], [99.03521303331712, 2.952046578432817], [99.03590468452292, 2.9488353356688872], [99.03438665578682, 2.9462790587384244], [99.0311702178017, 2.9454405324067]]], [[[98.90600845892752, 2.8484478638898376], [98.90901415677243, 2.8512957345856917], [98.91370328376681, 2.850050339930063], [98.91570098355497, 2.847592006794605], [98.91540011838592, 2.8431509988231674], [98.91271901461685, 2.8411711399373156], [98.90777495934908, 2.841707558069663], [98.90596975228361, 2.844147159731035], [98.90600845892752, 2.8484478638898376]]]]}, "properties": {}}