{"type": "Feature", "properties": {"city": "Pematangsiantar", "country": "Indonesia", "real_area": 91.85}, "geometry": {"type": "MultiLineString", "coordinates": [[[98.6506606745318, 3.56244858182461], [98.6459308595976, 3.56020834669239], [98.6455004752147, 3.55503052774723], [98.649799771006, 3.55209299715848], [98.6545294684002, 3.5543331642937], [98.6588286162684, 3.55139562202728], [98.6635583003666, 3.55363572420056], [98.6639889542299, 3.55881343654493], [98.6596897892747, 3.56175110009262], [98.6601203956045, 3.56692898990232], [98.655821065458, 3.56986676293864], [98.6510911461169, 3.56762652493887], [98.6506606745318, 3.56244858182461]], [[98.6919370378569, 3.56707590055376], [98.69236813543, 3.57225375334712], [98.6880692337464, 3.57519168277077], [98.6833392511741, 3.57295163804761], [98.6829082882583, 3.5677737314936], [98.6872071732507, 3.56483592341177], [98.6919370378569, 3.56707590055376]], [[98.7564526582915, 3.63244281506005], [98.7568848094054, 3.63762166175362], [98.7525860610605, 3.64056070630182], [98.7478551773898, 3.63832078287036], [98.7474231608017, 3.63314188153907], [98.7517218933518, 3.63020295826535], [98.7564526582915, 3.63244281506005]], [[98.9425120060298, 2.65837874010816], [98.9429456613294, 2.66353623846779], [98.938662525715, 2.66646039073238], [98.9339457479069, 2.66422691683695], [98.9335122258066, 2.65906936063092], [98.9377953483082, 2.65614533615505], [98.9425120060298, 2.65837874010816]], [[98.6622664180862, 3.53810319117491], [98.6626970322953, 3.54328060143305], [98.6583980495909, 3.54621803393667], [98.6536684697741, 3.5439779348046], [98.6532379902831, 3.53880047118983], [98.6575369558841, 3.5358631600521], [98.6622664180862, 3.53810319117491]], [[98.7087149252852, 3.60486473988337], [98.7130138930189, 3.6019263252742], [98.7177442758737, 3.60416631135051], [98.718175809268, 3.60934477917081], [98.7138768252006, 3.61228331503084], [98.7143083111517, 3.61746195936278], [98.7100091613434, 3.6204006045276], [98.705278541966, 3.61816048416459], [98.7048471906463, 3.61298178578863], [98.7001166748995, 3.61074166663038], [98.6996854107589, 3.60556309073043], [98.7039845277183, 3.60262468795235], [98.7087149252852, 3.60486473988337]], [[98.6351806517003, 3.54019480240671], [98.6356108616763, 3.54537237234741], [98.6313114355822, 3.54830976996336], [98.626581816988, 3.54606947640636], [98.6222822435152, 3.54900686220779], [98.6175526124656, 3.54676650391548], [98.6171226721094, 3.54158882816536], [98.6214222279732, 3.53865156353603], [98.6261517418088, 3.54089185349638], [98.6304511504203, 3.53795457710101], [98.6351806517003, 3.54019480240671]], [[98.7254608634891, 3.53322010072719], [98.7258924199882, 3.53839713387501], [98.7215944791692, 3.5413346445406], [98.7168649980631, 3.53909500034224], [98.7164335760977, 3.53391791293439], [98.720731500698, 3.53098052397328], [98.7254608634891, 3.53322010072719]], [[99.1358218182867, 2.96292090898454], [99.1362587515624, 2.96808417828022], [99.1319748221844, 2.97101355604346], [99.127253969967, 2.968779537505], [99.1268171695712, 2.96361620779421], [99.131101088506, 2.96068695702543], [99.1358218182867, 2.96292090898454]], [[98.642922448833, 3.57868027672221], [98.6433528252864, 3.58385857400478], [98.6390530170381, 3.58679655324568], [98.634322849708, 3.58455611415928], [98.6338926080609, 3.57937776382221], [98.6381923989308, 3.57643990561439], [98.642922448833, 3.57868027672221]], [[98.6661424218457, 3.58470350457199], [98.6704417860617, 3.58176548916064], [98.6751719003989, 3.58400566688933], [98.6794711161862, 3.58106763960661], [98.6842012166871, 3.58330775190477], [98.6846322192853, 3.58848595904282], [98.6893624237062, 3.59072607336212], [98.689793513486, 3.59590440364308], [98.6854942641679, 3.598842673325], [98.6807639417929, 3.59660249152381], [98.6764645437932, 3.59954074923753], [98.6717342075469, 3.59730050180792], [98.6674346610747, 3.60023874746069], [98.6627043111923, 3.59799843443909], [98.6584046164564, 3.60093666793815], [98.6536742531733, 3.59869628936098], [98.6493744103826, 3.60163451061359], [98.6446440339341, 3.59939406651731], [98.6442136178363, 3.59421546898491], [98.6485134433915, 3.59127736872906], [98.6480829797211, 3.58609894780644], [98.6523826401676, 3.583160956416], [98.6571127814717, 3.58540126489645], [98.6614122939074, 3.5824632614492], [98.6661424218457, 3.58470350457199]], [[117.906086711594, 4.15061745439641], [117.905427275776, 4.14572578349616], [117.909091295423, 4.14265664480528], [117.913414996001, 4.14447920455486], [117.914074554854, 4.14937110872947], [117.910410290096, 4.15244021988059], [117.906086711594, 4.15061745439641]], [[99.0598572808172, 2.92201280490501], [99.060293030574, 2.92717556835649], [99.065013397021, 2.92940978214361], [99.0692978920343, 2.92648116504989], [99.0740182345909, 2.92871531951774], [99.0783025725722, 2.92578670267624], [99.0830228910054, 2.92802079778872], [99.0834589932811, 2.93318357698249], [99.0881794092868, 2.93541767987469], [99.0886155980207, 2.94058059370111], [99.0933361115263, 2.94281470417051], [99.0937723867171, 2.94797775240973], [99.0894880154204, 2.95090675001672], [99.0899242440875, 2.95606999234339], [99.0946449770377, 2.95830417718014], [99.0989293592969, 2.95537505268596], [99.1036500675849, 2.95760917770217], [99.1040865156862, 2.96277249410737], [99.1088073212566, 2.96500662609315], [99.1130915565411, 2.96207737483601], [99.1178123370814, 2.96431144684893], [99.1182490045702, 2.96947483684726], [99.1139647585914, 2.97240421500421], [99.1092438558112, 2.97017007625144], [99.1049594518412, 2.97309945446789], [99.1053959398962, 2.97826309826058], [99.11011696488, 2.98049730374712], [99.1105535393952, 2.98566108092186], [99.1062689559638, 2.98859071266422], [99.1015478088127, 2.98635644044997], [99.0972630675514, 2.98928607197392], [99.0976994625775, 2.99445010240606], [99.1024207318595, 2.99668444134194], [99.1028572133619, 3.00184860485386], [99.1075785799677, 3.00408295009509], [99.1080151479453, 3.00924724646669], [99.1037302163277, 3.01217725760272], [99.0990087275651, 3.0099428457323], [99.0947236381534, 3.0128728563245], [99.0951600266037, 3.01803740533396], [99.0908747685848, 3.0209675418017], [99.0913111104944, 3.02613228324492], [99.087025683895, 3.02906254538424], [99.0823039264524, 3.02682793962263], [99.0818677176018, 3.02166313843059], [99.0771460578044, 3.01942853883153], [99.0767099354633, 3.01426387033455], [99.0719883733835, 3.01202927710078], [99.0715523375532, 3.00686474151903], [99.0668308732636, 3.00463015485324], [99.0663949239451, 2.99946575240684], [99.0616735575183, 2.99723117251172], [99.0612376947129, 2.99206690342077], [99.0565164262213, 2.98983233049898], [99.05608064993, 2.98466819498354], [99.0513594794463, 2.98243362923773], [99.0470739636847, 2.98536313180971], [99.0423527697675, 2.98312850614699], [99.0380670975394, 2.98605800799837], [99.0333458804221, 2.98382332245485], [99.0329104569549, 2.97865920244731], [99.0371961174302, 2.97572982705165], [99.0367606473208, 2.97056590020847], [99.032039649906, 2.96833128973829], [99.0277540012547, 2.97126053866089], [99.0230329809091, 2.96902586854264], [99.0225977305124, 2.96386201706162], [99.0178768086615, 2.96162735495991], [99.0135910160221, 2.96455647672237], [99.0088700716084, 2.96232175512512], [99.0084350409707, 2.95715797949165], [99.0127208215178, 2.95422898418941], [99.0174416448017, 2.95646363807203], [99.0217272695909, 2.95353464214756], [99.021292059065, 2.94837111887711], [99.0255775159774, 2.94544224899448], [99.0251422587951, 2.94027891955125], [99.0204216778801, 2.9380444011158], [99.0199865072199, 2.93288120678746], [99.0242717842993, 2.92995258980501], [99.0289922439752, 2.93218704050793], [99.029427547804, 2.93735017591422], [99.0341481058603, 2.93958463509475], [99.0384332387432, 2.93665589120504], [99.0379978017725, 2.93149281484843], [99.033277365054, 2.92925842332025], [99.0328420145884, 2.92409548216056], [99.0371269677104, 2.92116699162591], [99.0366915706179, 2.91600424492244], [99.0409763557566, 2.91307588124444], [99.0456965496904, 2.91531013745004], [99.0461320798891, 2.92047282498631], [99.0508523719442, 2.92270708972548], [99.0551370122845, 2.91977859933268], [99.0598572808172, 2.92201280490501]]]}}