{"type": "Feature", "geometry": {"type": "MultiPolygon", "coordinates": [[[[-92.8125333250809, 18.16723934830159], [-92.8103162275779, 18.173432897267293], [-92.80509420066252, 18.174781920583378], [-92.80170867031104, 18.17345207294564], [-92.79765446062159, 18.167194043577755], [-92.78180715151129, 18.170079807215963], [-92.76412262063796, 18.164966261267512], [-92.74633826158426, 18.154330271828144], [-92.74325903453844, 18.142334488247684], [-92.74647424188923, 18.138858792077098], [-92.75271944099883, 18.1373168958928], [-92.75612257985064, 18.130334583398888], [-92.76394277261134, 18.130529283416223], [-92.766511370358, 18.133125665716232], [-92.76615304194283, 18.13676668957778], [-92.76050051088245, 18.14055866027578], [-92.75933829102566, 18.143028432098657], [-92.76258802940842, 18.15277597671333], [-92.76725529305467, 18.155116316620738], [-92.77472455123225, 18.154970260352314], [-92.7771426947009, 18.153114252798733], [-92.77898584837115, 18.147813774384154], [-92.78295832531592, 18.146802056656927], [-92.79224617026736, 18.15201053132485], [-92.79647370836902, 18.156664740447155], [-92.7985625561543, 18.16301573393901], [-92.80154886437577, 18.163702735277557], [-92.8093620158438, 18.161562207672656], [-92.81169062816879, 18.163465936236953], [-92.8125333250809, 18.16723934830159]]], [[[-92.80017798849944, 17.78976560865083], [-92.79532897220888, 17.797118615140292], [-92.79221692599623, 17.79721999743077], [-92.78943965414474, 17.79487929782612], [-92.79105367608655, 17.7862559427021], [-92.79384516512785, 17.782806677540602], [-92.79904742658691, 17.784149977621883], [-92.80017798849944, 17.78976560865083]]], [[[-92.81215602744575, 17.976471384809635], [-92.80478996043503, 17.97159205906066], [-92.80463359759892, 17.967951038521683], [-92.80739750715531, 17.96510733667378], [-92.81211703684501, 17.964516697761905], [-92.81667434901455, 17.968279597003114], [-92.81701906725483, 17.973803617513646], [-92.81215602744575, 17.976471384809635]]], [[[-92.88181953963041, 18.144835176130595], [-92.8723815410879, 18.15082757446095], [-92.87074116202405, 18.15600283794702], [-92.86527373807266, 18.16365565281623], [-92.85995075965042, 18.163916483377363], [-92.85629529020727, 18.160960398402505], [-92.85138759976263, 18.150699084276926], [-92.85208794441873, 18.145898978402904], [-92.85061382261243, 18.140017395136095], [-92.85240410358213, 18.13471428888217], [-92.84872554688219, 18.123350031594374], [-92.85547966280762, 18.11287316653205], [-92.848675802161, 18.105846590573016], [-92.84833204405093, 18.100962432249936], [-92.84990097917847, 18.09841364111117], [-92.8591912281368, 18.097716383895833], [-92.86724926709567, 18.1043142352273], [-92.87443167571485, 18.106822143134018], [-92.8746376703133, 18.12822920818262], [-92.87701879451703, 18.131737048183698], [-92.88375170344045, 18.13470958471443], [-92.88541341261475, 18.13734498307619], [-92.8853514715111, 18.142583344076478], [-92.88181953963041, 18.144835176130595]]], [[[-92.89971336591904, 17.837646511817113], [-92.88989454707051, 17.837296609068854], [-92.87962226909364, 17.841067910769365], [-92.87351755708671, 17.845396975438586], [-92.87057482964134, 17.844552154724855], [-92.86889817801892, 17.841456935868685], [-92.87274456983921, 17.833918973768547], [-92.88464252516188, 17.825917381717034], [-92.9033812917147, 17.830215870062126], [-92.90443423131079, 17.835158533509283], [-92.89971336591904, 17.837646511817113]]], [[[-92.88048447073776, 18.07834693049917], [-92.87615960779439, 18.082189542213317], [-92.87085337161119, 18.08010772703733], [-92.87005013459819, 18.067566929587485], [-92.87201244136304, 18.06444003991883], [-92.87565919116801, 18.06348177582276], [-92.87845028704714, 18.065456900591958], [-92.88103054107299, 18.070606349165814], [-92.88048447073776, 18.07834693049917]]], [[[-93.00025565120595, 17.99608941206695], [-93.0016287916794, 17.99882179999648], [-93.00715445713446, 18.001670168179825], [-93.00846378707848, 18.006120397252293], [-93.00462240137408, 18.011993718761214], [-92.99144696097387, 18.018708563299803], [-92.99094056512311, 18.02205066721916], [-92.99483765061953, 18.028967740469188], [-92.98994799532215, 18.034201660037233], [-92.98628163827222, 18.03407078110308], [-92.9833234099274, 18.030663432146994], [-92.98344381961614, 18.027460490066698], [-92.98779413630862, 18.02117790090539], [-92.98283033747984, 18.016124071956337], [-92.97468888354175, 18.01191491775625], [-92.96949238187358, 18.01243740076167], [-92.96701900492957, 18.015059572206663], [-92.96433419561988, 18.023534923583153], [-92.95886375695946, 18.02466334422961], [-92.95266705512326, 18.020351138309774], [-92.94983036812869, 18.010543373522538], [-92.94407898065273, 18.009058132397293], [-92.93327969909794, 18.001555878514782], [-92.92790416147297, 18.004932443940394], [-92.92167950156265, 18.00456874525438], [-92.9138172980887, 18.009436234073103], [-92.91299905002654, 18.01201188373737], [-92.91452363971719, 18.01873120626677], [-92.90613683730973, 18.033699121950246], [-92.90299145618854, 18.044536972781387], [-92.89813349319066, 18.046143942877915], [-92.89133002102263, 18.039363349465116], [-92.89294617046734, 18.028128151297864], [-92.89136957184584, 18.020200940245843], [-92.89255701298136, 18.013046088066215], [-92.88997092756647, 18.006490654297213], [-92.89191945306474, 18.003321402287106], [-92.89905188679833, 18.001377272412824], [-92.90229014668557, 17.988476951775837], [-92.89892463803764, 17.979458716578662], [-92.88869515251297, 17.97682749032422], [-92.88650219787577, 17.974843230098376], [-92.8834047893004, 17.949965693985718], [-92.88706097439984, 17.947451261895164], [-92.90925765277949, 17.9500904527928], [-92.91416693087838, 17.955977363614558], [-92.92170707406716, 17.95536728911478], [-92.92654465241776, 17.960210633434034], [-92.92954317042708, 17.961000040969925], [-92.93367361201597, 17.96020023711097], [-92.93757038950726, 17.956314978828168], [-92.94397439192059, 17.956519134782415], [-92.94658406042178, 17.954784372992485], [-92.94775734283512, 17.94958686500264], [-92.9411058874354, 17.943886902731688], [-92.94381281557777, 17.938573922369198], [-92.95138084974687, 17.939861943259384], [-92.95416120939744, 17.944934843707173], [-92.95684437939883, 17.946313139235702], [-92.9640016108943, 17.941361862658415], [-92.96940713877235, 17.942685145007108], [-92.97785590946927, 17.93957336067523], [-92.98527915944602, 17.940405205653658], [-92.98886582696083, 17.94404823855913], [-92.98883478933847, 17.95316178471562], [-92.99186751497987, 17.960016445606726], [-92.98885549149867, 17.963448084480856], [-92.98385979342035, 17.964352759493362], [-92.97676700385868, 17.968935723060767], [-92.97642173073908, 17.979283407423456], [-92.98201783876618, 17.984994830084197], [-92.99086267478296, 17.982864891194158], [-92.99350200325839, 17.983563448354396], [-92.99575178458532, 17.990231624522927], [-93.00025565120595, 17.99608941206695]], [[-92.97750387462912, 18.003685532852383], [-92.9812010567098, 18.003340976343786], [-92.98299528620728, 18.00044504854621], [-92.98211227683424, 17.993148919436052], [-92.97886283708819, 17.990657292987883], [-92.97467205859535, 17.992202780061668], [-92.97129135103012, 17.998950605381896], [-92.97299051329388, 18.00266293313623], [-92.97750387462912, 18.003685532852383]]], [[[-92.89576216075525, 18.172165789195414], [-92.89318979071918, 18.178148544925037], [-92.88884670350791, 18.180478777688187], [-92.8853017934876, 18.178173953297772], [-92.88336738924252, 18.17171382642019], [-92.88576820864218, 18.1674164512376], [-92.89129076272296, 18.16437505720729], [-92.89624656567001, 18.167069576908936], [-92.89576216075525, 18.172165789195414]]], [[[-92.90501448897183, 17.7845790069448], [-92.90320892847204, 17.791289879268984], [-92.90434156441587, 17.800443261160794], [-92.90238228051277, 17.802810899570463], [-92.899321589798, 17.80308780641756], [-92.89602713452184, 17.80055864609297], [-92.8918303228666, 17.787489111109856], [-92.89873058543152, 17.778522665426802], [-92.90370366520564, 17.780233958442594], [-92.90501448897183, 17.7845790069448]]], [[[-92.92068851956937, 17.809839032565502], [-92.92441520230385, 17.810031565038514], [-92.93214039914166, 17.816662071405652], [-92.93207238817267, 17.820162319703094], [-92.92747251562099, 17.825086451356487], [-92.92390027262846, 17.824929787433657], [-92.91594608896158, 17.818269950637788], [-92.91619133074127, 17.814776159212425], [-92.92068851956937, 17.809839032565502]]], [[[-92.94300014460231, 17.906173489899317], [-92.94468210700211, 17.910990272198923], [-92.94394963042787, 17.9138108656184], [-92.93508345595214, 17.917197969001588], [-92.92231018962457, 17.91275726307145], [-92.9182307430152, 17.909795523170008], [-92.91686882769832, 17.906032882981986], [-92.91796957478503, 17.903199726628927], [-92.9222887062366, 17.901006924034895], [-92.92515238642864, 17.89734874643537], [-92.93265636039794, 17.89662719975879], [-92.93543681365917, 17.89764014998543], [-92.94300014460231, 17.906173489899317]]], [[[-93.03253501794805, 18.168395129009507], [-93.0271834295332, 18.178284840319975], [-93.02197210438835, 18.17985848579098], [-93.01862158544502, 18.183940113542068], [-93.01583369612591, 18.18483552783145], [-93.01283269777836, 18.18393777669862], [-93.00866231405465, 18.179725145567755], [-93.00617428577323, 18.174467574680996], [-92.99945383440742, 18.17089987734986], [-92.9977588764281, 18.166904310415415], [-93.00090052141152, 18.162583693611186], [-93.00623066613028, 18.16170497469214], [-93.0102795391362, 18.157556741423782], [-93.01631442412196, 18.156459393658874], [-93.02916884274002, 18.160895529189997], [-93.03263066657321, 18.164089336909143], [-93.03253501794805, 18.168395129009507]]], [[[-92.99110754577747, 18.16642647984484], [-92.98764328769074, 18.170595234487116], [-92.97691140961889, 18.177476064746248], [-92.97275721933411, 18.17706977599674], [-92.97053009485073, 18.174966832330007], [-92.97073103883186, 18.165521541618727], [-92.97407006406158, 18.160632184562704], [-92.97794580553419, 18.158330528365152], [-92.98190213074007, 18.158173545267204], [-92.9885334731549, 18.161357391830006], [-92.99110754577747, 18.16642647984484]]], [[[-93.07907421325136, 17.87726461288381], [-93.079862063011, 17.880199746257084], [-93.07829806635854, 17.884153134426377], [-93.07299007006826, 17.886806587056288], [-93.0688272086584, 17.88626784906307], [-93.0632971064248, 17.87988195811735], [-93.06260297846224, 17.87075126195318], [-93.06702829310557, 17.865531658838563], [-93.07516802995335, 17.865374739235445], [-93.07746896692143, 17.867851221307937], [-93.07907421325136, 17.87726461288381]]], [[[-93.08080141481734, 17.975399032825358], [-93.08107332567555, 17.980915135032006], [-93.0779556405915, 17.983619881471935], [-93.07149307373183, 17.981284247785837], [-93.06533047358357, 17.981502087878116], [-93.06267084252617, 17.978435249618773], [-93.06362592272065, 17.97229875805198], [-93.06736783108448, 17.969917394208178], [-93.07755230812765, 17.9703942547437], [-93.08080141481734, 17.975399032825358]]], [[[-93.13359537081205, 17.856461096804935], [-93.13040559006832, 17.865642501208765], [-93.12739337938864, 17.869551787899162], [-93.11677196104667, 17.875023707230355], [-93.1118832630185, 17.87158124935734], [-93.10691179807613, 17.85088639103606], [-93.10944327949846, 17.84795683261327], [-93.11746278976429, 17.84775628617415], [-93.12878912836882, 17.842859695187133], [-93.13201552918642, 17.845630885216856], [-93.13441687267259, 17.8534346850068], [-93.13359537081205, 17.856461096804935]]], [[[-93.12056625195571, 17.88932956100012], [-93.12255330006161, 17.892092587866273], [-93.12255261889902, 17.89986840064397], [-93.11991259446745, 17.902128381847994], [-93.11511177194618, 17.901756811142462], [-93.11277281204089, 17.898814667586453], [-93.11289581989934, 17.890943732292115], [-93.11578606288859, 17.888587797268638], [-93.12056625195571, 17.88932956100012]]], [[[-93.14471071086993, 17.890951260530542], [-93.14035669690736, 17.887810506447362], [-93.14153162032781, 17.88305586605507], [-93.14492654085663, 17.88144970838309], [-93.15268232882073, 17.88300041159687], [-93.15378428906229, 17.88626626479355], [-93.1517069025963, 17.890859141599606], [-93.14887972319502, 17.89196945228419], [-93.14471071086993, 17.890951260530542]]]]}, "properties": {}}