{"type": "FeatureCollection", "features": [{"type": "Feature", "properties": {"threshold": 70}, "geometry": {"type": "MultiPolygon", "coordinates": [[[[32.46616205922464, 29.94379087113555], [32.47228575371471, 29.959806830235053], [32.47828398612852, 29.956628011775948], [32.483273174582216, 29.957328727867587], [32.490198148943975, 29.94975957340937], [32.4890934911574, 29.945682831465174], [32.47573264446199, 29.9348809929523], [32.47110514514309, 29.93506337548749], [32.46616205922464, 29.94379087113555]]], [[[32.49577303967235, 29.94950574471856], [32.49109934030604, 29.959032648436356], [32.49375532409904, 29.970764204442435], [32.49145430597211, 29.974504261878142], [32.48803057677494, 29.975322517023923], [32.48555511377037, 29.97200749120366], [32.47621447735364, 29.972613958313822], [32.47860554788343, 29.976650945275058], [32.47613358986265, 29.98400796157504], [32.47898167548472, 29.993880510725585], [32.47598383636483, 30.01400159377282], [32.48309657328555, 30.0195617958437], [32.50185387369669, 30.006420378563703], [32.51448561047399, 30.001868794544446], [32.52567565914177, 29.994204388036582], [32.53811676874471, 29.989990231057792], [32.54806592054722, 29.98979693944902], [32.553530705757574, 29.979010265403467], [32.557661506022306, 29.976604887791833], [32.558137250708775, 29.970244709937873], [32.56508602879082, 29.966222837767475], [32.5751903593981, 29.970688046763037], [32.58089382677885, 29.96934421892138], [32.57998630457147, 29.9575032464955], [32.57483922249393, 29.954900923672703], [32.57447443223982, 29.94618853651359], [32.570718135948766, 29.93796803857109], [32.56652102416388, 29.936017733221313], [32.56348151943958, 29.93904103404997], [32.563079499697686, 29.955636502566865], [32.552701696781014, 29.960600224679574], [32.54058000814069, 29.95451583106735], [32.53428473282851, 29.954143768132678], [32.532086242401924, 29.950405551393345], [32.52109743737586, 29.953809321922105], [32.501520878710814, 29.947872699622724], [32.49577303967235, 29.94950574471856]], [[32.57078318235549, 29.959831590201908], [32.56770574521464, 29.962838476800528], [32.56434707028109, 29.960954114407553], [32.566546281535125, 29.95700698607965], [32.57078318235549, 29.959831590201908]]], [[[32.5533741750551, 30.02783376538079], [32.55773949071404, 30.03738519124553], [32.563471960274605, 30.035931050329484], [32.56728115793875, 30.02630329264186], [32.57501927171694, 30.026762669872298], [32.57412969139239, 30.01793256824799], [32.56616487394642, 30.01933088524654], [32.56493104547492, 30.025881619074898], [32.55362869452984, 30.025524288209933], [32.5533741750551, 30.02783376538079]]], [[[32.52568791063527, 30.09087790530599], [32.52587041632193, 30.09531351582658], [32.53140008441275, 30.096418758607825], [32.54072003891947, 30.088602617983817], [32.543432697131436, 30.098539982760435], [32.54842605420936, 30.098779059972188], [32.54967383559852, 30.09478930746327], [32.554424737434275, 30.093368379689714], [32.54986251021207, 30.088631923789166], [32.54999026330898, 30.080128303295123], [32.55887821041402, 30.07531410253107], [32.55900483053405, 30.072685512019675], [32.547537004699755, 30.068390147987056], [32.54249956861715, 30.074456222900942], [32.54175605412545, 30.0838027647613], [32.52712526118736, 30.085222914625334], [32.52568791063527, 30.09087790530599]]], [[[32.45602362501668, 29.912166801998534], [32.460517878385794, 29.913772592229936], [32.466834246910665, 29.92344666873854], [32.472695402035015, 29.919000472185516], [32.46987370197209, 29.910972436489452], [32.46116426439584, 29.90337865554388], [32.457216884609956, 29.903726272043833], [32.45602362501668, 29.912166801998534]]]]}}, {"type": "Feature", "properties": {"threshold": 80}, "geometry": {"type": "MultiPolygon", "coordinates": [[[[32.4424998469962, 29.913483501713326], [32.45844745346192, 29.916520481544236], [32.45965136216379, 29.922233979769395], [32.45436660199963, 29.925433882076877], [32.45460197813844, 29.928970823603485], [32.470595055838146, 29.9304524577632], [32.46929448394511, 29.933864602243087], [32.45894160637094, 29.93594277376239], [32.457799921340715, 29.947760514093368], [32.47027307898982, 29.9520359955636], [32.47055161153169, 29.958337296226063], [32.464416242968426, 29.961723329393326], [32.46420783564672, 29.964810156400638], [32.465760225220485, 29.967042834536173], [32.472951028308856, 29.967011484049266], [32.47714677344903, 29.959262970910665], [32.48626299696876, 29.955568119292213], [32.490214711826596, 29.947732274963705], [32.479767227195474, 29.93979793767292], [32.47198908025393, 29.928567520490578], [32.47275462170932, 29.91772924546464], [32.46711286144645, 29.907624757228955], [32.46913936957863, 29.90076922650692], [32.46185324331574, 29.892365908014813], [32.472725085072184, 29.886925757637794], [32.478194859086635, 29.87726203469296], [32.482144590157674, 29.875534941814415], [32.48100387898023, 29.872916070435338], [32.47323235191959, 29.87138286482528], [32.47150440104725, 29.88167495214131], [32.457256492253876, 29.889273020867236], [32.45480426353398, 29.907436196413087], [32.44273428262201, 29.911405093264307], [32.4424998469962, 29.913483501713326]]], [[[32.49577303967235, 29.94950574471856], [32.490164438510405, 29.960642883162016], [32.49335619494189, 29.97212597579158], [32.48906644625581, 29.975532060978978], [32.485732501613576, 29.972038932509683], [32.47660981856125, 29.972103879059343], [32.47860183757125, 29.977361330519752], [32.47430991161151, 29.98228942699661], [32.47847080060497, 30.0075497812778], [32.47599248681217, 30.014886591873317], [32.48309657328555, 30.0195617958437], [32.50185387369669, 30.006420378563703], [32.51448561047399, 30.001868794544446], [32.52567565914177, 29.994204388036582], [32.53811676874471, 29.989990231057792], [32.54806592054722, 29.98979693944902], [32.553530705757574, 29.979010265403467], [32.557661506022306, 29.976604887791833], [32.558137250708775, 29.970244709937873], [32.56508602879082, 29.966222837767475], [32.5751903593981, 29.970688046763037], [32.58089382677885, 29.96934421892138], [32.57998630457147, 29.9575032464955], [32.57483922249393, 29.954900923672703], [32.57447443223982, 29.94618853651359], [32.570718135948766, 29.93796803857109], [32.56652102416388, 29.936017733221313], [32.56348151943958, 29.93904103404997], [32.563079499697686, 29.955636502566865], [32.552701696781014, 29.960600224679574], [32.54058000814069, 29.95451583106735], [32.53428473282851, 29.954143768132678], [32.532086242401924, 29.950405551393345], [32.52109743737586, 29.953809321922105], [32.501520878710814, 29.947872699622724], [32.49577303967235, 29.94950574471856]], [[32.57078318235549, 29.959831590201908], [32.56770574521464, 29.962838476800528], [32.56434707028109, 29.960954114407553], [32.566546281535125, 29.95700698607965], [32.57078318235549, 29.959831590201908]]], [[[32.5533741750551, 30.02783376538079], [32.55773949071404, 30.03738519124553], [32.563471960274605, 30.035931050329484], [32.56728115793875, 30.02630329264186], [32.57501927171694, 30.026762669872298], [32.57412969139239, 30.01793256824799], [32.56616487394642, 30.01933088524654], [32.56493104547492, 30.025881619074898], [32.55362869452984, 30.025524288209933], [32.5533741750551, 30.02783376538079]]], [[[32.52568791063527, 30.09087790530599], [32.52587041632193, 30.09531351582658], [32.53140008441275, 30.096418758607825], [32.54072003891947, 30.088602617983817], [32.543432697131436, 30.098539982760435], [32.54842605420936, 30.098779059972188], [32.54967383559852, 30.09478930746327], [32.554424737434275, 30.093368379689714], [32.54986251021207, 30.088631923789166], [32.54999026330898, 30.080128303295123], [32.55887821041402, 30.07531410253107], [32.55900483053405, 30.072685512019675], [32.547537004699755, 30.068390147987056], [32.54249956861715, 30.074456222900942], [32.54175605412545, 30.0838027647613], [32.52712526118736, 30.085222914625334], [32.52568791063527, 30.09087790530599]]]]}}, {"type": "Feature", "properties": {"threshold": 90}, "geometry": {"type": "MultiPolygon", "coordinates": [[[[32.44085082416187, 29.912809946550933], [32.449909476645445, 29.919018551584177], [32.443177831775024, 29.923105329119323], [32.443467449492964, 29.932151990810418], [32.46467808551479, 29.92916392125139], [32.470595055838146, 29.9304524577632], [32.46929448394511, 29.933864602243087], [32.45507414018007, 29.936432950941153], [32.45522301445131, 29.948181135590765], [32.47072230685399, 29.953145432502094], [32.46867706564108, 29.95893267961097], [32.459874515949956, 29.955997868110547], [32.456850229311044, 29.96412393153952], [32.4618733259737, 29.9693874637315], [32.46914911768661, 29.969450719363483], [32.47607780200445, 29.96434080029499], [32.47836928754152, 29.958302283802585], [32.48645512175799, 29.957109371792562], [32.490198148943975, 29.94975957340937], [32.4890934911574, 29.945682831465174], [32.474786838082366, 29.93369886106676], [32.474555917044434, 29.923308395861138], [32.46713801790362, 29.90786173338047], [32.46911777185967, 29.900692602232667], [32.46187741996705, 29.8928399932898], [32.472725085072184, 29.886925757637794], [32.478194859086635, 29.87726203469296], [32.482144590157674, 29.875534941814415], [32.48100387898023, 29.872916070435338], [32.471577819205436, 29.87202473314398], [32.47038385305575, 29.876071825788994], [32.454623143800305, 29.888252854078548], [32.45493363371694, 29.9072394176723], [32.4503362024589, 29.90994393580285], [32.44097291973243, 29.909750049914507], [32.44085082416187, 29.912809946550933]]], [[[32.49577303967235, 29.94950574471856], [32.490164438510405, 29.960642883162016], [32.49335619494189, 29.97212597579158], [32.48906644625581, 29.975532060978978], [32.485732501613576, 29.972038932509683], [32.47660981856125, 29.972103879059343], [32.47860183757125, 29.977361330519752], [32.47430991161151, 29.98228942699661], [32.47847080060497, 30.0075497812778], [32.47599248681217, 30.014886591873317], [32.48309657328555, 30.0195617958437], [32.50185387369669, 30.006420378563703], [32.51448561047399, 30.001868794544446], [32.52567565914177, 29.994204388036582], [32.53811676874471, 29.989990231057792], [32.54806592054722, 29.98979693944902], [32.553530705757574, 29.979010265403467], [32.557661506022306, 29.976604887791833], [32.558137250708775, 29.970244709937873], [32.56508602879082, 29.966222837767475], [32.5751903593981, 29.970688046763037], [32.58089382677885, 29.96934421892138], [32.57998630457147, 29.9575032464955], [32.57483922249393, 29.954900923672703], [32.57447443223982, 29.94618853651359], [32.570718135948766, 29.93796803857109], [32.56652102416388, 29.936017733221313], [32.56348151943958, 29.93904103404997], [32.563079499697686, 29.955636502566865], [32.552701696781014, 29.960600224679574], [32.54058000814069, 29.95451583106735], [32.53428473282851, 29.954143768132678], [32.532086242401924, 29.950405551393345], [32.52109743737586, 29.953809321922105], [32.501520878710814, 29.947872699622724], [32.49577303967235, 29.94950574471856]], [[32.57078318235549, 29.959831590201908], [32.56770574521464, 29.962838476800528], [32.56434707028109, 29.960954114407553], [32.566546281535125, 29.95700698607965], [32.57078318235549, 29.959831590201908]]], [[[32.5533741750551, 30.02783376538079], [32.55773949071404, 30.03738519124553], [32.563471960274605, 30.035931050329484], [32.56728115793875, 30.02630329264186], [32.57501927171694, 30.026762669872298], [32.57412969139239, 30.01793256824799], [32.56616487394642, 30.01933088524654], [32.56493104547492, 30.025881619074898], [32.55362869452984, 30.025524288209933], [32.5533741750551, 30.02783376538079]]], [[[32.52568791063527, 30.09087790530599], [32.52587041632193, 30.09531351582658], [32.53140008441275, 30.096418758607825], [32.54072003891947, 30.088602617983817], [32.543432697131436, 30.098539982760435], [32.54842605420936, 30.098779059972188], [32.54967383559852, 30.09478930746327], [32.554424737434275, 30.093368379689714], [32.54986251021207, 30.088631923789166], [32.54999026330898, 30.080128303295123], [32.55887821041402, 30.07531410253107], [32.55900483053405, 30.072685512019675], [32.547537004699755, 30.068390147987056], [32.54249956861715, 30.074456222900942], [32.54175605412545, 30.0838027647613], [32.52712526118736, 30.085222914625334], [32.52568791063527, 30.09087790530599]]], [[[32.403359146422225, 29.752605447270728], [32.401820019328994, 29.757625206872792], [32.409291274902145, 29.756626991195795], [32.41219595428747, 29.75877145247757], [32.40887133878784, 29.76614515048735], [32.41706129923662, 29.7725659150181], [32.41822735152257, 29.776953554009953], [32.42332559146477, 29.777652895646522], [32.429412991700126, 29.784376219256046], [32.437964754067565, 29.787640614156203], [32.43817490070996, 29.782538587549354], [32.423194597337506, 29.770258870257962], [32.40644599179151, 29.744957903802952], [32.403444355791436, 29.74548041406006], [32.403359146422225, 29.752605447270728]]]]}}, {"type": "Feature", "properties": {"threshold": 95}, "geometry": {"type": "MultiPolygon", "coordinates": [[[[32.440273288243866, 29.912907822890336], [32.449855248615115, 29.91879058052869], [32.44866976517065, 29.921429964094127], [32.44315139514931, 29.922372580569967], [32.44531131824592, 29.933773611564398], [32.46467808551479, 29.92916392125139], [32.470595055838146, 29.9304524577632], [32.46929448394511, 29.933864602243087], [32.45507414018007, 29.936432950941153], [32.45522301445131, 29.948181135590765], [32.47072230685399, 29.953145432502094], [32.46867706564108, 29.95893267961097], [32.459874515949956, 29.955997868110547], [32.456850229311044, 29.96412393153952], [32.4618733259737, 29.9693874637315], [32.46914911768661, 29.969450719363483], [32.47607780200445, 29.96434080029499], [32.47836928754152, 29.958302283802585], [32.48645512175799, 29.957109371792562], [32.490198148943975, 29.94975957340937], [32.4890934911574, 29.945682831465174], [32.474786838082366, 29.93369886106676], [32.474555917044434, 29.923308395861138], [32.46713801790362, 29.90786173338047], [32.46911777185967, 29.900692602232667], [32.46187741996705, 29.8928399932898], [32.472725085072184, 29.886925757637794], [32.478194859086635, 29.87726203469296], [32.482144590157674, 29.875534941814415], [32.48100387898023, 29.872916070435338], [32.47573052809139, 29.871095938475445], [32.46895585554173, 29.872746844727104], [32.466671687717785, 29.8776707431262], [32.459292360302086, 29.881009686760525], [32.45162011128523, 29.891899381280112], [32.45522833258979, 29.89917491059435], [32.45493363371694, 29.9072394176723], [32.45042925656008, 29.909365260396743], [32.445621805374316, 29.906541961562528], [32.439635414687565, 29.909233570379033], [32.440273288243866, 29.912907822890336]]], [[[32.49577303967235, 29.94950574471856], [32.490164438510405, 29.960642883162016], [32.49335619494189, 29.97212597579158], [32.48906644625581, 29.975532060978978], [32.485732501613576, 29.972038932509683], [32.47660981856125, 29.972103879059343], [32.47860183757125, 29.977361330519752], [32.47430991161151, 29.98228942699661], [32.47847080060497, 30.0075497812778], [32.47599248681217, 30.014886591873317], [32.48309657328555, 30.0195617958437], [32.50185387369669, 30.006420378563703], [32.51448561047399, 30.001868794544446], [32.52567565914177, 29.994204388036582], [32.53811676874471, 29.989990231057792], [32.54806592054722, 29.98979693944902], [32.553530705757574, 29.979010265403467], [32.557661506022306, 29.976604887791833], [32.558137250708775, 29.970244709937873], [32.56508602879082, 29.966222837767475], [32.5751903593981, 29.970688046763037], [32.58089382677885, 29.96934421892138], [32.57998630457147, 29.9575032464955], [32.57483922249393, 29.954900923672703], [32.57447443223982, 29.94618853651359], [32.570718135948766, 29.93796803857109], [32.56652102416388, 29.936017733221313], [32.56348151943958, 29.93904103404997], [32.563079499697686, 29.955636502566865], [32.552701696781014, 29.960600224679574], [32.54058000814069, 29.95451583106735], [32.53428473282851, 29.954143768132678], [32.532086242401924, 29.950405551393345], [32.52109743737586, 29.953809321922105], [32.501520878710814, 29.947872699622724], [32.49577303967235, 29.94950574471856]], [[32.57078318235549, 29.959831590201908], [32.56770574521464, 29.962838476800528], [32.56434707028109, 29.960954114407553], [32.566546281535125, 29.95700698607965], [32.57078318235549, 29.959831590201908]]], [[[32.5533741750551, 30.02783376538079], [32.55773949071404, 30.03738519124553], [32.563471960274605, 30.035931050329484], [32.56728115793875, 30.02630329264186], [32.57501927171694, 30.026762669872298], [32.57412969139239, 30.01793256824799], [32.56616487394642, 30.01933088524654], [32.56493104547492, 30.025881619074898], [32.55362869452984, 30.025524288209933], [32.5533741750551, 30.02783376538079]]], [[[32.52568791063527, 30.09087790530599], [32.52587041632193, 30.09531351582658], [32.53140008441275, 30.096418758607825], [32.54072003891947, 30.088602617983817], [32.543432697131436, 30.098539982760435], [32.54842605420936, 30.098779059972188], [32.54967383559852, 30.09478930746327], [32.554424737434275, 30.093368379689714], [32.54986251021207, 30.088631923789166], [32.54999026330898, 30.080128303295123], [32.55887821041402, 30.07531410253107], [32.55900483053405, 30.072685512019675], [32.547537004699755, 30.068390147987056], [32.54249956861715, 30.074456222900942], [32.54175605412545, 30.0838027647613], [32.52712526118736, 30.085222914625334], [32.52568791063527, 30.09087790530599]]], [[[32.443836000926595, 29.79179068488765], [32.44407117357491, 29.79810368465988], [32.45081904996175, 29.803147828525166], [32.45645074100733, 29.802996818204548], [32.45186603729088, 29.795385294305994], [32.44704597502707, 29.7911899566851], [32.443836000926595, 29.79179068488765]]], [[[32.40165156931235, 29.74851576827086], [32.4015035982188, 29.757159114391015], [32.406250310185825, 29.768830908121682], [32.4164525881302, 29.772042477955452], [32.41834979715131, 29.77787248549323], [32.437964754067565, 29.787640614156203], [32.43817490070996, 29.782538587549354], [32.423194597337506, 29.770258870257962], [32.407809155065756, 29.746030291966584], [32.403056555061866, 29.74416229470191], [32.40165156931235, 29.74851576827086]]]]}}]}