{"type": "Feature", "geometry": {"type": "MultiPolygon", "coordinates": [[[[76.49521657339757, 43.22680020647548], [76.49462096946766, 43.23305264611045], [76.49892185270843, 43.24540821528965], [76.50258535591979, 43.24970978450983], [76.50749293139637, 43.24970005997876], [76.51020516589116, 43.24800166222134], [76.51298893184821, 43.24156045367663], [76.51669271351714, 43.23805886059151], [76.51767585308306, 43.23263452120074], [76.52159594282587, 43.22910444203296], [76.52232234458322, 43.21748490269743], [76.52458313501104, 43.214535846064], [76.54393432003535, 43.21073401214694], [76.55255782556185, 43.203418777215326], [76.57909072631382, 43.21181735955447], [76.58209961740525, 43.21171982764804], [76.58721625370443, 43.20849040048759], [76.59217039169573, 43.211123709987824], [76.59661734722691, 43.21147897599567], [76.60012189891296, 43.2173956647694], [76.5989926270662, 43.22133967310527], [76.58481745230281, 43.22313395788435], [76.58081482970856, 43.227292671022305], [76.5811296052343, 43.23062772511148], [76.58766428814224, 43.2389523347092], [76.59665967740163, 43.244905458051456], [76.60833061686475, 43.24817645423745], [76.61287532500381, 43.24583750689441], [76.61694815753727, 43.23727370084804], [76.61161124473882, 43.23199337155878], [76.61198147933987, 43.22785598116894], [76.61463731151771, 43.22626932038998], [76.62411574490595, 43.22590193946847], [76.62608560262984, 43.22987569479396], [76.62308464619865, 43.236258946769794], [76.62660834575735, 43.241028699431425], [76.63212686152931, 43.24428749647864], [76.63055393722547, 43.25291956520906], [76.63400409247699, 43.25878817287152], [76.64109065127332, 43.26408405394717], [76.64434348155044, 43.280819146959544], [76.65655975212775, 43.29043850778408], [76.6655105749535, 43.29074321965047], [76.66843237205958, 43.293046149227806], [76.66821500949597, 43.301147728761535], [76.66391541790807, 43.3056339046988], [76.66248467114539, 43.30953741984037], [76.66593058497976, 43.31586391494861], [76.66468035647881, 43.319730612719844], [76.63645681672342, 43.32196780861979], [76.63337574719604, 43.324045131195014], [76.63321099194617, 43.32749135664254], [76.63865963368075, 43.336008278740884], [76.64064646637107, 43.34311639486431], [76.63935528927148, 43.34699053239453], [76.63320660132386, 43.347652003177885], [76.62361834350968, 43.34325896722741], [76.61024031160068, 43.34700977467776], [76.61074319379638, 43.35632274203284], [76.60231692085486, 43.35959805951606], [76.59848018851626, 43.366671992796505], [76.60095321196893, 43.37318367513188], [76.5985636533273, 43.38195330250229], [76.60209655988994, 43.386458022386364], [76.60221909766216, 43.3898359314007], [76.5991876114411, 43.3926133002219], [76.58782971642029, 43.39171550972114], [76.58361671793857, 43.39359121947665], [76.57564631108818, 43.41513559660993], [76.57637424218373, 43.41808599343772], [76.57930539941951, 43.42009794741407], [76.5981347822005, 43.42277126234898], [76.60505100947702, 43.41211315306241], [76.60993678187472, 43.3996060152923], [76.61749502368244, 43.39627137373454], [76.62155359202904, 43.391178983875534], [76.63903495785914, 43.39271100172582], [76.64673048315545, 43.3875050657711], [76.65486610964888, 43.393123318076285], [76.67674761373765, 43.387728810254], [76.67762256092432, 43.38404703776821], [76.67190522601345, 43.36969921887436], [76.66899028849696, 43.36858545846305], [76.65166963529873, 43.37111955096517], [76.64930486565503, 43.36904432915113], [76.64679562059192, 43.36029868176734], [76.64904221533628, 43.357646818667384], [76.65533575258401, 43.357960625240864], [76.66131652560784, 43.352946907736], [76.66925187762683, 43.35129472666155], [76.67268849738196, 43.34621910554497], [76.68000568304028, 43.34304919093184], [76.68025361857202, 43.33993544248493], [76.67639682757712, 43.33217182959168], [76.6771576239055, 43.32512434320687], [76.67481916472097, 43.32212132565937], [76.66940239898075, 43.32073176225876], [76.66748174387102, 43.31827778876267], [76.6681260093665, 43.31485723618649], [76.67113418315404, 43.312850493507064], [76.67409186518772, 43.31323042208823], [76.67745194630206, 43.31677523886537], [76.68624177882667, 43.316155575995076], [76.68875717357709, 43.31727717558494], [76.69164829413252, 43.324447162082386], [76.69309054752578, 43.33627722275974], [76.69590601708715, 43.342072548991744], [76.70126568390087, 43.34674479026293], [76.70783463466222, 43.3450979571304], [76.71120574655836, 43.33821502063094], [76.71053462218211, 43.33147366977936], [76.71961935945147, 43.32455912225725], [76.72076343454006, 43.32101630382362], [76.7184722392774, 43.31771211789936], [76.71364508154905, 43.315919729346575], [76.70532739704502, 43.31829104282743], [76.69915196252433, 43.314278153404786], [76.69087597386205, 43.31648721557345], [76.68724609870594, 43.31456909700564], [76.68751886858709, 43.305017739280345], [76.69232668959638, 43.296290083159406], [76.6961620501163, 43.293573564777276], [76.69895575424286, 43.288579806631446], [76.70238187771724, 43.28819682289197], [76.70604074319671, 43.29128015595709], [76.71069020977926, 43.29235622049557], [76.71459463239896, 43.299093885065155], [76.71846376777593, 43.30066608829245], [76.72383737605843, 43.29830123652916], [76.72771740645865, 43.29220319687715], [76.73368791651465, 43.29284997814172], [76.7422486814217, 43.29070342933429], [76.74496412422458, 43.294703763052055], [76.74244463146391, 43.30422663635252], [76.7461885288824, 43.30727970452311], [76.74922761056173, 43.30616858578805], [76.75291130021165, 43.300357473970884], [76.78345237189187, 43.29297501372876], [76.78612269814667, 43.29459128852455], [76.78695713614951, 43.29763757305246], [76.78230892377144, 43.306408153613155], [76.78034543117701, 43.3157491351314], [76.78626826326108, 43.3188233324899], [76.79370213840731, 43.318110399583425], [76.79648607954019, 43.32603439070817], [76.79162152480511, 43.334188056067354], [76.78997029063092, 43.343036455043745], [76.78548697347439, 43.343380333821244], [76.78241549770867, 43.33934856529388], [76.77254569171427, 43.33235638192576], [76.75934470402888, 43.330834848506015], [76.7554116540427, 43.324319943385404], [76.75170173568462, 43.32329135948174], [76.74694618362852, 43.32605303449416], [76.73879181519116, 43.34531211647775], [76.7388283101399, 43.35404806705555], [76.73730609860533, 43.356623226401716], [76.72975890804588, 43.35810168186273], [76.71856613518746, 43.35718571496247], [76.7144706346875, 43.359074612374556], [76.69756694799091, 43.36096695381872], [76.69484396954356, 43.363362558410685], [76.69669658842191, 43.37590742635944], [76.70277332910166, 43.382571478381635], [76.70121991064023, 43.388441399191116], [76.7020129451803, 43.39111873529938], [76.713549099619, 43.40051060940392], [76.72381154667582, 43.40031300001133], [76.72667948281291, 43.40370528246334], [76.7250031840564, 43.41067909156125], [76.72168674574915, 43.41477226948617], [76.72089807617041, 43.42382944769291], [76.72644314679054, 43.43674553454423], [76.72456919819629, 43.43908203153329], [76.71870106577884, 43.44220928899724], [76.71332733133048, 43.443006891129556], [76.71008012714114, 43.44577188367396], [76.70842389636248, 43.45654453320334], [76.70140735713642, 43.4635800421877], [76.7070804449931, 43.47255471607742], [76.7133803953315, 43.47527871810064], [76.7189212909901, 43.472302367421214], [76.73546682770368, 43.47025179155248], [76.74047256225185, 43.46788683365387], [76.75474275419427, 43.472842347799585], [76.75892130024874, 43.471004434237976], [76.76059797523772, 43.46733141396249], [76.75986100279094, 43.46444535080652], [76.75591659132232, 43.46147074885513], [76.75277304599871, 43.454695072521886], [76.74279653606759, 43.452907727500595], [76.7361686968844, 43.437975243746266], [76.74095289912115, 43.4299750840431], [76.73831258855836, 43.42304161025965], [76.73952702244175, 43.41921200390094], [76.74990909360469, 43.41594257645808], [76.75747894911241, 43.41596378378851], [76.75988682478331, 43.41399380199171], [76.7627152211576, 43.39403300852333], [76.76062341607972, 43.38141703121414], [76.76727930613836, 43.37677883584097], [76.76864035512514, 43.36624216264175], [76.7721457301777, 43.36351253297873], [76.77762856670199, 43.36526325447703], [76.7797622120557, 43.371773747749536], [76.78494756375477, 43.377670869700026], [76.79016691663234, 43.37979099600461], [76.79159118794558, 43.38508665524568], [76.7941547814955, 43.38759611819083], [76.80268327836067, 43.387752607188574], [76.80736555873683, 43.389436877270626], [76.81738999459111, 43.386741301700155], [76.82267578438355, 43.390837609506036], [76.84049012530876, 43.39630543013055], [76.84313437525347, 43.41575285557231], [76.83781024462849, 43.42147778521086], [76.83839935675066, 43.43112693325588], [76.82485641777485, 43.442025400420455], [76.82454183675932, 43.44747130500818], [76.82749139784057, 43.451365907605], [76.83131234684117, 43.4512894023553], [76.84340152433661, 43.442473244983574], [76.85003274194105, 43.44445289244445], [76.8551019717689, 43.44370568785041], [76.860987333243, 43.44653253292161], [76.86622461712514, 43.44563063056716], [76.87011453818452, 43.44155220240719], [76.87101055460751, 43.43281038072123], [76.86706505220776, 43.425692231359676], [76.86461425355378, 43.42402801239462], [76.85875088035273, 43.42387409009613], [76.85315631341236, 43.41642189336407], [76.85642543540749, 43.40882284408928], [76.8629906845069, 43.407529640145455], [76.86507681445038, 43.40568544308233], [76.86605023640128, 43.39203821390938], [76.87220167099716, 43.389770279881716], [76.8773193329421, 43.39353914558799], [76.87994516924249, 43.402500958511354], [76.88603855080133, 43.40624873912114], [76.88406787124043, 43.41684787136877], [76.88940850814275, 43.42914610540116], [76.9034858594267, 43.432602979783894], [76.9076552059586, 43.440475277356015], [76.91260116500673, 43.44538723362056], [76.91260877471805, 43.44943504024357], [76.90591077541974, 43.45337905073418], [76.9049786592307, 43.458290493084505], [76.90682425388333, 43.46142289999157], [76.91142531065839, 43.464050259744866], [76.91262702595459, 43.47007880983336], [76.92006211098507, 43.478555773400394], [76.92528761014498, 43.48112702835856], [76.9317443877357, 43.487748559730676], [76.93862790569445, 43.486346329447876], [76.9410319362354, 43.48259432984613], [76.93738680942806, 43.47213695398675], [76.93808445239162, 43.46884757199998], [76.9410446504494, 43.46725259017619], [76.94811020900008, 43.468471580405854], [76.95587719018151, 43.46150730245349], [76.95641000380428, 43.455375330355366], [76.9510175995149, 43.44949640004032], [76.95445284288367, 43.44365043745159], [76.95424476226306, 43.44060457939668], [76.95111004952429, 43.43786825271804], [76.94542629320766, 43.43834750305485], [76.938730995226, 43.435049521589306], [76.9325205003291, 43.41985716202386], [76.93276653642755, 43.4132482655683], [76.92646416422642, 43.40526238631954], [76.92960929185269, 43.39164458475263], [76.9278192515019, 43.389547648882306], [76.92211839440799, 43.38768109876685], [76.92015333014955, 43.38423466340238], [76.92343246590575, 43.375632821394], [76.92318650508294, 43.368737560584684], [76.93095047593117, 43.3647971045637], [76.93222372685406, 43.35655259085255], [76.93532294302068, 43.35258098312077], [76.93525493907855, 43.339276285718746], [76.92866718245668, 43.33303648634177], [76.92826439196966, 43.32469911698837], [76.9195048245784, 43.313857351381536], [76.91355321219663, 43.3094683571071], [76.91216974871458, 43.30349047519635], [76.90680844824439, 43.299838494981486], [76.9056543766777, 43.29662561406735], [76.90646708546134, 43.29003595524767], [76.90886581894826, 43.28766398310016], [76.93338419005144, 43.2899042336066], [76.9390246114243, 43.28550613854236], [76.94652719940268, 43.28500032225875], [76.95262493330584, 43.280324880337375], [76.95775104232634, 43.27352898593195], [76.96384975951447, 43.269446520690735], [76.9743507036951, 43.27023083285771], [76.97766665228143, 43.268094052223724], [76.9773450486988, 43.26321424177348], [76.96929381459002, 43.2597533315948], [76.96488083930433, 43.249553433925804], [76.96651730769952, 43.242734602169556], [76.97457092894179, 43.241138978665624], [76.97705834777503, 43.23684566972188], [76.97443711980763, 43.230560853670056], [76.97724810572183, 43.22264621218402], [76.97071771831183, 43.2153472926206], [76.96908571821776, 43.206164917392606], [76.96865828253931, 43.19804419600603], [76.97243398473165, 43.19203684005669], [76.96932624192704, 43.18445796630789], [76.97580005189009, 43.174089463371004], [76.98653547752127, 43.17494723126861], [76.9905588705796, 43.17091690628015], [76.98994594667941, 43.1669260039909], [76.98449692329518, 43.16285314952286], [76.98575810221014, 43.15599825271978], [76.98284330579865, 43.1509535964618], [76.97289003950496, 43.15043939283894], [76.9590701209319, 43.15740028434267], [76.95650761293734, 43.1615557576245], [76.95933693436508, 43.16751743305655], [76.95753855836088, 43.171683515171566], [76.94922546795627, 43.17719061303874], [76.94336307777253, 43.17730941661667], [76.93251071756437, 43.18232018651468], [76.92804136244798, 43.18897966247657], [76.92483006126837, 43.18999361392383], [76.91652387944535, 43.18546779205568], [76.91449093749907, 43.17954172003727], [76.90986187850663, 43.17534903509931], [76.9091525406167, 43.16976275789282], [76.90502825325983, 43.16665149431861], [76.90103156443215, 43.15936246349535], [76.9014015529685, 43.154943106575516], [76.90805052412138, 43.15226149638823], [76.90945772900622, 43.14830765834224], [76.9051103598338, 43.13989412577956], [76.89861429410043, 43.138466469935175], [76.89075222463632, 43.14695783607551], [76.87921266318978, 43.15482720993598], [76.87694302562036, 43.16288029819357], [76.86800607116326, 43.16443935575482], [76.8639401226223, 43.1723915138991], [76.85413194733249, 43.17879386379867], [76.85149075316646, 43.18450666233666], [76.85546776186709, 43.189326074293014], [76.85581901384613, 43.192379825606416], [76.85144571538248, 43.196700775609955], [76.84794031213886, 43.204351976920975], [76.8383581628619, 43.206129833217986], [76.83114858083889, 43.2186459256419], [76.82560596980805, 43.220713960063605], [76.82410812022393, 43.22650079829117], [76.81157569429172, 43.23149046106401], [76.80491241279991, 43.22365227806484], [76.80541074741946, 43.217530861044395], [76.80900424904443, 43.21502646562782], [76.81663722535653, 43.218803850842185], [76.82189078646401, 43.21764838950567], [76.82325461026083, 43.21229118809086], [76.82146643147117, 43.20729267646276], [76.82275505431845, 43.20042388619578], [76.81238363486261, 43.195072075175815], [76.80920974584193, 43.18052192113207], [76.80279082867787, 43.16912097449354], [76.79957909596098, 43.16784084304524], [76.79430980208663, 43.17023606913778], [76.79122429181538, 43.16990329877397], [76.78942991327798, 43.167842498651154], [76.78855159247627, 43.1619781844412], [76.7829280404902, 43.15992088951657], [76.78099478119867, 43.157116683033955], [76.78322039942763, 43.150285012871386], [76.79145165167681, 43.146604957323326], [76.79613691917682, 43.141372574388114], [76.80460562701836, 43.13967774336958], [76.8064441607586, 43.13687958518402], [76.80719954228486, 43.12373757865602], [76.80286418376822, 43.11745722272477], [76.80123954225877, 43.11148804792523], [76.79451607733984, 43.107695613611604], [76.79173410178001, 43.10271832251688], [76.78861932436733, 43.101948018297435], [76.7712456400598, 43.10599751780206], [76.76576202355898, 43.11287928353428], [76.75914866918605, 43.11065020286981], [76.74368781749902, 43.111702563281746], [76.7408383815005, 43.11376332383898], [76.74401993532386, 43.13071296549128], [76.75424000960636, 43.147176634080544], [76.75943640449371, 43.14951328993347], [76.7625663703366, 43.15429908633082], [76.76240200983112, 43.15763992693038], [76.75951671029227, 43.15989998503888], [76.73811470545213, 43.1599069813096], [76.73189180066991, 43.16261154340792], [76.72530663129321, 43.1616977389143], [76.71044349204433, 43.163667294127315], [76.70195526176458, 43.16126220027291], [76.69325498608242, 43.166403498353915], [76.68156092732417, 43.16347565545979], [76.67770858583091, 43.15883847547866], [76.66965624500507, 43.157039499469725], [76.66552394932005, 43.15192305463908], [76.62605319186045, 43.147026568241756], [76.62361072502702, 43.14514920933753], [76.62040791284484, 43.13762590666767], [76.6103508979319, 43.13779494508572], [76.60246573057402, 43.146733264735154], [76.60021926812351, 43.15853778338105], [76.59364724001031, 43.160844596783036], [76.59117589935475, 43.16432248698736], [76.58881009197277, 43.177798861607066], [76.59234475346642, 43.18470655005462], [76.59059604904395, 43.18958397668672], [76.58716864252762, 43.19246684408477], [76.58313904218355, 43.19187590118825], [76.57880489326352, 43.18550614202006], [76.57302236880153, 43.18144339162665], [76.57545958881263, 43.16233715756544], [76.57432377278398, 43.155129003946946], [76.57141714656123, 43.1527684361994], [76.56458261233809, 43.1528166934583], [76.55665482478915, 43.15852597298193], [76.54610929575321, 43.16167240742446], [76.53959404725502, 43.17017608189614], [76.53084566592366, 43.1677529051578], [76.51389180015703, 43.176508729873206], [76.50658734985703, 43.176942662160414], [76.50364143211573, 43.18315839181203], [76.50496575746678, 43.19206280390853], [76.51053934739782, 43.19581069840672], [76.51624691094518, 43.205551538904466], [76.52045517781926, 43.20845102410971], [76.5214597781217, 43.21326350616116], [76.51813873528465, 43.21633563109803], [76.49526755433716, 43.21645874870422], [76.49323686748686, 43.2198188970663], [76.49521657339757, 43.22680020647548]], [[76.94851415634436, 43.20138243155884], [76.94546468368199, 43.20126338479392], [76.94352643346531, 43.19935287417428], [76.94441144178055, 43.19323189795491], [76.9554063031953, 43.18927671536138], [76.95926781798683, 43.19044656864979], [76.96046566549882, 43.19320409811191], [76.95940449099855, 43.196017053155366], [76.94851415634436, 43.20138243155884]], [[76.9297906098334, 43.255277054121734], [76.927417800146, 43.25281499777924], [76.92762348983844, 43.249761442013224], [76.93027433903704, 43.247420508328766], [76.933327787805, 43.247463062846734], [76.93546138048254, 43.2496478151329], [76.93571605919506, 43.253502056870516], [76.93314931934259, 43.25576640075449], [76.9297906098334, 43.255277054121734]], [[76.90776514571006, 43.3320406411695], [76.91359057399548, 43.330557008250764], [76.92024142652278, 43.3360919238929], [76.92093832660102, 43.33950161566306], [76.91779658584582, 43.344863142386835], [76.90427404152447, 43.34771829450339], [76.8971512854424, 43.341313463562805], [76.89623044702076, 43.33837040815277], [76.89767682911996, 43.335646899869616], [76.90776514571006, 43.3320406411695]], [[76.8481407490857, 43.29121830088432], [76.84823570190828, 43.28543636787709], [76.85133656641426, 43.28025359086835], [76.85463646652147, 43.27871722391586], [76.85763886935564, 43.27960160134765], [76.86126112015258, 43.28376212159237], [76.86054995714775, 43.28961573504553], [76.86269702801224, 43.29494952615399], [76.86087563578687, 43.3007496267416], [76.86707979174896, 43.31474745035422], [76.86682587470162, 43.319761639170004], [76.86855960877956, 43.32293459097838], [76.8763468506353, 43.32594939968824], [76.8884176542963, 43.32468770401941], [76.89485536968323, 43.33091594567153], [76.894568242223, 43.33606515105428], [76.88851770263736, 43.337640326585], [76.88500267825933, 43.34070723483277], [76.88458055392078, 43.345365804186294], [76.88782155652983, 43.35040743619442], [76.885827130771, 43.3542756941822], [76.879421915843, 43.353582956385786], [76.87660948321984, 43.34564492411151], [76.86982812401544, 43.342668802446624], [76.86589050854198, 43.33372256789716], [76.85768101322816, 43.327315585967284], [76.85673156862055, 43.32245617740684], [76.85311623870508, 43.31825508036178], [76.85476254213964, 43.31065841995838], [76.8481407490857, 43.29121830088432]], [[76.87907176451618, 43.16955708007119], [76.88079161977564, 43.16677037243213], [76.88378917556054, 43.1661561744834], [76.88890135233557, 43.16797349895962], [76.89030043373549, 43.17185745945126], [76.88858837706539, 43.17441004481092], [76.88557088892505, 43.174994506428824], [76.8803975186252, 43.17342450184356], [76.87907176451618, 43.16955708007119]], [[76.86108029270304, 43.26398490743037], [76.8617560415876, 43.26025358157966], [76.86536155354513, 43.25861262710067], [76.88112749905919, 43.26289649559269], [76.88426937126118, 43.27627598029392], [76.88101031216183, 43.28674985498854], [76.87782453173728, 43.287808165128716], [76.87414090176912, 43.28609353664268], [76.86834873538227, 43.269338220794765], [76.86280810550339, 43.26671313396157], [76.86108029270304, 43.26398490743037]], [[76.81382513147709, 43.32227976526886], [76.81065364558877, 43.321537632598215], [76.80611298925965, 43.31606894447005], [76.80892740698914, 43.308002856804016], [76.81822400228803, 43.30749051039181], [76.82624160367072, 43.3038715532123], [76.83407462256048, 43.306567320913814], [76.83631805351482, 43.3119343482487], [76.83281205183656, 43.33037772057557], [76.8259222728844, 43.33091099846331], [76.82116726252418, 43.32767730691731], [76.81850975062046, 43.323055329011346], [76.81382513147709, 43.32227976526886]], [[76.82108178613254, 43.37988003964754], [76.81600646363775, 43.37923521932442], [76.81267026897845, 43.37357229592228], [76.81270535795285, 43.37048508489576], [76.8221930982101, 43.36576011846037], [76.82757597227949, 43.36556274246126], [76.82961337950154, 43.36782492672959], [76.82946845616479, 43.370865897475724], [76.82108178613254, 43.37988003964754]], [[76.80738017840442, 43.28806210459534], [76.8073566740233, 43.28535725286861], [76.80940658930353, 43.283068568177555], [76.81589305570064, 43.283844131283395], [76.82076876610768, 43.28147802139446], [76.82396335660536, 43.28258345060987], [76.82542850859214, 43.28596009248131], [76.82207079281784, 43.29440157229484], [76.81917219826792, 43.296329974222026], [76.81279781266367, 43.2955517106375], [76.80828760255969, 43.29121239950288], [76.80738017840442, 43.28806210459534]], [[76.79229848175365, 43.26195374321968], [76.79322782735817, 43.25758322160994], [76.79810676028814, 43.25285997593137], [76.80153564412868, 43.252588150078175], [76.80730102656075, 43.26008888108341], [76.80657256374889, 43.26726849324106], [76.80447553498034, 43.26952335485578], [76.80139778150348, 43.269620123101284], [76.79398691926384, 43.26555455937744], [76.79229848175365, 43.26195374321968]], [[76.78630779001706, 43.238635427695364], [76.78903435932473, 43.23499730985429], [76.79248741271266, 43.23441978626458], [76.80090883207278, 43.238761437387815], [76.80213319434195, 43.24267481375803], [76.79860097693054, 43.247408252259945], [76.79282441662555, 43.246084952394575], [76.7879116052888, 43.24690989441926], [76.78451577067204, 43.24357152791128], [76.78630779001706, 43.238635427695364]], [[76.6986659784055, 43.172570438087455], [76.70210987842658, 43.17496879233355], [76.73808224855667, 43.18032628268334], [76.7424518177201, 43.18321751803778], [76.74286230539644, 43.187012970819225], [76.7354833113705, 43.19909712040027], [76.73320987539448, 43.206472965964174], [76.73505244312923, 43.215326761817664], [76.73285710264963, 43.22289257158454], [76.72949210566917, 43.22338432033614], [76.71031483926748, 43.21577357110358], [76.70674061108701, 43.207373156606764], [76.6965518560751, 43.203451214858106], [76.69696080273684, 43.193834922267804], [76.6924780978585, 43.189277724228184], [76.68931371981647, 43.180999844870065], [76.69336802355193, 43.17273260354236], [76.6986659784055, 43.172570438087455]], [[76.73029225159677, 43.402775578991836], [76.7272920674413, 43.4020713448478], [76.72568297939615, 43.39944305902632], [76.72922043410799, 43.39344205388358], [76.73255217897297, 43.39276360216986], [76.73949807679685, 43.395863361970896], [76.74026157028908, 43.39892624804154], [76.73871857230847, 43.40152562834581], [76.73029225159677, 43.402775578991836]], [[76.69358690107863, 43.22886292897308], [76.69744221208788, 43.225591403727094], [76.70054004790195, 43.2254494615642], [76.7055366846524, 43.23027990315367], [76.70635405642122, 43.233198526884976], [76.70404157788877, 43.23984354036843], [76.70426849422374, 43.24617995820495], [76.69596744221754, 43.25310448870793], [76.69369560964157, 43.258314904819464], [76.69074559183758, 43.25929739931151], [76.68774332180482, 43.257551316802754], [76.68354434169997, 43.24929348410866], [76.68466157108507, 43.24545857099535], [76.68845869833976, 43.24206730345416], [76.69134155064235, 43.23099244865016], [76.69358690107863, 43.22886292897308]], [[76.68267918809724, 43.27036157818964], [76.6816362406828, 43.2672801388557], [76.68332452675683, 43.264377732504194], [76.68934707743952, 43.261355254368446], [76.69314371401269, 43.26305840536787], [76.6941572678387, 43.26870796233034], [76.69257822805493, 43.27170387968901], [76.68585022347605, 43.27253936448442], [76.68267918809724, 43.27036157818964]], [[76.66192268689304, 43.18282244475507], [76.65502573763776, 43.19005084724247], [76.64923177657413, 43.19013286247681], [76.6441420186187, 43.185537459491485], [76.64067414746694, 43.178709183860185], [76.64363137119187, 43.17545288811529], [76.66068477449427, 43.173469878727936], [76.66329962694071, 43.175084592911055], [76.66461121036606, 43.17869455736667], [76.66192268689304, 43.18282244475507]], [[76.65959105776216, 43.24900004204951], [76.66049509209007, 43.25195021334128], [76.65932550017445, 43.25440216974098], [76.65047374206503, 43.25757816145155], [76.64130506962194, 43.251253939483355], [76.6366759757748, 43.24625303514101], [76.63623476813362, 43.243236979344104], [76.64098828722436, 43.234388929207576], [76.65373251943947, 43.231646823902736], [76.65619169100462, 43.233409378638726], [76.65803360821805, 43.238095177148395], [76.65959105776216, 43.24900004204951]]], [[[76.79122321493325, 43.46701649412825], [76.78902474802027, 43.47669262219878], [76.79618860864343, 43.48269347305219], [76.80670965355931, 43.482720742999945], [76.81136864001415, 43.48441637064426], [76.82246877350092, 43.48367078533984], [76.82529491033549, 43.48130045984367], [76.82256835874665, 43.47205548913049], [76.80833551212598, 43.45405478763098], [76.80153088394587, 43.452694190006085], [76.79261792867332, 43.45515470888193], [76.79109696940674, 43.45787687759928], [76.79122321493325, 43.46701649412825]]], [[[76.64969421686166, 43.480181402886025], [76.64663095592238, 43.48662025804951], [76.64883554556218, 43.490516328258416], [76.67073129149274, 43.49085124285914], [76.68162112067854, 43.481726028623704], [76.69345265106756, 43.47731725575435], [76.69512234734678, 43.47356402973328], [76.68776495892129, 43.4643168718691], [76.68432056941792, 43.463219115104906], [76.66291745460258, 43.47023058710128], [76.64969421686166, 43.480181402886025]]], [[[76.541240731935, 43.30681745004874], [76.53811482888659, 43.30486806646735], [76.50220395000485, 43.302764327990275], [76.49095520736032, 43.310276089868985], [76.48350869300967, 43.322296497567585], [76.48319642120366, 43.325306978317116], [76.49335855695759, 43.333311972062546], [76.50939731246223, 43.33370021256069], [76.51713144324036, 43.33041318623734], [76.53997409978706, 43.328852900387524], [76.54285258988943, 43.32538636667444], [76.541240731935, 43.30681745004874]]], [[[76.43005715132162, 43.26448513879434], [76.43211954516947, 43.26674898786757], [76.4319762975405, 43.26980806634431], [76.42251770481371, 43.27698898769521], [76.4220441706164, 43.28163904820874], [76.44483355584394, 43.30776361004257], [76.45754583868158, 43.310424490606124], [76.46203194889577, 43.29894908779059], [76.46072080254429, 43.29030889648393], [76.45430702191636, 43.27994120435055], [76.44586024526342, 43.27738243198321], [76.4414827900828, 43.274898903773526], [76.44006569498636, 43.272200519855375], [76.44182754798814, 43.26850342445336], [76.44924394970671, 43.2674563733177], [76.45153781884137, 43.26438872455793], [76.44903288048818, 43.2254399180519], [76.446509266153, 43.222167601258185], [76.42234827096529, 43.225393069756116], [76.41940215823743, 43.22775971888328], [76.42364208856483, 43.25443636783518], [76.42588755649729, 43.25992037684038], [76.43005715132162, 43.26448513879434]]]]}, "properties": {}}