{"type": "Feature", "properties": {"city": "Bucaramanga", "country": "Colombia", "real_area": 64.14}, "geometry": {"type": "MultiLineString", "coordinates": [[[-73.069711101342, 7.04302544670661], [-73.0736635888718, 7.04045378564006], [-73.0731378729245, 7.03572754873208], [-73.0686595720503, 7.03357311929999], [-73.0647071728168, 7.03614497720396], [-73.0652329861522, 7.04087106769363], [-73.069711101342, 7.04302544670661]], [[-73.0828722147868, 7.08513385700364], [-73.0833977338709, 7.08985781511035], [-73.0878755695126, 7.09201176264496], [-73.0884010187244, 7.09673545734228], [-73.0928788725337, 7.09888933824756], [-73.0934042518666, 7.10361276937222], [-73.0894518748297, 7.10618217358665], [-73.0899772817243, 7.1109051950349], [-73.0944549682174, 7.11305895821828], [-73.0984074332219, 7.11048975086786], [-73.1028853231597, 7.11264349800716], [-73.1034105627149, 7.11736640149698], [-73.099458009805, 7.11993541198935], [-73.0999832769417, 7.12465790562334], [-73.1044609995171, 7.12681153456772], [-73.1049861967651, 7.13153376405], [-73.101033768908, 7.13410221879115], [-73.1015589937385, 7.13882403822639], [-73.1060365489571, 7.14097754866183], [-73.1099890646308, 7.13840929078896], [-73.1144668230129, 7.14056278481835], [-73.1149918804636, 7.14528448550834], [-73.1194696566457, 7.14743791182682], [-73.1234225605541, 7.14486968870668], [-73.1279005396073, 7.14702309847301], [-73.1284254296032, 7.15174468002278], [-73.1329034262729, 7.15389802180768], [-73.1334282463372, 7.15861933848083], [-73.1379062605544, 7.16077261211542], [-73.1418596397295, 7.15820462051988], [-73.1413349172631, 7.15348315850523], [-73.1368567180148, 7.15132983341858], [-73.1363319256003, 7.14660810645394], [-73.1402854300421, 7.14403955923741], [-73.1397606652865, 7.13931742208272], [-73.1352822984799, 7.13716397753836], [-73.1347574637729, 7.13244157568594], [-73.1387110934828, 7.12987247297807], [-73.1381862864337, 7.12514966112669], [-73.142140128863, 7.12258019979645], [-73.1416153494807, 7.1178569780478], [-73.1455694046213, 7.11528715818678], [-73.1450446529146, 7.1105635266426], [-73.1405657484181, 7.10840986039033], [-73.1400409267369, 7.10368596458026], [-73.1439951072025, 7.10111558958563], [-73.1434703131961, 7.09639128417165], [-73.1389912410723, 7.09423749924439], [-73.138466377088, 7.08951292981744], [-73.1339873224433, 7.08735907765101], [-73.1334623884876, 7.08263424437432], [-73.1374166068128, 7.08006311769269], [-73.1368917005209, 7.07533787509384], [-73.1324124782664, 7.07318390480332], [-73.1284583474704, 7.07575522817474], [-73.1239793279905, 7.07360124203743], [-73.1234542541119, 7.06887588155119], [-73.1189752523178, 7.06672182868226], [-73.1184501084876, 7.06199620483631], [-73.1139711244483, 7.05984208540498], [-73.1134459106731, 7.05511619836279], [-73.1089669444575, 7.05296201253834], [-73.1050133773845, 7.05553376455914], [-73.1005346144658, 7.05337956323729], [-73.0965813482964, 7.05595115376194], [-73.0921027888523, 7.05379693698705], [-73.0881498237287, 7.05636836597436], [-73.0836714679368, 7.0542141337908], [-73.0797188040014, 7.05678540119962], [-73.0802444077395, 7.06151070396277], [-73.0762919569269, 7.06408161290349], [-73.0768175882049, 7.06880650655388], [-73.0812955728857, 7.07096063748264], [-73.0818211342947, 7.07568526814031], [-73.0778688084318, 7.07825562165607], [-73.0783943973816, 7.08297984300886], [-73.0828722147868, 7.08513385700364]], [[-73.1561408544408, 7.05775232783414], [-73.1521856976639, 7.06032469012291], [-73.1527104508997, 7.06505089658506], [-73.1571902631843, 7.0672048862074], [-73.1577149464025, 7.07193082901634], [-73.1621947759136, 7.07408475150031], [-73.1627193891077, 7.07881043049265], [-73.1671992357761, 7.08096428566904], [-73.1677237789396, 7.08568970068145], [-73.1722036426964, 7.08784348838107], [-73.1761591481403, 7.08527191241003], [-73.1756347027631, 7.0805463521778], [-73.1795904207884, 7.07797441827432], [-73.1790660031693, 7.07324844878129], [-73.1830219337677, 7.07067615703755], [-73.1824975439156, 7.06594977838607], [-73.1780171256321, 7.06379583666443], [-73.1774926657131, 7.05906919413966], [-73.1730122643801, 7.05691518514375], [-73.1724877344007, 7.05218827890911], [-73.1680073500873, 7.0500342028082], [-73.1674827500541, 7.04530703302717], [-73.1630023828291, 7.04315288999056], [-73.1590468006093, 7.04572596787191], [-73.1595714984171, 7.05045299223772], [-73.1556161289146, 7.05302571236893], [-73.1561408544408, 7.05775232783414]], [[-73.0583963117619, 6.9794144583229], [-73.0623492106011, 6.97684038069311], [-73.061823255381, 6.97211120132945], [-73.0573443039318, 6.96995624632347], [-73.0533914935571, 6.97253052072789], [-73.0489127466045, 6.9703755514002], [-73.0449602381698, 6.97294966468868], [-73.0454863881162, 6.97767855049304], [-73.0499649491607, 6.97983346984034], [-73.0539175461581, 6.97725955335472], [-73.0583963117619, 6.9794144583229]], [[-73.0431125830114, 6.99443706989859], [-73.04706475323, 6.99186386952751], [-73.0515431470923, 6.9940186743884], [-73.0520691848306, 6.99874662954195], [-73.0481169260399, 7.00131963307022], [-73.0486429912665, 7.00604717994814], [-73.053121217952, 7.00820187000665], [-73.0570735652524, 7.00562906331567], [-73.0565475973666, 7.00090136973785], [-73.0605001579888, 6.99832820489809], [-73.05997421761, 6.99360010305679], [-73.0554956192405, 6.99144531273404], [-73.0549696089993, 6.98671694940762], [-73.0504910292578, 6.9845620944878], [-73.0465386456458, 6.98713565296228], [-73.0420602705262, 6.98498078360596], [-73.0381081889419, 6.98755418082537], [-73.0386343938338, 6.99228225054384], [-73.0431125830114, 6.99443706989859]]]}}