{"type": "FeatureCollection", "features": [{"type": "Feature", "properties": {"threshold": 70}, "geometry": {"type": "MultiPolygon", "coordinates": [[[[-41.90275228337217, -18.83269168090245], [-41.88933968893255, -18.832328964295453], [-41.892080081765485, -18.843911700594816], [-41.901689797350585, -18.840534975133203], [-41.90275228337217, -18.83269168090245]]], [[[-41.99838975202275, -18.84356570285498], [-41.99726078859265, -18.83778419474887], [-41.98815467995208, -18.83781053595332], [-41.984985411473154, -18.843011054574347], [-41.975359277650874, -18.84616244240841], [-41.97291761121378, -18.849958951933186], [-41.96768942391823, -18.85183435506093], [-41.96210822270253, -18.850328129474203], [-41.960009025195944, -18.853451432719943], [-41.95598342060603, -18.85345718080316], [-41.95561562112411, -18.846991560510563], [-41.96193111020475, -18.841948174483186], [-41.96288522921776, -18.83803917879786], [-41.94995557330908, -18.82791331990071], [-41.9458603489839, -18.830165093020558], [-41.94749109951297, -18.837403927360338], [-41.9420451896221, -18.838711848445122], [-41.939129274348474, -18.844192976172348], [-41.92897876243845, -18.843345237751645], [-41.93196492405256, -18.850490317848987], [-41.93697212917711, -18.852149854469406], [-41.93614553463852, -18.857332237978216], [-41.93910006952889, -18.86420432561147], [-41.94977899995132, -18.8674409112222], [-41.95679412434319, -18.86508526899803], [-41.95975468410226, -18.868732575835086], [-41.95352964828548, -18.875009206406776], [-41.95239554102748, -18.879977489604777], [-41.939191284274244, -18.883443163500367], [-41.943228071514945, -18.901237236288043], [-41.94007219996476, -18.919856076591664], [-41.951162779351336, -18.914886397890672], [-41.95676786680936, -18.908760401552968], [-41.96395590872822, -18.908876784621174], [-41.967562740698995, -18.897427070984854], [-41.97150509757879, -18.895571452258217], [-41.97071411264153, -18.889457917934244], [-41.97552900012271, -18.881637731114456], [-41.97362666901948, -18.876274774788836], [-41.983829296243435, -18.87359173438051], [-41.98054530207208, -18.861812842791117], [-41.98442392540107, -18.858177499575074], [-41.9835726420122, -18.845371189341], [-41.98621874899744, -18.843969497203485], [-41.99618251337223, -18.84653051685484], [-41.99838975202275, -18.84356570285498]], [[-41.95869293068859, -18.887569950959843], [-41.958468642285034, -18.890592885052484], [-41.955508163850425, -18.891202559085652], [-41.95204727776265, -18.884957833139598], [-41.95591334301112, -18.883692034381227], [-41.95869293068859, -18.887569950959843]]], [[[-41.924973490462754, -18.842250470171532], [-41.91313285235061, -18.836598235235744], [-41.909561984206164, -18.837996760907313], [-41.909876768363496, -18.840460175599663], [-41.91871068727193, -18.844503677787255], [-41.924973490462754, -18.842250470171532]]], [[[-41.9967156977162, -18.887264713005475], [-41.99562309216603, -18.881474454498434], [-41.989331315270405, -18.88076903327226], [-41.9877571472152, -18.887578326205496], [-41.9967156977162, -18.887264713005475]]]]}}, {"type": "Feature", "properties": {"threshold": 80}, "geometry": {"type": "MultiPolygon", "coordinates": [[[[-41.99911596984602, -18.843442890207502], [-41.99749270008617, -18.831761556752713], [-41.99489830334741, -18.831236679743014], [-41.991615446798015, -18.8371872318309], [-41.985992019278825, -18.83893041739831], [-41.984985411473154, -18.843011054574347], [-41.97533083326078, -18.844549392382596], [-41.973478287573975, -18.849101843916394], [-41.96852236272069, -18.851014312942006], [-41.95853541382559, -18.84943348162822], [-41.95694453566392, -18.846364586957844], [-41.962834554366, -18.837889189813687], [-41.94995557330908, -18.82791331990071], [-41.94584628016478, -18.82935854507465], [-41.94749109951297, -18.837403927360338], [-41.9420451896221, -18.838711848445122], [-41.939129274348474, -18.844192976172348], [-41.92897876243845, -18.843345237751645], [-41.93196492405256, -18.850490317848987], [-41.93697212917711, -18.852149854469406], [-41.93614553463852, -18.857332237978216], [-41.93910006952889, -18.86420432561147], [-41.94977899995132, -18.8674409112222], [-41.95679412434319, -18.86508526899803], [-41.95975468410226, -18.868732575835086], [-41.95213873483161, -18.87787840293077], [-41.94229502643308, -18.87564075983287], [-41.93912089286198, -18.87941042175961], [-41.94306537409312, -18.90091621819349], [-41.93959679830441, -18.909404179230496], [-41.94007219996476, -18.919856076591664], [-41.96395590872822, -18.908876784621174], [-41.967562740698995, -18.897427070984854], [-41.97150509757879, -18.895571452258217], [-41.97071411264153, -18.889457917934244], [-41.97552900012271, -18.881637731114456], [-41.97362666901948, -18.876274774788836], [-41.983829296243435, -18.87359173438051], [-41.981553347762556, -18.86125090533429], [-41.98443469901615, -18.858099296470478], [-41.9835726420122, -18.845371189341], [-41.98693603995266, -18.84416416180094], [-41.99454560574543, -18.84978382489696], [-41.99911596984602, -18.843442890207502]], [[-41.95869293068859, -18.887569950959843], [-41.958468642285034, -18.890592885052484], [-41.955508163850425, -18.891202559085652], [-41.95247264442527, -18.884889103354755], [-41.95591334385224, -18.883692034743664], [-41.95869293068859, -18.887569950959843]]], [[[-41.924973490462754, -18.842250470171532], [-41.91831357277016, -18.833350276337708], [-41.91021700342656, -18.835090594347893], [-41.907036514317625, -18.827011997256438], [-41.90365700463155, -18.827265538076816], [-41.90168048636692, -18.83179451947772], [-41.8960137982562, -18.832039594247707], [-41.893216959111946, -18.8296100029564], [-41.88827365950251, -18.831873772255577], [-41.892435356961236, -18.8441070171209], [-41.903078012088706, -18.840044564751796], [-41.91151190542379, -18.840739513557722], [-41.91887350632042, -18.844531868146824], [-41.924973490462754, -18.842250470171532]]], [[[-41.99900991879958, -18.884408418872795], [-41.989679630729555, -18.88056260787987], [-41.98755459954884, -18.88805327471856], [-41.99961755475374, -18.887588021515697], [-41.99900991879958, -18.884408418872795]]]]}}, {"type": "Feature", "properties": {"threshold": 90}, "geometry": {"type": "MultiPolygon", "coordinates": [[[[-41.99911596984602, -18.843442890207502], [-41.99749270008617, -18.831761556752713], [-41.99489830334741, -18.831236679743014], [-41.991615446798015, -18.8371872318309], [-41.985992019278825, -18.83893041739831], [-41.984379400730134, -18.84339232997363], [-41.97540511522495, -18.84451447746297], [-41.97227115343312, -18.848848354240268], [-41.95853541382559, -18.84943348162822], [-41.95694453566392, -18.846364586957844], [-41.962863761277326, -18.83796299945826], [-41.95010079469588, -18.827917809735133], [-41.94584628016478, -18.82935854507465], [-41.94749109951297, -18.837403927360338], [-41.9420451896221, -18.838711848445122], [-41.9380120906051, -18.844545281598027], [-41.93349105403208, -18.83789218806638], [-41.92529866268741, -18.841247734107785], [-41.91838296038927, -18.82940280797416], [-41.91087173295823, -18.83009983121136], [-41.90780289668331, -18.82698086824648], [-41.90371746387652, -18.82721161739271], [-41.90143956500033, -18.831855986699725], [-41.88873584114987, -18.830550464854245], [-41.884924544797705, -18.83611426382178], [-41.88603820242376, -18.84071980154988], [-41.892516037854655, -18.84412493198328], [-41.9011711179713, -18.841043049618765], [-41.90458959324105, -18.843148506179833], [-41.9118876886785, -18.841057063377658], [-41.91887350632042, -18.844531868146824], [-41.92679099353187, -18.842742008421055], [-41.93202156827559, -18.8505478766262], [-41.936859039229475, -18.851943516217457], [-41.93910006952889, -18.86420432561147], [-41.94977899995132, -18.8674409112222], [-41.956050626946286, -18.865027471241742], [-41.95886458677256, -18.86663420184279], [-41.9594486713311, -18.870336849970364], [-41.952343609482305, -18.877751390784006], [-41.94229502643308, -18.87564075983287], [-41.93909427800223, -18.879485117418113], [-41.93834626208948, -18.886341286522498], [-41.94296025367831, -18.90065122193201], [-41.93873855831141, -18.909495802836396], [-41.94052825736946, -18.920027442829273], [-41.96395590872822, -18.908876784621174], [-41.967562740698995, -18.897427070984854], [-41.971478496086156, -18.895646151506856], [-41.97130581299351, -18.889307851123142], [-41.97643227420958, -18.886618311647045], [-41.97362666901948, -18.876274774788836], [-41.983829296243435, -18.87359173438051], [-41.981553347762556, -18.86125090533429], [-41.98443469901615, -18.858099296470478], [-41.9835726420122, -18.845371189341], [-41.98693603995266, -18.84416416180094], [-41.99454560574543, -18.84978382489696], [-41.99911596984602, -18.843442890207502]], [[-41.95869293068859, -18.887569950959843], [-41.958468642285034, -18.890592885052484], [-41.955508163850425, -18.891202559085652], [-41.95247264442527, -18.884889103354755], [-41.95591334385224, -18.883692034743664], [-41.95869293068859, -18.887569950959843]]], [[[-42.001051001970666, -18.89117271524569], [-42.00357653846193, -18.889482658654416], [-42.003320344876904, -18.88538387837601], [-41.989331315270405, -18.88076903327226], [-41.98751956988922, -18.887899288650082], [-41.99126101205086, -18.89397586317216], [-42.001051001970666, -18.89117271524569]]]]}}, {"type": "Feature", "properties": {"threshold": 95}, "geometry": {"type": "MultiPolygon", "coordinates": [[[[-41.99911596984602, -18.843442890207502], [-41.99749270008617, -18.831761556752713], [-41.99489830334741, -18.831236679743014], [-41.991615446798015, -18.8371872318309], [-41.985992019278825, -18.83893041739831], [-41.984379400730134, -18.84339232997363], [-41.97540511522495, -18.84451447746297], [-41.97227115343312, -18.848848354240268], [-41.95853541382559, -18.84943348162822], [-41.95694453566392, -18.846364586957844], [-41.962863761277326, -18.83796299945826], [-41.95010079469588, -18.827917809735133], [-41.94584628016478, -18.82935854507465], [-41.94734509171764, -18.837590583167863], [-41.93925723356929, -18.841724848450607], [-41.934175330643704, -18.837850663148853], [-41.92584272193135, -18.841000368366586], [-41.91838296038927, -18.82940280797416], [-41.91087173295823, -18.83009983121136], [-41.907720768595105, -18.826970574801372], [-41.90371746387652, -18.82721161739271], [-41.90143956500033, -18.831855986699725], [-41.88873584114987, -18.830550464854245], [-41.884924544797705, -18.83611426382178], [-41.88603820242376, -18.84071980154988], [-41.892516037854655, -18.84412493198328], [-41.9011711179713, -18.841043049618765], [-41.90458959324105, -18.843148506179833], [-41.9118876886785, -18.841057063377658], [-41.91887350632042, -18.844531868146824], [-41.92637415859503, -18.843136447613233], [-41.93202156827559, -18.8505478766262], [-41.936859039229475, -18.851943516217457], [-41.93910006952889, -18.86420432561147], [-41.94977899995132, -18.8674409112222], [-41.956050626946286, -18.865027471241742], [-41.95886458677256, -18.86663420184279], [-41.9594486713311, -18.870336849970364], [-41.952343609482305, -18.877751390784006], [-41.94229502643308, -18.87564075983287], [-41.93909427800223, -18.879485117418113], [-41.93834626208948, -18.886341286522498], [-41.942752610202994, -18.900053520594827], [-41.93873855831141, -18.909495802836396], [-41.94052825736946, -18.920027442829273], [-41.96395590872822, -18.908876784621174], [-41.967562740698995, -18.897427070984854], [-41.971478496086156, -18.895646151506856], [-41.97130581299351, -18.889307851123142], [-41.97643227420958, -18.886618311647045], [-41.97362666901948, -18.876274774788836], [-41.983829296243435, -18.87359173438051], [-41.981553347762556, -18.86125090533429], [-41.98443469901615, -18.858099296470478], [-41.9835726420122, -18.845371189341], [-41.98693603995266, -18.84416416180094], [-41.99454560574543, -18.84978382489696], [-41.99911596984602, -18.843442890207502]], [[-41.95869293068859, -18.887569950959843], [-41.958468642285034, -18.890592885052484], [-41.955508163850425, -18.891202559085652], [-41.95247264442527, -18.884889103354755], [-41.95591334385224, -18.883692034743664], [-41.95869293068859, -18.887569950959843]]], [[[-42.00706009820075, -18.89142926415105], [-42.00576125431707, -18.88685790458604], [-41.98975965308364, -18.880542153379807], [-41.98744520855844, -18.883709193917223], [-41.98908588826879, -18.891948450780145], [-41.98200926633307, -18.89454837630808], [-41.981773487694596, -18.897750583282125], [-41.98563118968705, -18.903847334320357], [-41.99219876605591, -18.903861615267946], [-41.99195311317347, -18.897208309271292], [-41.99828899907732, -18.894111724892127], [-42.00578454600996, -18.896335816247205], [-42.00706009820075, -18.89142926415105]]]]}}]}