{"type": "Feature", "properties": {"city": "Islamabad / Rawalpindi", "country": "Pakistan", "real_area": 484.51}, "geometry": {"type": "MultiLineString", "coordinates": [[[73.1336808638666, 33.6754094494636], [73.1344165900369, 33.6704280916618], [73.1400928958158, 33.6684737789268], [73.1450340372214, 33.6715005010145], [73.1442991210538, 33.6764819474982], [73.1386222534477, 33.6784365832465], [73.1336808638666, 33.6754094494636]], [[73.1438924511064, 33.7522990721737], [73.1382089099391, 33.7542549463293], [73.1332617417378, 33.7512261512654], [73.1339983634195, 33.7462418938223], [73.1396813414313, 33.7442863427309], [73.1404173864485, 33.7393023213477], [73.1460995391831, 33.7373465946967], [73.1510462097588, 33.7403745663191], [73.1503109765099, 33.7453586762578], [73.1552584452552, 33.7483866494124], [73.1545234474713, 33.7533710840066], [73.1488401689156, 33.7553274570073], [73.1438924511064, 33.7522990721737]], [[72.7263148716836, 33.8005768754226], [72.7206133015065, 33.8025145649148], [72.7156810331123, 33.7994677601726], [72.7099792160707, 33.8014049472407], [72.705047511362, 33.7983577369081], [72.705817860245, 33.7933737538058], [72.7115191036392, 33.7914368841086], [72.7122888689504, 33.786453130321], [72.7073582008993, 33.7834063431703], [72.7081281927252, 33.7784229157727], [72.7138280427632, 33.7764861786416], [72.7145974513194, 33.7715029808854], [72.7096678195108, 33.7684566171567], [72.7104374545252, 33.7634737460738], [72.7161359118676, 33.7615371418785], [72.7210653071772, 33.7645830913868], [72.7267635179275, 33.7626459855664], [72.7275317605899, 33.7576632477677], [72.7332291518107, 33.7557259580011], [72.733996811849, 33.7507434505184], [72.7290678899541, 33.7476983293283], [72.7233710712122, 33.7496353015163], [72.7184427116886, 33.7465897756478], [72.7127456463817, 33.7485262465377], [72.7078178495371, 33.7454803161556], [72.708587354244, 33.7404983291346], [72.714283846903, 33.7385621756177], [72.7150527690305, 33.7335804189919], [72.7207484429617, 33.7316440817766], [72.725675767114, 33.7346891837656], [72.7313711945072, 33.7327523455792], [72.7362990807, 33.7357970431736], [72.7355317762664, 33.740778993037], [72.7404604612459, 33.7438237001293], [72.7461562136371, 33.7418860432673], [72.7510854603607, 33.7449303455763], [72.7567809651782, 33.7429921876775], [72.7617107733381, 33.7460360850388], [72.7674060301731, 33.7440974261425], [72.7681709073083, 33.7391151879501], [72.7738653444625, 33.7371763462706], [72.7787954757391, 33.7402194246426], [72.7844896643119, 33.7382800821884], [72.7852531505538, 33.7332979796533], [72.7909465193327, 33.7313584548647], [72.7958769726417, 33.7344007142444], [72.8015700922408, 33.7324606889039], [72.8023321879622, 33.7274787227007], [72.7974019732592, 33.724436877056], [72.7981642969608, 33.719455237913], [72.8038560263835, 33.7175153492517], [72.8087860023427, 33.7205567812026], [72.8080244876548, 33.7255385154745], [72.8129552619123, 33.7285799558593], [72.8186473118271, 33.7266392483045], [72.8235786453308, 33.7296802832655], [72.822818168195, 33.7346624393617], [72.8171255481812, 33.7366034656863], [72.8121939754338, 33.7335620171108], [72.8065011054232, 33.7355025429633], [72.8057392378256, 33.7404848360452], [72.810671049679, 33.7435266982762], [72.8163644900557, 33.7415858537358], [72.8212968614843, 33.7446273102587], [72.8205360318556, 33.7496100249244], [72.8148420210649, 33.7515511882143], [72.8140806101457, 33.7565341345081], [72.8190140199162, 33.7595760123524], [72.8182528375517, 33.7645592849795], [72.8125574353245, 33.7665005848668], [72.8076237862226, 33.763458293364], [72.8083857786476, 33.7584751156664], [72.8034529287815, 33.7554328318294], [72.8042151495318, 33.7504499805457], [72.7992830987098, 33.7474077046178], [72.7935885882751, 33.7493478662697], [72.792825557794, 33.7543306223392], [72.7871302270312, 33.7562706014924], [72.7821984979006, 33.7532275061618], [72.7765029181189, 33.7551669842527], [72.7757384961134, 33.7601498759383], [72.7700420961166, 33.7620891710817], [72.7692770920023, 33.7670722935767], [72.7635798717133, 33.7690114055069], [72.7628142852748, 33.7739947585868], [72.7571162446168, 33.7759336870381], [72.7521843625691, 33.7728889443859], [72.7464860738724, 33.7748273711853], [72.7457190948481, 33.7798108585101], [72.7400199858962, 33.7817491013816], [72.7392524239882, 33.7867328187182], [72.7441847811752, 33.789778389456], [72.7434174464722, 33.7947624329415], [72.7483506037692, 33.7978080119231], [72.7540508581198, 33.7958691333408], [72.7589845778565, 33.7989143062972], [72.7582182811374, 33.8038987718273], [72.7525174540142, 33.8058379683573], [72.7475834964148, 33.8027923813755], [72.7418824211969, 33.8047310755989], [72.7369490263572, 33.8016850825321], [72.7312477034548, 33.8036232744095], [72.7263148716836, 33.8005768754226]], [[72.7480196764326, 33.7648609531706], [72.7487863000229, 33.7598780226162], [72.7438560168937, 33.7568332972575], [72.7381588728652, 33.7587710884271], [72.7373914396882, 33.7637539227056], [72.7423219600944, 33.7667990621244], [72.7480196764326, 33.7648609531706]], [[73.131473003421, 33.6903546497277], [73.1322090705847, 33.6853727285637], [73.1378867618896, 33.6834182671814], [73.1428289481376, 33.6864454040022], [73.142093691337, 33.6914274138883], [73.1364154378951, 33.6933821982657], [73.131473003421, 33.6903546497277]], [[72.8705870632613, 33.633366268396], [72.8713426586169, 33.6283877568546], [72.8770239913845, 33.6264460267019], [72.8819502957932, 33.629482488643], [72.8811955076704, 33.6344610939194], [72.8755136078748, 33.6364031435538], [72.8705870632613, 33.633366268396]], [[72.9445325434447, 33.6789055149503], [72.9452829502233, 33.6739248983557], [72.9509658510464, 33.6719790778102], [72.9558989112232, 33.6750135533906], [72.955149313307, 33.6799942622976], [72.9494658463204, 33.6819404033458], [72.9445325434447, 33.6789055149503]], [[73.2398762328971, 33.6860936506849], [73.2406038548106, 33.6811114152543], [73.2462775244285, 33.6791521333562], [73.2512241317015, 33.6821747625002], [73.2504973207277, 33.68715708457], [73.2448230915115, 33.689116690891], [73.2398762328971, 33.6860936506849]], [[72.8675377027001, 33.5824948222462], [72.8667823490247, 33.5874715475286], [72.8611041012016, 33.5894121783246], [72.8561817736128, 33.5863757645493], [72.8569379332531, 33.5813991332823], [72.8626156145485, 33.5794588217412], [72.8633711965371, 33.5744824260121], [72.8690480608727, 33.5725419368613], [72.8739699094512, 33.5755775241375], [72.8732151332984, 33.5805540137593], [72.8675377027001, 33.5824948222462]], [[73.1979097740366, 33.5681846413732], [73.1986393166027, 33.5632071319009], [73.2043040719317, 33.5612517198671], [73.2092398431797, 33.5642734935609], [73.2085111083417, 33.5692510904994], [73.2134476733066, 33.5722728682269], [73.2127191738537, 33.5772507929577], [73.2070533014523, 33.5792068526112], [73.202116487091, 33.576184663659], [73.2028457944978, 33.5712068263122], [73.1979097740366, 33.5681846413732]], [[73.1913388246499, 33.6129907425421], [73.1920693807842, 33.608011530688], [73.1977382793667, 33.6060556612722], [73.2026771812227, 33.6090786800175], [73.2019474338941, 33.6140579794563], [73.196277975874, 33.6160141725994], [73.1913388246499, 33.6129907425421]], [[73.2041363380992, 33.5991206479048], [73.2048657476988, 33.5941419153647], [73.2105330011446, 33.592185702925], [73.2154714038688, 33.5952078991744], [73.2147428028087, 33.6001867190559], [73.2090749904552, 33.6021432553808], [73.2041363380992, 33.5991206479048]], [[72.8580796762823, 33.6093211501158], [72.858835957357, 33.6043436250076], [72.8645155893227, 33.6024028529309], [72.8694395070694, 33.6054392866995], [72.875118888089, 33.6034980172086], [72.8800433612205, 33.606534047397], [72.8792886933428, 33.6115117602556], [72.8736087456546, 33.6134533491862], [72.8728534997868, 33.6184312971825], [72.8671727340001, 33.6203727079149], [72.8622477810465, 33.6173358512583], [72.8630038336913, 33.6123579971582], [72.8580796762823, 33.6093211501158]], [[72.8618795166175, 33.6552239299068], [72.8668073377094, 33.6582616404709], [72.8660510426572, 33.6632412772889], [72.8603661186322, 33.6651831095545], [72.8554380575633, 33.6621449856684], [72.8497528824692, 33.6640863192156], [72.8448253783993, 33.6610477907764], [72.8455832890515, 33.6560683422065], [72.8512678960545, 33.654127327816], [72.8520252275611, 33.6491481131685], [72.8577090158884, 33.6472069194407], [72.862636040503, 33.6502446211563], [72.8618795166175, 33.6552239299068]], [[72.7978084244979, 33.6865283281422], [72.7985702701136, 33.6815481361624], [72.8042586515667, 33.6796088405059], [72.8091857569653, 33.6826494183192], [72.8148738891366, 33.6807096232742], [72.8156343465511, 33.6757295690756], [72.8213216599251, 33.6737895934509], [72.8262490849611, 33.6768293532899], [72.8319361484571, 33.6748888784998], [72.8368641314357, 33.6779282338282], [72.836105290199, 33.6829084774192], [72.8410340703792, 33.6859478415197], [72.8402754576356, 33.6909284127759], [72.834587256313, 33.6928695254519], [72.83382806361, 33.6978503297589], [72.8281390427686, 33.6997912618752], [72.8232097838652, 33.6967510707583], [72.8175205128972, 33.6986915032394], [72.8125918125826, 33.6956509072674], [72.8133526221793, 33.6906702924375], [72.8084247194182, 33.6876297054234], [72.8027357683723, 33.6895693196239], [72.7978084244979, 33.6865283281422]], [[73.2076827090208, 33.7587175029588], [73.2084136454072, 33.753732629068], [73.2140947781438, 33.7517735879771], [73.2190455360554, 33.7547990967578], [73.2183154122305, 33.7597840578938], [73.2126337179026, 33.7617434230382], [73.2076827090208, 33.7587175029588]], [[72.776576765678, 33.6843228620771], [72.7773402271313, 33.6793428609565], [72.7830291059255, 33.6774045641963], [72.7879550932639, 33.6804459503335], [72.7871924396794, 33.6854260469854], [72.7815029908558, 33.6873646620028], [72.776576765678, 33.6843228620771]], [[72.9237195925846, 33.7096483654255], [72.9229671017973, 33.7146302462296], [72.9172795291489, 33.7165754940691], [72.9123450148144, 33.7135385409727], [72.913098315117, 33.7085567530944], [72.91878532027, 33.7066118253526], [72.9195380414379, 33.7016302712844], [72.9252242255669, 33.6996851644519], [72.9301582557254, 33.702721291543], [72.9294063439423, 33.7077029384142], [72.9237195925846, 33.7096483654255]], [[73.1013713428112, 33.7480019352593], [73.1021103996276, 33.7430179450769], [73.1077941623602, 33.7410638903582], [73.1127394320701, 33.744093503217], [73.1120011868701, 33.7490775826908], [73.1063168603135, 33.7510319600486], [73.1013713428112, 33.7480019352593]], [[72.8831036733012, 33.657414424883], [72.8838585816485, 33.6524349285368], [72.8895416156405, 33.650492239754], [72.8944703084225, 33.6535287276849], [72.8937162079921, 33.6585083175237], [72.8880326068315, 33.6604513259731], [72.8831036733012, 33.657414424883]], [[72.9232999044183, 33.6767253065394], [72.924051928629, 33.6717448751808], [72.9297353376936, 33.669800051459], [72.9346672891199, 33.6728353389122], [72.9339160735764, 33.6778158629906], [72.9282320979083, 33.6797610069301], [72.9232999044183, 33.6767253065394]], [[73.2058238118585, 33.6978449581601], [73.2065542045016, 33.6928624202321], [73.2016087330575, 33.6898377389774], [73.2023393618223, 33.684855526507], [73.208014651267, 33.6828979078828], [73.2087447054411, 33.6779159335958], [73.2144191701692, 33.6759581419811], [73.2193641409618, 33.6789820006871], [73.218634897448, 33.6839640622264], [73.2235806647552, 33.6869879224275], [73.2228516576719, 33.6919703094419], [73.227798221682, 33.6949941708939], [73.2270694511749, 33.6999768832009], [73.2213933055132, 33.7019356470029], [73.2164464907423, 33.6989113743394], [73.2107700801859, 33.7008696408683], [73.2058238118585, 33.6978449581601]], [[73.1312622219506, 33.7282618637535], [73.1319987370054, 33.7232784923941], [73.1270542114754, 33.7202501150729], [73.1277909613307, 33.7152670689991], [73.1334714256619, 33.71331231141], [73.1384157028647, 33.71634027697], [73.1376797640938, 33.721323411846], [73.1426248388984, 33.724351379671], [73.1418891351559, 33.7293348397504], [73.1362075452664, 33.7312902433192], [73.1312622219506, 33.7282618637535]], [[73.1440959052914, 33.714385021287], [73.1448312679942, 33.7094021231172], [73.1505106458413, 33.7074466925642], [73.1512454326915, 33.7024640313229], [73.1569239860414, 33.7005084261649], [73.1618683145129, 33.7035351590227], [73.1675466051835, 33.701579056185], [73.1724914816655, 33.7046053795752], [73.1717583167351, 33.709588217319], [73.1767039904605, 33.7126145425682], [73.1759710611785, 33.7175977055515], [73.1809175323361, 33.7206240324156], [73.1865966830762, 33.7186667847958], [73.1915437019411, 33.7216927015849], [73.1908118200096, 33.7266762774051], [73.1957596365, 33.7297021953413], [73.2014390847207, 33.7277441260407], [73.2063874486097, 33.7307696335182], [73.2120666322616, 33.7288110662471], [73.2170155432362, 33.7318361631056], [73.2162855213219, 33.7368202384988], [73.2106057764314, 33.7387791297795], [73.2098751790866, 33.743763442411], [73.2041946078983, 33.7457221595101], [73.2034634349068, 33.7507067091576], [73.1977820373374, 33.75266525181], [73.1928323745615, 33.74963892093], [73.1871507125665, 33.7515969650994], [73.1864181513387, 33.7565816638856], [73.1807356630631, 33.7585395331575], [73.175786298308, 33.7555123799791], [73.1765196718156, 33.7505277690522], [73.1715711054288, 33.7475006167139], [73.165888915805, 33.7494576637844], [73.1609408980824, 33.7464301009577], [73.1616753194685, 33.741445902668], [73.1567280999204, 33.7384183411498], [73.157462756854, 33.7334344676161], [73.1631438216365, 33.7314780673376], [73.1638779024705, 33.7264944304316], [73.1589317300537, 33.7234672820808], [73.1596660463718, 33.7184839702137], [73.1547206715668, 33.7154568236807], [73.1490407314515, 33.7174125774138], [73.1440959052914, 33.714385021287]], [[73.1527146658325, 33.6924992715434], [73.1534491121757, 33.6875171731396], [73.1485063776147, 33.6844904451791], [73.1492410589427, 33.6795086726442], [73.1549176645372, 33.67755353964], [73.1598601504222, 33.6805798559887], [73.1655364935989, 33.6786242257724], [73.170479527168, 33.6816501331634], [73.1697464665833, 33.6866320822854], [73.1640695619806, 33.6885880358591], [73.1633359261894, 33.6935702225763], [73.1576581972543, 33.6955260020745], [73.1527146658325, 33.6924992715434]], [[72.6791471004451, 33.826041583166], [72.6799197857703, 33.821056685058], [72.6856243100286, 33.8191205573255], [72.6905567236485, 33.8221690106958], [72.6897848490672, 33.827154006192], [72.6840797500896, 33.8290904509637], [72.6791471004451, 33.826041583166]], [[73.0996126663329, 33.6871309193835], [73.1003511640169, 33.6821492656106], [73.1060296383671, 33.6801962968125], [73.1109701778065, 33.6832246592506], [73.1166483915479, 33.6812711928811], [73.121589480235, 33.6842991469407], [73.120852602803, 33.6892809791786], [73.1151738264801, 33.6912347682605], [73.1144363730944, 33.6962168373829], [73.1087567730931, 33.6981704513845], [73.1038151893554, 33.6951416735968], [73.1045534530473, 33.690159693727], [73.0996126663329, 33.6871309193835]], [[73.2297146191305, 33.5713812831592], [73.2304417382339, 33.5664035118995], [73.2361057023999, 33.5644466165772], [73.2410431052816, 33.5674671683485], [73.2403167941846, 33.5724450264631], [73.2346522721699, 33.5744022459858], [73.2297146191305, 33.5713812831592]], [[72.8330925355178, 33.5612400738738], [72.8338501841716, 33.5562645265087], [72.8395264158044, 33.5543256689215], [72.8444455653563, 33.5573620398059], [72.8436887218867, 33.5623376816306], [72.8380119236497, 33.5642768581454], [72.8330925355178, 33.5612400738738]], [[73.1507100812109, 33.6695456911648], [73.1514444222033, 33.6645644823545], [73.1465035291061, 33.6615381719195], [73.1472381048753, 33.6565572894425], [73.1529127640347, 33.6546026289283], [73.1536467649258, 33.6496219844465], [73.1487069161973, 33.6465960889646], [73.1494411518021, 33.641615771098], [73.1445020988125, 33.6385898792025], [73.1388285621136, 33.640543893557], [73.138093517226, 33.6455241228217], [73.1324191577897, 33.6474779635778], [73.1274804047017, 33.6444512521271], [73.1218057841421, 33.6464045961923], [73.1210693550048, 33.6513849745022], [73.1153939118099, 33.65333814452], [73.1146569073965, 33.6583187604591], [73.1089806414845, 33.6602717561651], [73.1082430615801, 33.6652526095113], [73.1131825571435, 33.6682805563579], [73.1124452112516, 33.6732617361834], [73.1067675600476, 33.6752148799022], [73.101827817259, 33.6721865211722], [73.1025659728694, 33.667205430641], [73.0976270265425, 33.6641770758628], [73.0919496776666, 33.666129399704], [73.0912107124329, 33.6711104007368], [73.0855325408613, 33.6730625495525], [73.0847929995742, 33.6780437874258], [73.0791140052256, 33.6799957609513], [73.0783738876701, 33.6849772354427], [73.0726940704632, 33.6869290334133], [73.0677549343109, 33.6838990347124], [73.0620748578993, 33.6858503347975], [73.0613333539358, 33.6908319556153], [73.066272736278, 33.6938623664514], [73.0719533764244, 33.6919107443004], [73.0768933095823, 33.694940747116], [73.0761528489973, 33.6999227841634], [73.0810935793501, 33.70295279085], [73.086774523628, 33.7010003484024], [73.0917158044914, 33.7040299466838], [73.0909763879812, 33.7090123994109], [73.095918466235, 33.7120420010958], [73.1015997138382, 33.7100887380496], [73.1023383197771, 33.7051061958254], [73.1080187435385, 33.7031527571691], [73.1129611244888, 33.7061815381569], [73.1122233292165, 33.711164169674], [73.106542342297, 33.7131179309446], [73.1058039705577, 33.718100798801], [73.110747396602, 33.721129994632], [73.1100092592075, 33.7261131879383], [73.104326884711, 33.7280670961147], [73.1035881705512, 33.7330505254372], [73.0979049715983, 33.7350042575784], [73.0971656804576, 33.7399879226944], [73.0914816569663, 33.7419414785352], [73.0907417886291, 33.7469253792217], [73.0850569405179, 33.7488787584971], [73.0801125250433, 33.7458479146961], [73.0808532048059, 33.74086410371], [73.0759095876518, 33.7378332627636], [73.0702250438659, 33.7397858207192], [73.0694835527737, 33.7447695418006], [73.0637981847387, 33.7467219228207], [73.0588548725398, 33.7436902606535], [73.0595971748658, 33.7387066296812], [73.0652819781875, 33.7367545707328], [73.0660237029193, 33.7317711749637], [73.0610814353654, 33.7287399282998], [73.055397196712, 33.7306916652382], [73.0504554809391, 33.7276600099195], [73.0447709833793, 33.7296112479498], [73.0440276367327, 33.7345944631326], [73.0383423155619, 33.7365455239382], [73.0334009061803, 33.7335130478007], [73.0341450636399, 33.7285299232176], [73.0398298196988, 33.726579184138], [73.0405733993832, 33.7215962946135], [73.0356330336244, 33.7185642348157], [73.0299488426324, 33.7205146522309], [73.0292044523631, 33.7254974510741], [73.0235194382128, 33.7274476911604], [73.0185793796508, 33.724414810847], [73.0193245804084, 33.7194321028893], [73.0143853197542, 33.7163992270376], [73.0151307529484, 33.7114168450838], [73.0101922900121, 33.7083839739375], [73.0109379554981, 33.7034019181696], [73.0060002900897, 33.7003690519723], [73.0003167146481, 33.7023178290675], [72.9953796022439, 33.6992845555335], [72.989695770189, 33.7012328339774], [72.9889484849294, 33.7062147070358], [72.9832638308078, 33.7081628077586], [72.9783270278373, 33.7051287144167], [72.9726421176961, 33.707076316262], [72.9677058686681, 33.7040418158455], [72.9620207029147, 33.7059889187714], [72.9570850081393, 33.7029540114428], [72.9513995871809, 33.7049006154075], [72.9506492944609, 33.7098824472733], [72.9449630519164, 33.7118288726994], [72.9400276689117, 33.7087931457616], [72.9407787712121, 33.7038114062911], [72.9358441858716, 33.700775685625], [72.9365955188656, 33.69579427291], [72.9422806278793, 33.6938484883504], [72.9430313822993, 33.6888673100149], [72.9487156702597, 33.6869213470786], [72.9536497702451, 33.6899562420284], [72.9528998250465, 33.6949375127177], [72.9578347223318, 33.6979724139787], [72.9635193217836, 33.6960256317403], [72.9642684576635, 33.691044268901], [72.9699522356882, 33.6890973086539], [72.9707007934705, 33.6841161806626], [72.9763837501478, 33.6821690426717], [72.9771317300474, 33.6771881497514], [72.9721975623575, 33.6741544866926], [72.9729457735153, 33.6691739208484], [72.9786273434678, 33.6672269262467], [72.9793749770415, 33.6622465957967], [72.985055726072, 33.6602994240613], [72.9858027822765, 33.6553193292284], [72.9808698980485, 33.6522864978378], [72.9751897141634, 33.6542333486861], [72.9744418493918, 33.659213351778], [72.9687608448506, 33.6611600255732], [72.9680124025788, 33.6661402641596], [72.9623305773019, 33.6680867606372], [72.9573977599593, 33.6650526978301], [72.9581470108321, 33.6600725513109], [72.953214990045, 33.6570384953404], [72.9475334757019, 33.6589841731303], [72.9426020088101, 33.6559497114271], [72.9433522987009, 33.6509699847805], [72.9490332472386, 33.6490246274508], [72.9497829594518, 33.6440451361539], [72.9448525312063, 33.6410110945857], [72.945602473874, 33.636031931172], [72.9406728416144, 33.6329978971693], [72.9349930245492, 33.6349426137632], [72.9342422740613, 33.6399216846627], [72.928561637431, 33.6418662238136], [72.9236323172523, 33.6388313718361], [72.9179514271763, 33.6407754131656], [72.9171992911119, 33.6457546265523], [72.9115175815789, 33.6476984899907], [72.9107648674461, 33.6526779383595], [72.9050823383775, 33.6546216236422], [72.9001530901562, 33.6515855406317], [72.900906612174, 33.6466061854294], [72.9065885745592, 33.644662820037], [72.9073415183786, 33.639683699694], [72.913022661494, 33.637740156227], [72.9137750273295, 33.6327612709664], [72.9088470576079, 33.6297260222634], [72.909599653071, 33.62474746531], [72.9152794108894, 33.6228040640234], [72.916031428667, 33.6178257424753], [72.9217103676383, 33.6158821637237], [72.9266378546409, 33.6189165864828], [72.9323165404183, 33.6169725103783], [72.9372445812751, 33.6200065285217], [72.9429230134527, 33.6180619551054], [72.9436728393871, 33.6130836838745], [72.9493504524231, 33.6111389336246], [72.9542788046298, 33.6141721342029], [72.9599561634739, 33.6122268868662], [72.9607046052097, 33.6072487595027], [72.966381144805, 33.6053033357802], [72.9671290098881, 33.6003254448568], [72.9728047303139, 33.5983798450127], [72.9735520189586, 33.5934021907517], [72.9792269202941, 33.5914564150501], [72.9799736327143, 33.5864789976736], [72.985647715039, 33.5845330463785], [72.9905756487685, 33.587564191593], [72.9898297432555, 33.592541700627], [72.9947584716995, 33.5955728535434], [73.0004328623196, 33.5936260848948], [73.0011779608291, 33.5886484844067], [73.0068515320675, 33.586701540532], [73.0075960548276, 33.5817241773949], [73.0026678132529, 33.5786938494303], [73.0034125672199, 33.5737168150759], [72.9984851199964, 33.5706864948522], [72.9992301050267, 33.5657097894614], [73.0049017307958, 33.5637633129692], [73.0056461404571, 33.5587868453506], [73.0007197306686, 33.5557569455622], [72.9950486679154, 33.5577031009746], [72.9901228088276, 33.55467279696], [72.9908682555538, 33.5496967500385], [72.9859431902508, 33.5466664544919], [72.9866888676098, 33.5416907370761], [72.992358804467, 33.5397452236385], [72.99728362686, 33.5427751066942], [73.0029533084791, 33.5408290979221], [73.0078786812501, 33.5438585770359], [73.0135481072269, 33.5419120729711], [73.0142915979604, 33.5369364110049], [73.0199602056685, 33.5349897330092], [73.0248858848348, 33.5380183956941], [73.0241431999981, 33.5429941486662], [73.0290696726006, 33.5460228194126], [73.0347385860805, 33.5440753248885], [73.0396656081361, 33.5471035912095], [73.0453342647614, 33.5451556015192], [73.0460753375174, 33.5401796671447], [73.0411485597667, 33.5371518130261], [73.0418898642273, 33.5321762080316], [73.036963879738, 33.5291483617713], [73.0377054157595, 33.5241730863374], [73.0433721305698, 33.5222255665707], [73.044113092504, 33.5172505302377], [73.0497789891011, 33.5153028375141], [73.0547044849435, 33.5183298594571], [73.0539643286094, 33.523304986227], [73.0588906173499, 33.5263320160675], [73.0645568177499, 33.5243835070283], [73.0694836546899, 33.5274101324682], [73.0751495972794, 33.5254611288564], [73.0800769821103, 33.528487349735], [73.0857426664855, 33.5265378515933], [73.0864804054491, 33.5215624547313], [73.0815532659527, 33.5185366458043], [73.0822912373205, 33.5135615784574], [73.0773648905528, 33.5105357770027], [73.0717003272346, 33.5124846309576], [73.066774528037, 33.5094584252262], [73.0675135370984, 33.5044837775651], [73.0625885304357, 33.5014575797706], [73.0633277713881, 33.4964832620669], [73.0584035570724, 33.4934570724512], [73.0591430297724, 33.4884830848852], [73.0648059118367, 33.486535196748], [73.0655448113849, 33.4815614492659], [73.0712068758205, 33.4796133893039], [73.0719452024301, 33.4746398821265], [73.0776064493173, 33.4726916506028], [73.0825299294111, 33.4757166042542], [73.0881909184131, 33.473767879316], [73.093114945122, 33.4767924293214], [73.0987756758362, 33.4748432110115], [73.103700248852, 33.4778673572108], [73.1029643366852, 33.4828411335075], [73.1078897015151, 33.4858652875001], [73.1071540219369, 33.4908393938886], [73.1120801787684, 33.4938635554325], [73.1113447319226, 33.4988379917323], [73.116271680943, 33.5018621605853], [73.1155364669733, 33.506836926616], [73.1098734983677, 33.5087874345686], [73.1049463033004, 33.5057628539532], [73.0992830755275, 33.5077128679705], [73.0943564270984, 33.50468788282], [73.0886929405613, 33.506637402859], [73.087955542461, 33.5116122302975], [73.0928824364901, 33.5146376273151], [73.0985464830496, 33.5126877849931], [73.1034739240315, 33.5157127774132], [73.1091377116067, 33.513762440972], [73.1140656992325, 33.5167870286346], [73.1133301454095, 33.5217623644892], [73.1182589257812, 33.5247869589567], [73.1239230135948, 33.5228358058128], [73.1288523403068, 33.5258599951401], [73.1345161681092, 33.5239083478224], [73.1352501097643, 33.5189328339787], [73.1409131179674, 33.5169810154385], [73.1416464870127, 33.5120057421118], [73.147308675698, 33.5100537526124], [73.1522380542287, 33.5130767134868], [73.1578999821344, 33.5111242302253], [73.1628299057578, 33.5141467857648], [73.168491572481, 33.5121938087847], [73.1692227571149, 33.507218599506], [73.1748836040374, 33.5052654521983], [73.1798138245115, 33.5082871908563], [73.1854744096665, 33.506333550058], [73.1862042163664, 33.501358494062], [73.1918639816209, 33.4994046833836], [73.1925932167482, 33.4944298689304], [73.1876634925339, 33.4914089529185], [73.188392962053, 33.486434467904], [73.194051350065, 33.4844808111918], [73.194780248306, 33.4795065680392], [73.2004378168453, 33.4775527420513], [73.2053670442744, 33.4805728355882], [73.204638951652, 33.4855471662949], [73.1989808259523, 33.4875013159448], [73.1982521621842, 33.4924758886348], [73.2031824299298, 33.4954963991814], [73.2024540007787, 33.5004713012281], [73.1967944978761, 33.5024256051689], [73.1960654972848, 33.5074007488799], [73.1904051743, 33.5093548831248], [73.1896756020549, 33.5143302682799], [73.1840144589056, 33.5162842325659], [73.1832843147932, 33.5212598589446], [73.1776223513973, 33.5232136530084], [73.1768916352038, 33.5281895203903], [73.1818236889752, 33.5312116816186], [73.1810932072183, 33.5361878777807], [73.186026053953, 33.5392100442367], [73.185295806777, 33.544186568998], [73.1902294466623, 33.547208740439], [73.1894994342117, 33.5521855936185], [73.183834974663, 33.5541401875575], [73.1789010862457, 33.5511176047675], [73.1732363644089, 33.5530717042848], [73.1725049721038, 33.5580487099941], [73.1774391089213, 33.5610717041757], [73.1767079511788, 33.5660490381047], [73.1816428817003, 33.5690720369879], [73.1873087214108, 33.5671172905365], [73.1922441970575, 33.5701398825274], [73.1915140817897, 33.5751176322864], [73.1858476830779, 33.5770727022974], [73.1851169948943, 33.5820506921222], [73.1794497743674, 33.5840055907263], [73.1745138013199, 33.5809821759907], [73.1688463184264, 33.5829365795227], [73.1639108911343, 33.5799127577688], [73.1582431462783, 33.5818666661847], [73.1533082650522, 33.5788424375725], [73.147640258638, 33.5807958508285], [73.146906573506, 33.5857738157825], [73.1412377457426, 33.587727056814], [73.1405034868684, 33.5927052610263], [73.1454388637056, 33.5957303128052], [73.1511082517077, 33.5937767487331], [73.1560441752417, 33.596801393528], [73.161713301647, 33.5948473339705], [73.1666497715672, 33.5978715716214], [73.16591736335, 33.6028502803169], [73.1708546278992, 33.6058745221222], [73.1701224544338, 33.6108535581952], [73.1750605137999, 33.6138778039119], [73.1743285752309, 33.6188571671806], [73.1686577685143, 33.6208121966526], [73.1679252560084, 33.6257917989032], [73.1622536266174, 33.6277466557543], [73.16152053996, 33.6327264967652], [73.1664598917748, 33.6357515691134], [73.1721320816213, 33.6337963889133], [73.1770719801571, 33.6368210531626], [73.1827439072973, 33.6348653767726], [73.1876843522425, 33.637889632763], [73.1933560162712, 33.6359334602271], [73.1982970073143, 33.6389573077987], [73.2039684078262, 33.6370006391612], [73.2046982574766, 33.6320204467578], [73.2103688345005, 33.6300636059752], [73.2153101214104, 33.6330866337179], [73.2209804343299, 33.631129297063], [73.2259222663982, 33.6341519161308], [73.225194035812, 33.6391322830061], [73.2301366632778, 33.6421549043628], [73.2294086689299, 33.6471355975594], [73.2343520919813, 33.6501582209615], [73.2336243340171, 33.6551392402972], [73.2279523429397, 33.6570975492961], [73.2230086692848, 33.6540745147486], [73.2173364134345, 33.6560323274531], [73.2123932852618, 33.6530088837211], [73.2067207650441, 33.6549662000868], [73.2059908131118, 33.6599472841068], [73.2003174687921, 33.6619044279049], [73.1953746365745, 33.658880163833], [73.196105398486, 33.6538991673124], [73.191163362214, 33.6508749056906], [73.1854903144777, 33.6528312292453], [73.1847587426806, 33.6578121380624], [73.1790848712081, 33.6597682886792], [73.1741431321478, 33.6567432069108], [73.1748755137368, 33.6517623860014], [73.1699345706133, 33.6487373071294], [73.1642609969804, 33.6506926376964], [73.1635278056934, 33.655673370494], [73.1684689977073, 33.6586988608707], [73.1677360415062, 33.6636799200193], [73.1620610834301, 33.6656354005918], [73.1613275524019, 33.6706166977579], [73.1556517706077, 33.6725720046785], [73.1507100812109, 33.6695456911648]], [[72.9512820369007, 33.6340867169817], [72.9562122227223, 33.6371203457598], [72.9618915313044, 33.6351746340145], [72.9626400888059, 33.6301956140852], [72.9577101455434, 33.6271623980554], [72.9520314021893, 33.6291077892406], [72.9512820369007, 33.6340867169817]], [[73.0388725628197, 33.6607356708441], [73.0339369184389, 33.6577048718568], [73.028258017101, 33.6596542110656], [73.027514196132, 33.664634670825], [73.0218344732086, 33.6665838339014], [73.0210900753951, 33.6715645297675], [73.0260262096555, 33.6745961534357], [73.0317064968875, 33.6726466688422], [73.0366431828826, 33.6756778854211], [73.0423232123508, 33.673727902956], [73.0430659917058, 33.668747025605], [73.0381295509004, 33.6657162213255], [73.0388725628197, 33.6607356708441]], [[72.9959598574396, 33.6234956456043], [72.9902826993476, 33.6254427049576], [72.9895363344841, 33.6304216723901], [72.9944679356287, 33.6334536719584], [72.9937218020701, 33.6384329672308], [72.9986541990499, 33.6414649734908], [72.9979082969402, 33.6464445964218], [72.9922291895145, 33.6483921216307], [72.9914827104647, 33.653371980624], [72.9964161473427, 33.6564044058573], [73.0020958194277, 33.6544565595386], [73.0028414899446, 33.6494766091305], [73.0085203410812, 33.6475285863914], [73.0092654347891, 33.6425488721679], [73.004332485793, 33.6395172719419], [73.0050778111772, 33.6345378852957], [73.0107552773176, 33.6325900076713], [73.0115000261909, 33.6276108575322], [73.0065681169979, 33.624579676235], [73.0008912149402, 33.6265272326506], [72.9959598574396, 33.6234956456043]], [[73.1042684295506, 33.6193569728869], [73.1050057939501, 33.6143779031113], [73.1000707709101, 33.6113508024005], [73.0943981368639, 33.6133023595999], [73.0894636623991, 33.6102748521983], [73.0837907689261, 33.6122259131855], [73.0830517879853, 33.6172048038391], [73.0879865087104, 33.6202327232025], [73.0936599641463, 33.6182813399164], [73.0985952337627, 33.6213088525267], [73.1042684295506, 33.6193569728869]], [[73.0726887339861, 33.5782522367801], [73.0776200297293, 33.5812797209166], [73.0832904172503, 33.5793294528621], [73.0840289474769, 33.5743520228375], [73.0790978973973, 33.5713249507004], [73.0734280713971, 33.5732748966227], [73.0726887339861, 33.5782522367801]], [[73.1531106303055, 33.6167170081686], [73.1580483915648, 33.6197420730189], [73.1637194605435, 33.6177875394551], [73.1644522078641, 33.6128082643006], [73.1595146948937, 33.6097836109941], [73.1602476768842, 33.6048046631175], [73.155310958726, 33.6017800139451], [73.1496410104418, 33.6037339011195], [73.1489072200201, 33.6087127605959], [73.1538441862839, 33.6117378213323], [73.1531106303055, 33.6167170081686]], [[73.0166212739193, 33.7014526424651], [73.0215594920215, 33.7044851011638], [73.0272425530151, 33.7025353268924], [73.0279868309445, 33.6975534154361], [73.0230488578112, 33.6945213691431], [73.0173663617489, 33.696470821935], [73.0166212739193, 33.7014526424651]], [[73.1471077421713, 33.5479082334656], [73.1520399943095, 33.5509320351178], [73.1577052395118, 33.5489789245751], [73.1584376732311, 33.5440023355076], [73.1535056686807, 33.5409789453929], [73.1478409827932, 33.5429317328425], [73.1471077421713, 33.5479082334656]], [[73.0127092242219, 33.6555402344619], [73.0070298086463, 33.6574885784529], [73.0062843698666, 33.6624688561566], [73.0112191554888, 33.6655008810333], [73.0168991355486, 33.6635522157289], [73.0176437654711, 33.6585718468955], [73.0127092242219, 33.6555402344619]]]}}