{"type": "Feature", "properties": {"city": "Cali", "country": "Colombia", "real_area": 143.92}, "geometry": {"type": "MultiLineString", "coordinates": [[[-76.5020906532734, 3.35591834339858], [-76.5025797581767, 3.36085222514286], [-76.4984732607935, 3.36360654329137], [-76.4989624015049, 3.36854008083905], [-76.5035579261712, 3.37071941635211], [-76.5040469892635, 3.37565272569074], [-76.4999406411152, 3.37840658338999], [-76.5004297400154, 3.38333954826696], [-76.5050250736407, 3.38551877152024], [-76.5055140949266, 3.39045150788489], [-76.5014078960081, 3.39320490490834], [-76.5018969531018, 3.39813729654653], [-76.4977909510159, 3.40089040821273], [-76.4931959395035, 3.398711303771], [-76.4890901819859, 3.40146430551854], [-76.4895793882525, 3.40639623611671], [-76.4854738276435, 3.40914895226287], [-76.4808791085914, 3.40696991341694], [-76.4803897889828, 3.40203809908821], [-76.4757950402485, 3.39985900718246], [-76.4716897723836, 3.40261178889404], [-76.4670951553455, 3.40043270331407], [-76.4666056448743, 3.39550077683052], [-76.4620109983518, 3.39332163848134], [-76.4579060236943, 3.39607448575964], [-76.4583956474278, 3.40100629569274], [-76.4542908699034, 3.40375885710365], [-76.4496965168719, 3.40157978429083], [-76.4455919847755, 3.40433223545219], [-76.4460817574232, 3.4092635836563], [-76.4506759489652, 3.41144259739759], [-76.4511656440966, 3.41637371710034], [-76.4557598063872, 3.41855267802833], [-76.4562494239977, 3.42348356904249], [-76.4608435569649, 3.42566247697404], [-76.46133309705, 3.43059313911245], [-76.4572286173956, 3.43334477675184], [-76.4577181931841, 3.43827509332112], [-76.4623121354018, 3.44045388876764], [-76.4664166631767, 3.43770242693999], [-76.4710107372807, 3.43988122832946], [-76.4715001223012, 3.44481143215501], [-76.4760941668655, 3.44699017999888], [-76.4765834743468, 3.45192015438746], [-76.4724788505336, 3.45467126457959], [-76.4678849672161, 3.4524925761925], [-76.4637805883919, 3.45524357575263], [-76.459186836914, 3.45306489313228], [-76.4550827032508, 3.45581578199446], [-76.4555722729159, 3.46074517757135], [-76.4601658630428, 3.46292380079691], [-76.4642700448474, 3.46017308782997], [-76.4688637668928, 3.46235171675351], [-76.4729681937466, 3.45960089305286], [-76.4775620475059, 3.46177952763577], [-76.4780513131846, 3.46670892636981], [-76.4739468383687, 3.46945957420702], [-76.4744361397789, 3.47438862676226], [-76.479029802743, 3.4765671477434], [-76.4795190266238, 3.48149597025735], [-76.4754147008002, 3.48424615551499], [-76.4759039604123, 3.4891746315869], [-76.4804974325911, 3.4913530386256], [-76.4809866146786, 3.49628128435438], [-76.4855800571901, 3.49845963688924], [-76.4860691617486, 3.50338765208823], [-76.4906625745208, 3.50556594993646], [-76.4947670437556, 3.50281629242303], [-76.4993605876922, 3.50499459532505], [-76.5034653013056, 3.50224482686335], [-76.5029764233663, 3.49731657962728], [-76.5070813336736, 3.49456652443616], [-76.5116751694413, 3.49674489233857], [-76.5157803238951, 3.49399472636671], [-76.5203742903387, 3.49617309931438], [-76.5208629415278, 3.50110157816946], [-76.5254568777293, 3.50327989600102], [-76.5295623234465, 3.50052979508977], [-76.5290737856815, 3.49560120058202], [-76.533179427912, 3.4928508132465], [-76.5326909259916, 3.48792187223135], [-76.5280966683893, 3.48574343416093], [-76.5276080888608, 3.48081426237312], [-76.5317138803885, 3.47806341305865], [-76.5312253367047, 3.47313389502665], [-76.5353313247581, 3.47038275961057], [-76.5348428169285, 3.46545289548263], [-76.5389490014917, 3.46270147410659], [-76.5384605295258, 3.45777126403102], [-76.5425669105828, 3.45501955683674], [-76.5471618106813, 3.45719823530539], [-76.5512684352391, 3.45444641797177], [-76.5558634652079, 3.4566251017525], [-76.5599703330941, 3.45387317434571], [-76.5645654927281, 3.45605186339993], [-76.5686726037703, 3.45329982598615], [-76.568184508388, 3.44836892406332], [-76.5635891883523, 3.44619017478836], [-76.559482124109, 3.44894238766745], [-76.5548869336591, 3.44676364373486], [-76.5543986470054, 3.4418326267884], [-76.5498034258117, 3.4396538281604], [-76.5493150614939, 3.43472258113269], [-76.5534220319365, 3.43197001733484], [-76.5529337035204, 3.42703842495361], [-76.557040870393, 3.42428557590523], [-76.5565525778881, 3.41935363831921], [-76.5606599411745, 3.41660050416243], [-76.5652556438195, 3.41877948297971], [-76.5693632503046, 3.41602623919435], [-76.5688751073523, 3.41109384126458], [-76.5642792442746, 3.40891480239748], [-76.5601716845903, 3.41166822152044], [-76.5555759511123, 3.40948918841743], [-76.5550876168404, 3.40455667622771], [-76.5591951296562, 3.40180308177119], [-76.5587068313052, 3.39687022479003], [-76.5628145405472, 3.39411634554965], [-76.5623262781266, 3.38918314392607], [-76.5664341837788, 3.38642898004424], [-76.5659459572982, 3.38149543392737], [-76.5613497115151, 3.37931616704602], [-76.5608614073232, 3.37438239191578], [-76.55626513069, 3.37220307134197], [-76.5557767487913, 3.36726906738574], [-76.5511804413801, 3.36508969330273], [-76.5470726764727, 3.36784438292021], [-76.5424764990061, 3.36566501516931], [-76.5419879258047, 3.36073089815334], [-76.5373917177581, 3.35855147718404], [-76.5369030668728, 3.35361713178858], [-76.5323068283184, 3.35143765778416], [-76.5318180997536, 3.34650308419676], [-76.5359257233074, 3.34374786888136], [-76.5405221226199, 3.34592740239221], [-76.5446299899755, 3.34317207800699], [-76.5441414108858, 3.33823704493317], [-76.5395448508408, 3.33605745192266], [-76.5354370306263, 3.33881295149608], [-76.5308406008244, 3.3366333652093], [-76.5267330245238, 3.33938875574885], [-76.5221367251701, 3.33720917622427], [-76.5180293929557, 3.33996445766338], [-76.5134332242556, 3.33778488493944], [-76.5093261362997, 3.3405400572116], [-76.5098151695584, 3.34547462690126], [-76.5144111772883, 3.34765414033273], [-76.5149001328999, 3.35258848216125], [-76.5107931942642, 3.35534319453186], [-76.50619734753, 3.3531637403997], [-76.5057082784442, 3.34822951460805], [-76.5011124016521, 3.34605000794664], [-76.4970057550289, 3.34880478631759], [-76.4974949375561, 3.35373889596745], [-76.5020906532734, 3.35591834339858]], [[-76.4943818086224, 3.58713440873226], [-76.4984853359949, 3.58438735599877], [-76.4979965178171, 3.57946246691352], [-76.4934040590091, 3.57728474646081], [-76.4893005793007, 3.58003197536789], [-76.4897895107279, 3.58495674854364], [-76.4943818086224, 3.58713440873226]], [[-76.5016114593987, 3.571789889123], [-76.5057153800116, 3.56904226078311], [-76.505226633361, 3.5641166756485], [-76.5093307505702, 3.56136875971638], [-76.5088420396974, 3.556442826778], [-76.504249098301, 3.5542649255726], [-76.5001450286232, 3.55701301756034], [-76.500633852802, 3.5619388346874], [-76.4965299797647, 3.56468663912227], [-76.4970188397025, 3.5696121084128], [-76.5016114593987, 3.571789889123]], [[-76.5368110524926, 3.26418871835218], [-76.5372998406067, 3.26912660301679], [-76.5418973267474, 3.27130670160427], [-76.5460061855603, 3.26854897467162], [-76.5455175110956, 3.26361097423346], [-76.5496265665904, 3.26085296416535], [-76.5542243435915, 3.26303312943826], [-76.5583336427409, 3.26027501123003], [-76.5578451179089, 3.25533655290742], [-76.5532471802182, 3.25315632841721], [-76.5491379280575, 3.25591462147734], [-76.5445401203531, 3.25373440458691], [-76.5404311119591, 3.25649258954295], [-76.5358334344464, 3.25431238029064], [-76.5317246699918, 3.25707045707569], [-76.5322135358284, 3.26200856817868], [-76.5368110524926, 3.26418871835218]], [[-76.480605016384, 3.58060137626943], [-76.4847082516283, 3.5778542591278], [-76.4842192427055, 3.57292925380218], [-76.4796268853273, 3.57075148169311], [-76.4755236979262, 3.57349877504045], [-76.4760128200518, 3.5784236642807], [-76.480605016384, 3.58060137626943]], [[-76.5259522700509, 3.28727335047485], [-76.5300604914434, 3.28451629875858], [-76.5295716315321, 3.27957909911157], [-76.5249744366413, 3.27739906711633], [-76.5244854990262, 3.27246164079782], [-76.5198882737917, 3.27028155724807], [-76.5157801471594, 3.27303895905064], [-76.5162691983393, 3.27797626935162], [-76.520866262595, 3.28015629387799], [-76.521355236085, 3.28509337757906], [-76.5259522700509, 3.28727335047485]], [[-76.3892579255328, 3.54196935098304], [-76.3933591519661, 3.53922195935663], [-76.3928688870209, 3.53429638283569], [-76.388277282745, 3.53211831517532], [-76.3841761053408, 3.5348658832348], [-76.3846664831751, 3.5397913425112], [-76.3892579255328, 3.54196935098304]]]}}