{"type": "FeatureCollection", "features": [{"type": "Feature", "properties": {"threshold": 70}, "geometry": {"type": "MultiPolygon", "coordinates": [[[[80.34084923875699, 50.38897581016421], [80.3640618618223, 50.38992221177947], [80.36590999487201, 50.39434606249959], [80.37304626573071, 50.398857836913955], [80.37759738670691, 50.398757534584455], [80.38036383381898, 50.39497276153149], [80.39490945682185, 50.39729681855053], [80.39495212482637, 50.39218528534322], [80.39169639790303, 50.39000547477459], [80.38515647604888, 50.38997109201507], [80.37803090169103, 50.39482421616475], [80.37188936834517, 50.3911053025097], [80.36490425321571, 50.39003386829044], [80.35854203719212, 50.383140018957995], [80.3456656621689, 50.383127653607474], [80.34084923875699, 50.38897581016421]]], [[[80.14537707597538, 50.39583139222448], [80.15299304953633, 50.40279706069772], [80.15898171469152, 50.403098108116346], [80.16712674555205, 50.40774978657906], [80.18132789493595, 50.41068682820252], [80.18043750816847, 50.41601596636763], [80.1768167670722, 50.418678835939616], [80.17955016481984, 50.42448749578046], [80.17756988669248, 50.4296476906466], [80.18245684022351, 50.435470715853114], [80.18760036760453, 50.436800646430854], [80.18834097561316, 50.445302612118844], [80.20081013716188, 50.445044152939325], [80.20033400063414, 50.42518521004417], [80.20559162999187, 50.41615363984397], [80.21886052247318, 50.40952008781337], [80.22403857379483, 50.410542257178584], [80.22360809152131, 50.41372091256985], [80.21554828802664, 50.41877552137391], [80.21658130390192, 50.42427181687701], [80.20666398949531, 50.43931444050562], [80.20768990480151, 50.442784819053465], [80.21220014799076, 50.444714892142926], [80.20778845025909, 50.457600011891174], [80.19476933885703, 50.463441994527294], [80.17659612910859, 50.459782247105885], [80.16565662456057, 50.46723457082022], [80.16870624408816, 50.47036039654811], [80.17559921557353, 50.46874025563618], [80.19489087546263, 50.47007531780818], [80.19848144287336, 50.46819560427457], [80.20841543492503, 50.46771511516104], [80.21612931033812, 50.45986425970753], [80.22487802662098, 50.456889600904645], [80.2311051224478, 50.45197426405389], [80.23850118173002, 50.45080624144953], [80.24874444453475, 50.45111982910231], [80.25162211715573, 50.45298025016986], [80.26484939575855, 50.45249762851378], [80.27874232638592, 50.45635732111445], [80.28375550556818, 50.46677694791568], [80.28688679469558, 50.46940225983839], [80.29089146477511, 50.469278122142995], [80.29409918064879, 50.45862921423972], [80.29009252822071, 50.45603776167549], [80.29156884843262, 50.451162275284204], [80.3025852297602, 50.44821257067798], [80.30027658246033, 50.44015002491762], [80.30479841879126, 50.43633221063882], [80.31301207956442, 50.43691728826127], [80.31335730303302, 50.432321387497055], [80.31074630969222, 50.42986512265651], [80.30472835668847, 50.43175978148564], [80.30044057834239, 50.43091073657639], [80.30681547996996, 50.42297033553992], [80.29873399968216, 50.41896188344328], [80.29094046726657, 50.41923879249459], [80.29015312999249, 50.41467578431722], [80.30352047231746, 50.4141142199074], [80.30961542700634, 50.41098783475289], [80.31471849266707, 50.40281924811498], [80.31238062954976, 50.39618812355628], [80.31537853100725, 50.39496813687198], [80.32091323478534, 50.39669820443275], [80.32703386071259, 50.39110092121598], [80.31917272613386, 50.38659088794102], [80.3135320314904, 50.386909295723626], [80.30539885746012, 50.38343736496072], [80.29135608058901, 50.39555132225824], [80.2820381095374, 50.3967595219168], [80.2793280599197, 50.40247962940693], [80.26854131518118, 50.39765885583353], [80.24769095057322, 50.39753960140804], [80.2401885193635, 50.40340153853235], [80.23503003392597, 50.401766008461124], [80.23968134564433, 50.39443913930361], [80.25636959640612, 50.386466827945675], [80.26667590603341, 50.369392084154555], [80.2879300782349, 50.35889652696755], [80.282221798846, 50.347268414020334], [80.26597587491457, 50.35134977082365], [80.25051225878205, 50.36030166124701], [80.23665938503363, 50.35899421127245], [80.23473868253055, 50.364100365869675], [80.22611739434645, 50.365587704036926], [80.22361431588682, 50.370405918613294], [80.21624130707413, 50.36850199123566], [80.21531242027356, 50.36449128432795], [80.210340245962, 50.3618312466217], [80.20466780628547, 50.36176230397065], [80.20321818687263, 50.364866349210544], [80.20908289617844, 50.371051801671925], [80.20303397052243, 50.37771718143031], [80.19893208967092, 50.387982699153476], [80.18978925954374, 50.388455529598396], [80.18148511865307, 50.38204317569325], [80.1683432851134, 50.383119374241716], [80.16126407174815, 50.38067970545565], [80.15568525867972, 50.38797336805891], [80.1570665364821, 50.39020339057507], [80.16444024061298, 50.39118513356095], [80.16541029241733, 50.393977418542], [80.16214875056862, 50.39523664241487], [80.14690408468317, 50.39322884485468], [80.14537707597538, 50.39583139222448]], [[80.28174109965352, 50.45647881330603], [80.2845634279702, 50.454321080317875], [80.2884116252758, 50.45639589247537], [80.28421832679406, 50.45921577734351], [80.28174109965352, 50.45647881330603]], [[80.22509665151163, 50.406973956922634], [80.22985266552136, 50.405630088264466], [80.23009512617311, 50.40970731558872], [80.22533967026611, 50.40970201329546], [80.22509665151163, 50.406973956922634]]]]}}, {"type": "Feature", "properties": {"threshold": 80}, "geometry": {"type": "Polygon", "coordinates": [[[80.14096394503399, 50.39788365802936], [80.1473386178422, 50.39884182827583], [80.15299304953633, 50.40279706069772], [80.172751734069, 50.40959756509466], [80.1811878190791, 50.410533686770364], [80.1814629015134, 50.41356023080506], [80.17521483047955, 50.42077958847158], [80.16743414945628, 50.42200319063699], [80.16724971714768, 50.42722238082594], [80.17603336328295, 50.43068501672774], [80.18590280656856, 50.444994077543306], [80.18936342119474, 50.445926598678085], [80.20083200384752, 50.445591373950876], [80.2017270823292, 50.42036689186412], [80.20675974331137, 50.419326552343094], [80.2128569240214, 50.412048723706036], [80.2206219991749, 50.40912385208592], [80.22397078901466, 50.41036589523003], [80.22360809152131, 50.41372091256985], [80.2155163093116, 50.418830778649536], [80.21511488551737, 50.42642670724584], [80.20964461370475, 50.43029655604132], [80.20946393096074, 50.436986212151666], [80.20646850440566, 50.440032776596304], [80.21219951422653, 50.44557407060398], [80.20935359992095, 50.447768356463186], [80.21112878628173, 50.45249890873405], [80.20778845025909, 50.457600011891174], [80.19505810327807, 50.463415307171275], [80.1819427894138, 50.45976059876687], [80.1718562017782, 50.46095370040858], [80.16468903932433, 50.46553262678338], [80.1687797675423, 50.4703960183608], [80.1873183325383, 50.47122777119072], [80.2093392845016, 50.468926476920934], [80.21135026233055, 50.463762412935985], [80.21753577062573, 50.459830196971815], [80.22390472003664, 50.45869073926768], [80.23117404006472, 50.45211026114172], [80.23679933377929, 50.45287533931881], [80.2401574403556, 50.45110172504317], [80.24300275782021, 50.452216024010724], [80.24391449297529, 50.457139574528554], [80.25225403266259, 50.45560786996284], [80.2593812874306, 50.45723903154617], [80.26610230012837, 50.45492210147801], [80.27709322267218, 50.45698979943792], [80.27624077374112, 50.46432030125282], [80.29025333944556, 50.46949083674009], [80.29591465661426, 50.46296120928696], [80.2917288564534, 50.454717185329], [80.29807480946904, 50.45128370499086], [80.30928994111208, 50.45104884267989], [80.30836458568321, 50.443412726119], [80.30230288693512, 50.44361981767697], [80.30034094878151, 50.44009536499877], [80.3045408399179, 50.436398556341885], [80.31424092196464, 50.436455641945706], [80.31320096415885, 50.43194254676941], [80.3066117178534, 50.42858791834898], [80.30673016104329, 50.422866032360595], [80.29886157088805, 50.418341194104364], [80.29196712320116, 50.41788001157258], [80.29162191194051, 50.414731296950706], [80.30477063664746, 50.415216360333794], [80.31170756653188, 50.41080545842125], [80.31225568715222, 50.40531837955125], [80.32304081871047, 50.399574724450304], [80.3269445939019, 50.39375439486072], [80.33193970006573, 50.39256562827152], [80.34983871065627, 50.39271364483142], [80.36269232655485, 50.39041259857765], [80.36508305220268, 50.394432529416676], [80.37183932645605, 50.39665568622426], [80.37267707699286, 50.40117637926681], [80.38778887562962, 50.40068463156742], [80.39048366297446, 50.39791043067147], [80.39673974731318, 50.39741894806205], [80.39350547187209, 50.3889312700316], [80.39969481372373, 50.38423151688565], [80.39983588807398, 50.381480207341525], [80.39758235020828, 50.37801549059447], [80.39175377829854, 50.37802025472514], [80.38568627648597, 50.38322844851818], [80.39170624088084, 50.389152025878275], [80.37583612245336, 50.3929642787704], [80.37181435624287, 50.39047716211424], [80.3647512906167, 50.38986148160621], [80.35490290781146, 50.38012147786372], [80.34524516934268, 50.380229541519235], [80.34190771383516, 50.38480841929136], [80.33265273188321, 50.382406138924395], [80.32403326176484, 50.38635077418314], [80.31836942704442, 50.38239864474385], [80.31245658127848, 50.381622442209135], [80.31214651365977, 50.377757808398805], [80.3092555311365, 50.377434855787314], [80.30386015607755, 50.380118701765916], [80.30019748779523, 50.38812424125945], [80.29002665838301, 50.39531507937396], [80.28210976092629, 50.39611376298799], [80.27832427107846, 50.40075545422001], [80.26692719517735, 50.396457317679975], [80.25695041309541, 50.39818794481097], [80.25062892504066, 50.39634482471128], [80.2443702294087, 50.39828493411086], [80.24042085102816, 50.403304501209114], [80.23662063275114, 50.40332184773415], [80.23506293161634, 50.401412292000224], [80.23877863440867, 50.39524255461989], [80.2544565764081, 50.38826222700127], [80.26667590603341, 50.369392084154555], [80.28892104921964, 50.358246779152196], [80.28356995345666, 50.353851257950744], [80.28240472132265, 50.347400087849564], [80.2787119916817, 50.34711331053415], [80.2763267742931, 50.34989273334259], [80.26590137916534, 50.351384397662024], [80.25051225878205, 50.36030166124701], [80.23665938503363, 50.35899421127245], [80.23473868253055, 50.364100365869675], [80.22611739434645, 50.365587704036926], [80.22361431588682, 50.370405918613294], [80.21572357035583, 50.36806536766278], [80.21491794922662, 50.35999910190804], [80.20052217969506, 50.35864804731338], [80.19721501264267, 50.36099839595311], [80.18774559853856, 50.3598376919978], [80.18531300558637, 50.36271599331103], [80.1882011863071, 50.36853708265561], [80.20010197736629, 50.36795871995571], [80.20118266835412, 50.37389065722498], [80.20424072405822, 50.37567937093655], [80.19863301077137, 50.387539611702145], [80.19057252356286, 50.388336368299036], [80.18157152359218, 50.38206363242726], [80.1683432851134, 50.383119374241716], [80.1602428852165, 50.380084101762776], [80.15581972350385, 50.38340960841687], [80.154742911755, 50.38796652391901], [80.15839951449772, 50.391197841082736], [80.16436649236186, 50.391358560508586], [80.16477647011334, 50.393813143906186], [80.16181912395317, 50.39515190123132], [80.15282816327304, 50.39377790205706], [80.14312065895767, 50.38899749692104], [80.14213280820947, 50.39389359918818], [80.13857083032138, 50.39550507245143], [80.14096394503399, 50.39788365802936]], [[80.28174109965352, 50.45647881330603], [80.2845634279702, 50.454321080317875], [80.2884116252758, 50.45639589247537], [80.28421832679406, 50.45921577734351], [80.28174109965352, 50.45647881330603]], [[80.22509665151163, 50.406973956922634], [80.22985266552136, 50.405630088264466], [80.23009512617311, 50.40970731558872], [80.22533967026611, 50.40970201329546], [80.22509665151163, 50.406973956922634]]]}}, {"type": "Feature", "properties": {"threshold": 90}, "geometry": {"type": "Polygon", "coordinates": [[[80.1394029330913, 50.39918562958161], [80.15101793865693, 50.40122661269795], [80.17283463017016, 50.40962334493031], [80.18102492904328, 50.410390056260866], [80.17858258152727, 50.4171590559381], [80.16632950905216, 50.420275260579466], [80.15759892521842, 50.41804545548011], [80.1465331863856, 50.42652687000144], [80.1557672330064, 50.43003016919855], [80.17088644382966, 50.428378148206725], [80.17285155972786, 50.43586386559023], [80.17679431657562, 50.43687224498386], [80.18226071091317, 50.44325876516506], [80.19593733955277, 50.447779838841875], [80.2008394588103, 50.44728362505607], [80.20115151590915, 50.43009225008099], [80.20497655454683, 50.42611968781878], [80.20140916424972, 50.42373587893423], [80.20158544541336, 50.42052628738063], [80.20675974331137, 50.419326552343094], [80.2128569240214, 50.412048723706036], [80.2206219991749, 50.40912385208592], [80.22407832363824, 50.410722075483996], [80.22360809152131, 50.41372091256985], [80.2155163093116, 50.418830778649536], [80.21511488551737, 50.42642670724584], [80.20964461370475, 50.43029655604132], [80.20946393096074, 50.436986212151666], [80.20646850440566, 50.440032776596304], [80.21219951422653, 50.44557407060398], [80.20935359992095, 50.447768356463186], [80.21112878628173, 50.45249890873405], [80.20763438156877, 50.45773784233522], [80.19476933885703, 50.463441994527294], [80.1819427894138, 50.45976059876687], [80.17093346666869, 50.45974204484728], [80.16289716812838, 50.465353867917685], [80.16236790571315, 50.46874149278618], [80.14677103584596, 50.475382128546116], [80.14788217396317, 50.47747540090817], [80.15528540942185, 50.47760469300563], [80.16131848844645, 50.475127730628465], [80.16414307918657, 50.46846646516343], [80.17296334703856, 50.47172919354529], [80.19023152237229, 50.47184197252643], [80.19702855260248, 50.46956704205948], [80.20741106002795, 50.47132352559075], [80.21465199630674, 50.461582009967024], [80.22390472003664, 50.45869073926768], [80.23092010047458, 50.45246387355937], [80.23678964043505, 50.4534778176269], [80.24006581795659, 50.45111693046813], [80.24301006888807, 50.45222730834943], [80.24391449297529, 50.457139574528554], [80.25253186722394, 50.4556096548318], [80.25928046159758, 50.45784957561699], [80.26769275849894, 50.45518711645215], [80.2754124530342, 50.46440612335407], [80.29025333944556, 50.46949083674009], [80.2940849942686, 50.46598704682853], [80.30325448858163, 50.466895311921746], [80.3033641094429, 50.46266418473103], [80.29590188641154, 50.45999367212032], [80.29490172885347, 50.45739334144062], [80.2982133376333, 50.4529246929903], [80.309281168967, 50.451651330887366], [80.30836458568321, 50.443412726119], [80.30230288693512, 50.44361981767697], [80.30034094878151, 50.44009536499877], [80.30479841879126, 50.43633221063882], [80.31423149168641, 50.43655880704016], [80.30947673185885, 50.428718827652624], [80.30959729363886, 50.42353615814617], [80.30009363604837, 50.41986776039223], [80.29914740768287, 50.41598196160102], [80.30469606762436, 50.41525101167132], [80.31156364731173, 50.41095572430399], [80.31608108390607, 50.403410345615214], [80.3248464117541, 50.40083396236715], [80.32797663006701, 50.39541661823301], [80.33869456233367, 50.39249262639681], [80.34792895230309, 50.394510591329826], [80.35645409707183, 50.39136696110987], [80.36283477107823, 50.391663370779504], [80.36608529580087, 50.395080106318666], [80.37183932645605, 50.39665568622426], [80.37360384908655, 50.40238646069925], [80.387773352698, 50.40188963712363], [80.39128804290473, 50.39814935484641], [80.39673974731318, 50.39741894806205], [80.39350547187209, 50.3889312700316], [80.39969481372373, 50.38423151688565], [80.39983588807398, 50.381480207341525], [80.39758235020828, 50.37801549059447], [80.39225902730041, 50.37788950975723], [80.3872520620198, 50.38130976927644], [80.37831329577065, 50.38290010693204], [80.37941401113987, 50.38567028872495], [80.3864628343638, 50.38509415409788], [80.39128636073701, 50.386770298148654], [80.39017904071416, 50.38984902016846], [80.38171679554533, 50.390353100423496], [80.37870575481465, 50.386843070236424], [80.3658110682164, 50.38853474496789], [80.35405939187929, 50.379242646373605], [80.35233587270858, 50.37352423594206], [80.34445851231315, 50.37321220542751], [80.34166489815897, 50.37038358964005], [80.32346526940114, 50.37209544271701], [80.30402634516287, 50.379978183633774], [80.30015903212004, 50.38815428049872], [80.29548133429583, 50.38892538651351], [80.29165918362663, 50.39278098550927], [80.28505156449185, 50.393079580581805], [80.2771817918255, 50.39922856536649], [80.26692719517735, 50.396457317679975], [80.25741486586939, 50.39819091050839], [80.25053762490786, 50.39635288150474], [80.2443702294087, 50.39828493411086], [80.24042085102816, 50.403304501209114], [80.23662063275114, 50.40332184773415], [80.23506293161634, 50.401412292000224], [80.23890710231971, 50.39509793858838], [80.2544565764081, 50.38826222700127], [80.26546385612549, 50.370784023536984], [80.27278172482968, 50.36558894605909], [80.28269926142552, 50.36111708960469], [80.29504075166811, 50.35966405367744], [80.30795032372056, 50.36355963023536], [80.30694306107392, 50.365614526757746], [80.30038104903974, 50.36734645323598], [80.30041334595418, 50.36935714054735], [80.30981669295593, 50.370165861101825], [80.31428933960122, 50.36776577805188], [80.30938520827718, 50.36464440130167], [80.31066035616416, 50.35831545353705], [80.32412687259418, 50.35759637093756], [80.32572550193328, 50.35539776170638], [80.32569572385965, 50.35253009905698], [80.32013806328682, 50.34916545303746], [80.31662729944928, 50.35147469478294], [80.30716684196693, 50.35247849005962], [80.29448437352995, 50.35084833485745], [80.28552629881268, 50.355007793150165], [80.28245129169277, 50.34745091038276], [80.2787119916817, 50.34711331053415], [80.2763267742931, 50.34989273334259], [80.26590137916534, 50.351384397662024], [80.25051225878205, 50.36030166124701], [80.23665938503363, 50.35899421127245], [80.23366778694387, 50.364205528569734], [80.22604850853948, 50.365626812207154], [80.22333725915908, 50.37044320306589], [80.21572357035583, 50.36806536766278], [80.21500078240481, 50.36002485162067], [80.20500445162298, 50.35974627841833], [80.20245855412078, 50.3568587557381], [80.19652639800863, 50.35935961598459], [80.18965996809489, 50.35804338803523], [80.18444917096906, 50.362524562015736], [80.18441780604023, 50.36665242226252], [80.18963672678701, 50.36939061647369], [80.1999515123977, 50.36979470293657], [80.20424072405822, 50.37567937093655], [80.19863301077137, 50.387539611702145], [80.19008023567991, 50.38819188732215], [80.18149548804438, 50.38144069795035], [80.17055058126483, 50.38313408186706], [80.16749075442814, 50.378950949266624], [80.15555332479538, 50.378845046925385], [80.15479434109649, 50.38807952356269], [80.15839951449772, 50.391197841082736], [80.16436649236186, 50.391358560508586], [80.16506982221375, 50.393503857561996], [80.16181912395317, 50.39515190123132], [80.15285459245113, 50.39378332934622], [80.14674062258824, 50.38909943584636], [80.14303354300382, 50.38901670387992], [80.14213280820947, 50.39389359918818], [80.1385854085474, 50.39544690085125], [80.1394029330913, 50.39918562958161]], [[80.32239601952939, 50.3783182494373], [80.32235364567796, 50.37574888166313], [80.32726557373502, 50.37478308636133], [80.33143615921996, 50.378036246971], [80.32559311459839, 50.38074340035387], [80.32239601952939, 50.3783182494373]], [[80.28174109965352, 50.45647881330603], [80.2845634279702, 50.454321080317875], [80.2884116252758, 50.45639589247537], [80.28421832679406, 50.45921577734351], [80.28174109965352, 50.45647881330603]], [[80.22509665151163, 50.406973956922634], [80.22985266552136, 50.405630088264466], [80.23009512617311, 50.40970731558872], [80.22533967026611, 50.40970201329546], [80.22509665151163, 50.406973956922634]]]}}, {"type": "Feature", "properties": {"threshold": 95}, "geometry": {"type": "MultiPolygon", "coordinates": [[[[80.1394029330913, 50.39918562958161], [80.18159891989944, 50.41118819843595], [80.17922220510518, 50.41627974898456], [80.17242764172012, 50.419711078419844], [80.16381064288107, 50.4174535539038], [80.15588989509362, 50.417998904198186], [80.14576047251037, 50.423603186608084], [80.15017780108103, 50.43122261890463], [80.149294154938, 50.44000970013595], [80.15652246035003, 50.43936191770173], [80.15490495607942, 50.43390230946292], [80.1576988132862, 50.430203170266545], [80.16927339000661, 50.42779073860331], [80.17273128231153, 50.43004939088581], [80.17280255222175, 50.43641280233549], [80.17678386709923, 50.437474716246165], [80.17759566738155, 50.440213165369094], [80.1843292695485, 50.444596689234125], [80.19361537188449, 50.44580781122294], [80.19593733955277, 50.447779838841875], [80.2008394588103, 50.44728362505607], [80.20115151590915, 50.43009225008099], [80.20497655454683, 50.42611968781878], [80.20140916424972, 50.42373587893423], [80.20158544541336, 50.42052628738063], [80.20675974331137, 50.419326552343094], [80.2128569240214, 50.412048723706036], [80.2206219991749, 50.40912385208592], [80.22407832363824, 50.410722075483996], [80.22360809152131, 50.41372091256985], [80.2155163093116, 50.418830778649536], [80.21511488551737, 50.42642670724584], [80.20964461370475, 50.43029655604132], [80.20946393096074, 50.436986212151666], [80.20646850440566, 50.440032776596304], [80.21219951422653, 50.44557407060398], [80.20935359992095, 50.447768356463186], [80.21112878628173, 50.45249890873405], [80.20763438156877, 50.45773784233522], [80.19476933885703, 50.463441994527294], [80.1819427894138, 50.45976059876687], [80.17093346666869, 50.45974204484728], [80.16289716812838, 50.465353867917685], [80.16236790571315, 50.46874149278618], [80.14677103584596, 50.475382128546116], [80.14788217396317, 50.47747540090817], [80.1543305315982, 50.47820030077396], [80.16131848844645, 50.475127730628465], [80.16414307918657, 50.46846646516343], [80.17296334703856, 50.47172919354529], [80.19023152237229, 50.47184197252643], [80.19702855260248, 50.46956704205948], [80.20741106002795, 50.47132352559075], [80.21465199630674, 50.461582009967024], [80.22390472003664, 50.45869073926768], [80.23092010047458, 50.45246387355937], [80.23678964043505, 50.4534778176269], [80.24006581795659, 50.45111693046813], [80.24301006888807, 50.45222730834943], [80.24391449297529, 50.457139574528554], [80.2528080900816, 50.45562881612155], [80.2592710526404, 50.45845205650012], [80.26502810755336, 50.455086696019436], [80.26887088508145, 50.455624350865946], [80.26975274463395, 50.46010931457342], [80.28696985735121, 50.46942795863124], [80.29648993908077, 50.46589946373681], [80.30913332921122, 50.46960443698827], [80.31096181853775, 50.4658879921119], [80.30703856990229, 50.462588264965476], [80.30103662447205, 50.46210088621096], [80.2948370509758, 50.458097398256214], [80.2982133376333, 50.4529246929903], [80.309281168967, 50.451651330887366], [80.3083178944092, 50.44336191430326], [80.30306730518448, 50.44382739895194], [80.30013510628069, 50.442157535589864], [80.30226320721137, 50.43769674019447], [80.31423149168641, 50.43655880704016], [80.30947673185885, 50.428718827652624], [80.30959729363886, 50.42353615814617], [80.30009363604837, 50.41986776039223], [80.29897993557591, 50.416123435746364], [80.30469606762436, 50.41525101167132], [80.31156364731173, 50.41095572430399], [80.31608108390607, 50.403410345615214], [80.3248464117541, 50.40083396236715], [80.32797663006701, 50.39541661823301], [80.33869456233367, 50.39249262639681], [80.3498139889881, 50.394521142358535], [80.35645409707183, 50.39136696110987], [80.36283477107823, 50.391663370779504], [80.37197997814602, 50.39680860043291], [80.37358002336363, 50.40419396351886], [80.37737240690906, 50.4042446112218], [80.38153482386576, 50.40136544618565], [80.387773352698, 50.40188963712363], [80.39128804290473, 50.39814935484641], [80.39673974731318, 50.39741894806205], [80.3937339614297, 50.38904631232461], [80.39983588807398, 50.381480207341525], [80.39758235020828, 50.37801549059447], [80.39225902730041, 50.37788950975723], [80.3872520620198, 50.38130976927644], [80.37831329577065, 50.38290010693204], [80.37941401113987, 50.38567028872495], [80.3864628343638, 50.38509415409788], [80.39128636073701, 50.386770298148654], [80.39017904071416, 50.38984902016846], [80.38171679554533, 50.390353100423496], [80.37870575481465, 50.386843070236424], [80.3658110682164, 50.38853474496789], [80.35405939187929, 50.379242646373605], [80.3523522776001, 50.37231923268124], [80.34494901939813, 50.37333883180512], [80.34150358937173, 50.37037760557715], [80.3215811316311, 50.37208446826666], [80.30396383532285, 50.38002146432151], [80.29997077766652, 50.388284587636065], [80.29548133429583, 50.38892538651351], [80.29165918362663, 50.39278098550927], [80.28505156449185, 50.393079580581805], [80.2771817918255, 50.39922856536649], [80.26692719517735, 50.396457317679975], [80.25741486586939, 50.39819091050839], [80.25053762490786, 50.39635288150474], [80.2443702294087, 50.39828493411086], [80.24042085102816, 50.403304501209114], [80.23662063275114, 50.40332184773415], [80.23506293161634, 50.401412292000224], [80.23890710231971, 50.39509793858838], [80.2544565764081, 50.38826222700127], [80.26546385612549, 50.370784023536984], [80.27278172482968, 50.36558894605909], [80.28295066294974, 50.361064088984335], [80.29923825910912, 50.36052038993425], [80.30810453463977, 50.364080828903624], [80.30044354535006, 50.36730317432416], [80.30041334595418, 50.36935714054735], [80.31358480849669, 50.370188160002535], [80.31418722919413, 50.36692399043286], [80.30932659892126, 50.36446724564982], [80.31051351865501, 50.35846115516872], [80.32412687259418, 50.35759637093756], [80.32572550193328, 50.35539776170638], [80.32569572385965, 50.35253009905698], [80.32013806328682, 50.34916545303746], [80.31662729944928, 50.35147469478294], [80.30716684196693, 50.35247849005962], [80.29448437352995, 50.35084833485745], [80.28552629881268, 50.355007793150165], [80.28245129169277, 50.34745091038276], [80.2787119916817, 50.34711331053415], [80.2763267742931, 50.34989273334259], [80.26590137916534, 50.351384397662024], [80.25051225878205, 50.36030166124701], [80.23665938503363, 50.35899421127245], [80.2333646487109, 50.36413780251309], [80.22593031249768, 50.36571700390312], [80.22333725915908, 50.37044320306589], [80.21572357035583, 50.36806536766278], [80.21500078240481, 50.36002485162067], [80.20500445162298, 50.35974627841833], [80.20245855412078, 50.3568587557381], [80.19652639800863, 50.35935961598459], [80.18965996809489, 50.35804338803523], [80.18444917096906, 50.362524562015736], [80.18441780604023, 50.36665242226252], [80.18963672678701, 50.36939061647369], [80.1999515123977, 50.36979470293657], [80.20424072405822, 50.37567937093655], [80.19863301077137, 50.387539611702145], [80.19008023567991, 50.38819188732215], [80.18149548804438, 50.38144069795035], [80.17055058126483, 50.38313408186706], [80.16749075442814, 50.378950949266624], [80.15555332479538, 50.378845046925385], [80.15479434109649, 50.38807952356269], [80.15839951449772, 50.391197841082736], [80.16436649236186, 50.391358560508586], [80.16506982221375, 50.393503857561996], [80.16181912395317, 50.39515190123132], [80.15285459245113, 50.39378332934622], [80.14674062258824, 50.38909943584636], [80.14303354300382, 50.38901670387992], [80.14213280820947, 50.39389359918818], [80.1385854085474, 50.39544690085125], [80.1394029330913, 50.39918562958161]], [[80.32447090225241, 50.37591974002735], [80.32929575964236, 50.3752609014179], [80.3307503372229, 50.37932061615707], [80.32358457165776, 50.380304733395604], [80.32447090225241, 50.37591974002735]], [[80.28174109965352, 50.45647881330603], [80.2845634279702, 50.454321080317875], [80.2884116252758, 50.45639589247537], [80.28421832679406, 50.45921577734351], [80.28174109965352, 50.45647881330603]], [[80.22509665151163, 50.406973956922634], [80.22985266552136, 50.405630088264466], [80.23009512617311, 50.40970731558872], [80.22533967026611, 50.40970201329546], [80.22509665151163, 50.406973956922634]]], [[[80.31628302954618, 50.42635069411954], [80.31666235980845, 50.42857785661207], [80.32386893082341, 50.42932078689806], [80.34060540213335, 50.42500890249429], [80.35021480966182, 50.43248867307813], [80.35553688403684, 50.43173770840826], [80.35775733508032, 50.42766584282944], [80.35261360591987, 50.42233190511453], [80.34290790639572, 50.42416499946038], [80.34053105982098, 50.4205218078749], [80.33420993497317, 50.42055440912659], [80.33141411589591, 50.41792114823706], [80.32334171071062, 50.418012936795435], [80.31628302954618, 50.42635069411954]]]]}}]}