{"type": "Feature", "properties": {"city": "Navojoa", "country": "Mexico", "real_area": 36.34}, "geometry": {"type": "LineString", "coordinates": [[-109.443261771631, 27.0478404099188], [-109.437787573595, 27.0458845777185], [-109.433142888848, 27.0491268659235], [-109.427668761351, 27.0471706422876], [-109.423023733231, 27.0504126033182], [-109.417549676621, 27.0484559882586], [-109.4129043054, 27.0516976219726], [-109.413732903906, 27.0568960452729], [-109.409087102781, 27.0601375260298], [-109.40991559863, 27.0653359067917], [-109.415390309908, 27.0672927428188], [-109.416219117421, 27.072491016888], [-109.411572799311, 27.07573251887], [-109.406097760715, 27.0737755723413], [-109.40145109968, 27.0770167464556], [-109.402279390083, 27.0822150414479], [-109.407754755987, 27.0841720984902], [-109.408583358128, 27.0893702864703], [-109.414059122917, 27.0913270620517], [-109.414888036841, 27.0965251427769], [-109.420364200437, 27.098481636672], [-109.42501112252, 27.0952399395131], [-109.430487357149, 27.0971960412851], [-109.43131699737, 27.1023939504114], [-109.436793630521, 27.1043497701475], [-109.441440295592, 27.1011075706417], [-109.44691699922, 27.1030629981184], [-109.451563320235, 27.099820470721], [-109.450732851301, 27.0946226902595], [-109.455378741858, 27.0913800095503], [-109.454548170536, 27.0861821858227], [-109.459193630671, 27.0829393520446], [-109.464669748183, 27.0848941675143], [-109.469314863872, 27.0816510063548], [-109.474791050886, 27.0836054297671], [-109.479435821855, 27.0803619413685], [-109.484912078024, 27.0823159727119], [-109.489556504001, 27.0790721572168], [-109.488724588316, 27.0738744850329], [-109.493368583728, 27.0706305172632], [-109.492536565989, 27.065432802488], [-109.487060966666, 27.0634789903812], [-109.482417056675, 27.0667227834538], [-109.476941526227, 27.0647685795036], [-109.476110234089, 27.0595706922103], [-109.470635101021, 27.057616206254], [-109.46980412059, 27.0524182117701], [-109.464329384981, 27.0504634440326], [-109.463498716212, 27.0452653426009], [-109.45802437814, 27.0433102933072], [-109.457194020987, 27.0381120851704], [-109.451720080529, 27.0361567545455], [-109.447076169475, 27.0393995219458], [-109.447906112731, 27.0445977946815], [-109.443261771631, 27.0478404099188]]}}