{"type": "Feature", "geometry": {"type": "MultiPolygon", "coordinates": [[[[-108.5501778679304, 25.576349313521963], [-108.54886775762114, 25.580509605696285], [-108.5465702666548, 25.582345068445676], [-108.53655698602152, 25.580231262861606], [-108.53306515692648, 25.582258686162728], [-108.53102718673547, 25.591282532644698], [-108.53315080412143, 25.593402813894816], [-108.5385831783553, 25.594706667896528], [-108.54038957741793, 25.597803931660096], [-108.53938922521345, 25.601292912353795], [-108.53464197477051, 25.60581186926199], [-108.52690538689605, 25.60649146283559], [-108.52323639747881, 25.598762515081965], [-108.5166373161443, 25.598028246215737], [-108.51239439023855, 25.59483434945485], [-108.51224169941335, 25.591643350967843], [-108.51682772380033, 25.585847698414415], [-108.51838532980521, 25.5786856113451], [-108.5276561731729, 25.576940510884445], [-108.53117412897991, 25.56798400609307], [-108.5397973064983, 25.559650627916838], [-108.5433187378981, 25.55946136814706], [-108.54611348776469, 25.561947329606507], [-108.54583796370778, 25.56881896540598], [-108.54990287072779, 25.57318994519173], [-108.5501778679304, 25.576349313521963]]], [[[-108.53407904368657, 25.740780363972394], [-108.53309313667215, 25.744668581979845], [-108.5300226103349, 25.746252692931748], [-108.5227160247253, 25.745040776446146], [-108.52037956209156, 25.74160687651694], [-108.52130739442477, 25.736995408393298], [-108.52450004701622, 25.735002486153267], [-108.53214843552276, 25.73645063242141], [-108.53407904368657, 25.740780363972394]]], [[[-108.56178807358222, 25.543318457070683], [-108.56167788573457, 25.550268774401044], [-108.55724460660068, 25.553511698508856], [-108.55398981813777, 25.552434573673597], [-108.5482315747539, 25.547112335135882], [-108.54021209104219, 25.544799731985538], [-108.53803599621602, 25.54175321120915], [-108.53896500444573, 25.53661570017425], [-108.53654134874945, 25.53213587959186], [-108.53700740628294, 25.528906420130898], [-108.53975920042333, 25.527015139981785], [-108.54544038732173, 25.527172507275562], [-108.54915128993504, 25.53105686083069], [-108.55120546257665, 25.537050053035678], [-108.55821856611205, 25.536855948903536], [-108.56100956131476, 25.538256419695536], [-108.56178807358222, 25.543318457070683]]], [[[-108.55302589794522, 25.618907408809264], [-108.54726074631203, 25.620159567204404], [-108.54408821510444, 25.618281557728455], [-108.54384051113155, 25.609628874362922], [-108.54583381637232, 25.606611705995423], [-108.55453251688155, 25.60747197680149], [-108.55707402572843, 25.609476744172472], [-108.55723918023111, 25.612948422775688], [-108.55302589794522, 25.618907408809264]]], [[[-108.57208400256346, 25.79184143542731], [-108.56846816976882, 25.79864574153177], [-108.55760135808386, 25.799587656816495], [-108.55479014652308, 25.79651922449453], [-108.55469130259652, 25.78686952658461], [-108.5577445858421, 25.784090207706257], [-108.56815857642842, 25.78426925299606], [-108.57223330149002, 25.787736046097848], [-108.57208400256346, 25.79184143542731]]], [[[-108.5732179646456, 25.59213814605308], [-108.57545452062028, 25.58968804867696], [-108.57883724564881, 25.58963786027743], [-108.5881254045323, 25.59466623789252], [-108.58908865954143, 25.599221557638106], [-108.58613220923189, 25.603219373808912], [-108.58232794573824, 25.603473122643308], [-108.57268305172337, 25.59790089948967], [-108.57188880732386, 25.594983355841595], [-108.5732179646456, 25.59213814605308]]], [[[-108.59364399983907, 25.70711751698982], [-108.59182279717686, 25.712279671244364], [-108.58939164867066, 25.71420138903157], [-108.58099799152845, 25.71434278345142], [-108.57798012029778, 25.71153075624354], [-108.57787184796456, 25.704133360788944], [-108.58068051701058, 25.701248565786003], [-108.59181706247924, 25.70142679069203], [-108.59403258968199, 25.70393901760742], [-108.59364399983907, 25.70711751698982]]], [[[-108.59981195403108, 25.47620083893626], [-108.59584111967686, 25.4815560801219], [-108.59180139708563, 25.48194546866988], [-108.58935897971573, 25.478704409737365], [-108.58980929765374, 25.471353255022606], [-108.5940328496643, 25.468636855708684], [-108.59894306204554, 25.469368420867468], [-108.60113635325948, 25.472586650951648], [-108.59981195403108, 25.47620083893626]]], [[[-108.60155008689627, 25.51189283175562], [-108.59807595916644, 25.513737354877367], [-108.59305087713933, 25.51265002572361], [-108.59031228556648, 25.50999309818166], [-108.59038130529103, 25.50646751745211], [-108.59530857506326, 25.502664314817196], [-108.601174058483, 25.50275842815772], [-108.6037374521335, 25.506558848138372], [-108.60155008689627, 25.51189283175562]]], [[[-108.61604548957379, 25.55441300507949], [-108.61609779745508, 25.55783103168774], [-108.61144814106571, 25.564238891564475], [-108.60812474936164, 25.564549138348756], [-108.60351359251827, 25.56157331949209], [-108.60244351728255, 25.55600753533931], [-108.60814555924543, 25.548214322188773], [-108.61348472956371, 25.549067719813717], [-108.61604548957379, 25.55441300507949]]], [[[-108.61998135133456, 25.707241429930043], [-108.62097279516746, 25.711428132832662], [-108.61672110916614, 25.716932442034004], [-108.60724736380959, 25.717067890133297], [-108.60375038345762, 25.713564568515736], [-108.60425207219471, 25.70450116954829], [-108.60680238795777, 25.70171578867946], [-108.61642963335073, 25.701800389265085], [-108.61998135133456, 25.707241429930043]]], [[[-108.6222689518879, 25.522779031255517], [-108.62406408217737, 25.527507666735513], [-108.61848276573905, 25.534389938456847], [-108.60758081773285, 25.529809727421046], [-108.60556197249237, 25.527228068850743], [-108.60684542905477, 25.522772196685455], [-108.61185056783327, 25.520083722337517], [-108.6222689518879, 25.522779031255517]]], [[[-108.65612763459882, 25.687198531057614], [-108.64938758557001, 25.683409174182554], [-108.64708540952526, 25.67409913722773], [-108.64112275428312, 25.673218880759688], [-108.6299558165787, 25.66755632023544], [-108.62621213853187, 25.668323610260035], [-108.62230182774775, 25.67446766814035], [-108.61785487715929, 25.674075011805847], [-108.6077384379921, 25.664376864823602], [-108.61355009640914, 25.653286952945773], [-108.61662761638362, 25.651736215115978], [-108.62898409018085, 25.6528131015763], [-108.63871412309939, 25.645356497166134], [-108.65059769415815, 25.649470009872072], [-108.65196866752969, 25.65298493897767], [-108.64765605659525, 25.66205111344447], [-108.64776085538034, 25.670696240788264], [-108.65016425372838, 25.67305022148161], [-108.6552218410653, 25.672929286336448], [-108.66121540115189, 25.675901736433392], [-108.66345731508117, 25.679107771026604], [-108.66007280724997, 25.6857727284451], [-108.65612763459882, 25.687198531057614]]], [[[-108.65811780343049, 25.813538957292696], [-108.65630385319967, 25.822019025316454], [-108.64790526760962, 25.831839246921938], [-108.64608405704999, 25.837393549678374], [-108.63678018173435, 25.84491176708242], [-108.63809621600592, 25.865552217154047], [-108.63601534147348, 25.86834414404383], [-108.63253470443816, 25.868444445614063], [-108.62191831371486, 25.858300656219548], [-108.6228525952246, 25.848246160223155], [-108.63247653557919, 25.843146012423365], [-108.63252156336024, 25.834016721462106], [-108.64283495492775, 25.822399373126785], [-108.64189468718075, 25.812588403280497], [-108.64317887371581, 25.809680903532808], [-108.65560684860031, 25.807626764466406], [-108.65836935926929, 25.809998174777284], [-108.65811780343049, 25.813538957292696]]], [[[-108.66693153561454, 25.772770050481604], [-108.6642542896187, 25.775313878429678], [-108.65595662456022, 25.775792027337655], [-108.65368682044502, 25.773033779189976], [-108.6539122631698, 25.766819972312867], [-108.65691737917022, 25.76444623962198], [-108.66444331473724, 25.764793793902495], [-108.66660809471443, 25.76731685559331], [-108.66693153561454, 25.772770050481604]]], [[[-108.73415702721032, 25.70343471266022], [-108.7371268017147, 25.70589053393692], [-108.73726641454934, 25.709565059986772], [-108.73201244540243, 25.717751711595085], [-108.72865928645213, 25.719082718422957], [-108.70159607552739, 25.70511962528766], [-108.6995595433232, 25.70114145985398], [-108.70300168000914, 25.695320124394254], [-108.7073538412309, 25.694182812135494], [-108.71334661811115, 25.695127549389085], [-108.71846080043615, 25.688849052714566], [-108.72140001934557, 25.68785070086876], [-108.7257419452339, 25.690599507224753], [-108.73415702721032, 25.70343471266022]]], [[[-108.69274239526187, 25.696917330475927], [-108.68125099400788, 25.710425143527274], [-108.66912281164213, 25.70503283434247], [-108.66710181428425, 25.702419119684922], [-108.66779140578593, 25.699099156479303], [-108.67294732557247, 25.694817500796006], [-108.67973389817388, 25.694209303552892], [-108.68488961231638, 25.68968085412652], [-108.69163017786056, 25.692357944602104], [-108.69274239526187, 25.696917330475927]]], [[[-108.68779265046194, 25.64835480587239], [-108.68466461926644, 25.644038043644674], [-108.68831311452915, 25.637791884745866], [-108.69199883990568, 25.637059419466958], [-108.69786145967652, 25.640522687204225], [-108.69846818237282, 25.64416828889489], [-108.6949539840923, 25.649474359859678], [-108.69178820328183, 25.650266593837603], [-108.68779265046194, 25.64835480587239]]], [[[-108.70135979624183, 25.751077987383965], [-108.69846660077896, 25.757690437020514], [-108.69481622511657, 25.75876777572108], [-108.69172322234708, 25.75730394628418], [-108.6892503725153, 25.75263868620404], [-108.69237632695491, 25.740787462078856], [-108.6986866911135, 25.739838003971553], [-108.70157013565306, 25.741181913348676], [-108.70267205479759, 25.748126367418497], [-108.70135979624183, 25.751077987383965]]], [[[-108.7119716618163, 25.53535043574376], [-108.70694444684534, 25.541914755557485], [-108.70243306278584, 25.54258391387046], [-108.69600681337099, 25.536513242361536], [-108.69476016538572, 25.529353783912025], [-108.69720896618641, 25.526928189996752], [-108.7036892941718, 25.52761549012075], [-108.70871701581491, 25.523523779105307], [-108.71329199446464, 25.522991431975367], [-108.71727659853289, 25.529157398274027], [-108.7119716618163, 25.53535043574376]]], [[[-108.72800094291397, 25.886220205049344], [-108.726218256618, 25.891325045638265], [-108.71822199472632, 25.897180938771836], [-108.71198351167416, 25.898291269020554], [-108.70880353705132, 25.89594562120019], [-108.71175563629122, 25.87839131060311], [-108.71531656744904, 25.874510494892746], [-108.7277885115135, 25.878022710479225], [-108.72918137021774, 25.880990685320423], [-108.72800094291397, 25.886220205049344]]], [[[-108.71488376112552, 25.86959327651132], [-108.70572190479581, 25.8671758705821], [-108.70370038539248, 25.865308456069254], [-108.70322916987011, 25.8598123806708], [-108.70700953096365, 25.854257782577744], [-108.71544197529734, 25.854960004902104], [-108.71806252997666, 25.857080916082314], [-108.71942356937846, 25.863402581201004], [-108.71488376112552, 25.86959327651132]]], [[[-108.72603493743557, 25.63354340487876], [-108.72103899344103, 25.63745231268573], [-108.71773702106037, 25.63773981179736], [-108.70508385336663, 25.630761204779116], [-108.70363541174187, 25.622413587190692], [-108.71305116911087, 25.609121110279656], [-108.71675627534235, 25.608983595139783], [-108.72163699942705, 25.612401735524582], [-108.72152233271171, 25.621137077589662], [-108.72953423381718, 25.62807989431791], [-108.72898055029604, 25.631057757457217], [-108.72603493743557, 25.63354340487876]]], [[[-108.72502747700011, 25.506406407262155], [-108.72218566174793, 25.510966016511876], [-108.71830919963, 25.511901424707386], [-108.71309269992412, 25.509814756619104], [-108.71132397217718, 25.50406042569738], [-108.7133936808349, 25.501077371110224], [-108.71726568499098, 25.500134375993476], [-108.7221402549864, 25.5017223839496], [-108.72502747700011, 25.506406407262155]]], [[[-108.75234839177534, 25.492652865177142], [-108.745677852094, 25.505737470355008], [-108.74237544553999, 25.506774495833664], [-108.73825878748862, 25.50472310447429], [-108.73704497568093, 25.498873586444674], [-108.74171445517815, 25.488914918164554], [-108.74602261178818, 25.486792344039188], [-108.74943717603038, 25.486983400853514], [-108.75214696448249, 25.48925929875468], [-108.75234839177534, 25.492652865177142]]], [[[-108.7664310296709, 25.838074413415463], [-108.76437005191966, 25.842695776980527], [-108.76020464297119, 25.84358756540635], [-108.75437202444328, 25.838985932186382], [-108.75392301087706, 25.833818530052074], [-108.75661442438235, 25.83128572218449], [-108.76280374610648, 25.83114003612118], [-108.76643301921185, 25.834308527782895], [-108.7664310296709, 25.838074413415463]]], [[[-108.78517966928345, 25.511918790061955], [-108.78268491508096, 25.515769737845915], [-108.77611815686107, 25.51654346386821], [-108.77198202498938, 25.510681613023046], [-108.77201371176817, 25.506791273845003], [-108.77519037781762, 25.50317986104546], [-108.77944822206476, 25.503034897738846], [-108.78234507935511, 25.505474602066027], [-108.78517966928345, 25.511918790061955]]], [[[-108.7816415361595, 25.60745790448614], [-108.78581472486472, 25.607629471688874], [-108.78805475838934, 25.611353948240517], [-108.78501889887931, 25.618286794573862], [-108.78142454566763, 25.62002429619173], [-108.77697620920891, 25.618077962309112], [-108.77482788963302, 25.613991362474316], [-108.77762983311946, 25.609450268041183], [-108.7816415361595, 25.60745790448614]]], [[[-108.8059273179242, 25.901719770612708], [-108.80301613720799, 25.91073719615805], [-108.80001545129994, 25.91185677861341], [-108.79665438816484, 25.910492382702387], [-108.79355089277328, 25.899728310361624], [-108.79403437924921, 25.89319606229175], [-108.78940524871425, 25.88522161714836], [-108.79220331175526, 25.879855805225315], [-108.79660184220268, 25.877404113653593], [-108.8010065701591, 25.877594591350135], [-108.80763129430407, 25.883165110219693], [-108.80758633002924, 25.88620036971647], [-108.80439133512334, 25.891368459604323], [-108.80637743520754, 25.89702501905446], [-108.8059273179242, 25.901719770612708]]], [[[-108.84427602344219, 25.758739589839838], [-108.8438727347927, 25.76478182227376], [-108.84038393384174, 25.76990385484775], [-108.83215842398018, 25.774739420567997], [-108.82550086290131, 25.771694270509805], [-108.8139996746932, 25.770477289286465], [-108.80637864179911, 25.761442558927595], [-108.79507733410253, 25.754679778827224], [-108.79388926487101, 25.751206361788558], [-108.79660593336133, 25.746995557163945], [-108.80495099815158, 25.74398596579542], [-108.81060719248559, 25.744800793539994], [-108.8188797849276, 25.740454817152354], [-108.82601898882453, 25.741045448493878], [-108.84190277414723, 25.748927955732103], [-108.84427602344219, 25.758739589839838]]], [[[-108.81076677462951, 25.61513867224706], [-108.80919390728577, 25.618735737182437], [-108.80413620253579, 25.621475156043907], [-108.799118041269, 25.620997406832323], [-108.7969415835822, 25.61822690278063], [-108.79743855233284, 25.61514448506483], [-108.8029468716816, 25.608703796985232], [-108.80878074352945, 25.610244470554303], [-108.81076677462951, 25.61513867224706]]], [[[-108.82380686538089, 25.700994599138312], [-108.81838785647781, 25.705641026567836], [-108.80548583452004, 25.702923250376315], [-108.80375052284614, 25.699388557089257], [-108.80586675007967, 25.6879877117758], [-108.8108881958122, 25.68659015500972], [-108.82467350694837, 25.693883723809986], [-108.82625286842836, 25.697639704654804], [-108.82380686538089, 25.700994599138312]]], [[[-108.86786389759779, 25.62717859262327], [-108.87302238408728, 25.629122274394902], [-108.87487737476322, 25.631416772732162], [-108.87453988076018, 25.634574684716902], [-108.87148064255527, 25.637767675423415], [-108.863190626991, 25.635541409500544], [-108.86027978390969, 25.632381849713134], [-108.86179006052137, 25.627220307708118], [-108.86786389759779, 25.62717859262327]]], [[[-108.89362939610888, 25.51120178586694], [-108.88543844512002, 25.51160354719311], [-108.88364137428438, 25.508671795544267], [-108.88438507869158, 25.50460404627012], [-108.89144464712436, 25.501093777021552], [-108.89794788535167, 25.502772982305373], [-108.89956165608008, 25.505338427365565], [-108.89901382378753, 25.508851858187928], [-108.89659633005598, 25.511101830740277], [-108.89362939610888, 25.51120178586694]]], [[[-108.95974216258149, 25.789411608966272], [-108.95472023868537, 25.798206357263194], [-108.95530528530684, 25.803751156946483], [-108.95311334984979, 25.80722369756098], [-108.9466003677148, 25.812023399861282], [-108.93801685801199, 25.811012656944985], [-108.93371826262171, 25.817956833110415], [-108.9282269822326, 25.820765678584245], [-108.92759253750982, 25.824144668766824], [-108.93032472491431, 25.829612293085596], [-108.92666417308367, 25.836309618295218], [-108.92221160118449, 25.836869425021973], [-108.91409134114231, 25.83009050278944], [-108.91353598614543, 25.82553422951387], [-108.92123583466484, 25.8164217427903], [-108.92079383908388, 25.81370414256682], [-108.91639132779507, 25.80874115210008], [-108.91836178486163, 25.80404900519508], [-108.92300210672602, 25.801693140731576], [-108.9280180458762, 25.80376854788505], [-108.93106492832732, 25.803093582777034], [-108.93754270724361, 25.788948373029157], [-108.9461829617184, 25.788238249827774], [-108.95276469153666, 25.780207609278627], [-108.9606871560174, 25.78306601922057], [-108.96138858378663, 25.78607331963041], [-108.95974216258149, 25.789411608966272]]], [[[-108.94404144223527, 25.73610072851662], [-108.94472924663201, 25.740512116646276], [-108.93834698946013, 25.748488883573966], [-108.93049381278787, 25.7477862825302], [-108.92397671602224, 25.743040358415694], [-108.9243481921855, 25.739629569490095], [-108.93175124488482, 25.73050397524027], [-108.93461463201572, 25.73066244595333], [-108.94404144223527, 25.73610072851662]]], [[[-108.97782946829936, 25.744767531587616], [-108.9779374951251, 25.7485326823267], [-108.97137945012032, 25.75830286150482], [-108.96797877012453, 25.758194531492318], [-108.95896693660116, 25.752176438119672], [-108.95928559042831, 25.748767192531986], [-108.96644191386594, 25.73955607405382], [-108.96947148538342, 25.7396636212743], [-108.97782946829936, 25.744767531587616]]]]}, "properties": {}}