{"type": "Feature", "geometry": {"type": "MultiPolygon", "coordinates": [[[[103.03141542513173, 2.245078663630801], [103.03218569632244, 2.2530527938726985], [103.04072989878398, 2.2586932975864924], [103.05443025113185, 2.25918155368703], [103.05751264521933, 2.2568678719485478], [103.05762827103948, 2.251635364328662], [103.05348664103289, 2.244941557102862], [103.04215791346302, 2.235523171733608], [103.039006526014, 2.235430099919274], [103.03250920663544, 2.2396951117557387], [103.03141542513173, 2.245078663630801]]], [[[103.03115764638129, 2.193068869535866], [103.03395438568812, 2.1973952175887086], [103.04223621250203, 2.1963385240826576], [103.04358826470471, 2.1928811423957275], [103.04249997100253, 2.1826623178320625], [103.0391241975687, 2.1805775384680746], [103.03331909154768, 2.1816686386688002], [103.03118676879919, 2.186168537318955], [103.03115764638129, 2.193068869535866]]], [[[102.96172312972416, 2.304223260058356], [102.96807694516552, 2.306684833079736], [102.97689988618373, 2.3063370904212164], [102.9810045854877, 2.3030839640143177], [102.98424402107705, 2.2964809607573993], [102.99266633769281, 2.2984614907029934], [103.00016391919115, 2.2937859612329516], [103.00159875890812, 2.2879250773363875], [102.99824271104725, 2.2828874680728966], [102.99458156077685, 2.2819838923844227], [102.98696894732308, 2.2871007882427126], [102.98450029927777, 2.292300382799353], [102.98123263351384, 2.2933065134603927], [102.96950330422978, 2.2835114399717673], [102.96517683443231, 2.2832317989795774], [102.9610742397715, 2.285405393208743], [102.9573135147098, 2.2900690851626018], [102.95644560346769, 2.2978587154132115], [102.95913854431264, 2.302751286192968], [102.96172312972416, 2.304223260058356]]], [[[102.93207671113802, 2.380642137892034], [102.92655885013056, 2.3856340225852017], [102.9258864793295, 2.3894646642061126], [102.928698065971, 2.3963720744689736], [102.93359732892685, 2.398847521963094], [102.93924359205613, 2.396074795271029], [102.94206306964848, 2.3900964923419696], [102.95356704240461, 2.3844404944008355], [102.95531731174094, 2.3813749535166004], [102.95372839946093, 2.37659761190146], [102.94408600992233, 2.3698922907648456], [102.94142278270671, 2.370819961713291], [102.93859979341482, 2.375548718310153], [102.93369266939061, 2.3778361023603094], [102.93207671113802, 2.380642137892034]]], [[[102.8666222313962, 1.9784818412886662], [102.8694555073549, 1.9866808403530292], [102.87373529250081, 1.9892180076786818], [102.87746545940409, 1.9893758511027477], [102.88639204150687, 1.983302895909203], [102.88987325506534, 1.9787753964901371], [102.89092603532593, 1.9743902260207058], [102.88647354183841, 1.9696992200046683], [102.87899569352234, 1.9682330846534721], [102.86715597483656, 1.972876565186438], [102.8657433441544, 1.9755221497445778], [102.8666222313962, 1.9784818412886662]]], [[[102.71498582828552, 2.156368324483367], [102.719354315151, 2.162399452758957], [102.72230990256199, 2.1635771941577584], [102.72822970884333, 2.158344546008603], [102.73979126476253, 2.155323320380233], [102.74206178285233, 2.1500116036220955], [102.73880353837778, 2.1428774282046206], [102.74036957563958, 2.140521890335204], [102.74337274083726, 2.13978319778109], [102.74825124146187, 2.143574425628199], [102.7569066958035, 2.1453491247243575], [102.7594639658367, 2.1548384980940556], [102.77075454049226, 2.1593507084134305], [102.77407062535953, 2.165937593082981], [102.78072647040779, 2.168459659771847], [102.7885345991231, 2.166435481787057], [102.79128361070056, 2.159970315841338], [102.79832809452046, 2.1565075204512727], [102.79965732772476, 2.1520875502869057], [102.79235333810033, 2.144513488216847], [102.78280177395625, 2.144099576105916], [102.77662587719318, 2.135525501333288], [102.77008275882426, 2.1350600616133195], [102.76059574811359, 2.129882152739504], [102.75114058160126, 2.12716356206673], [102.74820030890983, 2.1282406049881573], [102.74529818319405, 2.132499147189606], [102.74195616113468, 2.132882506995775], [102.73447246873162, 2.124956433482556], [102.72614417918423, 2.1211291852010588], [102.72333841859812, 2.122528719862951], [102.71983269438894, 2.128625364988271], [102.71933783295485, 2.1342732900346397], [102.72139226367526, 2.140249289653323], [102.71957618393445, 2.1452165198638986], [102.7139206261847, 2.1519471752238286], [102.71498582828552, 2.156368324483367]]], [[[102.76910964130332, 2.0164917243453253], [102.7675901245028, 2.020931953626693], [102.75829427893626, 2.0242858433187982], [102.75475982620861, 2.0276753846204785], [102.75444902467171, 2.031110701038283], [102.75822877726864, 2.036209133753549], [102.76335725466582, 2.0369631821412657], [102.77075484265715, 2.0348094769817138], [102.77491572538774, 2.0293166620472722], [102.79370830918894, 2.022759012828357], [102.79599140853281, 2.0194607018881037], [102.79392849667582, 2.0150081115984797], [102.78855481442088, 2.014536881029538], [102.78608511523304, 2.0127354470720284], [102.77567846271707, 1.9830814010064384], [102.77236968925405, 1.9806143654676744], [102.76921011710758, 1.9817089253243294], [102.7678030304384, 1.9847091128460155], [102.77336964644851, 2.003662409959608], [102.77251845728658, 2.0062532180092973], [102.7679551368663, 2.0101439319544205], [102.76910964130332, 2.0164917243453253]]], [[[102.6865843009352, 2.2171268980122663], [102.68942116454114, 2.221144059869422], [102.69610818749301, 2.2208562279330595], [102.6998094725011, 2.217197085256192], [102.70522211288053, 2.216511779621866], [102.71130329056125, 2.212659032609166], [102.71262442670498, 2.207620403321427], [102.7102401266652, 2.2045184354414498], [102.70192766354627, 2.2017440796750414], [102.69263407266148, 2.2044017009156684], [102.68809714049878, 2.2096027380319057], [102.6865843009352, 2.2171268980122663]]], [[[102.64442515003479, 2.21410433969965], [102.64365808504503, 2.2170844607069338], [102.64534853257513, 2.22037448247914], [102.65603504189643, 2.228024268900456], [102.66649044100288, 2.2250649189401477], [102.67104505122087, 2.2193882336442683], [102.67092689069567, 2.2150160267438537], [102.66674547958588, 2.2080111989695523], [102.66339977167294, 2.203710765676626], [102.66054264122977, 2.2026114989125865], [102.64605367800523, 2.203951744497925], [102.64408212190378, 2.2073245525964658], [102.64442515003479, 2.21410433969965]]], [[[102.64873536908193, 2.1611336874976512], [102.64855514798359, 2.165392836450445], [102.65539754203982, 2.1735757152637283], [102.65882141810935, 2.1754425011223786], [102.66204206779342, 2.1742886885208943], [102.66320879832898, 2.1713600325946802], [102.66174017662611, 2.160645186524352], [102.65493503094014, 2.1578705562932656], [102.64873536908193, 2.1611336874976512]]], [[[102.59858587464511, 2.106137222692164], [102.59912961907146, 2.111463624234507], [102.6019423101532, 2.1157806599667275], [102.60726942404818, 2.117625889434373], [102.61126602043468, 2.1164027435521033], [102.61961317658638, 2.1049054097995663], [102.61792617724522, 2.096695746942123], [102.61194625956077, 2.0928583106628373], [102.60265346532383, 2.092695710267334], [102.59960750646566, 2.0958132328886747], [102.59858587464511, 2.106137222692164]]]]}, "properties": {}}