{"type": "Feature", "properties": {"city": "Pietermaritzburg", "country": "South Africa", "real_area": 138.14}, "geometry": {"type": "MultiLineString", "coordinates": [[[31.0409521378772, -29.8584239960672], [31.0430908780633, -29.8539157657331], [31.0394842159337, -29.8501610981825], [31.0337388338958, -29.8509146467094], [31.0315999001145, -29.8554228865904], [31.0352065419356, -29.8591775684038], [31.0409521378772, -29.8584239960672]], [[30.9992649216315, -29.8554306881796], [30.9971251148281, -29.8599382487034], [31.0007313455055, -29.8636937514645], [31.0064774039571, -29.8629416795105], [31.0100838197728, -29.8666967860802], [31.0158298700164, -29.8659443271868], [31.0179692903466, -29.8614367852701], [31.0237151180563, -29.860683963027], [31.0258542951401, -29.8561760720446], [31.0222478379303, -29.8524209938943], [31.0243869651852, -29.8479127445484], [31.0207806721229, -29.8441572844276], [31.0150352724247, -29.8449100594171], [31.0128959518179, -29.849418318146], [31.0071503297002, -29.8501707299632], [31.0035442422706, -29.8464148595126], [30.9977986120426, -29.8471668845753], [30.9956588551672, -29.851674803526], [30.9992649216315, -29.8554306881796]], [[31.0706233274213, -29.7276127643275], [31.0727600111379, -29.7230981613629], [31.0691551970193, -29.7193390052504], [31.0634137188944, -29.720094437454], [31.0612768414585, -29.7246090500655], [31.0648816358362, -29.7283682208327], [31.0706233274213, -29.7276127643275]], [[30.3630035405461, -29.5604638105003], [30.365155201158, -29.5559515448672], [30.3615637446833, -29.5521653186294], [30.3558206601848, -29.5528913444062], [30.3536688149984, -29.5574036135408], [30.3572602388541, -29.5611898534034], [30.3630035405461, -29.5604638105003]], [[30.9909061323149, -29.7253790194311], [30.9930447048027, -29.7208654010457], [30.9894410578065, -29.717103832893], [30.9836988594892, -29.7178558686262], [30.981560094274, -29.7223694959837], [30.9851637200731, -29.7261310786422], [30.9909061323149, -29.7253790194311]], [[30.291218933838, -29.6542755907126], [30.2933732214581, -29.6497686364784], [30.2897812712648, -29.6459841407081], [30.2840350673791, -29.646706585954], [30.2818805959254, -29.6512135432258], [30.2854725121601, -29.6549980522203], [30.291218933838, -29.6542755907126]], [[30.3881878905297, -29.6547542374767], [30.3917815254423, -29.6585355957457], [30.3975272413652, -29.657808596485], [30.4011210734196, -29.6615895669613], [30.4068668011324, -29.6608621838188], [30.4104608301454, -29.6646427663723], [30.4162065693418, -29.6639149992997], [30.4183580623855, -29.6594066672421], [30.424103595697, -29.6586785338474], [30.4262548512315, -29.6541698490319], [30.4320001784539, -29.6534413494501], [30.4341511964206, -29.6489323120423], [30.4305570728047, -29.6451517700061], [30.4327080388443, -29.6406423759092], [30.4291140802659, -29.6368614594669], [30.4312649943773, -29.6323517088115], [30.4276712008261, -29.6285704180988], [30.4298220630081, -29.6240603110155], [30.4355665331387, -29.6233314988544], [30.4391603579804, -29.6271127759639], [30.4449048386488, -29.6263835802451], [30.4470552775764, -29.6218731253315], [30.4434614215899, -29.6180918618559], [30.4456118086515, -29.6135810507291], [30.4420181176343, -29.6097994131554], [30.4362740706932, -29.6105285730627], [30.4326805758276, -29.6067465478565], [30.4269365395173, -29.6074753243948], [30.4247857811978, -29.6119861439418], [30.4190415388721, -29.6127145548738], [30.4154482718488, -29.6089321285381], [30.4175992156127, -29.6044213049039], [30.4233432409863, -29.6036929116863], [30.4254939473727, -29.5991817361038], [30.4312377667865, -29.5984529773692], [30.4333882357371, -29.5939414500043], [30.4391318489871, -29.593212325888], [30.4427252100966, -29.5969947112498], [30.4484688337642, -29.5962652039049], [30.4506188795061, -29.5917533291865], [30.4470254873258, -29.5879709575441], [30.4412820804436, -29.5887004469068], [30.4376888842726, -29.5849176878551], [30.4398390638583, -29.5804054531846], [30.4362460326155, -29.5766223205791], [30.4383961603292, -29.5721097303503], [30.4348032940045, -29.5683262243274], [30.4290603312232, -29.5690552947958], [30.4254676611179, -29.5652714017297], [30.4276179224514, -29.5607584519637], [30.433360668428, -29.5600293993678], [30.4355106923941, -29.5555160984164], [30.4412532322251, -29.5547866809314], [30.4434030187655, -29.550273028961], [30.4398104510559, -29.5464887903241], [30.4340681279651, -29.5472181898524], [30.4304757563327, -29.543433564396], [30.4247334439384, -29.5441625812625], [30.4225832864207, -29.5486762414412], [30.4168407681957, -29.5494048934619], [30.4132486243524, -29.54561986753], [30.4153989671743, -29.5411062033703], [30.4118069882453, -29.5373208046668], [30.4060646981614, -29.5380490563551], [30.4024729158581, -29.5342632712241], [30.3967306373881, -29.5349911403963], [30.3945799243263, -29.5395048122717], [30.3888374408037, -29.5402323164605], [30.3866864907667, -29.5447456370246], [30.3809438023955, -29.5454727760946], [30.3787926154417, -29.5499857451812], [30.3823843017062, -29.5537715715041], [30.3802330626819, -29.5582841853053], [30.3838249139454, -29.5620696389194], [30.3816736228519, -29.5665818973038], [30.3759302956433, -29.5673087057457], [30.3723384766602, -29.5635232384813], [30.3665951620569, -29.5642496641293], [30.3644434493113, -29.5687615742615], [30.3586999304167, -29.5694876342962], [30.3551083415011, -29.5657017670607], [30.3493648357773, -29.5664274443048], [30.3457734446861, -29.5626411908485], [30.3400299524388, -29.5633664853512], [30.3364387593546, -29.559579845805], [30.3306952808897, -29.5603047576155], [30.3285427781897, -29.564816325819], [30.3321339381944, -29.5686029789152], [30.3299813832317, -29.5731141914498], [30.3335727083567, -29.5769004720006], [30.3393166215312, -29.5761755264788], [30.3414689921905, -29.5716643172708], [30.3472127017419, -29.5709390058204], [30.3508042579165, -29.5747248866314], [30.3565479808983, -29.573999192345], [30.3601397348839, -29.5777846868167], [30.3579877332012, -29.5822958891256], [30.3522437929523, -29.5830216004597], [30.3486520716839, -29.5792360924308], [30.3429081448192, -29.5799614208341], [30.3407557219313, -29.5844722742184], [30.3443474103367, -29.5882577957734], [30.3500915545238, -29.5875324504118], [30.3536834408962, -29.591317585522], [30.351531150273, -29.5958280794956], [30.3457867887542, -29.5965534418211], [30.3436342614122, -29.6010635831646], [30.3378896961043, -29.6017885792937], [30.3357369321022, -29.6062983678415], [30.3299921632097, -29.6070229976397], [30.3264003757925, -29.6032378220986], [30.3206556210175, -29.6039620687352], [30.3185024361931, -29.6084715076028], [30.3220941903338, -29.6122566965589], [30.3278391626064, -29.6115324332261], [30.3314311152089, -29.6153172356577], [30.3292780623169, -29.6198263148126], [30.3235328725376, -29.620550594847], [30.3213795830714, -29.6250593207678], [30.3249716676403, -29.6288437633324], [30.3228183258549, -29.6333521325838], [30.3264105756533, -29.6371362017483], [30.3242571815498, -29.6416442141996], [30.3185113533881, -29.6423681607862], [30.3149191369412, -29.6385840782919], [30.3091733232786, -29.6393076413425], [30.3055813056058, -29.6355231721132], [30.2998355067483, -29.6362463516772], [30.2976815079128, -29.6407540169041], [30.3012734919188, -29.6445384994194], [30.299119440669, -29.6490458076556], [30.3027115899753, -29.652829916717], [30.3084578242056, -29.6521067042678], [30.3120501724422, -29.6558904264891], [30.3177964213855, -29.6551668303642], [30.3213889683698, -29.6589501656145], [30.3192352329915, -29.6634571102465], [30.32282794526, -29.6672400716709], [30.3285744262184, -29.6665160751813], [30.3307279772693, -29.6620091339132], [30.3364742547204, -29.6612847702892], [30.3400671986516, -29.6650673312052], [30.3379138320516, -29.6695742690277], [30.3321673370385, -29.670298649386], [30.3300137336741, -29.6748052333323], [30.3242670350985, -29.6755292464673], [30.3221131950286, -29.6800354763722], [30.3257062378966, -29.6838176897377], [30.3314531540988, -29.6830936599519], [30.3350463954917, -29.6868754858622], [30.3407933256563, -29.6861510720189], [30.3443867653914, -29.6899325103434], [30.350133709212, -29.6892077123936], [30.3522869957324, -29.6847014929653], [30.3580337354148, -29.683976327794], [30.3601867849581, -29.679469754499], [30.3565932795803, -29.675688342737], [30.3587462769087, -29.6711814120501], [30.3644925948249, -29.6704558968094], [30.3680861328052, -29.6742372952441], [30.3659333202977, -29.6787442222407], [30.3695270234955, -29.6825252462608], [30.3752735716647, -29.6817993299381], [30.3788674724995, -29.685579966086], [30.384614033192, -29.6848536656502], [30.3867664756879, -29.680346746279], [30.3831725425898, -29.6765661234838], [30.3774261992281, -29.6772924067134], [30.3738324635973, -29.6735113960333], [30.3759850390104, -29.6690041155004], [30.3817311650505, -29.6682778494715], [30.3838835033105, -29.6637702155676], [30.3802899005628, -29.6599888438793], [30.3824421867029, -29.6554808529044], [30.3881878905297, -29.6547542374767]], [[30.3400547792141, -29.6311788422081], [30.3422076999836, -29.6266701230255], [30.3386153839196, -29.6228860806133], [30.3407682524345, -29.6183770048448], [30.3465132525439, -29.6176519749504], [30.350105601522, -29.6214360039401], [30.3558506150907, -29.6207105906913], [30.3594431619825, -29.6244942327638], [30.3572906625916, -29.6290033015142], [30.360883374639, -29.6327865699868], [30.3666286186832, -29.6320607562548], [30.370221528448, -29.6358436375615], [30.368069161648, -29.640352346024], [30.3623237002725, -29.6410781768411], [30.3587308230592, -29.6372952821044], [30.3529853747446, -29.638020729329], [30.3508325862876, -29.6425290882801], [30.3450869339071, -29.6432541688627], [30.3414942874475, -29.6394708735865], [30.3436472604707, -29.6349625111203], [30.3400547792141, -29.6311788422081]]]}}