{"type": "Feature", "geometry": {"type": "MultiPolygon", "coordinates": [[[[-75.80194179145882, 4.458768466176423], [-75.79629531629469, 4.462125028602385], [-75.79331177453886, 4.466486193735986], [-75.7882936766486, 4.468069503438342], [-75.78507651186307, 4.472055195572733], [-75.77462151993441, 4.471393803913751], [-75.77181517173175, 4.477399144701287], [-75.76793836256466, 4.48160842741329], [-75.76292633169382, 4.483427033218592], [-75.7559753653387, 4.492690522175782], [-75.74862299535867, 4.492766983000073], [-75.74516612754263, 4.49466235822751], [-75.74203874810651, 4.500302626558775], [-75.7330424197092, 4.501022322780629], [-75.728314999213, 4.50436270964021], [-75.72718260320265, 4.50824733303629], [-75.731006821419, 4.512656822335216], [-75.73105042464611, 4.517054142012386], [-75.72333475327939, 4.5216729819113475], [-75.72177337799161, 4.53066993232196], [-75.71237788290837, 4.539251849821459], [-75.70978098748866, 4.5463010128172305], [-75.68753967018593, 4.548664121169549], [-75.67763577460664, 4.554385120612562], [-75.67483535899827, 4.558886774084816], [-75.66843979413912, 4.561939491930103], [-75.66277993685365, 4.5675025434583505], [-75.65799343795156, 4.574951363406672], [-75.65792507388768, 4.581775064286521], [-75.65243472151703, 4.5899594405729855], [-75.6568031678081, 4.602697046599204], [-75.65148404091887, 4.610533012005843], [-75.6532221166763, 4.617539439729636], [-75.65021288782948, 4.6221263722884744], [-75.64402763373248, 4.6243866015986645], [-75.63813438567519, 4.629639320818632], [-75.63168747769026, 4.629321249347814], [-75.62633418410913, 4.631932120211994], [-75.6233350356967, 4.637351346167697], [-75.62005565805231, 4.639264443897689], [-75.61312685123684, 4.638286043504564], [-75.60761278092035, 4.634141696690084], [-75.60668171831745, 4.629131202312996], [-75.61235117913193, 4.620654529738951], [-75.62431516910347, 4.616046422905317], [-75.62709782609456, 4.605607701179778], [-75.63604371272916, 4.601741339882058], [-75.63711187856353, 4.5900935726865395], [-75.63033190767712, 4.586726458951802], [-75.62872009025652, 4.584131878037219], [-75.63145070178966, 4.5745708567374335], [-75.63063796139289, 4.569872216396364], [-75.63236256370006, 4.566853413677693], [-75.63863779389649, 4.562473828337573], [-75.64597133276752, 4.549056992679742], [-75.64530829293712, 4.545678745902978], [-75.64175402871575, 4.54325579472821], [-75.63544404535892, 4.543757946736707], [-75.63227127522529, 4.541546543977379], [-75.62999930718281, 4.529666469057969], [-75.62621420771853, 4.5248582943200475], [-75.62756282211024, 4.520963942559196], [-75.63669979344247, 4.516428773452471], [-75.64443414775344, 4.515806696133719], [-75.64940751390073, 4.5097861783315905], [-75.65120739858537, 4.504839745829441], [-75.6588071890376, 4.49981310646829], [-75.66923394705229, 4.498993431117912], [-75.6735252820059, 4.495503725595335], [-75.68214993969707, 4.493131850106226], [-75.68686648176771, 4.487155371110411], [-75.69248569331054, 4.4838791706474606], [-75.69476500289328, 4.475427466776898], [-75.70437771407673, 4.47485204989471], [-75.71154729685455, 4.465511084113171], [-75.7211692423016, 4.466747587193776], [-75.72550104782424, 4.462741394123648], [-75.74057917455235, 4.456524190094763], [-75.74811404545527, 4.461590865019079], [-75.75316531349533, 4.460617463798306], [-75.77093605298595, 4.461750615934778], [-75.7764627942132, 4.455338569581824], [-75.77998290823516, 4.445465647370113], [-75.78946463889339, 4.442493524838004], [-75.79232897300754, 4.443403329566027], [-75.79721054234174, 4.450012029438541], [-75.80214497594162, 4.452923206537183], [-75.80194179145882, 4.458768466176423]], [[-75.68349234289524, 4.511755892664414], [-75.68179996852291, 4.50623961779056], [-75.67317642654771, 4.505037413933198], [-75.6632875558386, 4.511557989405857], [-75.66170688770804, 4.519761327891506], [-75.66890697297056, 4.524728092082871], [-75.67272209239549, 4.525009862858994], [-75.67932105532604, 4.521953984233536], [-75.68305690206645, 4.518295235988289], [-75.68349234289524, 4.511755892664414]], [[-75.7479385452802, 4.478032819827337], [-75.74879777627025, 4.4735407755781615], [-75.74354401014796, 4.46893553734711], [-75.73736097198343, 4.469384014863538], [-75.73081342401075, 4.474795302194434], [-75.72467883424665, 4.474518283346323], [-75.71773471389305, 4.478228295826615], [-75.71469471817456, 4.485047949328881], [-75.70485943284159, 4.494024960071347], [-75.70449758330095, 4.497747671929384], [-75.70627977320993, 4.499738534011792], [-75.71031451375617, 4.500572429962834], [-75.72039674199742, 4.492483544902044], [-75.7257489841786, 4.492696111207244], [-75.73436895015561, 4.490051363369019], [-75.73961419108873, 4.482989555517564], [-75.74487607587514, 4.481455630665399], [-75.7479385452802, 4.478032819827337]]], [[[-75.64641550049596, 4.73234181821205], [-75.64847733687724, 4.735435606893721], [-75.64720584955668, 4.7395503277057776], [-75.63804521844696, 4.740560294519289], [-75.6341874646178, 4.73403386089376], [-75.62768503035595, 4.729249190584359], [-75.62710827212194, 4.723244270039937], [-75.62988601206388, 4.7209656291479964], [-75.63733948527555, 4.720721145284551], [-75.64360487657295, 4.730570212813016], [-75.64641550049596, 4.73234181821205]]], [[[-75.69077742944408, 4.7447294344085895], [-75.69287119760398, 4.748011083620467], [-75.69146725060503, 4.753408019218438], [-75.6888564669609, 4.7546566276599584], [-75.68233525647884, 4.753996741827879], [-75.67826870014363, 4.7589332351158795], [-75.67552599429256, 4.759918511310575], [-75.66195226777056, 4.752048408608413], [-75.65810971747418, 4.744050153653734], [-75.66159774101304, 4.739291292117792], [-75.66596725986821, 4.739336168441412], [-75.674244749408, 4.736265327434149], [-75.6825860152879, 4.736135949629646], [-75.68537523048957, 4.737412768158821], [-75.6878666178587, 4.742874209675411], [-75.69077742944408, 4.7447294344085895]]], [[[-75.68379853259319, 4.716514181561685], [-75.68491307446448, 4.721296012681076], [-75.68038292749986, 4.723979779555627], [-75.66890225764968, 4.719917643870017], [-75.66647260442302, 4.71471264556717], [-75.66837038660663, 4.711316102238204], [-75.67163237293104, 4.710242440420397], [-75.6802581760036, 4.712745253744365], [-75.68379853259319, 4.716514181561685]]], [[[-75.71056229680936, 4.332951584304692], [-75.70658472277539, 4.340737420968608], [-75.70353389872268, 4.3414216467497955], [-75.70083942954176, 4.339709177735113], [-75.70031493995562, 4.336282732077422], [-75.70404250292259, 4.328761392651757], [-75.70860008049452, 4.328604886681634], [-75.71056229680936, 4.332951584304692]]], [[[-75.74573831114225, 4.703050754546204], [-75.74654893609394, 4.705679941276801], [-75.74529277230884, 4.708490652205309], [-75.73909631161288, 4.710182934245017], [-75.73032464532169, 4.702855438815128], [-75.72954234234393, 4.698024067795252], [-75.73314542103039, 4.69511475806338], [-75.74211789101538, 4.696492120708057], [-75.74456083105042, 4.698513940912261], [-75.74573831114225, 4.703050754546204]]], [[[-75.7590728978151, 4.5601561770529955], [-75.76323159366696, 4.566844276421753], [-75.76253948388897, 4.570193887458464], [-75.76014671241535, 4.572174998652097], [-75.75272699431704, 4.571215480037747], [-75.74865491901683, 4.57609615380326], [-75.7441162228827, 4.577322319448871], [-75.74044357083527, 4.576078388755295], [-75.73314142588737, 4.569518174076235], [-75.73446631478875, 4.56195972368645], [-75.74363054562609, 4.55461793671873], [-75.7562300376449, 4.555709586769474], [-75.7590728978151, 4.5601561770529955]]], [[[-75.74986282393513, 4.736898851115475], [-75.74787485701144, 4.741474855115339], [-75.74105449443245, 4.741752277744847], [-75.73468808149639, 4.734482409304324], [-75.73428879316279, 4.730475154777521], [-75.73676120482473, 4.728221199855182], [-75.74181508333632, 4.728332578127394], [-75.74584324548738, 4.730905216335658], [-75.74986282393513, 4.736898851115475]]], [[[-75.77749698586452, 4.615040211520696], [-75.77726353592655, 4.618422424589054], [-75.77273446584012, 4.624234073579461], [-75.76471763822168, 4.627198514360216], [-75.75949895871982, 4.626315092772759], [-75.75722203242377, 4.624231573803934], [-75.75767443161752, 4.619598617310713], [-75.7636920659536, 4.614630720605302], [-75.77218197127564, 4.611701429938793], [-75.77543587611312, 4.612343454131476], [-75.77749698586452, 4.615040211520696]]], [[[-75.79360298926998, 4.512258739330587], [-75.79285176888149, 4.5156775132204965], [-75.7871520123344, 4.5188452998728055], [-75.78343107172464, 4.5248830980596875], [-75.77846736892855, 4.5267188706788195], [-75.77441936093552, 4.5239168438198405], [-75.77473783301848, 4.518887324789873], [-75.7797998542722, 4.513971906414213], [-75.78085601800011, 4.508422245132076], [-75.78376759439048, 4.505564531035095], [-75.78853074486494, 4.505617014590977], [-75.79360298926998, 4.512258739330587]]], [[[-75.79112349538742, 4.42440513319469], [-75.79315517188456, 4.426399030134588], [-75.79351122976414, 4.429624360665957], [-75.79026868576598, 4.433291825861768], [-75.77965334624785, 4.434466804843932], [-75.77576620207704, 4.431719796351441], [-75.77400164797764, 4.4278587627994845], [-75.77501450965183, 4.424101432552812], [-75.7818702904572, 4.4187520597369145], [-75.78484760894595, 4.419216228195392], [-75.79112349538742, 4.42440513319469]]], [[[-75.79352398085899, 4.346830440031334], [-75.79091792038516, 4.350772380408472], [-75.78695750830354, 4.351516475783317], [-75.78445145723327, 4.350336370663062], [-75.78282129853869, 4.343985042174387], [-75.78528674610442, 4.338535664026228], [-75.78832037380019, 4.337255102810663], [-75.7912044976904, 4.3384937638416785], [-75.79294614900711, 4.341007020330502], [-75.79352398085899, 4.346830440031334]]], [[[-75.82186166732721, 4.442810489717941], [-75.8219080933185, 4.4468831411845775], [-75.81828983112935, 4.452374468025256], [-75.81313968063381, 4.452179638406513], [-75.80994335115534, 4.449517466075326], [-75.80976823972541, 4.445851999966436], [-75.81472887623352, 4.439192032503984], [-75.81906208270654, 4.439064671643918], [-75.82186166732721, 4.442810489717941]]], [[[-75.82788977325973, 4.605777687805836], [-75.83127145679092, 4.609677541950429], [-75.82922873467875, 4.613929533862765], [-75.82356725905812, 4.614897253073091], [-75.81648017443831, 4.611398428935594], [-75.81626648182203, 4.607708309894881], [-75.81827068526249, 4.605400619707309], [-75.82356234638863, 4.6046006317953525], [-75.82788977325973, 4.605777687805836]]], [[[-75.8607274016058, 4.390324246961586], [-75.86468165139978, 4.3943510655264415], [-75.86526028309767, 4.39726000801423], [-75.85808407600388, 4.405666943794953], [-75.85252224155691, 4.405935731939169], [-75.84662155569076, 4.4014525240467135], [-75.84498760120397, 4.392708537901361], [-75.84656085465295, 4.389584085432416], [-75.85330399645979, 4.386894009108462], [-75.85837506001884, 4.3875750651619], [-75.8607274016058, 4.390324246961586]]]]}, "properties": {}}