{"type": "FeatureCollection", "features": [{"type": "Feature", "properties": {"threshold": 70}, "geometry": {"type": "MultiPolygon", "coordinates": [[[[-73.06176773648454, 7.000803790418535], [-73.05774674431859, 7.007312292146794], [-73.05517299636396, 7.007481583807565], [-73.05143495147358, 7.004591247203398], [-73.04976658220644, 6.996377616954851], [-73.0524482710841, 6.995078961472514], [-73.05693583354675, 6.998533967398997], [-73.06168969066978, 6.996810733444088], [-73.06176773648454, 7.000803790418535]]], [[[-73.18006919499307, 7.07361512872682], [-73.17381875627157, 7.083351385074589], [-73.17098781050423, 7.101565536607324], [-73.167233049881, 7.105374391905982], [-73.16268073883974, 7.1047056360701], [-73.16565009886249, 7.089084115696186], [-73.15433485015814, 7.0854713287466105], [-73.14832108993473, 7.084695025605092], [-73.13853324810896, 7.089023288799132], [-73.13043325897412, 7.09808595391886], [-73.12879254212127, 7.104219785687354], [-73.13168379572738, 7.106614245404197], [-73.13602167532, 7.105138134902582], [-73.14145797502547, 7.097975707235368], [-73.14684415211916, 7.098647978624596], [-73.14114833886669, 7.1085133208065105], [-73.1417299889675, 7.12303145598516], [-73.13765427428444, 7.129812016094043], [-73.13845856010954, 7.142261382399463], [-73.14578505309592, 7.15462593265814], [-73.14143302268505, 7.165818804842032], [-73.13791689961391, 7.166943433684858], [-73.13630362541774, 7.163258713043637], [-73.12839350166487, 7.160767201197174], [-73.1216989553233, 7.144302836378143], [-73.10876205513605, 7.13929700038953], [-73.10625917279046, 7.135468223634797], [-73.10126918702973, 7.135933805220431], [-73.09594573967675, 7.130572488550684], [-73.0962984182998, 7.127784361667343], [-73.10534270061233, 7.12606317504558], [-73.10338881401783, 7.111125336325388], [-73.10097560931462, 7.107390127358163], [-73.09279587573856, 7.107367946615051], [-73.09854381307727, 7.097465318386538], [-73.09438250265588, 7.092486409375941], [-73.08879561665225, 7.094136923068662], [-73.08192595306802, 7.083787417142954], [-73.0827725886498, 7.074068208067811], [-73.08642852421306, 7.069996048496542], [-73.07865254081875, 7.0620366929557745], [-73.08121495786837, 7.0539907397994055], [-73.09897126259276, 7.0586656824944045], [-73.11994824203317, 7.05960760985302], [-73.11725220117495, 7.064772597452848], [-73.12024095602663, 7.069704240126607], [-73.11340326832234, 7.077791267184187], [-73.12314021517652, 7.077907170060304], [-73.1302318271365, 7.0861107893321815], [-73.14341933493104, 7.0820720914196995], [-73.16147548872007, 7.080587210727952], [-73.16179533107733, 7.067839482445753], [-73.15533017859349, 7.06551924651496], [-73.15548157757472, 7.061644760156518], [-73.16011222910458, 7.058830461837775], [-73.16604733078162, 7.062857788491441], [-73.17248019040912, 7.061482651185169], [-73.18006919499307, 7.07361512872682]], [[-73.09261302210753, 7.078515106717826], [-73.08988281491214, 7.082363555886089], [-73.09401786603645, 7.085137668483694], [-73.09598200142219, 7.080309701119412], [-73.09261302210753, 7.078515106717826]]]]}}, {"type": "Feature", "properties": {"threshold": 80}, "geometry": {"type": "Polygon", "coordinates": [[[-73.18006919499307, 7.07361512872682], [-73.17283371603963, 7.090352111987249], [-73.1734654170574, 7.100818863544792], [-73.16632185031781, 7.106238755073709], [-73.16268073883974, 7.1047056360701], [-73.16495922543518, 7.0892249383182655], [-73.14905207201868, 7.084626043785113], [-73.14116492514242, 7.0883961423144255], [-73.14139813260365, 7.096694899286699], [-73.14683250875937, 7.098567350361235], [-73.14593365852888, 7.109797326191034], [-73.14205469357445, 7.114229440139106], [-73.14593019937084, 7.1203256333623095], [-73.13813223846121, 7.129600743761662], [-73.13835091040548, 7.141747685042229], [-73.1457926490105, 7.154483241904881], [-73.14146848358729, 7.1674153208765], [-73.13874765163666, 7.167779920051308], [-73.13630362541774, 7.163258713043637], [-73.12839350166487, 7.160767201197174], [-73.1216989553233, 7.144302836378143], [-73.10876205513605, 7.13929700038953], [-73.10625917279046, 7.135468223634797], [-73.10126918702973, 7.135933805220431], [-73.09594573967675, 7.130572488550684], [-73.09622829507155, 7.1278259521428975], [-73.10322348623933, 7.126054483840159], [-73.10338881401783, 7.111125336325388], [-73.10097560931462, 7.107390127358163], [-73.09279587573856, 7.107367946615051], [-73.09242981070139, 7.099907049262028], [-73.08192595306802, 7.083787417142954], [-73.0827725886498, 7.074068208067811], [-73.08642852421306, 7.069996048496542], [-73.07871081389209, 7.0630203679161765], [-73.07953341472123, 7.057316215275127], [-73.08290003258338, 7.05348923453782], [-73.09311492505206, 7.056845893617362], [-73.10048589491075, 7.055239283112115], [-73.10314205381694, 7.058512287500578], [-73.11980489771567, 7.059530322465137], [-73.11725220117495, 7.064772597452848], [-73.12026108908358, 7.069625300319736], [-73.11578244360413, 7.074405899033879], [-73.11654127116316, 7.077485067508485], [-73.12314021517652, 7.077907170060304], [-73.12799631052116, 7.084178573616407], [-73.13266165293692, 7.0811839443504985], [-73.14894812877988, 7.083181898442105], [-73.1593873812113, 7.080035957886792], [-73.162678696693, 7.072385607575084], [-73.16113052530328, 7.068489213281257], [-73.15455453271476, 7.065752482769224], [-73.15633202601202, 7.057482457130059], [-73.1606778929791, 7.057193866341225], [-73.16794256584566, 7.062584547922958], [-73.16982123787439, 7.059785670792359], [-73.16876886531908, 7.04942025965721], [-73.17306737121909, 7.0480307457532545], [-73.17280575744273, 7.059526386855831], [-73.18022326238518, 7.070143274157036], [-73.18006919499307, 7.07361512872682]], [[-73.0910054624959, 7.082066742328226], [-73.09291833095023, 7.085130462854267], [-73.095991652254, 7.083182059813284], [-73.09398695321161, 7.0793916584712075], [-73.0910054624959, 7.082066742328226]]]}}, {"type": "Feature", "properties": {"threshold": 90}, "geometry": {"type": "MultiPolygon", "coordinates": [[[[-73.06126037584387, 7.015296568415905], [-73.0592328345729, 7.020751088060457], [-73.05474954879709, 7.019670411200752], [-73.05735044476604, 7.009174053140834], [-73.04884074506816, 7.004270554859593], [-73.04898037345103, 6.996155650192312], [-73.05189253143409, 6.994271018390361], [-73.06213744948859, 6.997261811926233], [-73.05742491542264, 7.00845859564487], [-73.06126037584387, 7.015296568415905]]], [[[-73.18006919499307, 7.07361512872682], [-73.17685727840662, 7.08666880384592], [-73.17278033049732, 7.090575803621481], [-73.17345226251796, 7.104151370097142], [-73.16744190044047, 7.107895947969575], [-73.16294596434018, 7.11622300152693], [-73.1593154067055, 7.112027751298096], [-73.16425586668308, 7.101608924098837], [-73.16490324199215, 7.090416453788391], [-73.15433485015814, 7.0854713287466105], [-73.14710270226782, 7.086357801726596], [-73.14595379103011, 7.10971838471964], [-73.14205469357445, 7.114229440139106], [-73.14591031664385, 7.12054885679478], [-73.13949329883395, 7.126448577649242], [-73.13791530518161, 7.135228363845151], [-73.1394334112278, 7.144937591786575], [-73.1457841554802, 7.151883241273739], [-73.1449037926549, 7.166286128533087], [-73.13898400264466, 7.16784006813444], [-73.13630362541774, 7.163258713043637], [-73.12839350166487, 7.160767201197174], [-73.1216989553233, 7.144302836378143], [-73.10876205513605, 7.13929700038953], [-73.10625917279046, 7.135468223634797], [-73.10126918702973, 7.135933805220431], [-73.09598737783205, 7.130642531601218], [-73.09622829507155, 7.1278259521428975], [-73.10322348623933, 7.126054483840159], [-73.10333722965395, 7.1109012322508764], [-73.10097560931462, 7.107390127358163], [-73.09279587573856, 7.107367946615051], [-73.09247951730029, 7.100684980332709], [-73.08192595306802, 7.083787417142954], [-73.0827725886498, 7.074068208067811], [-73.0860803877444, 7.068832355832247], [-73.08240636899866, 7.066860849506221], [-73.077435583683, 7.068389286145281], [-73.07444218113564, 7.064196288869901], [-73.07757385983558, 7.053499079578634], [-73.09311492505206, 7.056845893617362], [-73.1105719136697, 7.055300013299948], [-73.12021820499112, 7.0599075951287515], [-73.12026108908358, 7.069625300319736], [-73.11738830420424, 7.075936077325854], [-73.12327529157594, 7.077998122112103], [-73.1268748949998, 7.083709253928758], [-73.1361471477363, 7.079524667530757], [-73.14894812871805, 7.083181898451015], [-73.15244704964107, 7.07965589150355], [-73.1593586898219, 7.079049748698124], [-73.16189077564697, 7.072849310593221], [-73.15458910543556, 7.0658262621576915], [-73.15382688960969, 7.058305684596234], [-73.16060122451614, 7.057166119671207], [-73.16794256584566, 7.062584547922958], [-73.16982123787439, 7.059785670792359], [-73.16876886531908, 7.04942025965721], [-73.17298675809437, 7.048018477178481], [-73.17319926093789, 7.053392130510704], [-73.17783853776868, 7.056120869900272], [-73.17581594507276, 7.061811896262542], [-73.18006919499307, 7.07361512872682]]]]}}, {"type": "Feature", "properties": {"threshold": 95}, "geometry": {"type": "MultiPolygon", "coordinates": [[[[-73.06444703902623, 7.0122842282372115], [-73.06264419717074, 7.018217394980628], [-73.05893282833244, 7.02087378966332], [-73.05485234834636, 7.01979662387114], [-73.05669948386179, 7.010322548954892], [-73.04892316018876, 7.007080081327972], [-73.04898037345103, 6.996155650192312], [-73.05463751139172, 6.992557006655319], [-73.06196534413259, 6.995325624958062], [-73.05875241588782, 7.006290071325668], [-73.06440831266785, 7.009498240352062], [-73.06444703902623, 7.0122842282372115]]], [[[-73.05954984373456, 6.975657040573333], [-73.05218451983818, 6.980869632022046], [-73.04424281049624, 6.978986180199187], [-73.04313310029274, 6.973260071012525], [-73.04738965014845, 6.97003372784666], [-73.05845763800515, 6.971804720751543], [-73.05954984373456, 6.975657040573333]]], [[[-73.18006919499307, 7.07361512872682], [-73.17685727840662, 7.08666880384592], [-73.17278033049732, 7.090575803621481], [-73.17345226251796, 7.104151370097142], [-73.16744190044047, 7.107895947969575], [-73.16294265015226, 7.117056122719827], [-73.1593154067055, 7.112027751298096], [-73.16425586668308, 7.101608924098837], [-73.16501813101391, 7.090633225583227], [-73.15455877283387, 7.085524665326892], [-73.14710270226782, 7.086357801726596], [-73.14595379103011, 7.10971838471964], [-73.14205469357445, 7.114229440139106], [-73.14591031664385, 7.12054885679478], [-73.13949329883395, 7.126448577649242], [-73.13791530518161, 7.135228363845151], [-73.1394334112278, 7.144937591786575], [-73.1457841554802, 7.151883241273739], [-73.1449037926549, 7.166286128533087], [-73.13898400264466, 7.16784006813444], [-73.13630362541774, 7.163258713043637], [-73.12839350166487, 7.160767201197174], [-73.1216989553233, 7.144302836378143], [-73.10876205513605, 7.13929700038953], [-73.10625917279046, 7.135468223634797], [-73.10126918702973, 7.135933805220431], [-73.09598737783205, 7.130642531601218], [-73.09622829507155, 7.1278259521428975], [-73.10322348623933, 7.126054483840159], [-73.10333722965395, 7.1109012322508764], [-73.10097560931462, 7.107390127358163], [-73.09279587573856, 7.107367946615051], [-73.09247951730029, 7.100684980332709], [-73.08192595306802, 7.083787417142954], [-73.0827725886498, 7.074068208067811], [-73.0860803877444, 7.068832355832247], [-73.08240636899866, 7.066860849506221], [-73.077435583683, 7.068389286145281], [-73.07444218113564, 7.064196288869901], [-73.07757385983558, 7.053499079578634], [-73.10471805080556, 7.0569060626344475], [-73.10966573809905, 7.053610327154349], [-73.11312401538689, 7.057597372032187], [-73.12707362538343, 7.06123104356873], [-73.14439908968977, 7.060837541517618], [-73.14438268036828, 7.06495261201935], [-73.14145783137064, 7.066982823295399], [-73.12577556233721, 7.065345918294348], [-73.11904293287192, 7.071062839702447], [-73.11768847338271, 7.076624382376609], [-73.12327529157594, 7.077998122112103], [-73.12729456413139, 7.083962834121383], [-73.14602528706807, 7.076238639925713], [-73.15825751353782, 7.079564703208314], [-73.16184672831942, 7.071875091622677], [-73.15463075062782, 7.065896300975926], [-73.15374953457929, 7.058448894908522], [-73.16060122451614, 7.057166119671207], [-73.16794256584566, 7.062584547922958], [-73.16982123787439, 7.059785670792359], [-73.16876886531908, 7.04942025965721], [-73.17298675809437, 7.048018477178481], [-73.17319926093789, 7.053392130510704], [-73.17783853776868, 7.056120869900272], [-73.17581594507276, 7.061811896262542], [-73.18006919499307, 7.07361512872682]]]]}}]}