{"type": "FeatureCollection", "features": [{"type": "Feature", "properties": {"threshold": 70}, "geometry": {"type": "MultiPolygon", "coordinates": [[[[-100.93352489354426, 22.10622157301707], [-100.93089801655047, 22.11140005269189], [-100.92454311839681, 22.11314627800941], [-100.92703480440359, 22.122222508241165], [-100.92061293530642, 22.129459908458706], [-100.91986047804018, 22.134047900387518], [-100.92150493402605, 22.136406732011537], [-100.93212561075059, 22.13824653531927], [-100.93335240183912, 22.144702028925842], [-100.93101555249635, 22.147690398110594], [-100.9185358815421, 22.147818616819677], [-100.91272169067106, 22.144066338614305], [-100.91372386110288, 22.12700587076952], [-100.89086340724383, 22.110891808940405], [-100.89109641451925, 22.10343138817709], [-100.88384411844649, 22.101339243498682], [-100.87226875876533, 22.078855267756055], [-100.87227708654959, 22.066328746711953], [-100.86336349565656, 22.060342144529557], [-100.86333647252417, 22.04850252207962], [-100.87618432310192, 22.04648910355962], [-100.88662406666482, 22.02790436778525], [-100.89612534383554, 22.02863781546208], [-100.89657651163422, 22.03419295309988], [-100.88976749173726, 22.03967104340066], [-100.89070919152154, 22.047183431830607], [-100.88579815840879, 22.05017642702912], [-100.88519918041459, 22.061404608343455], [-100.89425245937093, 22.064203795658877], [-100.89261117294734, 22.069548018162294], [-100.89869882123335, 22.071444829060482], [-100.89821400312213, 22.082628412854266], [-100.90659911459876, 22.08573602412654], [-100.9065931723642, 22.093465546416017], [-100.91328482245922, 22.093424844110896], [-100.91493730472473, 22.09691623486567], [-100.92043368100563, 22.097494794358475], [-100.92189307744316, 22.10165133228036], [-100.93055423368538, 22.102018877327197], [-100.93352489354426, 22.10622157301707]]], [[[-100.93715774617885, 22.19971413350335], [-100.9300422986798, 22.200408736745093], [-100.93092006615144, 22.192850301838195], [-100.93732360791128, 22.194490675257644], [-100.93715774617885, 22.19971413350335]]], [[[-100.96156298214406, 22.156874790214214], [-100.95713410122771, 22.161007206200726], [-100.95176580042212, 22.159809459857662], [-100.9496830210352, 22.138715083249927], [-100.95189498082715, 22.135482173712298], [-100.95993701547918, 22.13742421055807], [-100.95760801035517, 22.147168995220987], [-100.96186033489158, 22.151851094232686], [-100.96156298214406, 22.156874790214214]]], [[[-100.96138374648122, 22.120457447886277], [-100.96034029404998, 22.127151623274827], [-100.95310523409255, 22.126214901765525], [-100.95202968304548, 22.120888280391426], [-100.95409968336865, 22.118671275333554], [-100.96138374648122, 22.120457447886277]]], [[[-101.03992266419884, 22.12993064791886], [-101.04020577801775, 22.146685305696188], [-101.03215653253923, 22.14795405240657], [-101.03118240746154, 22.141038220697276], [-101.02505258208805, 22.14000833550442], [-101.0229536325626, 22.135852208159648], [-101.03018890415062, 22.12730190623019], [-101.03420039256241, 22.12642275475233], [-101.03992266419884, 22.12993064791886]]], [[[-101.0298433639517, 22.15054667430963], [-101.02509639221938, 22.155139637151983], [-101.02752461380788, 22.160340231720607], [-101.02305616810732, 22.165621817770578], [-101.01879316500964, 22.165507290361962], [-101.01404859235619, 22.16916331824151], [-101.0075520750541, 22.168604406075307], [-101.00385780915636, 22.174086448687166], [-100.99363161229655, 22.168976717879364], [-100.98772228031972, 22.174986514288747], [-100.98266397172617, 22.175383350740923], [-100.97594386752215, 22.18006584655019], [-100.97322214392464, 22.171238425435952], [-100.9661683967017, 22.170505333046336], [-100.96304963265898, 22.16762781532118], [-100.96395394817839, 22.162926468114996], [-100.96801264809449, 22.160110798864547], [-100.98241641943781, 22.16501651038317], [-100.98905107139176, 22.1631038540334], [-100.99548010084706, 22.167261823119496], [-100.99945230746343, 22.152600666625787], [-101.00775507987572, 22.15081403924006], [-101.01424801004667, 22.15576493775573], [-101.01825183633551, 22.1550392685825], [-101.02112417275849, 22.15066794816091], [-101.0298433639517, 22.15054667430963]]], [[[-101.03347437034101, 22.185706505423678], [-101.02330402171836, 22.197065937787933], [-101.01205900948555, 22.197972835625205], [-101.01089599466708, 22.20645343765654], [-101.00624903610029, 22.21012113739436], [-100.99502237132748, 22.212172087536995], [-100.98876024355124, 22.216855283543282], [-100.98094702423775, 22.210102778916553], [-100.9812618653823, 22.207410948005034], [-100.98878256595773, 22.205679730596632], [-100.99061882970788, 22.19846636670062], [-101.00295915715071, 22.19501336251899], [-101.01428171719412, 22.19662133819391], [-101.01801285832387, 22.190141883255603], [-101.02770264569335, 22.187428259518295], [-101.02775911856835, 22.18372101508247], [-101.0223756499579, 22.18346423843962], [-101.01925552376785, 22.180587907373642], [-101.02215245765836, 22.173192349179626], [-101.03369149644476, 22.1820769560851], [-101.03347437034101, 22.185706505423678]]], [[[-101.00309322345998, 22.137914485534452], [-101.00396776932342, 22.141441385901445], [-101.00077098267985, 22.14444122669822], [-100.98592261708258, 22.140783173914016], [-100.98992853680365, 22.13256889356807], [-101.00309322345998, 22.137914485534452]]], [[[-101.0078243751661, 22.18507131433744], [-101.00174942908124, 22.187732856563095], [-100.9994780887506, 22.181899130285583], [-101.00660357974773, 22.179773105778175], [-101.0078243751661, 22.18507131433744]]]]}}, {"type": "Feature", "properties": {"threshold": 80}, "geometry": {"type": "MultiPolygon", "coordinates": [[[[-100.93402095287048, 22.142568666434595], [-100.93139042712721, 22.147519763234317], [-100.92577357121908, 22.148566691038294], [-100.9129048109634, 22.144415585143662], [-100.91169283213787, 22.13260480929185], [-100.91372386110288, 22.12700587076952], [-100.89086340724383, 22.110891808940405], [-100.89097409337619, 22.103224361517547], [-100.88389512784441, 22.101401705995602], [-100.87404418376948, 22.082848991577], [-100.8702831345016, 22.06597848249808], [-100.8625238296425, 22.060427853572584], [-100.86329407015043, 22.04857033652374], [-100.87363111502624, 22.04704043642863], [-100.87969523495518, 22.041499051117487], [-100.88112873473119, 22.03238099744226], [-100.88550426976266, 22.0296093301588], [-100.88583267430974, 22.021430960150514], [-100.89638191710327, 22.024176968537212], [-100.89742675907468, 22.033380293619963], [-100.89460090630949, 22.037511093534267], [-100.89831776401026, 22.04021073226431], [-100.89847516364429, 22.04687835978411], [-100.88720879771242, 22.049378813737228], [-100.88485973272374, 22.05929199177863], [-100.89425245937093, 22.064203795658877], [-100.89443133138919, 22.069029539877985], [-100.89875439996352, 22.070786249570318], [-100.89912938707336, 22.079638742180993], [-100.90746036925194, 22.08572597523349], [-100.90829418856235, 22.091840088232253], [-100.93273217819181, 22.103960640468404], [-100.93356683318405, 22.10884922289008], [-100.92454311839681, 22.11314627800941], [-100.92703480440359, 22.122222508241165], [-100.92061293530642, 22.129459908458706], [-100.91986056656698, 22.134278861777265], [-100.93205730792795, 22.138200583892353], [-100.93402095287048, 22.142568666434595]]], [[[-100.87394530534488, 22.034132818773912], [-100.86449884801897, 22.036051229820057], [-100.86386133380222, 22.03104670916797], [-100.86834694864349, 22.028856690082783], [-100.87394530534488, 22.034132818773912]]], [[[-100.94019310865794, 22.215548557349376], [-100.9382738792605, 22.219775644417677], [-100.93408150588309, 22.219056326918185], [-100.92833128029221, 22.210854453185544], [-100.9320225625667, 22.209574993022244], [-100.94004249957757, 22.21281136821904], [-100.94019310865794, 22.215548557349376]]], [[[-100.93716876150185, 22.2005167839349], [-100.92999123093112, 22.20034629357863], [-100.93098711807654, 22.19280274639517], [-100.93737467653263, 22.194553116291427], [-100.93716876150185, 22.2005167839349]]], [[[-100.96156298214406, 22.156874790214214], [-100.95713410122771, 22.161007206200726], [-100.95176580042212, 22.159809459857662], [-100.9496830210352, 22.138715083249927], [-100.95189498082715, 22.135482173712298], [-100.95993701547918, 22.13742421055807], [-100.95760801035517, 22.147168995220987], [-100.96186033489158, 22.151851094232686], [-100.96156298214406, 22.156874790214214]]], [[[-100.96138374648122, 22.120457447886277], [-100.96034029404998, 22.127151623274827], [-100.95310523409255, 22.126214901765525], [-100.95202968304548, 22.120888280391426], [-100.95409968336865, 22.118671275333554], [-100.96138374648122, 22.120457447886277]]], [[[-101.04296073599554, 22.17098765397727], [-101.03914206693925, 22.17607596879644], [-101.03415100212966, 22.173059882241095], [-101.02981260786328, 22.17383518657531], [-101.0356183287606, 22.185200729577424], [-101.0234657560906, 22.19858231882001], [-101.01438266322094, 22.199348227121085], [-101.00553723541292, 22.2108455566061], [-100.99532789179702, 22.21393885701741], [-100.99430636705513, 22.21909831652016], [-100.98606035370778, 22.219289801344594], [-100.98015491251918, 22.208425175678915], [-100.9886059934617, 22.205858489995684], [-100.98942032031934, 22.19961214387501], [-100.99411945135864, 22.196784436222362], [-101.01518745209427, 22.195418840232673], [-101.01618340441334, 22.191869527509493], [-101.02271967790823, 22.18800734820957], [-101.01921887393333, 22.176036313762182], [-101.02802197772851, 22.1722363408], [-101.02845948079637, 22.166580750176898], [-101.01953522886033, 22.16536021967472], [-101.0141300535731, 22.16914323890025], [-101.00803706944686, 22.168427527303947], [-101.00369315696717, 22.174119063797626], [-100.99363161229655, 22.168976717879364], [-100.98772228031972, 22.174986514288747], [-100.97617510953229, 22.180081314888213], [-100.97338564057668, 22.17141913936608], [-100.96428429220079, 22.169651365831083], [-100.96297905441585, 22.164909747204995], [-100.96816035417669, 22.160115771518253], [-100.98241641943781, 22.16501651038317], [-100.98905107139176, 22.1631038540334], [-100.99548010084706, 22.167261823119496], [-100.99945230746343, 22.152600666625787], [-101.00775507987572, 22.15081403924006], [-101.01424801004667, 22.15576493775573], [-101.02112417275849, 22.15066794816091], [-101.0298433639517, 22.15054667430963], [-101.03174854809232, 22.16212137073989], [-101.0348708013624, 22.16318940689607], [-101.04014068534381, 22.15940848595846], [-101.04296073599554, 22.17098765397727]]], [[[-101.03215653253923, 22.14795405240657], [-101.03118240746154, 22.141038220697276], [-101.02505258208805, 22.14000833550442], [-101.02289567771099, 22.136080617856855], [-101.02997458397803, 22.12742524499975], [-101.03489636210068, 22.126383488599338], [-101.04174115550059, 22.131678316500825], [-101.03849871714719, 22.139398430098975], [-101.04111368637503, 22.145643505857613], [-101.03881849808323, 22.147964722838736], [-101.03215653253923, 22.14795405240657]]], [[[-101.00309322345998, 22.137914485534452], [-101.00396776932342, 22.141441385901445], [-101.00077098267985, 22.14444122669822], [-100.98592261708258, 22.140783173914016], [-100.98992853680365, 22.13256889356807], [-101.00309322345998, 22.137914485534452]]], [[[-101.00713147381877, 22.17960841289728], [-101.0070855621507, 22.186569823109117], [-101.00159992251899, 22.187660779717863], [-100.99955548200987, 22.18175989527213], [-101.00713147381877, 22.17960841289728]]]]}}, {"type": "Feature", "properties": {"threshold": 90}, "geometry": {"type": "MultiPolygon", "coordinates": [[[[-100.93402095287048, 22.142568666434595], [-100.93101555249635, 22.147690398110594], [-100.92302039061178, 22.148599180156644], [-100.91477024388456, 22.146110162414832], [-100.91175085440827, 22.137440184877732], [-100.91372386110288, 22.12700587076952], [-100.89091442318534, 22.11095426853024], [-100.89048573058052, 22.102683668907513], [-100.88379992458125, 22.10127242240427], [-100.87050401146023, 22.075664209846988], [-100.86744180634474, 22.062347904587245], [-100.86263426472517, 22.060638801885727], [-100.85943669629273, 22.050118635768975], [-100.85544578126779, 22.047586989570195], [-100.85872140342015, 22.042583595553534], [-100.86590015854915, 22.046561663677256], [-100.8750119055493, 22.045721181813942], [-100.8750159440065, 22.040242511535045], [-100.86618328826428, 22.039216872642076], [-100.86395980957217, 22.036400829980114], [-100.86508001706571, 22.02654547188997], [-100.86947337231798, 22.026582506558697], [-100.87861943343358, 22.03701852087338], [-100.88529667963817, 22.030247860041708], [-100.88552883216703, 22.020778770297785], [-100.89634498170633, 22.024106433910767], [-100.89742675907468, 22.033380293619963], [-100.89460090630949, 22.037511093534267], [-100.89834711175598, 22.0402843021941], [-100.89843899468403, 22.047170102579404], [-100.88820162989292, 22.04925152936713], [-100.88478267435293, 22.059066335312725], [-100.89494217683763, 22.064021875911966], [-100.8953306485214, 22.069229329301866], [-100.90124888649561, 22.072150675342662], [-100.90099369402296, 22.08165851913813], [-100.90558641870014, 22.08241541090387], [-100.92436552885455, 22.101041071240143], [-100.93053238646328, 22.100413550730952], [-100.93360447279747, 22.10475310749814], [-100.93095970759968, 22.111346607529946], [-100.92454311839681, 22.11314627800941], [-100.92703480440359, 22.122222508241165], [-100.92061293530642, 22.129459908458706], [-100.91986056656698, 22.134278861777265], [-100.93205730792795, 22.138200583892353], [-100.93402095287048, 22.142568666434595]]], [[[-100.87878688902755, 21.983371774719558], [-100.88050723565946, 21.991026167020248], [-100.87778253287875, 21.99469772034747], [-100.86968069707397, 21.994098355140828], [-100.86776257682448, 21.98817746663373], [-100.87286799978143, 21.985885193162957], [-100.87404524608154, 21.982254488107817], [-100.87878688902755, 21.983371774719558]]], [[[-100.94019310865794, 22.215548557349376], [-100.93707174814314, 22.21988731717932], [-100.93100850561048, 22.215314898236414], [-100.92454413189131, 22.21515552314894], [-100.9231264163962, 22.208507696300494], [-100.92680673579319, 22.20642570025644], [-100.94004249957757, 22.21281136821904], [-100.94019310865794, 22.215548557349376]]], [[[-100.96156298214406, 22.156874790214214], [-100.95713410122771, 22.161007206200726], [-100.95176580042212, 22.159809459857662], [-100.9496830210352, 22.138715083249927], [-100.95189498082715, 22.135482173712298], [-100.95993701547918, 22.13742421055807], [-100.95760801035517, 22.147168995220987], [-100.96186033489158, 22.151851094232686], [-100.96156298214406, 22.156874790214214]]], [[[-100.96138374648122, 22.120457447886277], [-100.96034029404998, 22.127151623274827], [-100.95310523409255, 22.126214901765525], [-100.95202968304548, 22.120888280391426], [-100.95409968336865, 22.118671275333554], [-100.96138374648122, 22.120457447886277]]], [[[-101.04296073599554, 22.17098765397727], [-101.03959011837705, 22.17665420747766], [-101.03493855776216, 22.17822096063586], [-101.03470966443719, 22.189438014992135], [-101.02263837764983, 22.201000856944283], [-101.01635598127584, 22.201669132126327], [-101.00969687382397, 22.210078589288255], [-100.9958404396614, 22.21396340095729], [-100.99424199604888, 22.219935426454136], [-100.98030437027894, 22.219071395266663], [-100.97922375847673, 22.210172411090372], [-100.98297449881902, 22.20658732248408], [-100.98878256595773, 22.205679730596632], [-100.9904800798132, 22.198555176621436], [-101.00295915715071, 22.19501336251899], [-101.01407712237703, 22.196022877682292], [-101.01794583975091, 22.190189472465434], [-101.02202974648053, 22.189248984863603], [-101.01919154266581, 22.17611055805984], [-101.02858258362873, 22.170026918283966], [-101.01928309734511, 22.165386508911606], [-101.0141300535731, 22.16914323890025], [-101.0075520750541, 22.168604406075307], [-101.00415118289554, 22.17393572284131], [-101.00108732762698, 22.174157846433737], [-100.99387978188928, 22.168927574023282], [-100.98772228031972, 22.174986514288747], [-100.97594386752215, 22.18006584655019], [-100.97322214392464, 22.171238425435952], [-100.9661683967017, 22.170505333046336], [-100.96307904480561, 22.167701367906705], [-100.96667233173069, 22.160311442058745], [-100.98241641943781, 22.16501651038317], [-100.98905107139176, 22.1631038540334], [-100.99523193495345, 22.16731096910062], [-100.99945230746343, 22.152600666625787], [-101.00775507987572, 22.15081403924006], [-101.01424801004667, 22.15576493775573], [-101.02112417275849, 22.15066794816091], [-101.0298433639517, 22.15054667430963], [-101.03108052107243, 22.154151302286525], [-101.03858713090105, 22.156458167946], [-101.04296073599554, 22.17098765397727]]], [[[-101.03215653253923, 22.14795405240657], [-101.03118240746154, 22.141038220697276], [-101.02505258208805, 22.14000833550442], [-101.02289567771099, 22.136080617856855], [-101.02997458397803, 22.12742524499975], [-101.03489636210068, 22.126383488599338], [-101.04174115550059, 22.131678316500825], [-101.03849871714719, 22.139398430098975], [-101.04111368637503, 22.145643505857613], [-101.03881849808323, 22.147964722838736], [-101.03215653253923, 22.14795405240657]]], [[[-101.00309322345998, 22.137914485534452], [-101.00396776932342, 22.141441385901445], [-101.00077098267985, 22.14444122669822], [-100.98592261708258, 22.140783173914016], [-100.98992853680365, 22.13256889356807], [-101.00309322345998, 22.137914485534452]]]]}}, {"type": "Feature", "properties": {"threshold": 95}, "geometry": {"type": "MultiPolygon", "coordinates": [[[[-100.93402095287048, 22.142568666434595], [-100.93101555249635, 22.147690398110594], [-100.92302039061178, 22.148599180156644], [-100.91477024388456, 22.146110162414832], [-100.91175085440827, 22.137440184877732], [-100.91372386110288, 22.12700587076952], [-100.89091442318534, 22.11095426853024], [-100.89048573058052, 22.102683668907513], [-100.88379992458125, 22.10127242240427], [-100.86963223384728, 22.07487136513096], [-100.86744180634474, 22.062347904587245], [-100.86263426472517, 22.060638801885727], [-100.85943669629273, 22.050118635768975], [-100.85544578126779, 22.047586989570195], [-100.85872140342015, 22.042583595553534], [-100.86590015854915, 22.046561663677256], [-100.87509437153466, 22.0454976995602], [-100.87443987469499, 22.040465967241694], [-100.86397032262488, 22.037203530641193], [-100.8641665602417, 22.022541763852015], [-100.86950482315132, 22.024226406578343], [-100.8784231976458, 22.03683582474082], [-100.88519757560677, 22.030475218548023], [-100.88552883216703, 22.020778770297785], [-100.89634498170633, 22.024106433910767], [-100.89742675907468, 22.033380293619963], [-100.89463445610671, 22.037750310765148], [-100.90011815764535, 22.043939386987997], [-100.89795309513194, 22.047682552534692], [-100.8880261277364, 22.049411693867842], [-100.88478267435293, 22.059066335312725], [-100.89115334545006, 22.060659129327753], [-100.89664184328552, 22.057632434540537], [-100.89868411254369, 22.0630696075201], [-100.89572453556183, 22.06821729242774], [-100.90135938743336, 22.072361592434444], [-100.90083005329402, 22.081479439897443], [-100.90558641870014, 22.08241541090387], [-100.92436552885455, 22.101041071240143], [-100.93053238646328, 22.100413550730952], [-100.93360447279747, 22.10475310749814], [-100.93095970759968, 22.111346607529946], [-100.92454311839681, 22.11314627800941], [-100.92703480440359, 22.122222508241165], [-100.92061293530642, 22.129459908458706], [-100.91986056656698, 22.134278861777265], [-100.93205730792795, 22.138200583892353], [-100.93402095287048, 22.142568666434595]]], [[[-100.8906854200467, 21.979700407612686], [-100.89038122339387, 21.98507682279402], [-100.88142186401404, 21.985612500181652], [-100.88016970528683, 21.9940251924686], [-100.86863816922963, 21.99313348134032], [-100.86771326934212, 21.988241080079696], [-100.87286799978143, 21.985885193162957], [-100.87389796047374, 21.982330090893406], [-100.87873253317589, 21.981574279675726], [-100.88155910024011, 21.975819847747896], [-100.8906854200467, 21.979700407612686]]], [[[-100.94019310865794, 22.215548557349376], [-100.93707174814314, 22.21988731717932], [-100.93100850561048, 22.215314898236414], [-100.92454413189131, 22.21515552314894], [-100.9231264163962, 22.208507696300494], [-100.92680673579319, 22.20642570025644], [-100.94004249957757, 22.21281136821904], [-100.94019310865794, 22.215548557349376]]], [[[-100.96156298214406, 22.156874790214214], [-100.95713410122771, 22.161007206200726], [-100.95176580042212, 22.159809459857662], [-100.9496830210352, 22.138715083249927], [-100.95189498082715, 22.135482173712298], [-100.95993701547918, 22.13742421055807], [-100.95760801035517, 22.147168995220987], [-100.96186033489158, 22.151851094232686], [-100.96156298214406, 22.156874790214214]]], [[[-100.96138374648122, 22.120457447886277], [-100.96034029404998, 22.127151623274827], [-100.95310523409255, 22.126214901765525], [-100.95202968304548, 22.120888280391426], [-100.95409968336865, 22.118671275333554], [-100.96138374648122, 22.120457447886277]]], [[[-101.04296073599554, 22.17098765397727], [-101.03959011837705, 22.17665420747766], [-101.03484461300697, 22.17844047861204], [-101.03641015567814, 22.187811261523816], [-101.02178797839095, 22.201814174305113], [-101.01706330446417, 22.202137977621536], [-101.00976859053971, 22.210037349712156], [-100.99742815538629, 22.215657841837587], [-100.99425334727704, 22.220738047312143], [-100.98030437027894, 22.219071395266663], [-100.97922375847673, 22.210172411090372], [-100.98297449881902, 22.20658732248408], [-100.98878256595773, 22.205679730596632], [-100.9904800798132, 22.198555176621436], [-101.00295915715071, 22.19501336251899], [-101.01407712237703, 22.196022877682292], [-101.01794583975091, 22.190189472465434], [-101.02202974648053, 22.189248984863603], [-101.01919154266581, 22.17611055805984], [-101.02858258362873, 22.170026918283966], [-101.01928309734511, 22.165386508911606], [-101.0141300535731, 22.16914323890025], [-101.0075520750541, 22.168604406075307], [-101.00415118289554, 22.17393572284131], [-101.00108732762698, 22.174157846433737], [-100.99387978188928, 22.168927574023282], [-100.98772228031972, 22.174986514288747], [-100.97594386752215, 22.18006584655019], [-100.97322214392464, 22.171238425435952], [-100.9661683967017, 22.170505333046336], [-100.96307904480561, 22.167701367906705], [-100.96667233173069, 22.160311442058745], [-100.98241641943781, 22.16501651038317], [-100.98905107139176, 22.1631038540334], [-100.99523193495345, 22.16731096910062], [-100.99945230746343, 22.152600666625787], [-101.00775507987572, 22.15081403924006], [-101.01424801004667, 22.15576493775573], [-101.02112417275849, 22.15066794816091], [-101.0298433639517, 22.15054667430963], [-101.03858713090105, 22.156458167946], [-101.04296073599554, 22.17098765397727]]], [[[-101.03215653253923, 22.14795405240657], [-101.03118240746154, 22.141038220697276], [-101.02505258208805, 22.14000833550442], [-101.02289567771099, 22.136080617856855], [-101.02997458397803, 22.12742524499975], [-101.03489636210068, 22.126383488599338], [-101.04174115550059, 22.131678316500825], [-101.03849871714719, 22.139398430098975], [-101.04111368637503, 22.145643505857613], [-101.03881849808323, 22.147964722838736], [-101.03215653253923, 22.14795405240657]]], [[[-101.00309322345998, 22.137914485534452], [-101.00396776932342, 22.141441385901445], [-101.00077098267985, 22.14444122669822], [-100.98592261708258, 22.140783173914016], [-100.98992853680365, 22.13256889356807], [-101.00309322345998, 22.137914485534452]]]]}}]}