{"type": "Feature", "geometry": {"type": "MultiPolygon", "coordinates": [[[[-75.691930707, 8.600408233674445], [-75.68651719226641, 8.607000327725089], [-75.68185055148174, 8.60660280722782], [-75.67967250405253, 8.604227045801473], [-75.68072761477887, 8.599202980465254], [-75.68583211323094, 8.594164222654836], [-75.6911996267385, 8.59564341250202], [-75.691930707, 8.600408233674445]]], [[[-75.74908759977787, 8.882924839369226], [-75.75139305886138, 8.884884228713132], [-75.75167345931906, 8.888081274019155], [-75.74966405533733, 8.890435092091753], [-75.7463850659157, 8.890685412908965], [-75.74407746760086, 8.888685820578178], [-75.743837582687, 8.885493250782188], [-75.74584135960401, 8.88317824651068], [-75.74908759977787, 8.882924839369226]]], [[[-75.77259086225055, 8.885652119383082], [-75.77115556519193, 8.889058533762464], [-75.7671181636021, 8.89027584038716], [-75.76415484078665, 8.88950343580761], [-75.76260095306667, 8.886813504983659], [-75.76372827460825, 8.881769271179039], [-75.76764786315742, 8.879860218225257], [-75.77128539909081, 8.881132204712648], [-75.77259086225055, 8.885652119383082]]], [[[-75.79004260483603, 8.893594716460393], [-75.78629210165187, 8.900980699356648], [-75.78320853766716, 8.901216862622716], [-75.77981086363577, 8.89886123616326], [-75.78029760040275, 8.893377615875881], [-75.78484225918976, 8.887481937079674], [-75.78996198618546, 8.888451364525965], [-75.79004260483603, 8.893594716460393]]], [[[-75.8270136661323, 8.929234977723693], [-75.82894726014642, 8.933527186383827], [-75.82779573564109, 8.936480881094894], [-75.82539895315348, 8.937774390564885], [-75.81560630346355, 8.935990216551152], [-75.81285315045923, 8.93178570179065], [-75.81415242578626, 8.928147645169584], [-75.81879325548803, 8.926186901219378], [-75.8236083240064, 8.926840551569155], [-75.8270136661323, 8.929234977723693]]], [[[-75.90717477174361, 8.76368597828379], [-75.90730598586937, 8.767668212253884], [-75.90403687776721, 8.769853935216396], [-75.89629349786634, 8.766314869456577], [-75.88686523494346, 8.77030893659447], [-75.8817002305345, 8.765160161948092], [-75.87724020589275, 8.765609367933564], [-75.87303695031123, 8.771416937080936], [-75.87090041007612, 8.777938047326478], [-75.87385996805571, 8.78503382542639], [-75.87053656018355, 8.793809485905323], [-75.86628126276273, 8.79490984965238], [-75.85871162163501, 8.789816333362307], [-75.84995530456081, 8.793434583742986], [-75.84794609580823, 8.795729855695093], [-75.84888638405819, 8.800158695098567], [-75.85479175839576, 8.805147174444143], [-75.85479006613822, 8.810233232464146], [-75.85736388730244, 8.81487502333925], [-75.85644875136526, 8.818316321953045], [-75.85239429133948, 8.820006906550278], [-75.84338107463402, 8.816214613262222], [-75.84300555425168, 8.80876725742968], [-75.83891492837286, 8.803673450413118], [-75.83960538642599, 8.797404632327373], [-75.84644355485297, 8.794981352774387], [-75.84691152020014, 8.791561700508984], [-75.84368488370498, 8.787148403213033], [-75.844521320026, 8.784822039163426], [-75.85229715798391, 8.777824046180724], [-75.85348649627059, 8.769354751162645], [-75.86021486357511, 8.765525536312799], [-75.8575012760768, 8.75325171482119], [-75.86033031780664, 8.746815297552308], [-75.85276939437989, 8.737365093917948], [-75.84936119281454, 8.737904606435995], [-75.84407979605828, 8.742863296200477], [-75.83495497137143, 8.738508470759703], [-75.83269388787583, 8.732749951254988], [-75.835072050449, 8.728789713097646], [-75.84726116493759, 8.725276401269744], [-75.85174304531373, 8.72881247524653], [-75.85504877793784, 8.734135886977613], [-75.86433942783903, 8.733150465916616], [-75.86711273560539, 8.737595426114837], [-75.8676626825395, 8.745429815238582], [-75.87672076465827, 8.749324129916461], [-75.87951409716749, 8.747396574488441], [-75.88602685755728, 8.731519755037768], [-75.88237425874449, 8.72600709691683], [-75.87644968603942, 8.726661848260731], [-75.87350288576685, 8.725343726642093], [-75.87271777786272, 8.720246789402958], [-75.87656176147001, 8.71807588833527], [-75.88302335491294, 8.722888868078938], [-75.8926209403872, 8.72138252380448], [-75.89625522694335, 8.726864012999117], [-75.90068959244479, 8.7293055308696], [-75.90215327314134, 8.732673435745834], [-75.89991498284948, 8.736149748706625], [-75.89316340121816, 8.73747723536145], [-75.89191498827422, 8.74295732533801], [-75.89508990939979, 8.746186508058523], [-75.90274055773493, 8.747971974449582], [-75.90338146548956, 8.752277707442179], [-75.90100437120319, 8.75852827781758], [-75.90717477174361, 8.76368597828379]]], [[[-75.83762520755973, 8.787968817552596], [-75.83583329660974, 8.793597104462677], [-75.82950012777239, 8.795056264281284], [-75.82498907152343, 8.790128993307142], [-75.82243182127513, 8.782937277277401], [-75.82614556917022, 8.77861829870261], [-75.82969663556646, 8.778210475328585], [-75.83382566538643, 8.78101002945213], [-75.83762520755973, 8.787968817552596]]], [[[-75.84324852629442, 8.997503714148317], [-75.83850901534365, 9.000254870416848], [-75.83426568704685, 8.99637876100033], [-75.83599741558011, 8.991002298581437], [-75.84138805513174, 8.986723364838246], [-75.84499730282832, 8.987520157770092], [-75.84676417854462, 8.99024518466973], [-75.84621417875415, 8.993779213572855], [-75.84324852629442, 8.997503714148317]]], [[[-75.94217384384643, 8.993594794451178], [-75.94026881906608, 8.997146624425568], [-75.93459218009356, 8.9983293256597], [-75.93093361305867, 8.99696500258699], [-75.92946408281264, 8.994024951792104], [-75.93152707908062, 8.989982536693834], [-75.93775334692724, 8.988390304742497], [-75.94126764335361, 8.990123795865754], [-75.94217384384643, 8.993594794451178]]], [[[-76.08030247636563, 8.800821547495778], [-76.08426446897086, 8.800763984182112], [-76.08721171338401, 8.80448546410766], [-76.08399567445242, 8.810637418422724], [-76.0811701658244, 8.81211994056172], [-76.07759462038402, 8.811286569427043], [-76.07596908405905, 8.808389665690504], [-76.08030247636563, 8.800821547495778]]]]}, "properties": {}}