{"type": "Feature", "geometry": {"type": "MultiPolygon", "coordinates": [[[[53.14777449450552, 51.16786559011084], [53.145378736243735, 51.17067874252342], [53.146457602121366, 51.174731561505105], [53.14936830251658, 51.175977469559236], [53.15464507214433, 51.17474190064145], [53.15582121851628, 51.17183975987908], [53.15462411570779, 51.16864383295218], [53.14777449450552, 51.16786559011084]]], [[[53.09027628998498, 51.01173903128422], [53.093425887100445, 51.01455737150782], [53.099445211877516, 51.014573412580994], [53.10581657944266, 51.011600788111124], [53.10688059840864, 51.00668699996289], [53.10387056974276, 51.00392820788846], [53.09311518377588, 51.003414609149516], [53.08909938641755, 51.00664155976048], [53.09027628998498, 51.01173903128422]]], [[[52.96903917944766, 51.176135834230294], [52.9710392360795, 51.18086477621548], [52.97963376932947, 51.18502480552323], [52.9892250895858, 51.18351430003059], [52.99322164073652, 51.19159880763831], [52.99565486854759, 51.19336871621884], [53.00193212523158, 51.19283506878578], [53.01169714560379, 51.18588541859362], [53.01580747146326, 51.185190973483145], [53.02243503436109, 51.18816995088882], [53.03057784287757, 51.18639829679932], [53.03945111705557, 51.18911438909368], [53.043970531856075, 51.19384766123449], [53.0475895199075, 51.194027667948376], [53.0502206722304, 51.191516480197095], [53.05116522479822, 51.184252406008845], [53.06736622389274, 51.17623825204978], [53.06930993376029, 51.173488806257936], [53.06752521977611, 51.168564032203946], [53.05932190764958, 51.167004288126186], [53.05550660686838, 51.16377504984168], [53.05517686153076, 51.15862754330852], [53.05995054579302, 51.15676126776339], [53.07095164879313, 51.156701663692225], [53.07705635745364, 51.15368933288993], [53.078471653489245, 51.14586575406928], [53.08888617583029, 51.135049792973305], [53.08937613898231, 51.13136086081965], [53.0856675784936, 51.126792639065734], [53.07817180744162, 51.1232905184081], [53.06068727147928, 51.12262041642499], [53.05659970424491, 51.12388080041653], [53.05387675062149, 51.12781434151774], [53.057794192617685, 51.13522969335187], [53.057187488880395, 51.13866024741128], [53.03613136461011, 51.15185354682307], [53.03270067119656, 51.15190345960932], [53.02774845504536, 51.147729322111914], [53.01130480380832, 51.14810098463139], [53.00595149534985, 51.15155908866207], [52.99616607503834, 51.15382663718878], [52.995130186648616, 51.15672940630371], [52.99673096764133, 51.162809192851206], [53.009462184942535, 51.162560229212396], [53.01253985909458, 51.164536686587915], [53.013091498319795, 51.168560732629], [53.00905974837473, 51.17463470443154], [53.00230624015969, 51.17645436828923], [52.99793871024749, 51.175861767136965], [52.99569854212882, 51.173729344454664], [52.99428284766642, 51.16649975058024], [52.987364650776485, 51.16633763283976], [52.98329789271676, 51.16757636066305], [52.979207980206326, 51.17194700048541], [52.97101628722328, 51.17167345458643], [52.96903917944766, 51.176135834230294]]], [[[53.05683572367821, 50.945950412366145], [53.053535082533315, 50.95083607490792], [53.05461970047245, 50.95474877937666], [53.06742964389585, 50.956925883969646], [53.07068065442601, 50.95995344817413], [53.070420612882074, 50.96341033092604], [53.06497393069775, 50.96889676880637], [53.06875278834163, 50.97769060909662], [53.07179270245421, 50.97911586150447], [53.08230392773225, 50.97781830015589], [53.08382781205197, 50.97484588126973], [53.08296007613339, 50.96782205603768], [53.07907614383804, 50.96099841715566], [53.086411352151934, 50.9539693973929], [53.087309493000284, 50.95012278493878], [53.083519352453365, 50.94139011350121], [53.07823778446518, 50.9382407806089], [53.070426678508845, 50.939025410312766], [53.066973614942555, 50.940443739000955], [53.06392788818768, 50.94459635851712], [53.05683572367821, 50.945950412366145]]], [[[52.96232742816381, 51.148978018065236], [52.96536023261899, 51.15119379133839], [52.973262900232136, 51.15042287005562], [52.97560910602521, 51.14805507173662], [52.97559488991244, 51.14363395439958], [52.97269568131457, 51.14123756801051], [52.96427219684141, 51.14159808036598], [52.961871234724725, 51.14431207940405], [52.96232742816381, 51.148978018065236]]], [[[52.92609896517866, 51.057729743394475], [52.92536182634429, 51.06624323443703], [52.93144947132612, 51.06885516394359], [52.9438360006137, 51.065036740915566], [52.94721762847085, 51.056706025959635], [52.94374263013648, 51.048474624987925], [52.93544806224703, 51.04666700992804], [52.92940946011189, 51.04966740672849], [52.92609896517866, 51.057729743394475]]], [[[52.93584135959514, 51.11324312668149], [52.92332363085555, 51.110748563890674], [52.916601405373164, 51.11453147105004], [52.91550271663321, 51.11841948873157], [52.92722491132063, 51.12729648087907], [52.9326809204429, 51.12931807889838], [52.94023784985168, 51.1290837371186], [52.94292370391233, 51.1266702192601], [52.943094563327435, 51.12095069792203], [52.93584135959514, 51.11324312668149]]], [[[52.874871634683224, 51.17477830491084], [52.890046219228815, 51.17677571823123], [52.89901953032875, 51.17422152182272], [52.906575615947055, 51.17426549017798], [52.91522152787624, 51.17112231168171], [52.91896178902422, 51.168035634467714], [52.92762263627391, 51.16733350629693], [52.929440396456734, 51.164948910993004], [52.929519648425206, 51.15997939324159], [52.926213409574196, 51.15624609909528], [52.92325549544179, 51.15542321175441], [52.916216840836796, 51.15820106791432], [52.9130108715899, 51.161177264701706], [52.90682994973523, 51.161184951648664], [52.89633267029323, 51.1669456992454], [52.8752402780934, 51.166696721018475], [52.872208398779385, 51.17078964805134], [52.874871634683224, 51.17477830491084]]], [[[52.909345588022326, 51.18272947484195], [52.90463234824879, 51.18686117491629], [52.90436840726365, 51.19125365476547], [52.90601235035429, 51.19376793479175], [52.914150634772554, 51.19669742860537], [52.92333707353483, 51.1969363868493], [52.92616010440325, 51.195288167955326], [52.92659358796603, 51.18760343720728], [52.92129454468943, 51.181255706212994], [52.9147824470762, 51.1800183229524], [52.909345588022326, 51.18272947484195]]]]}, "properties": {}}