{"type": "Feature", "properties": {"city": "Santa Cruz de la Sierra", "country": "Bolivia", "real_area": 226.15}, "geometry": {"type": "MultiLineString", "coordinates": [[[-63.1432206653387, -17.6406998976058], [-63.1470149015787, -17.6438568919328], [-63.1463440971611, -17.6486383982106], [-63.1418789953386, -17.6502626744635], [-63.1380849744292, -17.6471056191779], [-63.13875584, -17.6423243485994], [-63.1432206653387, -17.6406998976058]], [[-63.2305591725617, -17.8040784569219], [-63.2343605636233, -17.8072370768154], [-63.2336900743795, -17.8120173650692], [-63.2374917486092, -17.8151760613346], [-63.2368212660223, -17.819956251389], [-63.2406232234334, -17.8231150238368], [-63.245095878184, -17.8214935465915], [-63.2488983335158, -17.8246523354571], [-63.2482279193828, -17.8294326611415], [-63.2437549881176, -17.8310539639457], [-63.2430845188689, -17.8358339570408], [-63.2468870426832, -17.838992881285], [-63.2462165801158, -17.84377277562], [-63.2500193871517, -17.8469317754783], [-63.254492871462, -17.8453108215484], [-63.2582961764131, -17.8484698374413], [-63.2576257823856, -17.8532498666524], [-63.2531520215448, -17.8548706461491], [-63.2524815723642, -17.8596503424034], [-63.248007971076, -17.8612707295497], [-63.2442050955383, -17.8581115949341], [-63.2397319304552, -17.8597317642153], [-63.2359295529699, -17.8565726456246], [-63.2314568242086, -17.8581925970954], [-63.2307861963359, -17.8629714925376], [-63.2263136273822, -17.8645910515717], [-63.2225119629435, -17.8614318898429], [-63.223182652523, -17.8566532283674], [-63.2193812713534, -17.8534941421949], [-63.2149094155852, -17.8551136582088], [-63.2142386643451, -17.8598920856495], [-63.2097669685727, -17.8615112092096], [-63.2090961623085, -17.8662893034266], [-63.2046246265985, -17.8679080344639], [-63.200824173867, -17.8647488461506], [-63.196353075016, -17.8663673595246], [-63.1956821521778, -17.871144886282], [-63.1912112135496, -17.872763007056], [-63.1905402357393, -17.8775402003346], [-63.1860694574002, -17.8791579284398], [-63.1853984246311, -17.8839347881138], [-63.1809278066475, -17.8855521234814], [-63.1771284982522, -17.8823927742858], [-63.1726583175256, -17.88400989202], [-63.168859507875, -17.8808505594391], [-63.1643897645212, -17.8824674595948], [-63.1605914536851, -17.8793081437513], [-63.1561221478198, -17.8809248263834], [-63.1523243358676, -17.8777655274001], [-63.1529956142226, -17.8729896048731], [-63.1491980856094, -17.8698303819643], [-63.1447294942438, -17.8714470224922], [-63.1409324645853, -17.8682878166937], [-63.1416038106514, -17.8635120295221], [-63.1378070643196, -17.8603529001146], [-63.1384784168075, -17.8555770140286], [-63.1429464543987, -17.8539600227636], [-63.1436177520808, -17.8491838033004], [-63.139821073403, -17.84602480975], [-63.1404923775113, -17.841248491681], [-63.1449602990639, -17.8396309325149], [-63.1456315483656, -17.8348542813164], [-63.1500996306922, -17.8332363296903], [-63.1507708251741, -17.828459345488], [-63.1552390682086, -17.8268410014705], [-63.1559102078575, -17.8220636843902], [-63.1603786115335, -17.8204449480501], [-63.1610496963362, -17.8156672982178], [-63.1572524387762, -17.8125086194239], [-63.1527843118639, -17.814127530897], [-63.1521131657596, -17.8189049460295], [-63.1476451995163, -17.8205234652405], [-63.1469739985914, -17.8253005476173], [-63.1425061930834, -17.8269186744975], [-63.1418349373511, -17.8316954239929], [-63.1373672926444, -17.8333131584734], [-63.136695982118, -17.8380895749616], [-63.1322284982789, -17.8397069169738], [-63.1315571329715, -17.8444830003291], [-63.1270898100662, -17.8460999498045], [-63.123294129375, -17.8429409913609], [-63.1188272443921, -17.8445577237291], [-63.1181557631896, -17.8493332390412], [-63.1136890393, -17.8509495787959], [-63.1130175033686, -17.8557247607207], [-63.1085509406386, -17.8573407077936], [-63.1078793499914, -17.8621155562056], [-63.1034129484871, -17.8637311105284], [-63.0996184146402, -17.8605719921194], [-63.1002900663173, -17.8557973785663], [-63.0964958158033, -17.8526383371846], [-63.0920301296368, -17.8542538501757], [-63.0882363784931, -17.8510948267666], [-63.0837711307807, -17.8527101227991], [-63.079977879076, -17.8495511174849], [-63.0806496589534, -17.8447768753879], [-63.0851146296298, -17.8431614035455], [-63.0889080974532, -17.8463203496114], [-63.0933735066051, -17.8447046608732], [-63.0940451709131, -17.8399298503209], [-63.0985107414385, -17.8383137689453], [-63.0991823510812, -17.8335386251213], [-63.0953884511788, -17.8303797977234], [-63.0960600671373, -17.8256045558016], [-63.0922664505119, -17.8224458060594], [-63.0929380727782, -17.8176704662264], [-63.089144739416, -17.8145117943288], [-63.0898163679819, -17.809736356771], [-63.0942812689683, -17.8081193559324], [-63.094952842893, -17.8033435855951], [-63.0911595767757, -17.8001850513361], [-63.0866949527269, -17.8018022278106], [-63.0829021858502, -17.7986437121688], [-63.0835738269913, -17.7938680797208], [-63.0880381741083, -17.7922507276079], [-63.0918311570044, -17.7954091835828], [-63.0962959424035, -17.7937916148492], [-63.0969674679902, -17.7890154145645], [-63.1014324146734, -17.7873974536406], [-63.1021038856048, -17.7826209209502], [-63.0983104708283, -17.7794625844809], [-63.0989819480805, -17.7746859548058], [-63.1034467791317, -17.7730674263036], [-63.1041182017279, -17.7682904644712], [-63.1003248542533, -17.7651322664991], [-63.0958603000467, -17.7667509704603], [-63.092067451612, -17.7635927913733], [-63.0876033355442, -17.7652112788557], [-63.0838109862181, -17.762053118776], [-63.0844825369901, -17.7572765311826], [-63.0806904708155, -17.7541184502042], [-63.0813620278637, -17.74934176625], [-63.0858255902163, -17.7477229277179], [-63.0864970926713, -17.7429459119706], [-63.0909608163779, -17.7413266816198], [-63.0916322642265, -17.7365493342055], [-63.087840049267, -17.7333914527563], [-63.0885115034085, -17.7286140094133], [-63.0929751116085, -17.7269942119059], [-63.0936465111428, -17.7222164371447], [-63.0981102805922, -17.7205962480172], [-63.1019029272633, -17.7237540089984], [-63.1063671346364, -17.7221336036053], [-63.1101602801479, -17.7252913838666], [-63.11462492533, -17.7236707621534], [-63.1184185696132, -17.726828561573], [-63.1228836524893, -17.7252077234854], [-63.1266777954751, -17.7283655419411], [-63.1311433159304, -17.7267444874248], [-63.1318144167127, -17.7219654393573], [-63.1362800979781, -17.7203439933239], [-63.1369511440244, -17.7155646141053], [-63.1414169860339, -17.7139427766242], [-63.142087977331, -17.7091630663811], [-63.1465539800185, -17.7075408375218], [-63.1503492679964, -17.7106984938193], [-63.1496783378985, -17.7154784393893], [-63.1534739089053, -17.7186361749033], [-63.1579406253535, -17.7170139044361], [-63.1586114942062, -17.712233723607], [-63.1630783711454, -17.7106110617789], [-63.1637491851844, -17.7058305500595], [-63.1599531835667, -17.702672935422], [-63.1554865831773, -17.7042957720386], [-63.1516910798526, -17.7011381762128], [-63.1472249165532, -17.7027607963808], [-63.1434299115908, -17.6996032194888], [-63.1389641854968, -17.7012256232625], [-63.1351696789659, -17.6980680654262], [-63.1307043901925, -17.6996902528597], [-63.1269103821623, -17.6965327142011], [-63.1275814473962, -17.6917530486539], [-63.1320464595598, -17.6901306862412], [-63.1358406830876, -17.6932881643563], [-63.1403061325936, -17.6916655856663], [-63.1409770819777, -17.6868853539444], [-63.1371826430053, -17.6837279364301], [-63.1378535988021, -17.6789476096982], [-63.1423189324195, -17.677324464964], [-63.1429898334779, -17.6725438078299], [-63.1474553277231, -17.6709202720395], [-63.151250197426, -17.6740775681809], [-63.1505793575566, -17.6788584608264], [-63.1543745102179, -17.6820158368752], [-63.153703676794, -17.6867966345697], [-63.1574991124271, -17.689954090337], [-63.1568282854568, -17.6947347928935], [-63.1606240040755, -17.6978923281905], [-63.1650907649171, -17.6962691003435], [-63.1688869817607, -17.6994266544571], [-63.1682162225485, -17.7042074969401], [-63.1720127223897, -17.7073651302673], [-63.1764801966128, -17.7057418605911], [-63.1802771946081, -17.708899512486], [-63.179606503249, -17.7136804945125], [-63.1834037842539, -17.7168382253048], [-63.1827330994136, -17.7216191115042], [-63.1865306634417, -17.724776921005], [-63.1858599851282, -17.7295577111902], [-63.181391681371, -17.7311804568846], [-63.1807209481678, -17.7359609159413], [-63.1845185801348, -17.7391188642323], [-63.1889871604143, -17.7374962931942], [-63.1896578321929, -17.7327155992102], [-63.1941265726275, -17.7310926367157], [-63.1979249177719, -17.7342505427999], [-63.197254307464, -17.7390314716432], [-63.201052935657, -17.7421894559304], [-63.2003823319125, -17.7469702883213], [-63.2041812431677, -17.7501283506222], [-63.2035106459947, -17.7549090863738], [-63.2073098403254, -17.7580672264993], [-63.2066392497322, -17.7628478654245], [-63.2104387271519, -17.7660060831853], [-63.2097681431464, -17.7707866250971], [-63.2135679036687, -17.7739449203039], [-63.2180384631088, -17.7723226135842], [-63.2218387216326, -17.7754809260965], [-63.2211682058423, -17.7802616052783], [-63.2249687474804, -17.7834199949199], [-63.2242982383146, -17.7882005766501], [-63.2280990630804, -17.7913590432317], [-63.2274285605472, -17.7961395273234], [-63.2312296684542, -17.7992980706557], [-63.2305591725617, -17.8040784569219]], [[-63.2296667999669, -17.8406960790338], [-63.2251946244063, -17.842316379748], [-63.2245239832539, -17.847095473258], [-63.2283255793625, -17.8502545000829], [-63.2327980315208, -17.8486343739917], [-63.2334686109612, -17.8438550464542], [-63.2296667999669, -17.8406960790338]], [[-63.1405148261065, -17.7505548042552], [-63.1411859076659, -17.7457760445667], [-63.1373906998853, -17.7426180493248], [-63.1380617878604, -17.7378391933231], [-63.1342668631671, -17.7346812769227], [-63.1298010660309, -17.7363021563442], [-63.12600663997, -17.7331442587311], [-63.121541280391, -17.734764921661], [-63.1208700701763, -17.739543307047], [-63.1246642806256, -17.7427012648463], [-63.1239930767856, -17.7474795540473], [-63.1277875703385, -17.750637590753], [-63.1322534833397, -17.7490172781322], [-63.1360484755916, -17.7521753334933], [-63.1405148261065, -17.7505548042552]], [[-63.1309111495515, -17.7585738990056], [-63.1302399584852, -17.7633519952763], [-63.125773929625, -17.7649717409081], [-63.1251026838251, -17.7697495052806], [-63.1288975280063, -17.7729077591757], [-63.1333638336188, -17.7712881887538], [-63.1371591765642, -17.7744464610455], [-63.1416259197404, -17.7728266738721], [-63.1422970432291, -17.7680484392614], [-63.1385014847318, -17.764890226908], [-63.1391726146399, -17.7601118954879], [-63.1353773392721, -17.7569537615361], [-63.1309111495515, -17.7585738990056]], [[-63.2339177377454, -17.8709094665375], [-63.2377201836563, -17.8740687196484], [-63.2370495690958, -17.8788474162758], [-63.2325764468648, -17.880466625956], [-63.2287742158473, -17.8773073136828], [-63.2294448921557, -17.8725288508933], [-63.2339177377454, -17.8709094665375]]]}}