{"type": "Feature", "geometry": {"type": "MultiPolygon", "coordinates": [[[[104.21002596723619, 1.070218276928556], [104.21082027063585, 1.0813674633295958], [104.21420557980306, 1.0893357899542409], [104.21739282838583, 1.0907933556951477], [104.22398177190537, 1.0888287619979353], [104.23044110259953, 1.0935568104278748], [104.2358222949007, 1.092999608311639], [104.24493790219341, 1.0814094319398964], [104.25324317001943, 1.0774304382488327], [104.2533557153459, 1.0714784655732736], [104.25604308596607, 1.0633051209310038], [104.25165082974684, 1.0538737363774626], [104.2546892819369, 1.0459624590328007], [104.25401800451966, 1.036963992043578], [104.24889753450007, 1.0296360432682554], [104.24411088807716, 1.0269997352147435], [104.23918320723203, 1.0197068709334427], [104.23219170477614, 1.0196918548596683], [104.22772053839877, 1.0252712308606333], [104.22845171677956, 1.0287519291673761], [104.23406321869841, 1.0349179369036392], [104.23489051966833, 1.0419080136216194], [104.2327319665821, 1.051512401231014], [104.22981463942442, 1.0533675131092317], [104.22411815133133, 1.0523250443734362], [104.22124008088424, 1.0533968409003664], [104.21222169091469, 1.0622535370089938], [104.21002596723619, 1.070218276928556]]], [[[104.15834754211913, 1.0570948059140912], [104.16368801601902, 1.0675460277549258], [104.16956376619761, 1.0691292775448211], [104.1737475021289, 1.0733465632290458], [104.1802735440173, 1.0737619367525053], [104.1859815431729, 1.0700543312049948], [104.1861222389437, 1.0658833724837062], [104.18134654117391, 1.058845200242795], [104.1822682235567, 1.0512619784561579], [104.17697034902756, 1.0464887790578916], [104.16414782838889, 1.0452375672976884], [104.15770610838791, 1.051514091365267], [104.15834754211913, 1.0570948059140912]]], [[[103.88558386685473, 1.0927650096788566], [103.88791976773672, 1.1001678422025278], [103.89942978710874, 1.1149097342672478], [103.90650307352139, 1.1280732559271314], [103.91501588867366, 1.13349827505526], [103.91471362662706, 1.1415279589137184], [103.92019306909464, 1.147493535660495], [103.92663605350265, 1.1467624466554276], [103.93179781442934, 1.1411606614519854], [103.93788105336493, 1.139245417525239], [103.94077110563575, 1.1403156438833213], [103.94503926939886, 1.1464586883843397], [103.9485656799597, 1.1470091508325102], [103.95843353907793, 1.1348447661241858], [103.96124135533115, 1.133493375883544], [103.97042565900607, 1.134960875489723], [103.97845993607461, 1.1417582602183198], [103.981080201046, 1.1464527379845217], [103.98565815536037, 1.1474547192511086], [103.99193739780505, 1.1461629385072312], [103.99831188812189, 1.1304402504653916], [104.00124997585506, 1.129529226675606], [104.00583188899485, 1.131013716334106], [104.00855566746705, 1.1382236283156653], [104.00672339223033, 1.1476205025810666], [104.00347852740921, 1.1501342957934937], [103.994274579711, 1.1486259515060249], [103.99203486870111, 1.1629335361820752], [103.99510756896673, 1.1697757226037575], [103.9952106234248, 1.1810461201751663], [104.00238745056298, 1.189735710658064], [104.01430389197496, 1.196247270246732], [104.02299583627263, 1.1956241115787287], [104.02541581249558, 1.1903555684171514], [104.02931797335691, 1.187217291661357], [104.03122173332484, 1.180790407679982], [104.03378341796746, 1.1798396851054673], [104.0430458042997, 1.181259506006369], [104.05373135778665, 1.1704344194310279], [104.06147251692039, 1.1652925075757707], [104.0632379336707, 1.161009012644034], [104.06163691811564, 1.1523661268534846], [104.05671209036758, 1.1454302652495643], [104.05848821570312, 1.1383502011380269], [104.06088762919128, 1.1358966227512248], [104.06707379909322, 1.1351565326999544], [104.07593573304928, 1.12476254736085], [104.08323294600204, 1.124776797793053], [104.08760517720953, 1.1274358234223114], [104.08855613033116, 1.138595808011577], [104.0943924891723, 1.1442447524968113], [104.09234995240368, 1.1532842401491523], [104.09470417864864, 1.155200822191943], [104.10342809592655, 1.156994225897304], [104.10695875831873, 1.160984670538671], [104.1068485076002, 1.1671761730361432], [104.10909841968181, 1.1702470064505193], [104.11827899844188, 1.1723885341742069], [104.12262068392974, 1.171613603568506], [104.12933014272107, 1.1759491548108945], [104.14086974695945, 1.171090347382564], [104.14722357066704, 1.165301422950335], [104.1486437883317, 1.1592690406652366], [104.14216170350367, 1.1492258683480547], [104.13186894627509, 1.141933176323093], [104.1317582246451, 1.135950490086812], [104.1285539838492, 1.1309838216690642], [104.1287830096467, 1.1275848341773282], [104.13417009081654, 1.1254374025023786], [104.14008009060032, 1.1289381098909412], [104.15568461933634, 1.1289632895066746], [104.15942623433031, 1.1254419954364046], [104.15877838120586, 1.11741763565362], [104.1459673934625, 1.0987651322411855], [104.14319242289662, 1.0744950806434261], [104.14059204748649, 1.0695897031494226], [104.14308361555061, 1.0550545998017495], [104.1416112123394, 1.049033385608381], [104.14214122020427, 1.042865247984797], [104.1393181561763, 1.0365922836841546], [104.14000993123565, 1.0302930759943236], [104.13697734877155, 1.026737051507007], [104.13347033582109, 1.0263443812854285], [104.1278383532785, 1.0301790814155445], [104.12172668852737, 1.0318298267849773], [104.12042252077168, 1.035861779385143], [104.12305750887221, 1.0410263858753888], [104.12279861619234, 1.0437161524619034], [104.11501066757843, 1.0474436263413756], [104.1125282002399, 1.053838671029687], [104.10740748342411, 1.0590987476281586], [104.10743300558046, 1.0636606601474008], [104.1113676266571, 1.073310433437263], [104.11105168688853, 1.0789830502089608], [104.1087031628707, 1.0850566200530263], [104.10392169196571, 1.0882356851311852], [104.10342498045901, 1.0915142342088942], [104.12125655239089, 1.113565557680254], [104.1248376282303, 1.1224896107591233], [104.12330454425745, 1.125914925785431], [104.11435531844103, 1.1302324678846234], [104.10743952813036, 1.126819913240671], [104.10100111392832, 1.115674239452164], [104.09565622966156, 1.1123195273874933], [104.09424098247904, 1.105905513515077], [104.08649367696607, 1.097863486903432], [104.06352432876231, 1.0957901036374689], [104.04196678125453, 1.096454532292976], [104.03163427257009, 1.0755354452391044], [104.03255221307124, 1.0719334481913474], [104.03809581200898, 1.0682971927216593], [104.04846860078295, 1.050121869857263], [104.05733977217875, 1.0471879697926751], [104.06145816521587, 1.0399069561213234], [104.06485577167281, 1.0393434526691723], [104.07420291770889, 1.0442077167733443], [104.08510212810704, 1.0443545977163173], [104.08924375799904, 1.0411049437381221], [104.08769873006365, 1.0354962492604345], [104.07471705311603, 1.028077787721437], [104.06671151981485, 1.0263908903996395], [104.05650697857746, 1.0191607493380979], [104.05229887725537, 1.0189544270255395], [104.04137343875564, 1.0253997488127582], [104.04085638970182, 1.0301489337930534], [104.04332856554605, 1.0366831801409573], [104.04219157997996, 1.0441891034882256], [104.03771696507063, 1.046688036299226], [104.03029054747452, 1.0449975349895808], [104.01893770069579, 1.0567050135770255], [104.01264957520878, 1.0578892655424377], [104.00992959669091, 1.0547642397486938], [104.01056322372658, 1.0454572744410062], [104.0121438721623, 1.0417643343723955], [104.01177075394776, 1.0369428615758176], [104.01606460114255, 1.0305884698918855], [104.01435822113099, 1.026447530923716], [104.01355970300452, 1.0139309252069792], [104.01057931246984, 1.0092387553695088], [104.00692817367224, 1.006683971590566], [104.00214302941146, 1.007616738118409], [103.99638030330051, 1.0180232156259958], [103.9955680634227, 1.0235336245412299], [103.98976845775414, 1.0264009788852657], [103.97224866591166, 1.0197114799607316], [103.97079470768412, 1.0163271605706332], [103.97393441104627, 1.0101563708491614], [103.9733073189781, 1.0068533371841106], [103.96688682085751, 1.0026836805965549], [103.95975057110537, 1.0008752266042145], [103.95074009391192, 1.004086063371278], [103.9398426451979, 1.0045628165419949], [103.92666070315272, 1.0204252143333643], [103.91739380600464, 1.0263882608836896], [103.90799423451362, 1.0352933886390325], [103.90482935427127, 1.043530702590724], [103.9036862051949, 1.0511904504763105], [103.90501220334717, 1.0581409936016246], [103.90354496933213, 1.063189118270334], [103.89086493282801, 1.0805547343016704], [103.88558386685473, 1.0927650096788566]], [[103.94843993406063, 1.0969664297429351], [103.94290604655676, 1.0959042071061642], [103.94168746739491, 1.0914910950006849], [103.94335806315009, 1.0892533561563016], [103.95118435263814, 1.085510451905554], [103.95231463291591, 1.0817716978466991], [103.95136676628232, 1.0762158681991747], [103.9556955707127, 1.0716147605764879], [103.95862874109233, 1.0706609213255254], [103.96539266246454, 1.0720543329399828], [103.97086976996754, 1.065532702867283], [103.9756690634591, 1.0650358543783185], [103.9949600436173, 1.057427823602986], [104.00112650860912, 1.0609390261748382], [104.00703257711986, 1.0592386300756549], [104.01046002108798, 1.0609151567980697], [104.01126291133852, 1.0734566854887932], [104.02289176688046, 1.0977882912818784], [104.01408439739663, 1.1141532785711108], [104.0106825150808, 1.1157465288784356], [104.00745973667689, 1.1138165161344773], [104.00396438642417, 1.105577064659974], [103.99362849110085, 1.1039838069033967], [103.99175171431393, 1.0964272158218393], [103.98890056987315, 1.0941709093168397], [103.97509245488405, 1.096234713809634], [103.96789651990736, 1.090128885017602], [103.96388190940405, 1.0894710362829714], [103.96021953548545, 1.0908770878601477], [103.95689676661502, 1.0948515462386468], [103.94843993406063, 1.0969664297429351]], [[103.91623583493183, 1.109726074304694], [103.91930869330186, 1.1046150622372832], [103.91641849133575, 1.1004908072340436], [103.9171317038817, 1.0939059955426456], [103.92164415941387, 1.0882199950339877], [103.92628908390766, 1.085917397357772], [103.92935553877932, 1.086363277333571], [103.93103039342033, 1.0912116676647976], [103.92590727496373, 1.0965819034274695], [103.92319772001669, 1.1045223616784876], [103.92514474369071, 1.1068484171017534], [103.92670892273834, 1.1156274317479338], [103.92426649247098, 1.1205836528601107], [103.92103512161427, 1.1217218364034054], [103.91804508406726, 1.1201430978510398], [103.91470022242322, 1.114767988874529], [103.91623583493183, 1.109726074304694]]], [[[104.11068817590417, 1.1789523393978913], [104.10381442773917, 1.1784967648589428], [104.09306702395006, 1.1836279857516157], [104.09159105434347, 1.1953167356112182], [104.09299010329532, 1.1986141254146576], [104.09732083104271, 1.201693794762271], [104.10139420680312, 1.2018976044301088], [104.10574180180149, 1.1997617239501763], [104.11018553909038, 1.193791210411282], [104.12056639953526, 1.18737998710297], [104.12144592923647, 1.184120890388912], [104.11914970821118, 1.1799966308449927], [104.11725192948201, 1.1786215912080393], [104.11068817590417, 1.1789523393978913]]], [[[103.78590257875962, 1.3216605178956156], [103.78610441153445, 1.3291847234240566], [103.79690042051207, 1.3399964623058238], [103.81054841984381, 1.3436590114708684], [103.81696397007399, 1.3422315494489814], [103.8224922051534, 1.3448350766073476], [103.82351460550873, 1.3491865109357066], [103.81975588556877, 1.352695204766734], [103.81896479179007, 1.3555523278637491], [103.82493485874343, 1.3680334829839431], [103.82714558930753, 1.3698451771922566], [103.83286056474178, 1.3696054102120938], [103.83753229390874, 1.3719675437454157], [103.85187255497452, 1.369635588722364], [103.8676215462884, 1.3748338429153897], [103.87341251417959, 1.3717319705879425], [103.88071052733444, 1.3729091132708726], [103.88977884748216, 1.3711785504861316], [103.89501468292113, 1.3729300134940852], [103.90141412424288, 1.369967116731674], [103.90432649198988, 1.3716792215051474], [103.90754470778197, 1.378208852393118], [103.911744360146, 1.3788144108443527], [103.91526320181116, 1.3748075421490564], [103.91546222563676, 1.37124276968727], [103.91187238493147, 1.362905418867446], [103.90160486895526, 1.3507250335598162], [103.90293629547912, 1.3456628309309684], [103.90621307583206, 1.3437198402590635], [103.92074492927959, 1.3487553722645333], [103.92186952596893, 1.3515937070116415], [103.920309000769, 1.3570695695934296], [103.92255485123779, 1.3630047321377794], [103.92908273024847, 1.3685245777583992], [103.94347246900865, 1.3718631000066253], [103.94907397963858, 1.370485465393454], [103.95482931459009, 1.3730894103484808], [103.96792152574774, 1.36934994667326], [103.97719055355644, 1.3697277612073786], [103.97911608264862, 1.3672216767303922], [103.98057892954891, 1.359303877803113], [103.98331227332388, 1.357163977343198], [103.9932472831118, 1.3611955444906585], [103.99791213997875, 1.37183063689616], [104.00640149695563, 1.3732181802400862], [104.01678289960562, 1.3695021546892368], [104.02216381353323, 1.370344855840205], [104.0284230721958, 1.3677693014085788], [104.03935339172415, 1.3612269739989902], [104.04409705281998, 1.35619633225556], [104.04194770640139, 1.351919712783939], [104.03560672504715, 1.3521182350005831], [104.03269188439597, 1.3497062501531272], [104.0176630119736, 1.3104307451811865], [104.01497354492776, 1.3074747363549901], [104.01080825429004, 1.3065126893112986], [104.00377570081424, 1.3088938983149614], [103.99722852381967, 1.307848459762295], [103.98650258726934, 1.3137802357718396], [103.97677176429276, 1.3117728422076547], [103.96849489688574, 1.3135317946965281], [103.96129413483138, 1.3103759250877864], [103.95494810879427, 1.3126705048865404], [103.94848665498951, 1.3087235133074007], [103.94086971574116, 1.3068567989024538], [103.9354151987541, 1.301821432092346], [103.91984086868099, 1.3002748015783503], [103.90924911379238, 1.2949363943710246], [103.89275144239028, 1.2909467388502958], [103.88748464675632, 1.2841445835015233], [103.86679628483951, 1.271738829972915], [103.86502465809768, 1.2631147192022785], [103.86199341646747, 1.2609038034865463], [103.85682236463656, 1.26054045538116], [103.85307763182891, 1.2570455276784505], [103.85158543535348, 1.249058787140893], [103.84606067247336, 1.241372335817384], [103.83947526219086, 1.2355468978292974], [103.8338232167469, 1.2340339929016446], [103.82846473217802, 1.2360371482880546], [103.81634286845484, 1.2488926534920477], [103.80659654799753, 1.2538309699152306], [103.80104310884282, 1.2624614167865151], [103.79793712558717, 1.291287285503743], [103.7994333712842, 1.3016716163605986], [103.79718452689598, 1.3070990873610722], [103.78442247596871, 1.315077110843635], [103.78385034259092, 1.3181674058945145], [103.78590257875962, 1.3216605178956156]], [[103.98182595116343, 1.340335504217428], [103.98619898460771, 1.3412422422727275], [103.98852250849113, 1.3471294539726955], [103.98756196866478, 1.3501094705690826], [103.98318913853834, 1.3534103387814695], [103.9796753146055, 1.3519811727770978], [103.97699341781694, 1.3456510010856433], [103.97807263326268, 1.3423091368290574], [103.98182595116343, 1.340335504217428]]], [[[103.87449977439948, 1.138715115146439], [103.87129113302657, 1.1412826431849703], [103.87056207620094, 1.1445749031525754], [103.87555092501593, 1.1513357629790975], [103.8769457569631, 1.1565765065042026], [103.88983922810759, 1.1645625840013683], [103.89389727396738, 1.1700163730986737], [103.89719657350422, 1.1702967849973145], [103.90111548964069, 1.1682365356276674], [103.90878456916201, 1.1580344519051136], [103.90768855740373, 1.1528093276976765], [103.90014321308662, 1.1505800863885107], [103.89221639307276, 1.1400468019979872], [103.87912172246273, 1.1368529224597061], [103.87449977439948, 1.138715115146439]]]]}, "properties": {}}