{"type": "FeatureCollection", "features": [{"type": "Feature", "properties": {"threshold": 70}, "geometry": {"type": "MultiPolygon", "coordinates": [[[[112.73521190203877, -7.769537192211037], [112.73426051369114, -7.762312628188143], [112.7373236995181, -7.759172924927505], [112.74589643235797, -7.7663455941232185], [112.74597637329934, -7.780889853039312], [112.74209966375568, -7.78902437375253], [112.73522202007337, -7.788500006466203], [112.73876232749026, -7.775056927163544], [112.73521190203877, -7.769537192211037]]], [[[112.54798230317904, -7.946224949990464], [112.54753809108206, -7.942260855029763], [112.55298893554551, -7.941482812369039], [112.5584904129818, -7.933809986816282], [112.56382739683991, -7.933689078361078], [112.56453985992398, -7.935876217070385], [112.55984828820647, -7.938255863273673], [112.55966268107554, -7.946285152077267], [112.56953076931927, -7.949617592798236], [112.57753577615547, -7.947376914080713], [112.57752297564045, -7.944024700040492], [112.57236476236493, -7.941535347765139], [112.57231136413975, -7.936667743773728], [112.58314750836583, -7.935565857340747], [112.58472831745858, -7.931239288451233], [112.58218064909609, -7.927935544417026], [112.57328207952392, -7.9250880190448205], [112.57353088557488, -7.919575254287896], [112.58641759649281, -7.9215189460130055], [112.59211546352397, -7.916949733244383], [112.60112910056094, -7.9203787059158595], [112.62134039911396, -7.916830156840146], [112.64156414626865, -7.921692413987338], [112.64348472585255, -7.918649860772357], [112.63818305704488, -7.914659289654643], [112.6383081125477, -7.909522215711755], [112.65023376438634, -7.90986749304514], [112.65913535194221, -7.902577437819523], [112.66472139024835, -7.9089313129997345], [112.66272671823518, -7.916711366387852], [112.66587599924561, -7.924629685668098], [112.6715004778285, -7.929781236167751], [112.6671288785324, -7.9452527895076575], [112.67326309270656, -7.949983258574915], [112.66896799835308, -7.954110813314343], [112.67389509086095, -7.963961585633332], [112.68046900629055, -7.964990170248191], [112.68252025413813, -7.9690799817087425], [112.6754118979084, -7.973980849916659], [112.67291649953737, -7.966819116981916], [112.67000669656642, -7.965776679933496], [112.66365800760668, -7.970672623354691], [112.65773867435342, -7.970973196376699], [112.6545409134044, -7.97573847073215], [112.65723184024061, -7.977661056511255], [112.67474395695756, -7.9755981696851235], [112.68019722097507, -7.98186629856269], [112.6858200762065, -7.982737153595227], [112.68592942312364, -7.994182971838], [112.67923315063786, -7.999786046548436], [112.67539816876096, -7.99811004935194], [112.67405405910729, -7.992375805636318], [112.66428672935191, -7.986344349112287], [112.65384106850765, -7.991337005157082], [112.6529087747137, -8.001288174342905], [112.65630636624338, -8.005391842855259], [112.66321043259306, -8.007583176976336], [112.66800730715833, -8.000813179768254], [112.67311998742268, -8.001350164891752], [112.67515071138781, -8.006626698354609], [112.67084044559455, -8.015327529867264], [112.66148375819718, -8.015248457061219], [112.65593996653998, -8.017966626695749], [112.65502674574718, -8.026206390707545], [112.64612527760089, -8.027946606870971], [112.64504467304124, -8.034565716713594], [112.62891907463552, -8.04901280605509], [112.6236891067024, -8.047826514193671], [112.62263338486841, -8.038023188550483], [112.61587630319362, -8.037758892482396], [112.61126030957494, -8.043538707153308], [112.61018597628802, -8.052797828084437], [112.6047080480152, -8.058742107651263], [112.60182484788551, -8.068780859283326], [112.59505326296008, -8.069971953791795], [112.59134268662122, -8.0591629135501], [112.58310047925465, -8.058266983891968], [112.57354254515197, -8.047390406253731], [112.57691535634319, -8.045129225687987], [112.58417390939952, -8.048691637545462], [112.5871482910428, -8.042778112858736], [112.59095243542305, -8.042572225310717], [112.59555851448415, -8.05003115006226], [112.60121456425739, -8.048505718046654], [112.60272105402208, -8.038126112035862], [112.60665597872914, -8.031886274815923], [112.60604115980982, -8.02638931232344], [112.61230736771789, -8.019690176031395], [112.61451260906918, -8.011764481424384], [112.60021362016433, -7.998136884612596], [112.59854971063353, -7.991821689144774], [112.59429351523183, -7.990606871652422], [112.5931846071186, -7.982453655352454], [112.58254851361575, -7.9748448173155095], [112.58686454187965, -7.966553913498194], [112.57905215952852, -7.956779953246889], [112.56206331572865, -7.9561200923210675], [112.55909573508335, -7.9481258957137095], [112.54798230317904, -7.946224949990464]], [[112.64119894358487, -7.9932905134560235], [112.64741422659691, -7.991048018667178], [112.64598615744548, -7.982646339432034], [112.64260673347914, -7.983036308413059], [112.63772280496855, -7.989776116471449], [112.64119894358487, -7.9932905134560235]], [[112.63409315892932, -7.961693682985423], [112.63875126389003, -7.964137483879311], [112.64084561845797, -7.960453358615221], [112.63617650867454, -7.9579524558884716], [112.63409315892932, -7.961693682985423]], [[112.6334794418021, -8.017349422407225], [112.63752744974765, -8.022477085506608], [112.64022649713637, -8.015830758149015], [112.63525379384166, -8.014181812226], [112.6334794418021, -8.017349422407225]], [[112.63053966312198, -7.970279453816443], [112.63456176691135, -7.96982269681172], [112.63377452987285, -7.965307943700991], [112.62788050669609, -7.966134801912358], [112.63053966312198, -7.970279453816443]]], [[[112.5451180987399, -8.154337170344725], [112.55519967219028, -8.145938732563023], [112.56149589396354, -8.148641541531692], [112.56462609455767, -8.145723831342918], [112.55985235199253, -8.142535981128589], [112.55795829630817, -8.136489498011205], [112.5497281360219, -8.133804867350422], [112.55161090706471, -8.11857428287171], [112.55782017525864, -8.119681010177601], [112.55685378891086, -8.130425236214109], [112.55979614058633, -8.13426183508277], [112.57195005626438, -8.11920442304412], [112.57609912602021, -8.12030747116384], [112.57858162598703, -8.127350804650387], [112.58870022472871, -8.127811356661525], [112.58971420554447, -8.141740824621724], [112.58285075983834, -8.147172108848952], [112.58274554125393, -8.158102644299689], [112.57406984533714, -8.149665071008116], [112.56053063616314, -8.1490256569842], [112.55405512615704, -8.157505535293614], [112.54689475639965, -8.157485765725285], [112.5451180987399, -8.154337170344725]]]]}}, {"type": "Feature", "properties": {"threshold": 80}, "geometry": {"type": "MultiPolygon", "coordinates": [[[[112.73342306772285, -7.764028517022812], [112.73447939146381, -7.76022352152583], [112.7385610396546, -7.759148104468242], [112.74589643235797, -7.7663455941232185], [112.74597637329934, -7.780889853039312], [112.74209966375568, -7.78902437375253], [112.73522202007337, -7.788500006466203], [112.73708972311711, -7.77398695525337], [112.73350640466877, -7.770281748081201], [112.73342306772285, -7.764028517022812]]], [[[112.69767951114852, -7.820853281358447], [112.69760544877987, -7.818379700899556], [112.70825299045978, -7.818426095917135], [112.71517344722673, -7.810809578532708], [112.72141239119308, -7.810843316577406], [112.7236567268256, -7.8162462935459285], [112.73112751108091, -7.818143407552151], [112.72875147078375, -7.827378326264163], [112.71432982260826, -7.828257168717588], [112.71145550057696, -7.82507066494485], [112.70506083147524, -7.824947329055153], [112.69767951114852, -7.820853281358447]]], [[[112.67328165236339, -7.871858847696012], [112.67562026823383, -7.864510533957168], [112.68483069895748, -7.858406172320678], [112.68558810930139, -7.853655665564321], [112.69344495043833, -7.847201574181934], [112.6947043652835, -7.838644506469697], [112.70169985042322, -7.835173740925932], [112.70687263801157, -7.847966187087065], [112.69525187462801, -7.8507579044018225], [112.69355498340553, -7.855507269117991], [112.68797169637551, -7.859116261377483], [112.68698967437236, -7.870442889467127], [112.68010695101061, -7.8756907406212315], [112.67508183635039, -7.87575266946318], [112.67328165236339, -7.871858847696012]]], [[[112.54798230317904, -7.946224949990464], [112.5474232638541, -7.94237619048154], [112.55298893554551, -7.941482812369039], [112.5584205835991, -7.933852070539879], [112.56720327729214, -7.934980877221889], [112.57294259520688, -7.929807465067462], [112.57202799235527, -7.92488938409257], [112.56148010362473, -7.920846956388726], [112.56349869428044, -7.914621189602661], [112.57169007890955, -7.919322188377734], [112.58617056593329, -7.92152062878732], [112.59641772926209, -7.913598470804193], [112.60758144056277, -7.918525621664031], [112.61549296708142, -7.915188951710785], [112.63698273626146, -7.919252351929825], [112.63919223845065, -7.917177010520591], [112.6383683492801, -7.909467350062946], [112.6499440687003, -7.909649865405852], [112.65246965593283, -7.903642877290431], [112.65837458060724, -7.9017759326604375], [112.66472139024835, -7.9089313129997345], [112.6629733234663, -7.917659157307091], [112.67210135772045, -7.93031289259146], [112.67760259503775, -7.929957114020059], [112.68199205534661, -7.933330460766747], [112.68448527991158, -7.930013088074171], [112.68202945370169, -7.924975145165366], [112.69650269363721, -7.9271054864176635], [112.69475968197123, -7.93446902545451], [112.68919596422579, -7.934474701510807], [112.6878029847084, -7.938927392498792], [112.6748280528769, -7.939329045035322], [112.67123796684608, -7.944836133362155], [112.67403922814486, -7.950216094557153], [112.66882884834625, -7.9529298792241105], [112.67527255847111, -7.963615958300323], [112.68745269542515, -7.965333809593481], [112.6864586922947, -7.970400767819831], [112.67556645089441, -7.976621056437359], [112.68019722097507, -7.98186629856269], [112.68661577784587, -7.983496054487552], [112.68925413598971, -7.99757363749262], [112.68615674862112, -8.00057780955189], [112.67498209592044, -8.001143998334324], [112.6751312053439, -8.006705685056417], [112.6707858875331, -8.015388023939666], [112.66148375819718, -8.015248457061219], [112.65593996653998, -8.017966626695749], [112.65502674574718, -8.026206390707545], [112.64612527760089, -8.027946606870971], [112.64422342184622, -8.037896724496733], [112.62899271553557, -8.048977733444037], [112.6236891067024, -8.047826514193671], [112.62263338486841, -8.038023188550483], [112.61587630319362, -8.037758892482396], [112.61126030957494, -8.043538707153308], [112.61021316977128, -8.052721128724267], [112.6065061506036, -8.057975534524925], [112.60779033034073, -8.060500843962098], [112.61254244334769, -8.0610365790855], [112.61265991079719, -8.06457861805778], [112.6037139782626, -8.066086099472917], [112.59971311391949, -8.070785719863919], [112.5949763057361, -8.06994484834446], [112.58954330656496, -8.060507398003654], [112.58394491074253, -8.060759583813438], [112.58119281901212, -8.055035108009793], [112.57351840059938, -8.049376297080356], [112.57591762022588, -8.045133055901223], [112.58505553777212, -8.04827186500724], [112.58703345384103, -8.042893462701347], [112.59202539660929, -8.040359821052949], [112.59148466599378, -8.036025247616866], [112.58811260699707, -8.034276644712225], [112.58323754490502, -8.0367396459489], [112.57176500364478, -8.029396012811755], [112.58553773217763, -8.031788744099531], [112.59208514930586, -8.027894348960446], [112.59256027693685, -8.014404771163155], [112.5898346278052, -8.007863042860627], [112.57727611762716, -8.005980125704207], [112.57669182747188, -8.003363467536042], [112.5876728298442, -8.000174211150235], [112.58870801526923, -8.0059116278021], [112.5919299383129, -8.006872310963647], [112.5973172168045, -7.99253571472731], [112.59257245407326, -7.988047871640914], [112.59184793350434, -7.981770522592068], [112.58530170549548, -7.980054731651763], [112.58167493679609, -7.9756103363515], [112.57998584502499, -7.963205371875632], [112.57445888767316, -7.963498726767126], [112.5711603397754, -7.956895216897845], [112.5619863823578, -7.956092975986011], [112.55817066485865, -7.949953243781028], [112.54798230317904, -7.946224949990464]], [[112.65964723023657, -7.970687854993997], [112.6548144746923, -7.973847860498225], [112.65568853785116, -7.977268163974354], [112.67534198626468, -7.974497222774794], [112.67131901971067, -7.965764322707747], [112.65964723023657, -7.970687854993997]], [[112.65323930932303, -7.999625447313118], [112.6558879647173, -8.00510178930609], [112.66297351447996, -8.007626096326257], [112.66794195862077, -8.000861901470202], [112.67291985400335, -8.000499906286091], [112.67428774998515, -7.9976196897885075], [112.66331985685623, -7.9862053521073015], [112.6534939388566, -7.991699123036748], [112.65323930932303, -7.999625447313118]], [[112.64119894358487, -7.9932905134560235], [112.64741422659691, -7.991048018667178], [112.64598615744548, -7.982646339432034], [112.64260673347914, -7.983036308413059], [112.63772280496855, -7.989776116471449], [112.64119894358487, -7.9932905134560235]], [[112.63409315892932, -7.961693682985423], [112.63875126389003, -7.964137483879311], [112.64084561845797, -7.960453358615221], [112.63617650867454, -7.9579524558884716], [112.63409315892932, -7.961693682985423]], [[112.6334794418021, -8.017349422407225], [112.63752744974765, -8.022477085506608], [112.64022649713637, -8.015830758149015], [112.63525379384166, -8.014181812226], [112.6334794418021, -8.017349422407225]], [[112.63053966312198, -7.970279453816443], [112.63456176691135, -7.96982269681172], [112.63377452987285, -7.965307943700991], [112.62788050669609, -7.966134801912358], [112.63053966312198, -7.970279453816443]], [[112.60008790696612, -8.015816554036064], [112.60425202738978, -8.025248049363976], [112.61230736771789, -8.019690176031395], [112.61288411279426, -8.012478601538598], [112.6062687333316, -8.00372600742189], [112.59790905321664, -8.011111951318963], [112.60008790696612, -8.015816554036064]], [[112.59682534768221, -8.034530170690637], [112.59753048284372, -8.03801553400631], [112.59220825271466, -8.041575196262865], [112.59680854189266, -8.050336042980366], [112.60218628552751, -8.046697173890514], [112.60534795496875, -8.026233658559093], [112.59903469529613, -8.026686990294172], [112.59682534768221, -8.034530170690637]], [[112.57910182737602, -7.932812042326371], [112.58171506059249, -7.930186782638705], [112.57863790711372, -7.927821858437887], [112.5764140490863, -7.930625161637886], [112.57910182737602, -7.932812042326371]], [[112.5679618276212, -7.948975197188854], [112.5719730770939, -7.948293692109151], [112.57389169080423, -7.944235931908363], [112.57223593737828, -7.941548161392083], [112.56624113423976, -7.944679159828884], [112.5679618276212, -7.948975197188854]]], [[[112.54474272121834, -8.15733457492805], [112.55178313876004, -8.145154633555938], [112.55772245719203, -8.145316016129103], [112.56125008907269, -8.148642487841549], [112.56462609455767, -8.145723831342918], [112.55953013036938, -8.142604703662187], [112.55790849094598, -8.137277200768139], [112.5497281360219, -8.133804867350422], [112.55077604692568, -8.118577464631132], [112.55557109355011, -8.117603429263227], [112.55782017525864, -8.119681010177601], [112.55685378891086, -8.130425236214109], [112.55979614058633, -8.13426183508277], [112.57195005626438, -8.11920442304412], [112.57609912602021, -8.12030747116384], [112.57854073888123, -8.126496862112887], [112.58870022472871, -8.127811356661525], [112.58969468087867, -8.141819811315308], [112.58275758496578, -8.147398759509056], [112.58312668737699, -8.16506118684117], [112.5769597951223, -8.173100352652705], [112.5726955359028, -8.173116959156554], [112.57064447773409, -8.169189120625283], [112.57247080522076, -8.16191926518793], [112.57921396846244, -8.158073601840506], [112.57541291082605, -8.15182635763646], [112.5609591423941, -8.149745087591661], [112.55588088412412, -8.157451355696994], [112.54644951782696, -8.160049469155194], [112.54474272121834, -8.15733457492805]]]]}}, {"type": "Feature", "properties": {"threshold": 90}, "geometry": {"type": "MultiPolygon", "coordinates": [[[[112.72812075096823, -7.76671656804839], [112.73345591696102, -7.7591500032491645], [112.73879099779789, -7.759229112174195], [112.74579125202155, -7.766126134358687], [112.74597637329934, -7.780889853039312], [112.74231971127067, -7.7889194677686815], [112.73532720368834, -7.7887194686932855], [112.73436181614072, -7.774607600530241], [112.73030313201458, -7.772167259689987], [112.72812075096823, -7.76671656804839]]], [[[112.69767951114852, -7.820853281358447], [112.69760544877987, -7.818379700899556], [112.70825299045978, -7.818426095917135], [112.71410291912134, -7.81087302667266], [112.72117554957775, -7.810785176677518], [112.7236567268256, -7.8162462935459285], [112.73088599204132, -7.817639527612964], [112.73281713658838, -7.823290379521885], [112.73141373190745, -7.827335704648823], [112.71441055724824, -7.828268776202547], [112.71145550057696, -7.82507066494485], [112.70506083147524, -7.824947329055153], [112.69767951114852, -7.820853281358447]]], [[[112.54708865141465, -7.930420801144841], [112.54852536048553, -7.927156618275392], [112.55484685849292, -7.9270859002274365], [112.56020419498662, -7.93340796140018], [112.56844709133065, -7.934231236308161], [112.57220988639392, -7.926204502194992], [112.56938884221151, -7.923025919626021], [112.56144102812767, -7.92160929391754], [112.56218251683372, -7.913487407889754], [112.56440043967672, -7.912094503372535], [112.56940577975891, -7.913114777607729], [112.57156435342095, -7.919148387188102], [112.57901457719288, -7.918675391842183], [112.58211608228686, -7.921096868435136], [112.58714094011214, -7.921369541006593], [112.59461725648622, -7.916366639605928], [112.59653638877825, -7.910576277112334], [112.60470100949082, -7.9046407437112265], [112.60012313262693, -7.901155986219005], [112.59078329354493, -7.903445335732598], [112.58966954500794, -7.893340032604998], [112.59590439029579, -7.892944274516523], [112.59663148841895, -7.899507660143756], [112.60004258595063, -7.900399089146474], [112.60252005215267, -7.894471406749484], [112.60048453480309, -7.884979259346096], [112.60633830656435, -7.884449117774447], [112.61293784776906, -7.890910622549524], [112.61380899580071, -7.9003821287781335], [112.60914144147765, -7.90848319958618], [112.61303031953827, -7.91404229019769], [112.62308428497981, -7.917600292205375], [112.63678782736228, -7.918321094355733], [112.6383683492801, -7.909467350062946], [112.6499440687003, -7.909649865405852], [112.65246965593283, -7.903642877290431], [112.65829765536056, -7.901748833295596], [112.66469359751679, -7.908854833244023], [112.66287669442957, -7.91743249359589], [112.67191083231234, -7.9301582798810415], [112.67948693636652, -7.929666817977568], [112.68143147198525, -7.9249184531024595], [112.69602311098413, -7.926582249936958], [112.69743929956054, -7.938017783003903], [112.70539362860052, -7.938267327740796], [112.71331354647339, -7.9489881016670205], [112.71298785259553, -7.9514011685176325], [112.70383315909402, -7.951375465581057], [112.69732886645619, -7.947782702928056], [112.69508351741656, -7.940324675271827], [112.69021157981726, -7.939609265560327], [112.68486343945865, -7.941389428733442], [112.68414753311737, -7.9453534174820595], [112.69409752935272, -7.950079974375665], [112.69288120683643, -7.956376953231783], [112.68040454016757, -7.953931893673419], [112.67715560644943, -7.947984516655253], [112.66956378023069, -7.951452310662428], [112.66906299050552, -7.95433136884093], [112.6750563587186, -7.961887778383563], [112.68744588266786, -7.963670005781252], [112.68734433495624, -7.969504974283556], [112.67642407839307, -7.977504238549681], [112.68833390284686, -7.985222647885034], [112.69013974699794, -7.993863885421991], [112.68835017425039, -7.999384468961778], [112.6751714467163, -8.000987142061243], [112.6707858875331, -8.015388023939666], [112.65951320683924, -8.01589231836889], [112.65469942988301, -8.020039164532607], [112.65491193553522, -8.026321754576339], [112.64577958608898, -8.02829394917296], [112.64691707469918, -8.03910518596897], [112.64402034570789, -8.04974974644676], [112.63989753541436, -8.049766241147886], [112.63435973253193, -8.045167388666327], [112.62494380016871, -8.04902856349374], [112.62298185693462, -8.038367775776353], [112.61587630319362, -8.037758892482396], [112.60693850202767, -8.056307428518858], [112.61431580622626, -8.061155211475414], [112.61344957172001, -8.065472789728425], [112.60392763701988, -8.065989562492037], [112.5996340164676, -8.070805794917504], [112.59379245908244, -8.070223613831919], [112.58669765049, -8.074283436835975], [112.58501549773133, -8.081505809080166], [112.58106794858017, -8.081705264001316], [112.57783079089364, -8.07697366933711], [112.57865075840864, -8.073161424534106], [112.58678541722311, -8.071670903208906], [112.58770616533346, -8.062896682238081], [112.57352301813583, -8.047469392271104], [112.57691535634319, -8.045129225687987], [112.58485174027578, -8.048408728986542], [112.59008819391258, -8.038528357251431], [112.57388916336171, -8.032553565941274], [112.57178314584658, -8.029172953365991], [112.58456493242096, -8.031767713568556], [112.59011308869079, -8.030399886871583], [112.59254644544372, -8.026772002730311], [112.59008558561078, -8.018510229859874], [112.59256027693685, -8.014404771163155], [112.58874931320747, -8.006894777774455], [112.57568611928723, -8.006005967164802], [112.57102175581399, -8.00324072934972], [112.5710659285712, -8.000464601741365], [112.57634241836818, -7.999803227108428], [112.5796884017779, -7.994436898314528], [112.57077419106186, -7.98682727502638], [112.5790454297779, -7.98521311092195], [112.5831541141053, -7.9871831221239304], [112.5885457555597, -7.982114397815473], [112.58143102642883, -7.975519980386308], [112.57586889080298, -7.974038326214851], [112.5775977663422, -7.967972999035228], [112.57245351227328, -7.964829953048184], [112.57155652229635, -7.957203263145003], [112.56191248525396, -7.956058472489136], [112.55870890001644, -7.950795894263375], [112.54743654972904, -7.945923833319797], [112.54753809108206, -7.942260855029763], [112.55348027506645, -7.94093826607676], [112.55433390884004, -7.93613146045736], [112.54708865141465, -7.930420801144841]], [[112.65964723023657, -7.970687854993997], [112.6548144746923, -7.973847860498225], [112.65568853785116, -7.977268163974354], [112.67534198626468, -7.974497222774794], [112.67131901971067, -7.965764322707747], [112.65964723023657, -7.970687854993997]], [[112.65323930932303, -7.999625447313118], [112.6558879647173, -8.00510178930609], [112.66273355577297, -8.007646130976374], [112.67273861410901, -7.998046705804371], [112.66696644591153, -7.9945451503320815], [112.66652720755772, -7.989341508621088], [112.66331985685623, -7.9862053521073015], [112.6534939388566, -7.991699123036748], [112.65323930932303, -7.999625447313118]], [[112.64119894358487, -7.9932905134560235], [112.64741422659691, -7.991048018667178], [112.64598615744548, -7.982646339432034], [112.64260673347914, -7.983036308413059], [112.63772280496855, -7.989776116471449], [112.64119894358487, -7.9932905134560235]], [[112.63409315892932, -7.961693682985423], [112.63875126389003, -7.964137483879311], [112.64084561845797, -7.960453358615221], [112.63617650867454, -7.9579524558884716], [112.63409315892932, -7.961693682985423]], [[112.6334794418021, -8.017349422407225], [112.63752744974765, -8.022477085506608], [112.64022649713637, -8.015830758149015], [112.63525379384166, -8.014181812226], [112.6334794418021, -8.017349422407225]], [[112.63053966312198, -7.970279453816443], [112.63456176691135, -7.96982269681172], [112.63377452987285, -7.965307943700991], [112.62788050669609, -7.966134801912358], [112.63053966312198, -7.970279453816443]], [[112.59924677923284, -8.014155920366658], [112.60664479713539, -8.022544053251865], [112.61241946915781, -8.019461695944628], [112.6112209131461, -8.016021702099147], [112.60508612552037, -8.015750957912156], [112.60674927436247, -8.008238620256884], [112.60506819852905, -8.005757319655245], [112.6005464027624, -8.007661857931927], [112.59924677923284, -8.014155920366658]], [[112.60205717707828, -8.041163286940565], [112.60025010405303, -8.036413474665169], [112.59546971088803, -8.040965508351743], [112.59920630653794, -8.04449906231633], [112.60205717707828, -8.041163286940565]], [[112.58729927387424, -7.997933339146556], [112.59149437172321, -7.999209379612344], [112.59388524218608, -7.991928143970144], [112.58994392439239, -7.992039533857598], [112.58729927387424, -7.997933339146556]], [[112.5679618276212, -7.948975197188854], [112.5719730770939, -7.948293692109151], [112.57389169080423, -7.944235931908363], [112.57223593737828, -7.941548161392083], [112.56624113423976, -7.944679159828884], [112.5679618276212, -7.948975197188854]]], [[[112.67249531635368, -7.869088437867654], [112.67490074317894, -7.864398503680819], [112.68449664683406, -7.858224020635701], [112.68547129752808, -7.847135877734025], [112.69200077672943, -7.845342444195498], [112.69481912098132, -7.83852914379948], [112.70133400022347, -7.835002992689153], [112.70383104181845, -7.839444727838688], [112.70851306137604, -7.841084449735297], [112.70952369614456, -7.8468382791499085], [112.70593381785628, -7.850580632065131], [112.69856910156996, -7.848982925430945], [112.68833835981805, -7.858458449728458], [112.6859990038159, -7.8722909501814495], [112.67531185796582, -7.875833700003792], [112.67249531635368, -7.869088437867654]]], [[[112.54474272121834, -8.15733457492805], [112.55088052498196, -8.145501093160656], [112.54547938819965, -8.14085670422181], [112.54957266857525, -8.133197842462128], [112.54994118682545, -8.118580644466306], [112.55549029829993, -8.117591801483442], [112.557777938686, -8.11961139615366], [112.55685378891086, -8.130425236214109], [112.55979614058633, -8.13426183508277], [112.57195005626438, -8.11920442304412], [112.57604407008192, -8.120247408933118], [112.57852919511703, -8.126000458425972], [112.58870022472871, -8.127811356661525], [112.58969468087867, -8.141819811315308], [112.58275758496578, -8.147398759509056], [112.58312668737699, -8.16506118684117], [112.5769597951223, -8.173100352652705], [112.5726955359028, -8.173116959156554], [112.5706368935929, -8.16904662924245], [112.57247080522076, -8.16191926518793], [112.57914353419712, -8.158308261411692], [112.57665502479803, -8.153067021587585], [112.56883045456206, -8.154964658471322], [112.5608173259303, -8.15115445291436], [112.55588410225421, -8.158283304165911], [112.55102022810307, -8.157453402093102], [112.54630645736292, -8.160043013707261], [112.54474272121834, -8.15733457492805]], [[112.55459816080979, -8.142042262003875], [112.56030115414, -8.148409515102248], [112.5644154453408, -8.146425546533091], [112.56382194823101, -8.143511389337885], [112.55804015006798, -8.140562264630178], [112.55459816080979, -8.142042262003875]]], [[[112.4502045081556, -8.112868431368886], [112.45215005030234, -8.10650973073386], [112.45764904344342, -8.1089684190446], [112.46260200218597, -8.102960193627236], [112.47302040212692, -8.102981805546584], [112.48107351250529, -8.111125176720371], [112.47958852543617, -8.115352842942913], [112.45889740208601, -8.114808347192575], [112.4561490022679, -8.120441270252927], [112.45040795741417, -8.118498677284167], [112.4502045081556, -8.112868431368886]]]]}}, {"type": "Feature", "properties": {"threshold": 95}, "geometry": {"type": "MultiPolygon", "coordinates": [[[[112.72812075096823, -7.76671656804839], [112.73345591696102, -7.7591500032491645], [112.73879099779789, -7.759229112174195], [112.74579125202155, -7.766126134358687], [112.74597637329934, -7.780889853039312], [112.74231971127067, -7.7889194677686815], [112.73532720368834, -7.7887194686932855], [112.734242818216, -7.774905745727064], [112.73025768843344, -7.772934013582606], [112.72812075096823, -7.76671656804839]]], [[[112.69767951114852, -7.820853281358447], [112.69760544877987, -7.818379700899556], [112.70825299045978, -7.818426095917135], [112.71410291912134, -7.81087302667266], [112.72117554957775, -7.810785176677518], [112.72278647786761, -7.815581393004434], [112.73075961611534, -7.817536961773448], [112.73448550652961, -7.8232835248747365], [112.73133469026143, -7.8273557940354275], [112.71441055724824, -7.828268776202547], [112.71145550057696, -7.82507066494485], [112.70506083147524, -7.824947329055153], [112.69767951114852, -7.820853281358447]]], [[[112.54708865141465, -7.930420801144841], [112.54852536048553, -7.927156618275392], [112.55484685849292, -7.9270859002274365], [112.56020419498662, -7.93340796140018], [112.56844709133065, -7.934231236308161], [112.57090805158815, -7.92447561809319], [112.56135796633193, -7.921380559185587], [112.56218251683372, -7.913487407889754], [112.56440043967672, -7.912094503372535], [112.56940577975891, -7.913114777607729], [112.57156435342095, -7.919148387188102], [112.57901457719288, -7.918675391842183], [112.58211608228686, -7.921096868435136], [112.58714094011214, -7.921369541006593], [112.59442050047967, -7.916513297869643], [112.59570517004961, -7.911411410116358], [112.60470100949082, -7.9046407437112265], [112.60012313262693, -7.901155986219005], [112.59078329354493, -7.903445335732598], [112.58966954500794, -7.893340032604998], [112.59590439029579, -7.892944274516523], [112.5965148595088, -7.8992920945304546], [112.59982868307003, -7.900507769771717], [112.60252005215267, -7.894471406749484], [112.60051913402172, -7.884905588594307], [112.60884138921408, -7.884439509211465], [112.6128418705001, -7.887354156147946], [112.61599356388058, -7.898712770207377], [112.62263043448216, -7.899497023593503], [112.62634308755459, -7.905001768609558], [112.6251715374448, -7.909185050547589], [112.62045666290135, -7.90933908598829], [112.6151673159565, -7.903553710733341], [112.6120274808631, -7.9040304873811085], [112.60977870281236, -7.908980297756533], [112.61644516824109, -7.915646215799109], [112.63658571354918, -7.917603924592687], [112.63843368998604, -7.909418635113881], [112.6499440687003, -7.909649865405852], [112.65246965593283, -7.903642877290431], [112.65829765536056, -7.901748833295596], [112.66469359751679, -7.908854833244023], [112.66287669442957, -7.91743249359589], [112.67191083231234, -7.9301582798810415], [112.6785399318131, -7.929619938031833], [112.68059706075205, -7.924921819275863], [112.69602311098413, -7.926582249936958], [112.69819507092278, -7.928009410315999], [112.69768128256273, -7.9341554867314015], [112.70044164479016, -7.937202455075657], [112.70551661118587, -7.93753799853352], [112.71331354647339, -7.9489881016670205], [112.71298785259553, -7.9514011685176325], [112.7039100960954, -7.951402554131912], [112.69314209986894, -7.942037027491877], [112.6886609662258, -7.946418722207686], [112.69409752935272, -7.950079974375665], [112.69197653074241, -7.957247335610412], [112.68040454016757, -7.953931893673419], [112.6772454852969, -7.949027609080521], [112.66956378023069, -7.951452310662428], [112.6691787960166, -7.954541807131277], [112.67524747076406, -7.961516835285417], [112.68619035221488, -7.9596875205279165], [112.68743433846491, -7.969369499164555], [112.67642407839307, -7.977504238549681], [112.68833390284686, -7.985222647885034], [112.69013974699794, -7.993863885421991], [112.68835017425039, -7.999384468961778], [112.6751714467163, -8.000987142061243], [112.6707858875331, -8.015388023939666], [112.65951320683924, -8.01589231836889], [112.65469942988301, -8.020039164532607], [112.65491193553522, -8.026321754576339], [112.64577958608898, -8.02829394917296], [112.64693050208147, -8.042432850228167], [112.64402034570789, -8.04974974644676], [112.63989753541436, -8.049766241147886], [112.63435973253193, -8.045167388666327], [112.62494380016871, -8.04902856349374], [112.62298185693462, -8.038367775776353], [112.61587630319362, -8.037758892482396], [112.61126030957494, -8.043538707153308], [112.60912960072065, -8.054818980246752], [112.61354532814535, -8.057973788138105], [112.61344957172001, -8.065472789728425], [112.60392763701988, -8.065989562492037], [112.5996340164676, -8.070805794917504], [112.59379245908244, -8.070223613831919], [112.58669765049, -8.074283436835975], [112.58501549773133, -8.081505809080166], [112.57715131149095, -8.080246353334768], [112.57357433644816, -8.08672591634386], [112.56866764838438, -8.082000664042374], [112.57037786129219, -8.076370954046324], [112.57656248082075, -8.076623613398258], [112.58366654878289, -8.071033341598895], [112.5854644121944, -8.063178732646833], [112.57354254515197, -8.047390406253731], [112.57691535634319, -8.045129225687987], [112.58485174027578, -8.048408728986542], [112.58766220806429, -8.039257143427704], [112.5738189992391, -8.03251201275976], [112.57180267302799, -8.029093967467817], [112.58456493242096, -8.031767713568556], [112.59011308869079, -8.030399886871583], [112.59254644544372, -8.026772002730311], [112.59008558561078, -8.018510229859874], [112.5925195550222, -8.014150828997476], [112.58874931320747, -8.006894777774455], [112.57308785213739, -8.005215691928347], [112.56420122328419, -8.013065122561201], [112.56307846065741, -8.020857030765638], [112.55513291458493, -8.018973152167533], [112.55521052442593, -8.015560308212597], [112.5600223041873, -8.014831598201477], [112.5610669814637, -8.01210125918931], [112.55356239620934, -8.006694963320955], [112.55103833742253, -8.001372293523707], [112.56403496843015, -8.005224023391614], [112.57641477588673, -7.998769658358907], [112.57713311168268, -7.9945527692706015], [112.57076771208239, -7.986969821575456], [112.57556957188477, -7.984050091103496], [112.57408066821866, -7.978495098319428], [112.57735956173504, -7.96821662394848], [112.57245351227328, -7.964829953048184], [112.57136620203846, -7.9570393070941385], [112.5619863823578, -7.956092975986011], [112.55870890001644, -7.950795894263375], [112.54743654972904, -7.945923833319797], [112.54753809108206, -7.942260855029763], [112.55348027506645, -7.94093826607676], [112.55433390884004, -7.93613146045736], [112.54708865141465, -7.930420801144841]], [[112.65964723023657, -7.970687854993997], [112.6548144746923, -7.973847860498225], [112.65568853785116, -7.977268163974354], [112.67534198626468, -7.974497222774794], [112.67131901971067, -7.965764322707747], [112.65964723023657, -7.970687854993997]], [[112.65323930932303, -7.999625447313118], [112.6558879647173, -8.00510178930609], [112.66273355577297, -8.007646130976374], [112.67273861410901, -7.998046705804371], [112.66696644591153, -7.9945451503320815], [112.66652720755772, -7.989341508621088], [112.66331985685623, -7.9862053521073015], [112.6534939388566, -7.991699123036748], [112.65323930932303, -7.999625447313118]], [[112.64119894358487, -7.9932905134560235], [112.64741422659691, -7.991048018667178], [112.64598615744548, -7.982646339432034], [112.64260673347914, -7.983036308413059], [112.63772280496855, -7.989776116471449], [112.64119894358487, -7.9932905134560235]], [[112.63409315892932, -7.961693682985423], [112.63875126389003, -7.964137483879311], [112.64084561845797, -7.960453358615221], [112.63617650867454, -7.9579524558884716], [112.63409315892932, -7.961693682985423]], [[112.6334794418021, -8.017349422407225], [112.63752744974765, -8.022477085506608], [112.64022649713637, -8.015830758149015], [112.63525379384166, -8.014181812226], [112.6334794418021, -8.017349422407225]], [[112.63053966312198, -7.970279453816443], [112.63456176691135, -7.96982269681172], [112.63377452987285, -7.965307943700991], [112.62788050669609, -7.966134801912358], [112.63053966312198, -7.970279453816443]], [[112.60008790694692, -8.015816553960935], [112.60688021617621, -8.022614232969609], [112.61250765956682, -8.019223030117958], [112.61128824265157, -8.01616544961208], [112.60508612552037, -8.015750957912156], [112.60323763659758, -8.010699280186811], [112.59969977838391, -8.012552896589982], [112.60008790694692, -8.015816553960935]], [[112.59767874640653, -8.039954635717805], [112.60109390488162, -8.04183386210226], [112.6024984246644, -8.037962348636364], [112.59930536811022, -8.036570184740272], [112.59767874640653, -8.039954635717805]], [[112.5797027812474, -7.985452374276792], [112.58414737821117, -7.986528401931226], [112.58434388179522, -7.981617883873141], [112.58075291784819, -7.981389696283732], [112.5797027812474, -7.985452374276792]], [[112.5679618276212, -7.948975197188854], [112.5719730770939, -7.948293692109151], [112.57389169080423, -7.944235931908363], [112.57223593737828, -7.941548161392083], [112.56624113423976, -7.944679159828884], [112.5679618276212, -7.948975197188854]]], [[[112.67249531635368, -7.869088437867654], [112.67490074317894, -7.864398503680819], [112.68449664683406, -7.858224020635701], [112.68547129752808, -7.847135877734025], [112.69116543480112, -7.845236652795851], [112.6948844435284, -7.838480423842832], [112.70133400022347, -7.835002992689153], [112.70383104181845, -7.839444727838688], [112.71023378080491, -7.841974710864062], [112.70926742065639, -7.849735184965587], [112.69879611061641, -7.848887221812829], [112.68833835981805, -7.858458449728458], [112.68593367516193, -7.872339670271443], [112.67531185796582, -7.875833700003792], [112.67249531635368, -7.869088437867654]]], [[[112.54474272121834, -8.15733457492805], [112.55088052498196, -8.145501093160656], [112.54547938819965, -8.14085670422181], [112.54957266857525, -8.133197842462128], [112.54994118682545, -8.118580644466306], [112.55549029829993, -8.117591801483442], [112.557777938686, -8.11961139615366], [112.55685378891086, -8.130425236214109], [112.55979614058633, -8.13426183508277], [112.57195005626438, -8.11920442304412], [112.57604407008192, -8.120247408933118], [112.57852919511703, -8.126000458425972], [112.58482021835084, -8.124978168565194], [112.58870022472871, -8.127811356661525], [112.58969468087867, -8.141819811315308], [112.58275758496578, -8.147398759509056], [112.58312668737699, -8.16506118684117], [112.5769597951223, -8.173100352652705], [112.5726955359028, -8.173116959156554], [112.5706368935929, -8.16904662924245], [112.57247080522076, -8.16191926518793], [112.57914353419712, -8.158308261411692], [112.57665502479803, -8.153067021587585], [112.56799876799585, -8.155799833534864], [112.5608173259303, -8.15115445291436], [112.55588410225421, -8.158283304165911], [112.55102022810307, -8.157453402093102], [112.54630645736292, -8.160043013707261], [112.54474272121834, -8.15733457492805]], [[112.55459816080979, -8.142042262003875], [112.56030115414, -8.148409515102248], [112.5644154453408, -8.146425546533091], [112.56382194823101, -8.143511389337885], [112.55804015006798, -8.140562264630178], [112.55459816080979, -8.142042262003875]]], [[[112.52142852899703, -7.876651907681785], [112.52029905623127, -7.869546935822236], [112.52426170849049, -7.867296184458755], [112.52841111334544, -7.869232207172291], [112.53023151099292, -7.874197272662541], [112.53825740892911, -7.873192746295862], [112.54272449439425, -7.890965669664164], [112.5379485507452, -7.892753206050022], [112.53645342471259, -7.896313333847954], [112.53073718904683, -7.894566325070829], [112.52784951047605, -7.891330402728788], [112.53143211716983, -7.883425006199199], [112.52999150713505, -7.8772518982583755], [112.52142852899703, -7.876651907681785]]], [[[112.449251344648, -8.109659807414474], [112.45259557504919, -8.106323962962787], [112.4580884572605, -8.108772945943407], [112.46244218087779, -8.10299247081964], [112.47278339110551, -8.102923550749537], [112.48088706918398, -8.110681209418138], [112.48108324598066, -8.1137836214821], [112.4591323576367, -8.114736401556474], [112.45665483056229, -8.120200646611728], [112.4526493118236, -8.12128577808895], [112.449251344648, -8.109659807414474]]]]}}]}