{"type": "FeatureCollection", "features": [{"type": "Feature", "properties": {"threshold": 70}, "geometry": {"type": "MultiPolygon", "coordinates": [[[[3.8930381611729845, 6.935151924827202], [3.8954600045292462, 6.944402827102649], [3.9023174114143493, 6.952794608796078], [3.9005227100941826, 6.957503559115996], [3.896258497667357, 6.9587626641929115], [3.898417299563965, 6.966430051730072], [3.904811720963364, 6.966445294996917], [3.91002044284118, 6.960736752818454], [3.922533459511503, 6.958165199837122], [3.92501628973473, 6.96467799744856], [3.934128091636554, 6.965033849467698], [3.936421946417523, 6.972234267025905], [3.9467816737942116, 6.967876370023561], [3.9479321355926196, 6.959057899085534], [3.9545038308335476, 6.957541379271497], [3.9501138363597783, 6.9366546893554535], [3.945947459797573, 6.934789736966323], [3.9436577282513, 6.938574796555218], [3.9360035235623796, 6.941539235456989], [3.932971030226393, 6.939254405919804], [3.92931158280803, 6.927593591349002], [3.920070309642138, 6.924341149321119], [3.9181362398461044, 6.919878329174751], [3.9116673815496443, 6.920723737155866], [3.908467127572488, 6.925039937679719], [3.899582480273933, 6.928160483773151], [3.8948655574647835, 6.927496123579029], [3.8930381611729845, 6.935151924827202]]], [[[3.8459141966008463, 6.794262945078563], [3.850619628898312, 6.8090843401695595], [3.857012021726375, 6.809100490002454], [3.8586620993611853, 6.804973472115513], [3.8629756478419144, 6.805082254177972], [3.8670878567065867, 6.8082570622811005], [3.866254750558693, 6.814762248917047], [3.8747082199534724, 6.815184382505749], [3.880041974259524, 6.819086629258089], [3.884875422861163, 6.818005718952997], [3.887020527753787, 6.811792339927653], [3.890742314020068, 6.812978368230115], [3.8902971789288245, 6.825888583399748], [3.884138982049336, 6.828543842073029], [3.881359025510652, 6.825023115048799], [3.877242615213531, 6.825030619345642], [3.876289874336632, 6.829185941451428], [3.870452379736933, 6.831797174830945], [3.8660091000465595, 6.838115720454921], [3.8670298118788913, 6.84629917507774], [3.8750775719394097, 6.846932572198027], [3.879606320011353, 6.8533273385111455], [3.8782671664018076, 6.8606536894139385], [3.870198349106438, 6.860821943811192], [3.8719820837417513, 6.869478414585777], [3.879003579918511, 6.8764701435365225], [3.8879220056787998, 6.87033480986423], [3.9040813925581794, 6.870502239708065], [3.905068898869099, 6.853339943618472], [3.9199139757780856, 6.849853060613586], [3.9307903288958235, 6.8564433032572385], [3.9394471126903774, 6.856458185074259], [3.9459197007684246, 6.850180005804277], [3.9485018675647363, 6.844034279309971], [3.9469480209218557, 6.835372777132673], [3.95096749889351, 6.826537163170804], [3.9500820377520443, 6.816221058743041], [3.930481848647945, 6.800774730483728], [3.9119389397668387, 6.801202179013076], [3.8982654301703987, 6.7918349282891475], [3.896586783757351, 6.786115959233158], [3.8934756451560077, 6.78492385628772], [3.8887012945557333, 6.7851170230662445], [3.883016790017412, 6.79597489515416], [3.8771911648964577, 6.796709333632135], [3.8722073377078856, 6.801154313497341], [3.8633008260005752, 6.799771146176031], [3.8544738147137734, 6.787524823856076], [3.847871562669637, 6.786856080419003], [3.8459141966008463, 6.794262945078563]], [[3.884344803099465, 6.848772433874133], [3.886172460570177, 6.845946057685068], [3.89004366226216, 6.845831633300462], [3.8972562931167603, 6.853025461552092], [3.8905843257205284, 6.857271912512697], [3.884279381941844, 6.8540832688393385], [3.884344803099465, 6.848772433874133]]], [[[3.8491630585502463, 7.230222848302977], [3.8562537377261656, 7.235392319728232], [3.8571024404154595, 7.242145117867258], [3.8678184283839863, 7.243894882818869], [3.8724350472298754, 7.24188699961951], [3.8742682405379436, 7.23442043240226], [3.882126452012289, 7.23214358327111], [3.8849210232334106, 7.228535447455482], [3.8858418186710084, 7.219501984722337], [3.8714604108801636, 7.21980934014513], [3.8627027174728563, 7.226792732129293], [3.8539491603898384, 7.222341352450796], [3.8493341811401978, 7.22518200671187], [3.8491630585502463, 7.230222848302977]]], [[[3.805184309724151, 6.85831375925675], [3.8124599455527086, 6.8674870238488745], [3.8184884897067977, 6.862758498191526], [3.817578864448516, 6.854630935733031], [3.8104108201429834, 6.849242126176012], [3.805184309724151, 6.85831375925675]]], [[[3.774865569279861, 7.151865408778933], [3.775207891230563, 7.154828116030675], [3.7807676706765307, 7.154307285329661], [3.783774112337566, 7.158249711153099], [3.793505799434992, 7.157372612020718], [3.796490743085581, 7.149265702118832], [3.795600004633319, 7.143789781195926], [3.789221512083831, 7.144344070351179], [3.784759537874421, 7.141627002579536], [3.776166215075708, 7.143373713047366], [3.774865569279861, 7.151865408778933]]], [[[3.752639766491737, 6.8333722362341645], [3.751951143449728, 6.836431405604025], [3.7621347476872935, 6.848257926705798], [3.7716391524125585, 6.848960716440263], [3.774301536286636, 6.842436962261763], [3.7681604262630426, 6.830305094362891], [3.760802680514032, 6.829311308781104], [3.752639766491737, 6.8333722362341645]]], [[[3.6177398032430674, 6.844079363061889], [3.6169460006785545, 6.846619641628965], [3.624383850667745, 6.854133849843822], [3.6235912802866714, 6.8615356999550725], [3.6339467591266366, 6.871026150738706], [3.6432012331735515, 6.871756444763776], [3.6415590811538188, 6.8657522044679915], [3.6441312512084116, 6.862362630771438], [3.649057875378565, 6.863126925476563], [3.6518978424542197, 6.866937973314851], [3.6592825702215537, 6.862889703004153], [3.66652611962667, 6.86560001530057], [3.6689669933529827, 6.880141754858701], [3.672446112555176, 6.87999178195507], [3.6746222414469263, 6.874753786431107], [3.6823814005929876, 6.872737257150961], [3.687651043951885, 6.874046946638295], [3.690568573679254, 6.880069196007337], [3.6978759046179603, 6.88256332861646], [3.698499816734369, 6.887903527490849], [3.693627703503436, 6.901350664227128], [3.7013247394425646, 6.90398591388635], [3.7138166592437756, 6.915201262152428], [3.7192549578983676, 6.922558420390943], [3.7203081964001314, 6.936974822917194], [3.7232355445126095, 6.939206453702081], [3.733614718638872, 6.933541850763632], [3.7333705476932377, 6.93037496190955], [3.722347861777321, 6.922466521713344], [3.725062471961683, 6.912527681969359], [3.735120552589459, 6.9040053407709765], [3.7416097740927725, 6.914222769269782], [3.7456533546725073, 6.9141816303910195], [3.7493228047153844, 6.910503123190579], [3.750764333371477, 6.897805950484267], [3.7354809082289173, 6.899849359440452], [3.729533285720759, 6.893599820352966], [3.7273985227645263, 6.8803489403705305], [3.720790020622162, 6.884287917599831], [3.7161082930699254, 6.882811736067201], [3.7187287796017823, 6.871368762022092], [3.730882653524917, 6.871450241989539], [3.7306403294700208, 6.862802293307565], [3.7227283034752143, 6.863377462323868], [3.7187473549884222, 6.860217084166622], [3.709174723167885, 6.8593785206490026], [3.702188984421632, 6.865799340007706], [3.688589664511958, 6.869930741843646], [3.6792245511558592, 6.8665152985321924], [3.672982529858936, 6.860310882330058], [3.6676925295549445, 6.861061634729581], [3.6655513878270045, 6.85785700919481], [3.6590287808897854, 6.856116500990176], [3.65924014173378, 6.8470193318154875], [3.6650959420736404, 6.839671095298221], [3.663166423089858, 6.835099163395803], [3.666725109662869, 6.832248342001001], [3.666342140825436, 6.827034132614201], [3.65487152879594, 6.824488509763799], [3.630018991209966, 6.839972632434025], [3.6177398032430674, 6.844079363061889]]], [[[3.726773009240934, 6.809465773754792], [3.728276552156029, 6.814329423957086], [3.7421603719659053, 6.811727210843477], [3.7467194483829327, 6.804565067789025], [3.745813808980479, 6.798103213546214], [3.740158200528063, 6.795178120446338], [3.732186517921207, 6.796117254578373], [3.726773009240934, 6.809465773754792]]], [[[3.625455081684833, 6.938078872718066], [3.628017334437829, 6.947527154758954], [3.632614513173543, 6.950247265810869], [3.6432015277577086, 6.950145465424801], [3.654076356253007, 6.962944174432425], [3.6546691737502317, 6.969089236024095], [3.6629827917734197, 6.975068778493487], [3.663563390758236, 6.98790410680291], [3.652859155111833, 6.9993055167890255], [3.6531028713361953, 7.002472487931739], [3.65783790339909, 7.004639147900229], [3.658114658917093, 7.009129636655647], [3.664602360579757, 7.010635744474021], [3.6679457722334377, 7.01685901557431], [3.6719490547298057, 7.014745519105648], [3.6765462297565557, 7.001900472236162], [3.6859749621938724, 7.009297154869015], [3.6950268198412295, 7.0076783031393814], [3.7003321815202357, 7.011813758726921], [3.703478129817799, 7.009063917289104], [3.7036181387353353, 7.005586528195893], [3.6975660726020663, 6.9986811258827535], [3.6929222929544143, 7.00003566115853], [3.690490998143161, 6.997794975188562], [3.692020709909012, 6.992585463935863], [3.689952304035946, 6.988693325343026], [3.696040540285452, 6.9839588950860385], [3.6961708082264932, 6.980084182034115], [3.6886224883247274, 6.974708836890199], [3.6894733363739904, 6.9691842813158535], [3.686995272678336, 6.96465445123243], [3.6925695819040745, 6.9615984517787215], [3.692620249527803, 6.958818909011548], [3.687887212904257, 6.956027314987142], [3.6817667285425753, 6.958097122775023], [3.6752148131476887, 6.952713494854138], [3.670602476468578, 6.9537374691896305], [3.6688587391761285, 6.95862632218813], [3.6632379747601718, 6.962194686186851], [3.6579116046794176, 6.960723283077512], [3.6511156073647157, 6.949555383297806], [3.650170172552117, 6.941521000107205], [3.646592137288702, 6.9392407381645995], [3.6424284830258613, 6.930118864242459], [3.6462507432300417, 6.925569239360702], [3.660366552926863, 6.929880681964697], [3.666622989589863, 6.939324180587728], [3.6741921958547157, 6.935801499584321], [3.6747801705657746, 6.931273102763192], [3.6818253203437386, 6.925598774217313], [3.683582172174058, 6.917646504210385], [3.6817084619457288, 6.907187798303135], [3.6717577161279036, 6.9027967440078655], [3.6749685711835425, 6.895474789489881], [3.6669557642905573, 6.891914865267773], [3.6546792436993827, 6.892949273308032], [3.649419690717397, 6.900021294890543], [3.647395266451529, 6.914315518014495], [3.637145595569096, 6.916352344962016], [3.635458715179475, 6.923216516045832], [3.6306823915114936, 6.923713070016066], [3.627011840775616, 6.92739076104661], [3.625455081684833, 6.938078872718066]]], [[[3.606662857552886, 6.814513478800847], [3.615545394971817, 6.821068400095902], [3.621853440092173, 6.8219873528249], [3.6250857011927025, 6.811912489055191], [3.619172209196137, 6.807843319707344], [3.6152217370119075, 6.813549608850225], [3.6071977239525586, 6.810451609910463], [3.606662857552886, 6.814513478800847]]], [[[3.5160772575779906, 7.231915346640844], [3.5316417463363727, 7.238580700536589], [3.5363527730917657, 7.2267106153012035], [3.524938179261998, 7.22567446336515], [3.518627476703859, 7.222012634862578], [3.5160772575779906, 7.231915346640844]]], [[[3.4970769419697905, 6.940729806868985], [3.5029749338093557, 6.953507618510006], [3.511653648147031, 6.954331362144131], [3.5117860901243008, 6.942523510230936], [3.504402888545818, 6.940748207720265], [3.4996124968951863, 6.932136970425161], [3.4969106962492607, 6.9335261898398235], [3.4970769419697905, 6.940729806868985]]], [[[3.383226845408591, 6.718946319181471], [3.3826361514753973, 6.721071116280539], [3.3900412251627166, 6.728358851471146], [3.3875114013147307, 6.735519879852208], [3.3893177104850833, 6.740226256917079], [3.399902019423166, 6.742363320662164], [3.3942082296543203, 6.758250440148262], [3.395271876227983, 6.762006813487882], [3.4008774918312557, 6.762784537954784], [3.4018408620592377, 6.768540123095238], [3.406600374947413, 6.771430173680723], [3.406927639487087, 6.774997029744705], [3.4018490608286394, 6.778447580700082], [3.4017283493887143, 6.782402995187728], [3.4058812965928076, 6.7879217641114025], [3.406029311918007, 6.7943614360933005], [3.412556296044781, 6.797079755912959], [3.4117368392635625, 6.805639623065971], [3.4139464519459573, 6.810874775014321], [3.4117446517611985, 6.814803235096455], [3.4160162627630446, 6.826772272079239], [3.425605926536299, 6.8346369697809655], [3.4331993549921807, 6.833378177251913], [3.4369600798039164, 6.845216202592735], [3.447166817129629, 6.850410585920633], [3.4488365753456054, 6.839769894328302], [3.458390813581905, 6.834914030407653], [3.4565593185280137, 6.82359082272128], [3.4640043483263048, 6.821092783649375], [3.4699359682313373, 6.815129916550769], [3.4708999558234277, 6.809588178751407], [3.4645196266337814, 6.801227023348073], [3.4650220155304803, 6.796938519253683], [3.4603696931949246, 6.788086540507975], [3.440800122550437, 6.785546375830411], [3.4264045833563914, 6.793374386378467], [3.4221625298259046, 6.791183868999004], [3.424213605128231, 6.785492801667663], [3.4222685102705315, 6.780190809187365], [3.424744719698602, 6.776372515178552], [3.4342882980445752, 6.777207678801286], [3.437531232603409, 6.774793973321551], [3.4346601657112528, 6.768193651903075], [3.4243634624856996, 6.767018465057132], [3.4203145706380145, 6.762157158986599], [3.427221434340255, 6.749712543573863], [3.4323709519496175, 6.7476875411834785], [3.435681874515685, 6.736237191582716], [3.439981085775886, 6.732386521286884], [3.4381361280651825, 6.725868278319176], [3.4304823297222002, 6.7215659549797655], [3.4391320285715112, 6.701483618637908], [3.4381571718041144, 6.6951105828655155], [3.4329253178794854, 6.6918590035504355], [3.437419093434303, 6.684983587770468], [3.4364773907538906, 6.680117037052945], [3.433593851074439, 6.6799390984487], [3.431005396488365, 6.686028169412132], [3.425760648797582, 6.688619427229296], [3.4199686958967694, 6.680837498635437], [3.424846456003811, 6.671033418974537], [3.4144841371185572, 6.66657805369631], [3.4116277299423725, 6.684703528286412], [3.4157802216901763, 6.694282878598599], [3.41540946523998, 6.706566259098908], [3.4015822597993592, 6.711160991093057], [3.3977989563103406, 6.707335107052977], [3.392997198569502, 6.7073389765015525], [3.388418668664749, 6.710217390761588], [3.388808306550369, 6.71561896161371], [3.383226845408591, 6.718946319181471]], [[3.4472831731651645, 6.793661692841955], [3.458739240395895, 6.795753836322348], [3.459845117276278, 6.7995499694968915], [3.450663466342944, 6.803617513891878], [3.4451682743256016, 6.79875664359002], [3.4472831731651645, 6.793661692841955]], [[3.4491415766772757, 6.808405418026515], [3.454634926727257, 6.807060033557681], [3.4556270844682744, 6.811776607326974], [3.449290463147285, 6.812979796412245], [3.4491415766772757, 6.808405418026515]]], [[[3.4398091243567355, 7.209859567788526], [3.4422224865543165, 7.217447352677417], [3.451556109694681, 7.2301294248644], [3.458568288975227, 7.2276233157449], [3.4604358654993006, 7.2192962486183845], [3.453505879813593, 7.217347049821146], [3.4535463021453494, 7.210626797642041], [3.444694327551032, 7.206231190022681], [3.4407492348174378, 7.2064194192166], [3.4398091243567355, 7.209859567788526]]], [[[3.446268669453726, 7.1846768280280475], [3.45313732343949, 7.197579035277769], [3.4584794094933433, 7.199354848073772], [3.4569110438800856, 7.184026591487798], [3.4478434541806817, 7.181236949470644], [3.446268669453726, 7.1846768280280475]]]]}}, {"type": "Feature", "properties": {"threshold": 80}, "geometry": {"type": "MultiPolygon", "coordinates": [[[[3.8930381611729845, 6.935151924827202], [3.8954600045292462, 6.944402827102649], [3.9023174114143493, 6.952794608796078], [3.9005227100941826, 6.957503559115996], [3.896258497667357, 6.9587626641929115], [3.898417299563965, 6.966430051730072], [3.904811720963364, 6.966445294996917], [3.91002044284118, 6.960736752818454], [3.922533459511503, 6.958165199837122], [3.92501628973473, 6.96467799744856], [3.934128091636554, 6.965033849467698], [3.936421946417523, 6.972234267025905], [3.9467816737942116, 6.967876370023561], [3.9479321355926196, 6.959057899085534], [3.9545038308335476, 6.957541379271497], [3.9501138363597783, 6.9366546893554535], [3.945947459797573, 6.934789736966323], [3.9436577282513, 6.938574796555218], [3.9360035235623796, 6.941539235456989], [3.932971030226393, 6.939254405919804], [3.92931158280803, 6.927593591349002], [3.920070309642138, 6.924341149321119], [3.9181362398461044, 6.919878329174751], [3.9116673815496443, 6.920723737155866], [3.908467127572488, 6.925039937679719], [3.899582480273933, 6.928160483773151], [3.8948655574647835, 6.927496123579029], [3.8930381611729845, 6.935151924827202]]], [[[3.8459141966008463, 6.794262945078563], [3.8501694564312223, 6.8086359534008745], [3.8531226642739083, 6.810745903469853], [3.8573577610328265, 6.808892522031418], [3.858864588148262, 6.804845117410932], [3.8629756478419144, 6.805082254177972], [3.8670878567065867, 6.8082570622811005], [3.866254750558693, 6.814762248917047], [3.880041974259524, 6.819086629258089], [3.884875422861163, 6.818005718952997], [3.887020527753787, 6.811792339927653], [3.890742314020068, 6.812978368230115], [3.8902971789288245, 6.825888583399748], [3.884138982049336, 6.828543842073029], [3.881359025510652, 6.825023115048799], [3.877242615213531, 6.825030619345642], [3.876289874336632, 6.829185941451428], [3.870452379736933, 6.831797174830945], [3.8660091000465595, 6.838115720454921], [3.8670298118788913, 6.84629917507774], [3.8750775719394097, 6.846932572198027], [3.879606320011353, 6.8533273385111455], [3.8782671664018076, 6.8606536894139385], [3.870198349106438, 6.860821943811192], [3.8719820837417513, 6.869478414585777], [3.879003579918511, 6.8764701435365225], [3.8879220056787998, 6.87033480986423], [3.9040813925581794, 6.870502239708065], [3.905068898869099, 6.853339943618472], [3.9199139757780856, 6.849853060613586], [3.9307903288958235, 6.8564433032572385], [3.9394471126903774, 6.856458185074259], [3.9459197007684246, 6.850180005804277], [3.9485018675647363, 6.844034279309971], [3.9469480209218557, 6.835372777132673], [3.95096749889351, 6.826537163170804], [3.9500820377520443, 6.816221058743041], [3.930481848647945, 6.800774730483728], [3.9119389397668387, 6.801202179013076], [3.8982654301703987, 6.7918349282891475], [3.896586783757351, 6.786115959233158], [3.8934756451560077, 6.78492385628772], [3.8887012945557333, 6.7851170230662445], [3.883016790017412, 6.79597489515416], [3.8771911648964577, 6.796709333632135], [3.8722073377078856, 6.801154313497341], [3.8633008260005752, 6.799771146176031], [3.8544738147137734, 6.787524823856076], [3.847871562669637, 6.786856080419003], [3.8459141966008463, 6.794262945078563]], [[3.884344803099465, 6.848772433874133], [3.886172460570177, 6.845946057685068], [3.890268459919317, 6.845908847628064], [3.897053237637322, 6.853183232455627], [3.8905843257205284, 6.857271912512697], [3.884279381941844, 6.8540832688393385], [3.884344803099465, 6.848772433874133]]], [[[3.8491630585502463, 7.230222848302977], [3.8562537377261656, 7.235392319728232], [3.8571024404154595, 7.242145117867258], [3.8678184283839863, 7.243894882818869], [3.8724350472298754, 7.24188699961951], [3.8742682405379436, 7.23442043240226], [3.882126452012289, 7.23214358327111], [3.8849210232334106, 7.228535447455482], [3.8858418186710084, 7.219501984722337], [3.8714604108801636, 7.21980934014513], [3.8627027174728563, 7.226792732129293], [3.8539491603898384, 7.222341352450796], [3.8493341811401978, 7.22518200671187], [3.8491630585502463, 7.230222848302977]]], [[[3.8053781483218296, 6.856174286841386], [3.8061252063117705, 6.862096756880935], [3.8106410762282485, 6.8665948447230685], [3.8138522443341927, 6.867457222513643], [3.818426446951067, 6.862908923157471], [3.817578864448516, 6.854630935733031], [3.8105613255919035, 6.849304136770297], [3.8053781483218296, 6.856174286841386]]], [[[3.772232949683858, 7.153307082601721], [3.7807676706765307, 7.154307285329661], [3.7838532506813563, 7.158269367123179], [3.793505799434992, 7.157372612020718], [3.796490743085581, 7.149265702118832], [3.795600004633319, 7.143789781195926], [3.789462402356401, 7.144391501398895], [3.784048407850256, 7.141628211598137], [3.7728317281028723, 7.144212303501647], [3.772232949683858, 7.153307082601721]]], [[[3.752639766491737, 6.8333722362341645], [3.751951143449728, 6.836431405604025], [3.7621347476872935, 6.848257926705798], [3.7716391524125585, 6.848960716440263], [3.774301536286636, 6.842436962261763], [3.7681604262630426, 6.830305094362891], [3.760802680514032, 6.829311308781104], [3.752639766491737, 6.8333722362341645]]], [[[3.6014083696116774, 6.86273229942561], [3.618691910850838, 6.862993878274709], [3.625418943057854, 6.873391338548219], [3.6319047327140956, 6.875294996409266], [3.6356877730528834, 6.873078923340852], [3.6423721941344387, 6.875089652588289], [3.642911225152172, 6.864858659493302], [3.646359316698859, 6.862974499043439], [3.649233553541776, 6.865298463290183], [3.6502835135162406, 6.876494678621562], [3.655107306759123, 6.880254937888033], [3.6617099645307025, 6.877381908956928], [3.660071205752284, 6.870948857084859], [3.662063245831435, 6.8686408004207005], [3.6674025515736215, 6.869750513385943], [3.669196582727616, 6.880223491548404], [3.6723858004821746, 6.8800465670640705], [3.6740556540891736, 6.875219832612262], [3.6789832769641477, 6.872898962566285], [3.6872607468786973, 6.873772315596224], [3.6905030407614285, 6.880020769347695], [3.6985797255591653, 6.883789680714978], [3.693662658709703, 6.901424245504833], [3.7013247394425646, 6.90398591388635], [3.7138166592437756, 6.915201262152428], [3.7192549578983676, 6.922558420390943], [3.7203081964001314, 6.936974822917194], [3.723386071358988, 6.939268489657119], [3.733614718638872, 6.933541850763632], [3.7333705476932377, 6.93037496190955], [3.722347861777321, 6.922466521713344], [3.725062471961683, 6.912527681969359], [3.735120552589459, 6.9040053407709765], [3.7416097740927725, 6.914222769269782], [3.7456533546725073, 6.9141816303910195], [3.7493848747429226, 6.910352704330629], [3.750764333371477, 6.897805950484267], [3.7334577373991022, 6.897163662315938], [3.729533285720759, 6.893599820352966], [3.7271892878855724, 6.880224037705788], [3.720790020622162, 6.884287917599831], [3.7161082930699254, 6.882811736067201], [3.7187287796017823, 6.871368762022092], [3.730882653524917, 6.871450241989539], [3.73351657425736, 6.865215384658292], [3.7306403294700208, 6.862802293307565], [3.7227283034752143, 6.863377462323868], [3.7187473549884222, 6.860217084166622], [3.709174723167885, 6.8593785206490026], [3.702188984421632, 6.865799340007706], [3.6883454235934003, 6.869907054481], [3.6795533382199435, 6.866507154020794], [3.672982529858936, 6.860310882330058], [3.6684624520280207, 6.86062859481555], [3.6665180463758538, 6.856280023744982], [3.6595032088307113, 6.85363379547902], [3.661301786166239, 6.843547192009384], [3.675083346350653, 6.829660952784254], [3.6749248633718516, 6.825561605603291], [3.6686850137773255, 6.82197049526631], [3.663685378233379, 6.825259438340877], [3.655627132385824, 6.823681900715949], [3.6308513578196706, 6.839138515304476], [3.6180049725053487, 6.843800960831665], [3.613613499126698, 6.852167999550713], [3.6054522442517913, 6.855527871584401], [3.6014083696116774, 6.86273229942561]], [[3.6109790942526114, 6.85709347094667], [3.6138670666829498, 6.8535574982452045], [3.6179139331271415, 6.855736436739463], [3.614334172732125, 6.861081266225998], [3.6109790942526114, 6.85709347094667]]], [[[3.7275954246194356, 6.805921339812011], [3.7281207068023745, 6.814282427256087], [3.7420100765563986, 6.811789707093358], [3.74669211440535, 6.804641800428895], [3.7467122717387156, 6.799918167779671], [3.7403178979910514, 6.795209619101315], [3.7323368102750436, 6.796054761728592], [3.7275954246194356, 6.805921339812011]]], [[[3.625455081684833, 6.938078872718066], [3.628017334437829, 6.947527154758954], [3.632614513173543, 6.950247265810869], [3.6432015277577086, 6.950145465424801], [3.654076356253007, 6.962944174432425], [3.6546691737502317, 6.969089236024095], [3.6629827917734197, 6.975068778493487], [3.663563390758236, 6.98790410680291], [3.652859155111833, 6.9993055167890255], [3.6531028713361953, 7.002472487931739], [3.65783790339909, 7.004639147900229], [3.658114658917093, 7.009129636655647], [3.664602360579757, 7.010635744474021], [3.6679457722334377, 7.01685901557431], [3.6719490547298057, 7.014745519105648], [3.6765462297565557, 7.001900472236162], [3.6859749621938724, 7.009297154869015], [3.6950268198412295, 7.0076783031393814], [3.7003321815202357, 7.011813758726921], [3.703478129817799, 7.009063917289104], [3.7036181387353353, 7.005586528195893], [3.6975660726020663, 6.9986811258827535], [3.6929222929544143, 7.00003566115853], [3.690490998143161, 6.997794975188562], [3.692020709909012, 6.992585463935863], [3.689952304035946, 6.988693325343026], [3.696040540285452, 6.9839588950860385], [3.6961708082264932, 6.980084182034115], [3.6886224883247274, 6.974708836890199], [3.6894733363739904, 6.9691842813158535], [3.686995272678336, 6.96465445123243], [3.6925695819040745, 6.9615984517787215], [3.692620249527803, 6.958818909011548], [3.687887212904257, 6.956027314987142], [3.6817667285425753, 6.958097122775023], [3.6752148131476887, 6.952713494854138], [3.670602476468578, 6.9537374691896305], [3.6688587391761285, 6.95862632218813], [3.6632379747601718, 6.962194686186851], [3.6579116046794176, 6.960723283077512], [3.6511156073647157, 6.949555383297806], [3.650170172552117, 6.941521000107205], [3.6464555078575267, 6.939037009358944], [3.642527089132394, 6.930034573544376], [3.6462507432300417, 6.925569239360702], [3.660366552926863, 6.929880681964697], [3.666622989589863, 6.939324180587728], [3.6741921958547157, 6.935801499584321], [3.6747801705657746, 6.931273102763192], [3.6818253203437386, 6.925598774217313], [3.683582172174058, 6.917646504210385], [3.6817084619457288, 6.907187798303135], [3.6717577161279036, 6.9027967440078655], [3.6749685711835425, 6.895474789489881], [3.6669557642905573, 6.891914865267773], [3.6546792436993827, 6.892949273308032], [3.649419690717397, 6.900021294890543], [3.647395266451529, 6.914315518014495], [3.637145595569096, 6.916352344962016], [3.635458715179475, 6.923216516045832], [3.6306823915114936, 6.923713070016066], [3.627011840775616, 6.92739076104661], [3.625455081684833, 6.938078872718066]]], [[[3.581947597308665, 6.809015956854522], [3.583795970187462, 6.813568660748007], [3.590173841354355, 6.814529832911746], [3.5955531288222686, 6.813554311352158], [3.598227197123111, 6.807741927614027], [3.602607673719262, 6.806019409953647], [3.606173372624237, 6.814270911813983], [3.618356930272203, 6.821991845933598], [3.622358928212954, 6.8217475921844875], [3.6250891480148377, 6.814574282014275], [3.621000734625547, 6.807007945343956], [3.6175720204698267, 6.812328141306971], [3.6133284844559435, 6.8132713613502975], [3.60971619042857, 6.809790289039424], [3.611574956961412, 6.802298869221361], [3.604086192248985, 6.803691600038062], [3.599320826799032, 6.797871936209497], [3.585450033890829, 6.803023002120373], [3.581947597308665, 6.809015956854522]]], [[[3.5160772575779906, 7.231915346640844], [3.525242098006932, 7.237727658621178], [3.5316417463363727, 7.238580700536589], [3.5363527730917657, 7.2267106153012035], [3.524938179261998, 7.22567446336515], [3.518627476703859, 7.222012634862578], [3.5160772575779906, 7.231915346640844]]], [[[3.496242661964098, 6.940133663180544], [3.506211553048804, 6.958376633593217], [3.5090313383976803, 6.958602612950204], [3.5127105858703436, 6.950573073126589], [3.512577763276466, 6.942452789225383], [3.504410215841358, 6.940644818611994], [3.503400464208809, 6.9357982860597325], [3.498618246731148, 6.931273228875971], [3.496242661964098, 6.940133663180544]]], [[[3.3775845956100716, 6.70104135150631], [3.3766859865356196, 6.704194269683013], [3.379396031532283, 6.707870417274904], [3.3890300900102774, 6.712979524157392], [3.3870194557094946, 6.716485394454873], [3.3816758077301823, 6.717116532015965], [3.3825961622844902, 6.723500465799361], [3.3882566623436463, 6.728090047904913], [3.384190957466794, 6.736598856352478], [3.3953313894075436, 6.743131048371003], [3.3933742066873305, 6.7574180546300076], [3.395271876227983, 6.762006813487882], [3.3996499611430133, 6.763428809317392], [3.4010082308583227, 6.769486232418739], [3.3984125997786325, 6.7799855682398364], [3.4031596398009296, 6.784250704344109], [3.412754881163783, 6.808859377203637], [3.4075891775184033, 6.8145634674836035], [3.410177749304376, 6.821778937958874], [3.412118783880177, 6.825408382739614], [3.421081219340998, 6.829221358246323], [3.4261187291674493, 6.838561500509924], [3.432120200205414, 6.842087033573351], [3.4346433373697365, 6.8487140930533466], [3.442528033055267, 6.852174995616946], [3.451333547055386, 6.849573640408388], [3.4472928673240744, 6.842142935655935], [3.457406448110591, 6.836866689746645], [3.459223115461312, 6.826046626875235], [3.464894878899638, 6.823530721986929], [3.4708898601310185, 6.8114975777934195], [3.4644773033588994, 6.800937606200345], [3.4624871017048924, 6.789366790270646], [3.4545304245189747, 6.787799915587003], [3.444149881163382, 6.781371041081185], [3.429462365655219, 6.7912575172198375], [3.425729114172392, 6.791539275435866], [3.4232397603930824, 6.788313717206398], [3.4248939962126226, 6.782060665846134], [3.4372321510465307, 6.7753545145024585], [3.4391942123538017, 6.770627199790535], [3.4336056879377743, 6.7672573918864884], [3.424686671839223, 6.7669918901683515], [3.421148266103305, 6.762551301329421], [3.4273320044053905, 6.758587143511563], [3.430364951622069, 6.751428368682493], [3.438324207913702, 6.743217736371431], [3.435851072020218, 6.737407805778923], [3.439957925222424, 6.728651436622902], [3.4310936371005534, 6.720879808388339], [3.4391201457483476, 6.701564204214046], [3.438199120213705, 6.695180413103555], [3.433735443714092, 6.692274690635372], [3.4373540296880085, 6.6818522430998595], [3.4328944143105993, 6.67818319582398], [3.431144404148164, 6.685690389003754], [3.426111293104783, 6.6876888099719976], [3.422158524722783, 6.680713293312013], [3.425677497067221, 6.668533523856354], [3.420272064619945, 6.669880961606181], [3.4147042836058086, 6.666473722220503], [3.412467280789432, 6.669607150772191], [3.4115788822458213, 6.6864783178630445], [3.407472061451662, 6.6888522824675345], [3.4121777950389798, 6.697917711527599], [3.409181240371301, 6.702020239337487], [3.4097075768903817, 6.707642192738947], [3.404860719450424, 6.7107022249071075], [3.3915248252928176, 6.707083716788291], [3.3876367765610413, 6.6981323209491235], [3.3775845956100716, 6.70104135150631]], [[3.4476695715210535, 6.793855030427429], [3.454388028696463, 6.798709201998132], [3.45283943481892, 6.803597131409566], [3.445355489891507, 6.79837604622569], [3.4476695715210535, 6.793855030427429]]], [[[3.4439533562230964, 7.182601290540147], [3.4551318661375756, 7.199483413462443], [3.464180353651848, 7.1969403905647615], [3.4678890465775694, 7.193190091022467], [3.4677054055138097, 7.1897866175146286], [3.4583975264295934, 7.183028492275246], [3.450509018611168, 7.182326134341048], [3.449073015893057, 7.177129736457664], [3.4448327852779257, 7.178979870584704], [3.4439533562230964, 7.182601290540147]]], [[[3.4398091243567355, 7.209859567788526], [3.4422224865543165, 7.217447352677417], [3.452337111150566, 7.23173437084199], [3.459347132999194, 7.232675451292759], [3.461950177544944, 7.218176064550449], [3.44576511430371, 7.206289332686432], [3.4408846171253393, 7.206328890020192], [3.4398091243567355, 7.209859567788526]]]]}}, {"type": "Feature", "properties": {"threshold": 90}, "geometry": {"type": "MultiPolygon", "coordinates": [[[[3.8930381611729845, 6.935151924827202], [3.8954600045292462, 6.944402827102649], [3.9023174114143493, 6.952794608796078], [3.9005227100941826, 6.957503559115996], [3.896258497667357, 6.9587626641929115], [3.898417299563965, 6.966430051730072], [3.904811720963364, 6.966445294996917], [3.91002044284118, 6.960736752818454], [3.922533459511503, 6.958165199837122], [3.92501628973473, 6.96467799744856], [3.934128091636554, 6.965033849467698], [3.936421946417523, 6.972234267025905], [3.9467816737942116, 6.967876370023561], [3.9479321355926196, 6.959057899085534], [3.9545038308335476, 6.957541379271497], [3.9501138363597783, 6.9366546893554535], [3.945947459797573, 6.934789736966323], [3.9436577282513, 6.938574796555218], [3.9360035235623796, 6.941539235456989], [3.932971030226393, 6.939254405919804], [3.92931158280803, 6.927593591349002], [3.920070309642138, 6.924341149321119], [3.9181362398461044, 6.919878329174751], [3.9116673815496443, 6.920723737155866], [3.908467127572488, 6.925039937679719], [3.899582480273933, 6.928160483773151], [3.8948655574647835, 6.927496123579029], [3.8930381611729845, 6.935151924827202]]], [[[3.8459141966008463, 6.794262945078563], [3.8501694564312223, 6.8086359534008745], [3.8531226642739083, 6.810745903469853], [3.8573577610328265, 6.808892522031418], [3.858864588148262, 6.804845117410932], [3.8629756478419144, 6.805082254177972], [3.8670878567065867, 6.8082570622811005], [3.866254750558693, 6.814762248917047], [3.880041974259524, 6.819086629258089], [3.884875422861163, 6.818005718952997], [3.887020527753787, 6.811792339927653], [3.890742314020068, 6.812978368230115], [3.8902971789288245, 6.825888583399748], [3.884138982049336, 6.828543842073029], [3.881359025510652, 6.825023115048799], [3.877242615213531, 6.825030619345642], [3.876289874336632, 6.829185941451428], [3.8704508735972896, 6.830964195031424], [3.8660091000465595, 6.838115720454921], [3.8670298118788913, 6.84629917507774], [3.8750775719394097, 6.846932572198027], [3.879606320011353, 6.8533273385111455], [3.8782671664018076, 6.8606536894139385], [3.870198349106438, 6.860821943811192], [3.8719820837417513, 6.869478414585777], [3.879003579918511, 6.8764701435365225], [3.8879220056787998, 6.87033480986423], [3.9040813925581794, 6.870502239708065], [3.905068898869099, 6.853339943618472], [3.9199139757780856, 6.849853060613586], [3.9307903288958235, 6.8564433032572385], [3.9394471126903774, 6.856458185074259], [3.9459197007684246, 6.850180005804277], [3.9485018675647363, 6.844034279309971], [3.9469480209218557, 6.835372777132673], [3.95096749889351, 6.826537163170804], [3.9500820377520443, 6.816221058743041], [3.930481848647945, 6.800774730483728], [3.9119389397668387, 6.801202179013076], [3.8982654301703987, 6.7918349282891475], [3.896586783757351, 6.786115959233158], [3.8934756451560077, 6.78492385628772], [3.8887012945557333, 6.7851170230662445], [3.883016790017412, 6.79597489515416], [3.8771911648964577, 6.796709333632135], [3.8722073377078856, 6.801154313497341], [3.8633008260005752, 6.799771146176031], [3.8544738147137734, 6.787524823856076], [3.847871562669637, 6.786856080419003], [3.8459141966008463, 6.794262945078563]], [[3.8849777395370553, 6.8471074263695035], [3.890484905280481, 6.846007049082847], [3.896808219167269, 6.8536533768929475], [3.8923662070776643, 6.857507064441055], [3.886120035880709, 6.855392073678319], [3.8838129171792026, 6.852960382183234], [3.8849777395370553, 6.8471074263695035]]], [[[3.8491630585502463, 7.230222848302977], [3.8562537377261656, 7.235392319728232], [3.8571024404154595, 7.242145117867258], [3.8678184283839863, 7.243894882818869], [3.8724350472298754, 7.24188699961951], [3.8742682405379436, 7.23442043240226], [3.882126452012289, 7.23214358327111], [3.8849210232334106, 7.228535447455482], [3.8858418186710084, 7.219501984722337], [3.8714604108801636, 7.21980934014513], [3.8627027174728563, 7.226792732129293], [3.8539491603898384, 7.222341352450796], [3.8493341811401978, 7.22518200671187], [3.8491630585502463, 7.230222848302977]]], [[[3.768576769594036, 7.149877661899439], [3.770271159044314, 7.153212289584648], [3.7807676706765307, 7.154307285329661], [3.784930833780906, 7.158279482114315], [3.793775076408508, 7.157192232196437], [3.7964994015409075, 7.1473564421123665], [3.795149521153534, 7.143341379558616], [3.789462402356401, 7.144391501398895], [3.783905554347261, 7.141635464643175], [3.779834324809718, 7.144059219294471], [3.772756670872877, 7.1434142620611505], [3.76829362134871, 7.147024551530512], [3.768576769594036, 7.149877661899439]]], [[[3.752639766491737, 6.8333722362341645], [3.751951143449728, 6.836431405604025], [3.7621347476872935, 6.848257926705798], [3.7716391524125585, 6.848960716440263], [3.774301536286636, 6.842436962261763], [3.7681604262630426, 6.830305094362891], [3.760802680514032, 6.829311308781104], [3.752639766491737, 6.8333722362341645]]], [[[3.5716964583937325, 6.867276200717718], [3.576586550526901, 6.872826938870923], [3.5860341208954782, 6.872176550436612], [3.585274679995831, 6.881576750332028], [3.5934312181921304, 6.884500549768292], [3.59832092314385, 6.88336196450264], [3.5984767778781324, 6.879116925734663], [3.604688231311188, 6.872019601436185], [3.610973360620062, 6.87201350585944], [3.6134244469529007, 6.875312014209522], [3.620779178231887, 6.873417769155097], [3.6327437647269165, 6.879459015028881], [3.642241421402945, 6.87851232028078], [3.645528303599701, 6.873319983083925], [3.655250106280659, 6.880261752959854], [3.6617099645307025, 6.877381908956928], [3.6601726939076435, 6.87112646932358], [3.6626849066290528, 6.868644324414891], [3.6675262681530443, 6.869970155314448], [3.669196582727616, 6.880223491548404], [3.6723858004821746, 6.8800465670640705], [3.6740556540891736, 6.875219832612262], [3.6789832769641477, 6.872898962566285], [3.6870477244080377, 6.8736641549929995], [3.6905030407614285, 6.880020769347695], [3.6985797255591653, 6.883789680714978], [3.693662658709703, 6.901424245504833], [3.7013247394425646, 6.90398591388635], [3.7138166592437756, 6.915201262152428], [3.7192549578983676, 6.922558420390943], [3.7203081964001314, 6.936974822917194], [3.7234651700792414, 6.9392881602398555], [3.733614718638872, 6.933541850763632], [3.7333705476932377, 6.93037496190955], [3.722442121950055, 6.922692953359391], [3.7249070757190235, 6.912717493683937], [3.735365955512643, 6.904004962495828], [3.740505176529786, 6.913211562770348], [3.7455030291526987, 6.914244130885466], [3.751062477137282, 6.90444002498179], [3.750628818611888, 6.897715768644842], [3.7380604030106586, 6.8985858104785995], [3.7300361697690607, 6.894435398388048], [3.7273329865909637, 6.880300519141653], [3.7210199766339676, 6.88423212134936], [3.716202540585795, 6.883038170437581], [3.7187287796017823, 6.871368762022092], [3.730882653524917, 6.871450241989539], [3.73351657425736, 6.865215384658292], [3.7305703624030415, 6.862760525232605], [3.7227283034752143, 6.863377462323868], [3.7187473549884222, 6.860217084166622], [3.709174723167885, 6.8593785206490026], [3.702188984421632, 6.865799340007706], [3.688589664511958, 6.869930741843646], [3.6795533382199435, 6.866507154020794], [3.673056252688293, 6.860345604539052], [3.667471628780741, 6.859540109699023], [3.6652573517809737, 6.853885179956366], [3.668413108487724, 6.847438139076245], [3.6629239114012537, 6.846706025316847], [3.6615635582452932, 6.8438415472722705], [3.665934330865972, 6.837143304726908], [3.674148359826986, 6.831548490367744], [3.6775963080660183, 6.824580296630628], [3.676936640386244, 6.81944013882799], [3.670635065426507, 6.821957648142917], [3.667013560416853, 6.818640721636447], [3.6614554046367114, 6.819508832095369], [3.6308513578196706, 6.839138515304476], [3.6055790861138464, 6.848773071239961], [3.596954927387661, 6.856552019734642], [3.5977245453990396, 6.864021782405463], [3.5930349074732013, 6.869419990934824], [3.586792713077493, 6.868150258995671], [3.590149617009988, 6.861125378023915], [3.5868930126716947, 6.857865600728581], [3.572188863725945, 6.8646835171306995], [3.5716964583937325, 6.867276200717718]]], [[[3.7275954246194356, 6.805921339812011], [3.7281207068023745, 6.814282427256087], [3.7420100765563986, 6.811789707093358], [3.74669211440535, 6.804641800428895], [3.7467122717387156, 6.799918167779671], [3.7403178979910514, 6.795209619101315], [3.7323368102750436, 6.796054761728592], [3.7275954246194356, 6.805921339812011]]], [[[3.705647189870345, 7.10718953620454], [3.7049035095563774, 7.110628283343599], [3.711147622718265, 7.114218469131459], [3.7179332244430374, 7.111450144905172], [3.7281475891728246, 7.113390794216918], [3.7322128126382954, 7.103314037824565], [3.7302390799722174, 7.099424909485263], [3.7269688375238124, 7.09927738433146], [3.723863951873313, 7.1045455763870775], [3.717926388827018, 7.10704733622309], [3.7071186906762463, 7.101775327849489], [3.705647189870345, 7.10718953620454]]], [[[3.625455081684833, 6.938078872718066], [3.628017334437829, 6.947527154758954], [3.632614513173543, 6.950247265810869], [3.6432015277577086, 6.950145465424801], [3.654076356253007, 6.962944174432425], [3.6546691737502317, 6.969089236024095], [3.6629827917734197, 6.975068778493487], [3.663563390758236, 6.98790410680291], [3.652859155111833, 6.9993055167890255], [3.6531028713361953, 7.002472487931739], [3.65783790339909, 7.004639147900229], [3.658114658917093, 7.009129636655647], [3.664602360579757, 7.010635744474021], [3.6679457722334377, 7.01685901557431], [3.6719490547298057, 7.014745519105648], [3.6765462297565557, 7.001900472236162], [3.6859749621938724, 7.009297154869015], [3.6950268198412295, 7.0076783031393814], [3.7003321815202357, 7.011813758726921], [3.703478129817799, 7.009063917289104], [3.7036181387353353, 7.005586528195893], [3.6975660726020663, 6.9986811258827535], [3.6929222929544143, 7.00003566115853], [3.690490998143161, 6.997794975188562], [3.692020709909012, 6.992585463935863], [3.689952304035946, 6.988693325343026], [3.696040540285452, 6.9839588950860385], [3.6961708082264932, 6.980084182034115], [3.6886224883247274, 6.974708836890199], [3.6894733363739904, 6.9691842813158535], [3.686995272678336, 6.96465445123243], [3.6925695819040745, 6.9615984517787215], [3.692620249527803, 6.958818909011548], [3.687887212904257, 6.956027314987142], [3.6817667285425753, 6.958097122775023], [3.6752148131476887, 6.952713494854138], [3.670602476468578, 6.9537374691896305], [3.6688587391761285, 6.95862632218813], [3.6632379747601718, 6.962194686186851], [3.6579116046794176, 6.960723283077512], [3.6511156073647157, 6.949555383297806], [3.650170172552117, 6.941521000107205], [3.6464555078575267, 6.939037009358944], [3.642527089132394, 6.930034573544376], [3.6462507432300417, 6.925569239360702], [3.660366552926863, 6.929880681964697], [3.666622989589863, 6.939324180587728], [3.6741921958547157, 6.935801499584321], [3.6747801705657746, 6.931273102763192], [3.6818253203437386, 6.925598774217313], [3.683582172174058, 6.917646504210385], [3.6817084619457288, 6.907187798303135], [3.6717577161279036, 6.9027967440078655], [3.6749685711835425, 6.895474789489881], [3.6669557642905573, 6.891914865267773], [3.6546792436993827, 6.892949273308032], [3.649419690717397, 6.900021294890543], [3.647395266451529, 6.914315518014495], [3.637145595569096, 6.916352344962016], [3.635458715179475, 6.923216516045832], [3.6306823915114936, 6.923713070016066], [3.627011840775616, 6.92739076104661], [3.625455081684833, 6.938078872718066]]], [[[3.579487111697644, 6.804301948205303], [3.5874352336676387, 6.818686390193162], [3.595679866032255, 6.814283964700167], [3.601398370359826, 6.8059018769777495], [3.606173372624237, 6.814270911813983], [3.6156191081822358, 6.821103132103219], [3.6222332234137604, 6.821850977260313], [3.625077295053308, 6.814654869520644], [3.6210813584991053, 6.807019793576945], [3.6154564437759555, 6.813478117861858], [3.610512413893852, 6.811278098013477], [3.611574956961412, 6.802298869221361], [3.6032480496780033, 6.803188840301948], [3.6027308644453027, 6.79454752492226], [3.5805910863573596, 6.8012860828716555], [3.579487111697644, 6.804301948205303]]], [[[3.5160772575779906, 7.231915346640844], [3.525242098006932, 7.237727658621178], [3.5316417463363727, 7.238580700536589], [3.5363527730917657, 7.2267106153012035], [3.524938179261998, 7.22567446336515], [3.518627476703859, 7.222012634862578], [3.5160772575779906, 7.231915346640844]]], [[[3.49478119110445, 6.939476817700001], [3.4953596855309765, 6.945059444609534], [3.5001973555283508, 6.947120038815456], [3.4996411073725597, 6.954344188577549], [3.5066623486559436, 6.95954233926718], [3.5124918406885404, 6.958495654034841], [3.514399377564874, 6.952847081500756], [3.5126795179404726, 6.940173752798554], [3.5058175217202425, 6.937886116730151], [3.505794411926007, 6.9323377973562845], [3.497239248393864, 6.928911434919161], [3.49478119110445, 6.939476817700001]]], [[[3.3775845956100716, 6.70104135150631], [3.3767134939807986, 6.704270944119673], [3.38276035823989, 6.712745601795987], [3.3808645821959393, 6.720019235228022], [3.3863775103564584, 6.728617583549933], [3.3809792433623596, 6.733479101672414], [3.380878212238504, 6.737513527729139], [3.387939900323057, 6.7430003304053345], [3.386752145040423, 6.754246826224341], [3.396678390339842, 6.76549766679157], [3.3984084921397195, 6.799066896803033], [3.4033424728527395, 6.803297193435397], [3.4015088781794622, 6.813593632128917], [3.395109274347207, 6.816993993451314], [3.395940300742435, 6.824284899134064], [3.3884757717971494, 6.825253261990533], [3.3893171596999716, 6.835051507332929], [3.3980481279983468, 6.836249939719549], [3.400078289237533, 6.833973347493477], [3.399589807771749, 6.823920442151893], [3.4075854395147225, 6.822068373975709], [3.416126180467902, 6.827611640252959], [3.419563160450198, 6.835350098128933], [3.4238749651101754, 6.836542828868426], [3.424363398828173, 6.840926919124594], [3.428758238658545, 6.845013023932465], [3.4279127891858696, 6.852003820642524], [3.435550700163378, 6.850420060039318], [3.449599146006334, 6.856274498607396], [3.4542368214915933, 6.849079825648224], [3.4538941987847287, 6.840254420036723], [3.466695750658793, 6.832483601265688], [3.4626638604509514, 6.826325450236892], [3.46831496148307, 6.819226872968718], [3.4708999558234277, 6.809588178751407], [3.4645714171769564, 6.801164102128245], [3.4624102293508896, 6.789223361064659], [3.454512080379164, 6.78670480644557], [3.449845232266924, 6.772508691981077], [3.445281156038328, 6.770786431752248], [3.443806803567691, 6.78063641775417], [3.438760457499602, 6.782987119793199], [3.435426552217091, 6.777924097278056], [3.4391323848172624, 6.767729090358416], [3.4284587091280008, 6.76053582711536], [3.4283170330280885, 6.7568534895696555], [3.4382770987290363, 6.743373488777185], [3.4364448323415684, 6.736618846775908], [3.441654300604653, 6.726473047009479], [3.441216424258771, 6.723160883902604], [3.434864210215953, 6.724678731528896], [3.4316284733309836, 6.721123503002291], [3.4391320285715112, 6.701483618637908], [3.438199120213705, 6.695180413103555], [3.433735443714092, 6.692274690635372], [3.4373889288795625, 6.681925848037955], [3.4328944143105993, 6.67818319582398], [3.431144404148164, 6.685690389003754], [3.426111293104783, 6.6876888099719976], [3.425677497067221, 6.668533523856354], [3.4199969460744546, 6.669635792208213], [3.4147042836058086, 6.666473722220503], [3.412467280789432, 6.669607150772191], [3.4115788822458213, 6.6864783178630445], [3.407472061451662, 6.6888522824675345], [3.4111096524715236, 6.693057871914097], [3.410531083744578, 6.695978663748571], [3.4065103921020095, 6.6991199572700575], [3.392162988519087, 6.701171873313123], [3.3865601717718294, 6.698121216925304], [3.3775845956100716, 6.70104135150631]]], [[[3.4437639521102517, 7.182180138835974], [3.455058101280525, 7.199448660433314], [3.467856809808807, 7.195762867896628], [3.4677054055138097, 7.1897866175146286], [3.4491467766784347, 7.17716449075256], [3.4464993358033644, 7.177312173345117], [3.4437639521102517, 7.182180138835974]]], [[[3.4398091243567355, 7.209859567788526], [3.4422224865543165, 7.217447352677417], [3.4547951744569887, 7.235831683236264], [3.4601209133969357, 7.237721409355317], [3.4588274188141193, 7.226473129014643], [3.461998831614472, 7.21824144022259], [3.44576511430371, 7.206289332686432], [3.4408846171253393, 7.206328890020192], [3.4398091243567355, 7.209859567788526]]]]}}, {"type": "Feature", "properties": {"threshold": 95}, "geometry": {"type": "MultiPolygon", "coordinates": [[[[3.8930381611729845, 6.935151924827202], [3.8954600045292462, 6.944402827102649], [3.9023174114143493, 6.952794608796078], [3.9005227100941826, 6.957503559115996], [3.896258497667357, 6.9587626641929115], [3.898417299563965, 6.966430051730072], [3.904811720963364, 6.966445294996917], [3.91002044284118, 6.960736752818454], [3.922533459511503, 6.958165199837122], [3.92501628973473, 6.96467799744856], [3.934128091636554, 6.965033849467698], [3.936421946417523, 6.972234267025905], [3.9467816737942116, 6.967876370023561], [3.9479321355926196, 6.959057899085534], [3.9545038308335476, 6.957541379271497], [3.9501138363597783, 6.9366546893554535], [3.945947459797573, 6.934789736966323], [3.9436577282513, 6.938574796555218], [3.9360035235623796, 6.941539235456989], [3.932971030226393, 6.939254405919804], [3.92931158280803, 6.927593591349002], [3.920070309642138, 6.924341149321119], [3.9181362398461044, 6.919878329174751], [3.9116673815496443, 6.920723737155866], [3.908467127572488, 6.925039937679719], [3.899582480273933, 6.928160483773151], [3.8948655574647835, 6.927496123579029], [3.8930381611729845, 6.935151924827202]]], [[[3.8459141966008463, 6.794262945078563], [3.8501694564312223, 6.8086359534008745], [3.8531226642739083, 6.810745903469853], [3.8573577610328265, 6.808892522031418], [3.858864588148262, 6.804845117410932], [3.8629756478419144, 6.805082254177972], [3.8670878567065867, 6.8082570622811005], [3.866254750558693, 6.814762248917047], [3.880041974259524, 6.819086629258089], [3.884875422861163, 6.818005718952997], [3.887020527753787, 6.811792339927653], [3.890742314020068, 6.812978368230115], [3.8902971789288245, 6.825888583399748], [3.884138982049336, 6.828543842073029], [3.881359025510652, 6.825023115048799], [3.877242615213531, 6.825030619345642], [3.876289874336632, 6.829185941451428], [3.8704508735972896, 6.830964195031424], [3.8660091000465595, 6.838115720454921], [3.8670298118788913, 6.84629917507774], [3.8750775719394097, 6.846932572198027], [3.879606320011353, 6.8533273385111455], [3.8782671664018076, 6.8606536894139385], [3.870198349106438, 6.860821943811192], [3.8719820837417513, 6.869478414585777], [3.879003579918511, 6.8764701435365225], [3.8879220056787998, 6.87033480986423], [3.9040813925581794, 6.870502239708065], [3.905068898869099, 6.853339943618472], [3.9199139757780856, 6.849853060613586], [3.9307903288958235, 6.8564433032572385], [3.9394471126903774, 6.856458185074259], [3.9459197007684246, 6.850180005804277], [3.9485018675647363, 6.844034279309971], [3.9469480209218557, 6.835372777132673], [3.95096749889351, 6.826537163170804], [3.9500820377520443, 6.816221058743041], [3.930481848647945, 6.800774730483728], [3.9119389397668387, 6.801202179013076], [3.8982654301703987, 6.7918349282891475], [3.896586783757351, 6.786115959233158], [3.8934756451560077, 6.78492385628772], [3.8887012945557333, 6.7851170230662445], [3.883016790017412, 6.79597489515416], [3.8771911648964577, 6.796709333632135], [3.8722073377078856, 6.801154313497341], [3.8633008260005752, 6.799771146176031], [3.8544738147137734, 6.787524823856076], [3.847871562669637, 6.786856080419003], [3.8459141966008463, 6.794262945078563]], [[3.8849777395370553, 6.8471074263695035], [3.890484905280481, 6.846007049082847], [3.896808219167269, 6.8536533768929475], [3.8923662070776643, 6.857507064441055], [3.886120035880709, 6.855392073678319], [3.8838129171792026, 6.852960382183234], [3.8849777395370553, 6.8471074263695035]]], [[[3.8491630585502463, 7.230222848302977], [3.8562537377261656, 7.235392319728232], [3.8571024404154595, 7.242145117867258], [3.8678184283839863, 7.243894882818869], [3.8724350472298754, 7.24188699961951], [3.8742682405379436, 7.23442043240226], [3.882126452012289, 7.23214358327111], [3.8849210232334106, 7.228535447455482], [3.8858418186710084, 7.219501984722337], [3.8714604108801636, 7.21980934014513], [3.8627027174728563, 7.226792732129293], [3.8539491603898384, 7.222341352450796], [3.8493341811401978, 7.22518200671187], [3.8491630585502463, 7.230222848302977]]], [[[3.766670319123633, 7.141122913994921], [3.770271159044314, 7.153212289584648], [3.7807676706765307, 7.154307285329661], [3.783933936872264, 7.158281180906099], [3.794752555671403, 7.156161925960806], [3.795223297645845, 7.143376076624509], [3.789462402356401, 7.144391501398895], [3.784759537874421, 7.141627002579536], [3.7746867818165994, 7.1432570866790455], [3.7707193866138864, 7.138325711689591], [3.766670319123633, 7.141122913994921]]], [[[3.752639766491737, 6.8333722362341645], [3.751951143449728, 6.836431405604025], [3.7621347476872935, 6.848257926705798], [3.7716391524125585, 6.848960716440263], [3.774301536286636, 6.842436962261763], [3.7681604262630426, 6.830305094362891], [3.760802680514032, 6.829311308781104], [3.752639766491737, 6.8333722362341645]]], [[[3.5709908022148578, 6.868365452021401], [3.576586550526901, 6.872826938870923], [3.5860341208954782, 6.872176550436612], [3.5853166668366483, 6.8816465645299445], [3.593574019765532, 6.884507383219089], [3.59832092314385, 6.88336196450264], [3.5984767778781324, 6.879116925734663], [3.6048178284903245, 6.872009262359695], [3.610973360620062, 6.87201350585944], [3.6134244469529007, 6.875312014209522], [3.620779178231887, 6.873417769155097], [3.6327437647269165, 6.879459015028881], [3.642241421402945, 6.87851232028078], [3.645528303599701, 6.873319983083925], [3.655250106280659, 6.880261752959854], [3.6617099645307025, 6.877381908956928], [3.6601726939076435, 6.87112646932358], [3.6626849066290528, 6.868644324414891], [3.6675262681530443, 6.869970155314448], [3.669196582727616, 6.880223491548404], [3.6723858004821746, 6.8800465670640705], [3.6740556540891736, 6.875219832612262], [3.6789832769641477, 6.872898962566285], [3.6870477244080377, 6.8736641549929995], [3.6905030407614285, 6.880020769347695], [3.6985797255591653, 6.883789680714978], [3.693662658709703, 6.901424245504833], [3.7013247394425646, 6.90398591388635], [3.7138166592437756, 6.915201262152428], [3.7192549578983676, 6.922558420390943], [3.7203081964001314, 6.936974822917194], [3.7234651700792414, 6.9392881602398555], [3.733614718638872, 6.933541850763632], [3.7333705476932377, 6.93037496190955], [3.722442121950055, 6.922692953359391], [3.7249070757190235, 6.912717493683937], [3.735365955512643, 6.904004962495828], [3.740505176529786, 6.913211562770348], [3.7455030291526987, 6.914244130885466], [3.751062477137282, 6.90444002498179], [3.750628818611888, 6.897715768644842], [3.7380604030106586, 6.8985858104785995], [3.7300361697690607, 6.894435398388048], [3.7273329865909637, 6.880300519141653], [3.7210199766339676, 6.88423212134936], [3.716202540585795, 6.883038170437581], [3.7187287796017823, 6.871368762022092], [3.730882653524917, 6.871450241989539], [3.73351657425736, 6.865215384658292], [3.7305703624030415, 6.862760525232605], [3.7227283034752143, 6.863377462323868], [3.7187473549884222, 6.860217084166622], [3.709174723167885, 6.8593785206490026], [3.702188984421632, 6.865799340007706], [3.688589664511958, 6.869930741843646], [3.667175865953333, 6.857230656304124], [3.6652810649281213, 6.85364108166425], [3.668413108487724, 6.847438139076245], [3.6629239114012537, 6.846706025316847], [3.6615635582452932, 6.8438415472722705], [3.674148359826986, 6.831548490367744], [3.6775963080660183, 6.824580296630628], [3.676936640386244, 6.81944013882799], [3.670635065426507, 6.821957648142917], [3.667013560416853, 6.818640721636447], [3.6614554046367114, 6.819508832095369], [3.6308513578196706, 6.839138515304476], [3.6055790861138464, 6.848773071239961], [3.596954927387661, 6.856552019734642], [3.59752150251063, 6.863137717937721], [3.5930349074732013, 6.869419990934824], [3.5866120603954, 6.867683907720541], [3.5899006605998993, 6.858934057017366], [3.580080221120826, 6.856200802304277], [3.5709908022148578, 6.868365452021401]]], [[[3.7275954246194356, 6.805921339812011], [3.7281207068023745, 6.814282427256087], [3.7420100765563986, 6.811789707093358], [3.74669211440535, 6.804641800428895], [3.7467122717387156, 6.799918167779671], [3.7403178979910514, 6.795209619101315], [3.7323368102750436, 6.796054761728592], [3.7275954246194356, 6.805921339812011]]], [[[3.705647189870345, 7.10718953620454], [3.7049035095563774, 7.110628283343599], [3.711147622718265, 7.114218469131459], [3.7179332244430374, 7.111450144905172], [3.7281475891728246, 7.113390794216918], [3.7322128126382954, 7.103314037824565], [3.7302390799722174, 7.099424909485263], [3.7269688375238124, 7.09927738433146], [3.723863951873313, 7.1045455763870775], [3.717926388827018, 7.10704733622309], [3.7071186906762463, 7.101775327849489], [3.705647189870345, 7.10718953620454]]], [[[3.625455081684833, 6.938078872718066], [3.628017334437829, 6.947527154758954], [3.632614513173543, 6.950247265810869], [3.6432015277577086, 6.950145465424801], [3.654076356253007, 6.962944174432425], [3.6546691737502317, 6.969089236024095], [3.6629827917734197, 6.975068778493487], [3.663563390758236, 6.98790410680291], [3.652859155111833, 6.9993055167890255], [3.6531028713361953, 7.002472487931739], [3.65783790339909, 7.004639147900229], [3.658114658917093, 7.009129636655647], [3.664602360579757, 7.010635744474021], [3.6679457722334377, 7.01685901557431], [3.6719490547298057, 7.014745519105648], [3.6765462297565557, 7.001900472236162], [3.6859749621938724, 7.009297154869015], [3.6950268198412295, 7.0076783031393814], [3.7003321815202357, 7.011813758726921], [3.703478129817799, 7.009063917289104], [3.7036181387353353, 7.005586528195893], [3.6975660726020663, 6.9986811258827535], [3.6929222929544143, 7.00003566115853], [3.690490998143161, 6.997794975188562], [3.692020709909012, 6.992585463935863], [3.689952304035946, 6.988693325343026], [3.696040540285452, 6.9839588950860385], [3.6961708082264932, 6.980084182034115], [3.6886224883247274, 6.974708836890199], [3.6894733363739904, 6.9691842813158535], [3.686995272678336, 6.96465445123243], [3.6925695819040745, 6.9615984517787215], [3.692620249527803, 6.958818909011548], [3.687887212904257, 6.956027314987142], [3.6817667285425753, 6.958097122775023], [3.6752148131476887, 6.952713494854138], [3.670602476468578, 6.9537374691896305], [3.6688587391761285, 6.95862632218813], [3.6632379747601718, 6.962194686186851], [3.6579116046794176, 6.960723283077512], [3.6511156073647157, 6.949555383297806], [3.650170172552117, 6.941521000107205], [3.6464555078575267, 6.939037009358944], [3.642527089132394, 6.930034573544376], [3.6462507432300417, 6.925569239360702], [3.660366552926863, 6.929880681964697], [3.666622989589863, 6.939324180587728], [3.6741921958547157, 6.935801499584321], [3.6747801705657746, 6.931273102763192], [3.6818253203437386, 6.925598774217313], [3.683582172174058, 6.917646504210385], [3.6817084619457288, 6.907187798303135], [3.6717577161279036, 6.9027967440078655], [3.6749685711835425, 6.895474789489881], [3.6669557642905573, 6.891914865267773], [3.6546792436993827, 6.892949273308032], [3.649419690717397, 6.900021294890543], [3.647395266451529, 6.914315518014495], [3.637145595569096, 6.916352344962016], [3.635458715179475, 6.923216516045832], [3.6306823915114936, 6.923713070016066], [3.627011840775616, 6.92739076104661], [3.625455081684833, 6.938078872718066]]], [[[3.579487111697644, 6.804301948205303], [3.5874352336676387, 6.818686390193162], [3.595679866032255, 6.814283964700167], [3.601398370359826, 6.8059018769777495], [3.606173372624237, 6.814270911813983], [3.6156191081822358, 6.821103132103219], [3.6222332234137604, 6.821850977260313], [3.625077295053308, 6.814654869520644], [3.6210813584991053, 6.807019793576945], [3.6154564437759555, 6.813478117861858], [3.610512413893852, 6.811278098013477], [3.611574956961412, 6.802298869221361], [3.6032480496780033, 6.803188840301948], [3.6027308644453027, 6.79454752492226], [3.5805910863573596, 6.8012860828716555], [3.579487111697644, 6.804301948205303]]], [[[3.5627913079491385, 6.89579501646517], [3.5619971435714177, 6.898335230725912], [3.5678277272676726, 6.902799020321785], [3.566045406016875, 6.912112251213974], [3.569057734437091, 6.914460211586438], [3.5748385286317363, 6.914376567004728], [3.576769724591705, 6.908584837916839], [3.5851348556115243, 6.9039951506394095], [3.583382855151017, 6.897387305776254], [3.579673450150023, 6.895420055480987], [3.5685785954755724, 6.893701130810165], [3.5627913079491385, 6.89579501646517]]], [[[3.5160772575779906, 7.231915346640844], [3.525242098006932, 7.237727658621178], [3.5316417463363727, 7.238580700536589], [3.5363527730917657, 7.2267106153012035], [3.524938179261998, 7.22567446336515], [3.518627476703859, 7.222012634862578], [3.5160772575779906, 7.231915346640844]]], [[[3.5053013468086873, 6.792722475948377], [3.5139185313755448, 6.801229075695597], [3.5223221739464723, 6.799374064516472], [3.5239606968176322, 6.7732071335297315], [3.512375873022557, 6.771326231841334], [3.5069560267811237, 6.776557356131776], [3.5053013468086873, 6.792722475948377]]], [[[3.4972381888633413, 6.957438161600689], [3.5018342932125806, 6.963643226483682], [3.5086594845784105, 6.966236259833274], [3.5112854613146873, 6.959545796856872], [3.519396388949902, 6.9546504126145345], [3.5137842997281172, 6.945932378653249], [3.513409613225485, 6.940785809511162], [3.5058175217202425, 6.937886116730151], [3.5059747555222134, 6.9326068855586716], [3.5011138823808063, 6.92627235097001], [3.4953439219584412, 6.9299754612482465], [3.493547995000893, 6.937021454637502], [3.4944831725578407, 6.944157450760149], [3.500173996461805, 6.948270904874243], [3.4972381888633413, 6.957438161600689]]], [[[3.3775845956100716, 6.70104135150631], [3.3767134939807986, 6.704270944119673], [3.3817716476874007, 6.712054229520455], [3.3808645821959393, 6.720019235228022], [3.3863775103564584, 6.728617583549933], [3.3809792433623596, 6.733479101672414], [3.380878212238504, 6.737513527729139], [3.3873894160431806, 6.746187936535607], [3.3884583834225315, 6.760150527824273], [3.396822110849721, 6.7662168683772945], [3.390436901359253, 6.779812924065018], [3.3828486666664013, 6.783280807162613], [3.3825834994676796, 6.786662780089874], [3.385640370690857, 6.790545952114249], [3.392070230749693, 6.7881314450677035], [3.3966876036276643, 6.790354529620064], [3.396823938561571, 6.799297544621838], [3.4033424728527395, 6.803297193435397], [3.3993304322717086, 6.806843501299634], [3.398417631882338, 6.811697700447763], [3.390966713494081, 6.81358843738618], [3.3932264421928293, 6.822788109114359], [3.387183602803866, 6.824006853287089], [3.3850842141097472, 6.827158383893464], [3.3887398364929644, 6.832376801805277], [3.387728396471537, 6.836862407922872], [3.390859637036407, 6.83889790129257], [3.4008963438772315, 6.836736627522265], [3.401031235293454, 6.847611376463727], [3.4079477925675437, 6.848478900009428], [3.4124454084624283, 6.857188135758434], [3.4150877275636087, 6.855700645916306], [3.4144659118385476, 6.843723010577899], [3.4193850978500744, 6.842099264404303], [3.4258631460221753, 6.844816867778199], [3.423204269641907, 6.85965814127269], [3.4313384843681622, 6.8595886314958445], [3.436172586648904, 6.852238889349746], [3.4446226959594815, 6.852943375053513], [3.45544908865849, 6.860512752310523], [3.457937450645846, 6.8595988178300455], [3.467768286136962, 6.842983560777922], [3.470866905297, 6.845477635282178], [3.467659131525177, 6.849124699942078], [3.4694760859807774, 6.855182145197531], [3.4789172001168946, 6.857835545258805], [3.4792154172622927, 6.850163081941935], [3.4746654769500607, 6.847310667501289], [3.477498603796397, 6.835096293827556], [3.467039077653404, 6.836813698159163], [3.466694327213372, 6.831015271379518], [3.463478102429711, 6.827160230548888], [3.4709071089714234, 6.809730880203831], [3.4644773033588994, 6.800937606200345], [3.462452190082609, 6.789293188182162], [3.4547847588203653, 6.787111904847544], [3.452473910634566, 6.776047393327489], [3.447775880273781, 6.770576768564517], [3.4433825562300164, 6.7726956603509425], [3.4435152023362576, 6.781030192775002], [3.4371003378227134, 6.781594713473703], [3.4354503818843916, 6.7776800004915225], [3.4391323848172624, 6.767729090358416], [3.428403034437809, 6.760305964661007], [3.4303959583457493, 6.753405917127071], [3.433992835260367, 6.751916807123523], [3.4382770987290363, 6.743373488777185], [3.4364448323415684, 6.736618846775908], [3.441654300604653, 6.726473047009479], [3.441216424258771, 6.723160883902604], [3.434864210215953, 6.724678731528896], [3.431652734502628, 6.7213675577032435], [3.4391320285715112, 6.701483618637908], [3.438199120213705, 6.695180413103555], [3.4337593187111866, 6.692519310187284], [3.4374388194009855, 6.684904554764786], [3.4364773907538906, 6.680117037052945], [3.432824570731462, 6.6782251342817895], [3.431144404148164, 6.685690389003754], [3.426111293104783, 6.6876888099719976], [3.425677497067221, 6.668533523856354], [3.4199969460744546, 6.669635792208213], [3.4147042836058086, 6.666473722220503], [3.412467280789432, 6.669607150772191], [3.4115788822458213, 6.6864783178630445], [3.407472061451662, 6.6888522824675345], [3.4111096524715236, 6.693057871914097], [3.410531083744578, 6.695978663748571], [3.4065103921020095, 6.6991199572700575], [3.392162988519087, 6.701171873313123], [3.3865601717718294, 6.698121216925304], [3.3775845956100716, 6.70104135150631]]], [[[3.4437639521102517, 7.182180138835974], [3.455058101280525, 7.199448660433314], [3.467856809808807, 7.195762867896628], [3.4677054055138097, 7.1897866175146286], [3.4491467766784347, 7.17716449075256], [3.4464993358033644, 7.177312173345117], [3.4437639521102517, 7.182180138835974]]], [[[3.4398091243567355, 7.209859567788526], [3.451454273734765, 7.2316698212231225], [3.461792688787053, 7.241051860001743], [3.4629777506622794, 7.238532518136151], [3.4588033051262412, 7.2271987039589], [3.461998831614472, 7.21824144022259], [3.44576511430371, 7.206289332686432], [3.4408846171253393, 7.206328890020192], [3.4398091243567355, 7.209859567788526]]]]}}]}