{"type": "FeatureCollection", "features": [{"type": "Feature", "properties": {"threshold": 70}, "geometry": {"type": "MultiPolygon", "coordinates": [[[[33.8168677386637, 27.156530673347227], [33.82337526088441, 27.171289605877593], [33.82303981366949, 27.189833844036112], [33.82826628045186, 27.191243622794097], [33.82980927313841, 27.196567026817082], [33.84132696529858, 27.196464870165975], [33.83528249799747, 27.18413253261365], [33.83011772164201, 27.181183740470296], [33.82902720049509, 27.167390104255187], [33.831637245156344, 27.157993546384933], [33.8246751276334, 27.153529248841586], [33.82267099848035, 27.13924957787685], [33.8270808967667, 27.133074889410636], [33.83235181505344, 27.13177476233618], [33.82866050119785, 27.117684096923988], [33.82865044755021, 27.098556733867696], [33.831753936993536, 27.097122562053656], [33.84522918708239, 27.10017787509919], [33.854420360632034, 27.093324990526906], [33.855297605787996, 27.08812318732472], [33.852037019371615, 27.082752129715168], [33.84679853541617, 27.082817287618916], [33.8443193442049, 27.087541866197554], [33.83795959454812, 27.087645618098385], [33.8344735633751, 27.091483335934093], [33.83180073105781, 27.089907668052266], [33.831610332581974, 27.08455120152857], [33.82223466831749, 27.084964743897604], [33.82373872825725, 27.09518107074274], [33.8205264112514, 27.106059784973777], [33.823290579340195, 27.10864978210984], [33.823393741064876, 27.115036275099225], [33.817050554027695, 27.119685927128295], [33.81996802814832, 27.13671582973219], [33.816300376578546, 27.139727208529845], [33.8168677386637, 27.156530673347227]]], [[[33.793869489185965, 27.257166226126714], [33.79314739041415, 27.265411380986343], [33.80189402432987, 27.26811698582361], [33.80778329610341, 27.26799266635448], [33.81088450501204, 27.26337473623033], [33.82185703158689, 27.26398236376478], [33.83483833786227, 27.25967968207415], [33.84225522035191, 27.24966712272891], [33.84736050131701, 27.247524478808028], [33.84747092168019, 27.24430723306602], [33.835870475841375, 27.239384661922216], [33.83338205172374, 27.233236132855552], [33.825691176669636, 27.235006675033542], [33.821079760462105, 27.23268189202773], [33.82059827975583, 27.229487965168186], [33.824981276332245, 27.226366483460097], [33.833673466864695, 27.22827015375058], [33.834628100842984, 27.232107358988213], [33.84803089043818, 27.234006284583963], [33.848220184994936, 27.229805556019095], [33.84279442550039, 27.224486531209052], [33.84789267535354, 27.207178343802113], [33.84092963903178, 27.211681796911613], [33.818220139691945, 27.21603125958099], [33.81659656542904, 27.2225845163942], [33.80568694672836, 27.22215407112467], [33.802764277595365, 27.216060753488275], [33.7974040842484, 27.217893808393505], [33.79725089471853, 27.22357376540856], [33.800439383686566, 27.225287885439773], [33.80094347033143, 27.232131903358752], [33.804686128878416, 27.23278352085536], [33.80532689451609, 27.236281116196547], [33.800738342490945, 27.23829312994217], [33.794145604955055, 27.231437970088404], [33.788375061356895, 27.230956643880543], [33.788432735775395, 27.24446184585219], [33.797450938500766, 27.24858577145979], [33.793869489185965, 27.257166226126714]]], [[[33.723398495677905, 27.30341971908045], [33.72255635390197, 27.305867127054395], [33.72696715008761, 27.307805001712854], [33.73441494488061, 27.306900922232458], [33.73892118972857, 27.30297690219784], [33.74883266875046, 27.304386540610228], [33.75410640404492, 27.295482444124318], [33.76236386408267, 27.293807411289542], [33.780274521792535, 27.28003112428728], [33.78040738016524, 27.276684879869983], [33.77430015722549, 27.2730946722174], [33.7638675419656, 27.275687152291752], [33.75908346271406, 27.280078908519265], [33.76080661617516, 27.286984897629154], [33.75676657293155, 27.29080535046276], [33.750334817468065, 27.28967174736896], [33.73872661248439, 27.280557169724162], [33.73078781094931, 27.2806323722142], [33.72240218578024, 27.289018454877958], [33.72237018599273, 27.294435688648175], [33.7305632085787, 27.294162268857793], [33.73690395503381, 27.29969330749856], [33.723398495677905, 27.30341971908045]]], [[[33.65654105698569, 27.413944361608337], [33.66491320991563, 27.415492195538892], [33.666494261167905, 27.41214125679396], [33.66546352709924, 27.41002275663087], [33.65644853248537, 27.40995855968031], [33.65654105698569, 27.413944361608337]]], [[[33.66842243922863, 27.4073538851988], [33.67788307169871, 27.4160652819887], [33.677632120331005, 27.4028374159214], [33.685043366652394, 27.40155138905235], [33.68883524044726, 27.39223025492944], [33.6886913752485, 27.38536456275953], [33.68395680649679, 27.38285555427297], [33.68304217627931, 27.37873977172362], [33.67713369323032, 27.37756887553162], [33.67262288392505, 27.368193917492423], [33.6654231217911, 27.378562453760164], [33.664653708193356, 27.389369024625488], [33.67215983088612, 27.3936797600869], [33.668244440463326, 27.397706574441532], [33.66842243922863, 27.4073538851988]]], [[[33.656432587669684, 27.358250179185077], [33.655612184255816, 27.364704425262563], [33.66314721671153, 27.366492093291168], [33.66513001979106, 27.356558882985293], [33.65970771690382, 27.353840638934223], [33.656432587669684, 27.358250179185077]]]]}}, {"type": "Feature", "properties": {"threshold": 80}, "geometry": {"type": "MultiPolygon", "coordinates": [[[[33.79153997857992, 27.24494018353307], [33.797475451365, 27.24881447155231], [33.7938268562663, 27.25358756985645], [33.79314739041415, 27.265411380986343], [33.80745029646852, 27.268085036120976], [33.81088450501204, 27.26337473623033], [33.832922068311674, 27.261393330400065], [33.85106675021989, 27.241616989054293], [33.84825820279391, 27.22987616903769], [33.84279620173461, 27.224722476121144], [33.847886610105284, 27.206376915899316], [33.84118468466778, 27.211595503611164], [33.82910892829713, 27.21190001474527], [33.82558979934357, 27.215463705072832], [33.82093789960309, 27.212632830780745], [33.82619016970052, 27.201689023570022], [33.833769186352576, 27.196995533778917], [33.84278937252183, 27.1997591431299], [33.847167428275654, 27.19748414836467], [33.83019597903108, 27.18140907438599], [33.82902720049509, 27.167390104255187], [33.83165067392947, 27.158070986161395], [33.82363124297051, 27.145736795315404], [33.82345331404139, 27.138856538279306], [33.8270808967667, 27.133074889410636], [33.83235181505344, 27.13177476233618], [33.82866050119785, 27.117684096923988], [33.83129668604178, 27.109202385172818], [33.82865044755021, 27.098556733867696], [33.831753936993536, 27.097122562053656], [33.84522918708239, 27.10017787509919], [33.854420360632034, 27.093324990526906], [33.85437180596674, 27.084121432377884], [33.85195438909148, 27.08272622887542], [33.84679853541617, 27.082817287618916], [33.83483723505415, 27.091258837287118], [33.831534940823325, 27.084511357824386], [33.82220571209933, 27.085038700908783], [33.82373872825725, 27.09518107074274], [33.820532255384954, 27.106861229686718], [33.823393741064876, 27.115036275099225], [33.81706284113049, 27.11960833537874], [33.816243302136726, 27.131869327629907], [33.81864419702073, 27.13609238331597], [33.8162945543682, 27.138925766718856], [33.81640947139557, 27.1557753174675], [33.820929423591195, 27.16328102352282], [33.821179327377116, 27.189700122574106], [33.82733852368092, 27.191580814309184], [33.82833178686829, 27.19486220550225], [33.82137450388545, 27.201045538102083], [33.81747707517222, 27.21117178789355], [33.812448197261034, 27.212385338910092], [33.81325794653821, 27.220445291397017], [33.807014089563204, 27.221100818351463], [33.801197612740296, 27.214566979712668], [33.797271042851385, 27.214809700595914], [33.797220837619314, 27.223500149356394], [33.800439383686566, 27.225287885439773], [33.80094347033143, 27.232131903358752], [33.804686128878416, 27.23278352085536], [33.80528984280532, 27.236514731843148], [33.800738342490945, 27.23829312994217], [33.79893359470043, 27.234410471264702], [33.78866456855221, 27.230667470740983], [33.7883808394154, 27.244312332550475], [33.79153997857992, 27.24494018353307]], [[33.83561788441362, 27.236956640465955], [33.836563386300035, 27.232839513395607], [33.84312556366784, 27.234156200471013], [33.839594131754815, 27.239852765030435], [33.83561788441362, 27.236956640465955]], [[33.82293237863462, 27.23372855959671], [33.82117769292796, 27.22877564321815], [33.82760015176574, 27.228289599073694], [33.82921042861613, 27.233456685928594], [33.82293237863462, 27.23372855959671]]], [[[33.723398495677905, 27.30341971908045], [33.72255635390197, 27.305867127054395], [33.72696715008761, 27.307805001712854], [33.73441494488061, 27.306900922232458], [33.73892118972857, 27.30297690219784], [33.74883266875046, 27.304386540610228], [33.75452289510078, 27.29553979699925], [33.76236386408267, 27.293807411289542], [33.780274521792535, 27.28003112428728], [33.78040738016524, 27.276684879869983], [33.77430015722549, 27.2730946722174], [33.7638675419656, 27.275687152291752], [33.75908346271406, 27.280078908519265], [33.76080661617516, 27.286984897629154], [33.75676657293155, 27.29080535046276], [33.74534824500043, 27.2864246806142], [33.73872661248439, 27.280557169724162], [33.73078781094931, 27.2806323722142], [33.72240218578024, 27.289018454877958], [33.72237018599273, 27.294435688648175], [33.7305632085787, 27.294162268857793], [33.73690395503381, 27.29969330749856], [33.723398495677905, 27.30341971908045]]], [[[33.655794093273045, 27.385612299667237], [33.65705025490334, 27.388234289853017], [33.66285509466147, 27.38785646878297], [33.66882145856301, 27.396194576064996], [33.666455407885344, 27.400998501468774], [33.66806555729116, 27.40886355768596], [33.6562809480761, 27.410004791144747], [33.65590056227786, 27.413592399117363], [33.677812824235595, 27.416112306719835], [33.67753228162018, 27.40305589485113], [33.685198612220894, 27.40136239789722], [33.68864582653344, 27.385297569898725], [33.68395680649679, 27.38285555427297], [33.68304217627931, 27.37873977172362], [33.67713369323032, 27.37756887553162], [33.67170360262286, 27.368191598894267], [33.667261210765965, 27.377170177761645], [33.655758070585286, 27.38058426675593], [33.655794093273045, 27.385612299667237]]], [[[33.656432587669684, 27.358250179185077], [33.655612184255816, 27.364704425262563], [33.66314721671153, 27.366492093291168], [33.66513001979106, 27.356558882985293], [33.65970771690382, 27.353840638934223], [33.656432587669684, 27.358250179185077]]]]}}, {"type": "Feature", "properties": {"threshold": 90}, "geometry": {"type": "MultiPolygon", "coordinates": [[[[33.793869489185965, 27.257166226126714], [33.79314739041415, 27.265411380986343], [33.801807196608856, 27.268105984462203], [33.80778329610341, 27.26799266635448], [33.81114937176338, 27.263311424715962], [33.83000135065867, 27.262312337753357], [33.85106675021989, 27.241616989054293], [33.84825820279391, 27.22987616903769], [33.84279442550039, 27.224486531209052], [33.84374636536424, 27.216438908795517], [33.85168296814676, 27.201953990423387], [33.847478916379806, 27.200597480066847], [33.846964762425245, 27.195220044417887], [33.841700798180774, 27.19437015190388], [33.83522982947671, 27.184069900759063], [33.83029855677364, 27.181626463314974], [33.82902720049509, 27.167390104255187], [33.83168111433458, 27.163915173244916], [33.833357796502746, 27.148365672898358], [33.824704319084475, 27.146564414656925], [33.82336769013651, 27.14285212913759], [33.826555139548645, 27.1336008042144], [33.83235181505344, 27.13177476233618], [33.82866050119785, 27.117684096923988], [33.83129668604178, 27.109202385172818], [33.82865044755021, 27.098556733867696], [33.831753936993536, 27.097122562053656], [33.84522918708239, 27.10017787509919], [33.854420360632034, 27.093324990526906], [33.85437180596674, 27.084121432377884], [33.85195438909148, 27.08272622887542], [33.84679853541617, 27.082817287618916], [33.835077719808915, 27.09078620798551], [33.8323744403899, 27.08956679046384], [33.831534940823325, 27.084511357824386], [33.82220571209933, 27.085038700908783], [33.823714606880166, 27.095416037099998], [33.81965507293113, 27.10938883704207], [33.82147001413476, 27.114669762854955], [33.81708356848436, 27.11953219482286], [33.81621816519718, 27.129445795074858], [33.81641800980038, 27.155912566934738], [33.820929423591195, 27.16328102352282], [33.82121311079152, 27.20203182034855], [33.817291685119095, 27.211339715912352], [33.80971623656991, 27.211670526900793], [33.81403841143522, 27.217134698312748], [33.812952022888496, 27.22061504524263], [33.79718378236592, 27.214146789929494], [33.797220837619314, 27.223500149356394], [33.80056117251903, 27.225506037200518], [33.80094347033143, 27.232131903358752], [33.80515652033016, 27.233374175642368], [33.80456255741618, 27.23775000342512], [33.800738342490945, 27.23829312994217], [33.794145604955055, 27.231437970088404], [33.78833807855159, 27.231027695650923], [33.788432735775395, 27.24446184585219], [33.797450938500766, 27.24858577145979], [33.793869489185965, 27.257166226126714]], [[33.82674864191916, 27.20706504660239], [33.8288297638793, 27.20153142589836], [33.8337602265691, 27.198263215745094], [33.84659568278752, 27.20314428834278], [33.84195430458334, 27.209065360766704], [33.832045366941735, 27.21179231439833], [33.82482154374767, 27.211461674470463], [33.82674864191916, 27.20706504660239]]], [[[33.82644916241713, 27.07322058779272], [33.83345049719307, 27.072945294318668], [33.83695777989453, 27.062978804997584], [33.831220322325656, 27.063012828194665], [33.82571046193363, 27.070517704659263], [33.82644916241713, 27.07322058779272]]], [[[33.723398495677905, 27.30341971908045], [33.72255635390197, 27.305867127054395], [33.72696715008761, 27.307805001712854], [33.73441494488061, 27.306900922232458], [33.73892118972857, 27.30297690219784], [33.74883266875046, 27.304386540610228], [33.75452289510078, 27.29553979699925], [33.76236386408267, 27.293807411289542], [33.780274521792535, 27.28003112428728], [33.78040738016524, 27.276684879869983], [33.77430015722549, 27.2730946722174], [33.7638675419656, 27.275687152291752], [33.75908346271406, 27.280078908519265], [33.76080661617516, 27.286984897629154], [33.75676657293155, 27.29080535046276], [33.75325212097674, 27.28976650295965], [33.75220802516617, 27.284492665093776], [33.746360299131766, 27.286813784310077], [33.73872661248439, 27.280557169724162], [33.73078781094931, 27.2806323722142], [33.72240218578024, 27.289018454877958], [33.72237018599273, 27.294435688648175], [33.7305632085787, 27.294162268857793], [33.73690395503381, 27.29969330749856], [33.723398495677905, 27.30341971908045]]], [[[33.655794093273045, 27.385612299667237], [33.65705025490334, 27.388234289853017], [33.66334768776334, 27.38842683137772], [33.66375669676192, 27.398039584551576], [33.66840017826023, 27.407602395631297], [33.666377293571955, 27.40982642556814], [33.65620176754012, 27.410038670159462], [33.65590056227786, 27.413592399117363], [33.677812824235595, 27.416112306719835], [33.67753228162018, 27.40305589485113], [33.685198612220894, 27.40136239789722], [33.68864582653344, 27.385297569898725], [33.68395680649679, 27.38285555427297], [33.68304217627931, 27.37873977172362], [33.67713369323032, 27.37756887553162], [33.67170360262286, 27.368191598894267], [33.66705478040086, 27.377329812627536], [33.655753345044594, 27.37978282337213], [33.655794093273045, 27.385612299667237]]], [[[33.656432587669684, 27.358250179185077], [33.65572412812436, 27.364824911337436], [33.66507270871179, 27.36558215550051], [33.66501807398324, 27.35643840387906], [33.65970771690382, 27.353840638934223], [33.656432587669684, 27.358250179185077]]]]}}, {"type": "Feature", "properties": {"threshold": 95}, "geometry": {"type": "MultiPolygon", "coordinates": [[[[33.8885845332338, 27.047896284616662], [33.89521763912828, 27.049303971858784], [33.89785572448349, 27.054333466369823], [33.905139546294876, 27.05045345852017], [33.90349128297084, 27.043914700810067], [33.89495554449309, 27.0463452534011], [33.8887442554474, 27.04482912968766], [33.8885845332338, 27.047896284616662]]], [[[33.793869489185965, 27.257166226126714], [33.79314739041415, 27.265411380986343], [33.801807196608856, 27.268105984462203], [33.80778329610341, 27.26799266635448], [33.81114937176338, 27.263311424715962], [33.83000135065867, 27.262312337753357], [33.85106675021989, 27.241616989054293], [33.84825820279391, 27.22987616903769], [33.84279442550039, 27.224486531209052], [33.84569186383074, 27.212052731172836], [33.85346948121907, 27.20114165947766], [33.8512628389497, 27.19663956341549], [33.841700798180774, 27.19437015190388], [33.83522982947671, 27.184069900759063], [33.83029855677364, 27.181626463314974], [33.82902720049509, 27.167390104255187], [33.83168111433458, 27.163915173244916], [33.833357796502746, 27.148365672898358], [33.824704319084475, 27.146564414656925], [33.82336769013651, 27.14285212913759], [33.826555139548645, 27.1336008042144], [33.83235181505344, 27.13177476233618], [33.82866050119785, 27.117684096923988], [33.83129668604178, 27.109202385172818], [33.82865044755021, 27.098556733867696], [33.831753936993536, 27.097122562053656], [33.84522918708239, 27.10017787509919], [33.854420360632034, 27.093324990526906], [33.85437180596674, 27.084121432377884], [33.85195438909148, 27.08272622887542], [33.84679853541617, 27.082817287618916], [33.835077719808915, 27.09078620798551], [33.8323744403899, 27.08956679046384], [33.831534940823325, 27.084511357824386], [33.82220571209933, 27.085038700908783], [33.823714606880166, 27.095416037099998], [33.81965507293113, 27.10938883704207], [33.82147001413476, 27.114669762854955], [33.81708356848436, 27.11953219482286], [33.81621816519718, 27.129445795074858], [33.81641800980038, 27.155912566934738], [33.820929423591195, 27.16328102352282], [33.82121311079152, 27.20203182034855], [33.817088776289815, 27.211490589181263], [33.80970465064799, 27.210067656809155], [33.80977022989035, 27.213955192793357], [33.81411666385435, 27.217360040287158], [33.812952022888496, 27.22061504524263], [33.79718378236592, 27.214146789929494], [33.797220837619314, 27.223500149356394], [33.80056117251903, 27.225506037200518], [33.80094347033143, 27.232131903358752], [33.80515652033016, 27.233374175642368], [33.80456255741618, 27.23775000342512], [33.800738342490945, 27.23829312994217], [33.794145604955055, 27.231437970088404], [33.78833807855159, 27.231027695650923], [33.788432735775395, 27.24446184585219], [33.797450938500766, 27.24858577145979], [33.793869489185965, 27.257166226126714]], [[33.82543021096488, 27.207687260069992], [33.828279561747976, 27.206701028525465], [33.829666166806966, 27.201802944072536], [33.835592408054424, 27.20189581655976], [33.83555938892706, 27.208608417636615], [33.83283180265916, 27.211515709124075], [33.8254348764346, 27.21190568931348], [33.82543021096488, 27.207687260069992]]], [[[33.723398495677905, 27.30341971908045], [33.72255635390197, 27.305867127054395], [33.72696715008761, 27.307805001712854], [33.73441494488061, 27.306900922232458], [33.73892118972857, 27.30297690219784], [33.74883266875046, 27.304386540610228], [33.75452289510078, 27.29553979699925], [33.76236386408267, 27.293807411289542], [33.780274521792535, 27.28003112428728], [33.78040738016524, 27.276684879869983], [33.77430015722549, 27.2730946722174], [33.7638675419656, 27.275687152291752], [33.75908346271406, 27.280078908519265], [33.76080661617516, 27.286984897629154], [33.75676657293155, 27.29080535046276], [33.75325212097674, 27.28976650295965], [33.75220802516617, 27.284492665093776], [33.746360299131766, 27.286813784310077], [33.73872661248439, 27.280557169724162], [33.73078781094931, 27.2806323722142], [33.72240218578024, 27.289018454877958], [33.72237018599273, 27.294435688648175], [33.7305632085787, 27.294162268857793], [33.73690395503381, 27.29969330749856], [33.723398495677905, 27.30341971908045]]], [[[33.655794093273045, 27.385612299667237], [33.65705025490334, 27.388234289853017], [33.66334768776334, 27.38842683137772], [33.666599992436076, 27.40367298801655], [33.662607413420034, 27.409505976213925], [33.65599168491432, 27.410179258816093], [33.65590056227786, 27.413592399117363], [33.677812824235595, 27.416112306719835], [33.67753228162018, 27.40305589485113], [33.685198612220894, 27.40136239789722], [33.68864582653344, 27.385297569898725], [33.68395680649679, 27.38285555427297], [33.68304217627931, 27.37873977172362], [33.67713369323032, 27.37756887553162], [33.67170360262286, 27.368191598894267], [33.66705478040086, 27.377329812627536], [33.655753345044594, 27.37978282337213], [33.655794093273045, 27.385612299667237]]], [[[33.656432587669684, 27.358250179185077], [33.65572412812436, 27.364824911337436], [33.66507270871179, 27.36558215550051], [33.66501807398324, 27.35643840387906], [33.65970771690382, 27.353840638934223], [33.656432587669684, 27.358250179185077]]]]}}]}