{"type": "Feature", "geometry": {"type": "MultiPolygon", "coordinates": [[[[32.580173394091105, 25.69928438618901], [32.58129830547917, 25.703115366021496], [32.58594066126826, 25.7070215638146], [32.58795034196615, 25.715283638732615], [32.59345345042738, 25.72123313115489], [32.600340149091316, 25.724119300272683], [32.61608272152209, 25.737696508472936], [32.62416124818519, 25.74101782512072], [32.62544311545596, 25.746360806109717], [32.61900459439335, 25.75132406619376], [32.61929194789988, 25.7568286790383], [32.62642814956895, 25.760446045420174], [32.63408398338924, 25.760330803820395], [32.63697567322368, 25.767075438452967], [32.641618486529964, 25.77006957442376], [32.64641720765313, 25.769592255370572], [32.65367463849042, 25.763884467242793], [32.65956720146809, 25.763977860254858], [32.66385694947275, 25.75884247247651], [32.66646099682598, 25.75797161466992], [32.67293646212211, 25.760047616272313], [32.67626234113466, 25.76660386646658], [32.691393440926205, 25.77424392571984], [32.700005850632614, 25.77540731170128], [32.705413439663275, 25.77215692811159], [32.71290421059889, 25.77258832573614], [32.71857527136793, 25.776050565392246], [32.72440236855932, 25.777055758705558], [32.72816847626056, 25.78112304117073], [32.73472240842153, 25.783259943337992], [32.74210416908038, 25.78012977325767], [32.74442222616782, 25.77715665804295], [32.74404739086039, 25.773640715982857], [32.73725229633825, 25.765922092774222], [32.7204282022136, 25.76560500188734], [32.71075164370835, 25.758152021901836], [32.70230375474695, 25.755817042700343], [32.694646780926156, 25.75010157729417], [32.689516429674434, 25.748790225884324], [32.68595352977503, 25.740759550545402], [32.68132251821301, 25.73862164178817], [32.67572701585633, 25.7318675932847], [32.670860496752596, 25.729014950541174], [32.66789874474428, 25.728645937957364], [32.66168135361209, 25.731443749676597], [32.65849059491159, 25.730391252515005], [32.65722775980243, 25.72727774342605], [32.65927073790659, 25.718974845581624], [32.65855539048383, 25.711989174430297], [32.66067038211442, 25.708159138181887], [32.66354600479869, 25.707003848891556], [32.67363772462976, 25.71148966791705], [32.67836870890939, 25.71689178335012], [32.6843552995314, 25.719469234826242], [32.68811965469437, 25.717721466842725], [32.69113985584646, 25.711007723044577], [32.70181942993438, 25.710158167029043], [32.70829544331714, 25.719250648609464], [32.70912701833699, 25.7240907256266], [32.7068833502863, 25.72722583967298], [32.700568953025474, 25.7286358872057], [32.69892091463762, 25.732758488296746], [32.707699322785025, 25.74081661432498], [32.71739623788786, 25.741228405429254], [32.72304146883941, 25.738726202702598], [32.730196212979344, 25.741814497479726], [32.73585280327034, 25.74111403034415], [32.74321205647511, 25.744880088657574], [32.74606188993574, 25.743484814785695], [32.74898144350167, 25.73906266154741], [32.75240417147971, 25.73856933710542], [32.76793002661919, 25.75036024869503], [32.767356230582365, 25.76447558285518], [32.77007493204351, 25.76894266417553], [32.78576229019532, 25.769691569333236], [32.789829828482524, 25.76625355538505], [32.789738620923856, 25.763359173700863], [32.783025353151956, 25.75148306973114], [32.77645652476888, 25.733649377357438], [32.77921745435229, 25.727464956359825], [32.79040259640043, 25.725798507761255], [32.79480450214031, 25.72213102565618], [32.794157058020744, 25.717978158523337], [32.785130376120826, 25.709079494954924], [32.77535342168538, 25.708179919135496], [32.76280599350055, 25.710879261646646], [32.75675025315323, 25.70405293066519], [32.75144367540195, 25.7037188570356], [32.74787941573742, 25.708459020379486], [32.75181509684434, 25.71745845473461], [32.752111991429544, 25.725464022599812], [32.74728025235444, 25.72857588745726], [32.74234466451962, 25.72703887980543], [32.734518146912734, 25.727586642344136], [32.728560824369794, 25.721015954009196], [32.726700769400445, 25.71578177029572], [32.719431161764035, 25.71278666982143], [32.71548054295834, 25.705534550392493], [32.71529329147993, 25.694627663828598], [32.723015893405226, 25.68942548095216], [32.72139102341737, 25.683499221401426], [32.71857794434117, 25.682328223980583], [32.712588815624194, 25.683230723881714], [32.70103460484592, 25.674817152182268], [32.69492057171635, 25.6728612684376], [32.68894761669067, 25.666830084010044], [32.67768674080493, 25.665150729543072], [32.67501888303548, 25.659317080982156], [32.678463497279346, 25.653904824814852], [32.67781649042636, 25.649653051219573], [32.667342171197554, 25.64187801390648], [32.66320316384673, 25.639729117540096], [32.658122917076625, 25.64056369569611], [32.6494612406633, 25.63848708945106], [32.63937468983784, 25.63465992510052], [32.636123885179764, 25.63189631502645], [32.63112635379334, 25.631045404073312], [32.62713938593559, 25.627464248127033], [32.62377039357759, 25.627574248742288], [32.620185941547, 25.630913969727985], [32.617425970434624, 25.631379345313025], [32.60735425791202, 25.62883020671984], [32.60501450723884, 25.62310407896178], [32.59992472028884, 25.619233875302747], [32.596673378018124, 25.618989047348666], [32.59430336739405, 25.62071850244941], [32.593526298957855, 25.62421527522942], [32.595075176295744, 25.62941052829281], [32.59067547794595, 25.636166181712635], [32.59633917776966, 25.64256957981973], [32.62373480443481, 25.641522692403473], [32.630320928247066, 25.643259699858568], [32.63460043048004, 25.647011092457745], [32.635425421588, 25.650006280644288], [32.62972205112773, 25.65544725761173], [32.62584723145943, 25.667732774192295], [32.62195020398856, 25.670427643668546], [32.614812550205976, 25.669771628486906], [32.61140180174508, 25.67611190242768], [32.60708645325881, 25.678916198062133], [32.60788100929566, 25.68813941166661], [32.606531184638065, 25.690855637681405], [32.586666929291056, 25.692901000246163], [32.580173394091105, 25.69928438618901]], [[32.64483955606398, 25.659287176002312], [32.64309629621617, 25.6545794841746], [32.64710327868252, 25.65148193917948], [32.65843660302623, 25.65706473855253], [32.65887182127204, 25.660113019379835], [32.655994466155796, 25.665764149640694], [32.65750763445215, 25.675770551822303], [32.65550920092994, 25.678599825262033], [32.65195092816077, 25.67882012538756], [32.648295387314334, 25.675616694834474], [32.6471538810051, 25.67049363010849], [32.648111237949486, 25.663638067219534], [32.64483955606398, 25.659287176002312]], [[32.639945032824734, 25.720350061662536], [32.646271171673696, 25.718875742468896], [32.651008200046185, 25.727022287365873], [32.65799613180186, 25.73029834983161], [32.65823940236741, 25.73339079780161], [32.65300835507867, 25.743215154159426], [32.648852698978274, 25.74294786716115], [32.643197868871404, 25.736259446829962], [32.642175530000955, 25.73118946472782], [32.637003995909865, 25.724975973586215], [32.637592555355766, 25.7220205016335], [32.639945032824734, 25.720350061662536]]], [[[32.69448536737055, 25.86623244550838], [32.69961302805464, 25.873589238842786], [32.702990223092414, 25.874258602796516], [32.70794687889532, 25.87209638569049], [32.71082959986291, 25.873197437245395], [32.7120708137991, 25.87602264213498], [32.710858028792885, 25.881804308039193], [32.715949820306825, 25.895810958346118], [32.71916363727831, 25.897684069001325], [32.72417744528253, 25.896081616212687], [32.72569749111682, 25.892698615513194], [32.72341410750411, 25.885524955727803], [32.72588292221197, 25.872961582673863], [32.730150950280525, 25.869490885633304], [32.73557138984162, 25.861421623863205], [32.74020486134581, 25.85876093740553], [32.75795386283752, 25.84037705371023], [32.767447072531326, 25.82336544527955], [32.767874944067195, 25.819192100225035], [32.76386241733738, 25.80959212929804], [32.75838750928961, 25.80774903329627], [32.75089384120605, 25.80948527477884], [32.74238060911075, 25.796287690230105], [32.73687905763907, 25.796265529261245], [32.73304793111087, 25.804076745232095], [32.73934845759938, 25.817350932173305], [32.73395245525044, 25.823433172020458], [32.7332103709866, 25.828819532489337], [32.737088429270806, 25.833992157963763], [32.73744881916176, 25.83699216406363], [32.73377117632883, 25.840116201305577], [32.726317589842004, 25.839155794525208], [32.72266804518808, 25.843235742607686], [32.72335030243753, 25.84779279207441], [32.72863166323485, 25.852775671319623], [32.72843974302305, 25.856577582222407], [32.719425740563295, 25.861295931010964], [32.713576480742084, 25.871650794827996], [32.70915043533939, 25.87184023638186], [32.70733970039207, 25.869384964363267], [32.70686574262857, 25.86390377548807], [32.71025785251861, 25.847957630151047], [32.70691898101526, 25.840417395724966], [32.70371239074649, 25.838276122015422], [32.70002888939942, 25.838405952894522], [32.696228869258064, 25.84289616518233], [32.696488353740904, 25.85574581396516], [32.69182109281305, 25.860777074847793], [32.69208730794753, 25.864203400650716], [32.69448536737055, 25.86623244550838]]], [[[32.73684272087046, 25.90870853645444], [32.73593012905101, 25.912059073829663], [32.73830125629367, 25.916695991679866], [32.74525625925071, 25.923455028028037], [32.75898922741453, 25.918250316538202], [32.76111429786562, 25.91572360868183], [32.761920152872676, 25.90869347693284], [32.759063131629816, 25.905660340878693], [32.741078832689524, 25.90615269329029], [32.73684272087046, 25.90870853645444]]], [[[32.50407854464245, 25.667980029509007], [32.509496667102454, 25.675106552783312], [32.51613401666995, 25.6777461650775], [32.5233597735231, 25.676442827122546], [32.530424311641475, 25.68450876832186], [32.54910471851911, 25.686752329930844], [32.55304183259175, 25.683521544571846], [32.55012413734816, 25.676583248296033], [32.536608625453425, 25.671261508948337], [32.52417323423696, 25.670978205191524], [32.51912342320391, 25.664825521645252], [32.51305804885038, 25.661088723297272], [32.5048640866166, 25.66155465872874], [32.503031782085394, 25.664891766723706], [32.50407854464245, 25.667980029509007]]], [[[32.47667772545077, 25.556783843335392], [32.47675931323858, 25.562484100178946], [32.479973653508786, 25.572295268692983], [32.48447935589824, 25.57718744883494], [32.48753614069219, 25.58371206367426], [32.49495443701086, 25.589423474751374], [32.49672131951596, 25.595541086152963], [32.50558998822637, 25.600347004758984], [32.50543346592848, 25.608688793063727], [32.508789941609685, 25.613149019176134], [32.51441099134982, 25.61313553056156], [32.51909795700457, 25.60434072417803], [32.527847579738754, 25.60465220121291], [32.537766802524104, 25.601271588574626], [32.53862611201233, 25.597784563651093], [32.53598377839478, 25.59233733338376], [32.53907537612098, 25.58212293016687], [32.53562751829904, 25.577315566124494], [32.53176291006241, 25.57644294009923], [32.528282606661456, 25.57842665473262], [32.52628218335463, 25.588371492171863], [32.52203259194018, 25.590523931845194], [32.512605031235175, 25.586983217661793], [32.50734965486874, 25.57928507329391], [32.5007235692432, 25.577295032741585], [32.49493798601456, 25.5717344057607], [32.49347704240104, 25.56461128578158], [32.495651461969324, 25.561502897556164], [32.49909163424767, 25.561428156026654], [32.51017794039127, 25.567890240691398], [32.512821428145536, 25.566549582885777], [32.5172572180796, 25.56026892607853], [32.51579149314744, 25.556419908733208], [32.50319433768097, 25.549918807861243], [32.499125577293235, 25.544220366276864], [32.49388089124131, 25.543098100268697], [32.48201663412456, 25.54676367381853], [32.47769955149283, 25.55222499942596], [32.47667772545077, 25.556783843335392]]], [[[32.46512720639727, 25.595968075076097], [32.46657913158318, 25.610119551472888], [32.47256910383742, 25.6138677035855], [32.480281780733414, 25.61312480264798], [32.48265822694512, 25.604378318429593], [32.47799238766286, 25.597844471457616], [32.4708663614602, 25.5915481719018], [32.46790360867472, 25.592326231954004], [32.46512720639727, 25.595968075076097]]], [[[32.458017373744525, 25.6442800141173], [32.46011917531591, 25.650274273041447], [32.46533942071861, 25.654135634366533], [32.4692612704073, 25.653708497993215], [32.473235896132906, 25.649074999330214], [32.47238030457485, 25.644925884808963], [32.46365396627142, 25.638405706498833], [32.458762683893006, 25.640077529463184], [32.458017373744525, 25.6442800141173]]]]}, "properties": {}}