{"type": "Feature", "properties": {"city": "Calama", "country": "Chile", "real_area": 24.05}, "geometry": {"type": "MultiLineString", "coordinates": [[[-68.9055094351532, -22.4883567377293], [-68.9096723681205, -22.4914907021498], [-68.9090453249969, -22.4962836044398], [-68.9042552533266, -22.497942379321], [-68.9000924818963, -22.4948083862811], [-68.9007196205868, -22.490015646987], [-68.9055094351532, -22.4883567377293]], [[-68.9198797443066, -22.4833786224078], [-68.920506640089, -22.4785849493644], [-68.9163433842686, -22.4754510423055], [-68.916970302006, -22.4706571470166], [-68.9128073251232, -22.4675231520512], [-68.9134342648047, -22.4627290346937], [-68.9092715668591, -22.4595949520219], [-68.9098985284739, -22.4548006127728], [-68.9146880924531, -22.4531401930891], [-68.9153149804212, -22.4483454689542], [-68.911152399992, -22.4452113276665], [-68.9063630930021, -22.4468718816312], [-68.9057361094647, -22.4516664425949], [-68.9009468903215, -22.4533265828246], [-68.8967849117759, -22.4501922964423], [-68.8974119908329, -22.4453978987364], [-68.9022009529285, -22.4437376241473], [-68.9028279583777, -22.4389428416461], [-68.9076170083682, -22.4372821533772], [-68.908243940198, -22.4324869861993], [-68.9130330779983, -22.4308258843284], [-68.9136599361972, -22.4260303325925], [-68.9184491617221, -22.4243688171974], [-68.9226117859386, -22.4275029877394], [-68.9274013559576, -22.4258411930363], [-68.9315644202051, -22.4289752474072], [-68.930937753247, -22.433771125487], [-68.9351010962926, -22.4369050925492], [-68.9398912673998, -22.4352431525191], [-68.9440550503003, -22.4383770031168], [-68.9434285010499, -22.4431728226924], [-68.947592562715, -22.4463065856301], [-68.9523833345912, -22.4446445000374], [-68.9565478359349, -22.447778146217], [-68.9559214045017, -22.4525739068795], [-68.9511303759184, -22.4542358585601], [-68.9505038707257, -22.4590312345124], [-68.9546684899219, -22.4621648215293], [-68.9540420067742, -22.4669599754044], [-68.9492508086247, -22.4686213795187], [-68.9450863503808, -22.4654877636943], [-68.940295496241, -22.4671488880526], [-68.9396688435639, -22.4719434942284], [-68.9438331407818, -22.4750771388194], [-68.9432065101223, -22.479871522709], [-68.9384154864899, -22.4815320992351], [-68.9377887820919, -22.4863260979539], [-68.932997845846, -22.4879862605694], [-68.928833870901, -22.484852558568], [-68.9240432790655, -22.48651244136], [-68.9234164052487, -22.4913058919811], [-68.9186259010184, -22.4929653607625], [-68.9144625276147, -22.4898315131583], [-68.9150894970735, -22.4850382254324], [-68.9198797443066, -22.4833786224078]]]}}