{"type": "FeatureCollection", "features": [{"type": "Feature", "properties": {"threshold": 70}, "geometry": {"type": "MultiPolygon", "coordinates": [[[[31.109889440980947, 30.728935108170425], [31.109094922680736, 30.73414433018661], [31.115704082461328, 30.73512080751604], [31.115954156909094, 30.72862534965679], [31.109889440980947, 30.728935108170425]]], [[[31.04491429404392, 30.90895489448487], [31.05131813142656, 30.916093940816562], [31.064998894409054, 30.91260007451576], [31.06415159171023, 30.903500845182748], [31.05381974442062, 30.898377338884366], [31.044747449916844, 30.902435476136024], [31.04491429404392, 30.90895489448487]]], [[[31.040901326169557, 30.832187353131285], [31.043723861025875, 30.840136604468686], [31.053097476525373, 30.841106307385576], [31.05746005127058, 30.839152871610988], [31.057438846494996, 30.836109079842327], [31.04827092354659, 30.826405818287178], [31.042799025049135, 30.82726376213868], [31.040901326169557, 30.832187353131285]]], [[[31.03345109972306, 30.799543574893146], [31.035096181514472, 30.806524040395164], [31.044318377460968, 30.811411192760733], [31.047494889274244, 30.80320425793139], [31.045610388172943, 30.79797060682184], [31.034003220105813, 30.797528068525327], [31.03345109972306, 30.799543574893146]]], [[[30.980372710340646, 30.799722517627824], [30.983134196250052, 30.80887539183234], [30.98648163215737, 30.81070288288482], [30.99513802540268, 30.809557635921454], [31.000011834901823, 30.816401595156375], [30.99886412297496, 30.822896042606626], [30.990831889837786, 30.821170599904747], [30.98989782894263, 30.82831679797332], [31.01621600054781, 30.830269538476067], [31.017588535839455, 30.81961514081494], [31.014068872999477, 30.81153890410661], [31.006237127735254, 30.809708280276503], [30.99993159810113, 30.801528564977442], [31.001693233238587, 30.794770739506273], [31.01435536619577, 30.790021217437076], [31.01502674463951, 30.78113256705426], [31.02289944237492, 30.775979498388093], [31.017540530930372, 30.765776241236825], [31.0059895591039, 30.76153926924522], [30.999947049249407, 30.766529520263127], [30.99740209423544, 30.777603565668247], [30.985485664809886, 30.77356815641879], [30.9802530659778, 30.77525565354549], [30.979964976080044, 30.78157355751325], [30.985741022263493, 30.785236884520987], [30.982435423499517, 30.788759573752007], [30.980372710340646, 30.799722517627824]], [[30.993055250394708, 30.78344351530047], [30.99759405222022, 30.78438480184284], [30.995761792175784, 30.7907151880244], [30.98851555052834, 30.78751675615328], [30.993055250394708, 30.78344351530047]]], [[[30.99868257342443, 30.867296924908814], [31.002776280840322, 30.873568739505927], [31.016482351725355, 30.871718906206763], [31.005342406434657, 30.861305091647694], [30.99900573335412, 30.864493606097117], [30.99868257342443, 30.867296924908814]]], [[[30.988457186079653, 30.57791816236783], [31.002900711118073, 30.580457306756312], [31.00642390333598, 30.577128765618472], [31.013672354379917, 30.57830174994587], [31.016151201835818, 30.576453798219095], [31.016484317861142, 30.56413352733481], [31.008789401368272, 30.561626136989283], [31.006946914579576, 30.558595499617716], [31.008914477079976, 30.552872147956627], [31.017532495123568, 30.55249683758543], [31.018649165116983, 30.548067883157028], [31.016525268761626, 30.545998122021743], [31.01182582021323, 30.546022289518582], [31.008953862303162, 30.552154941951052], [31.0024345327546, 30.55107090298089], [30.999956114283613, 30.55291861712707], [30.99658865935925, 30.56451005470559], [30.987809548380646, 30.57452204726164], [30.988457186079653, 30.57791816236783]]], [[[30.987811772468696, 30.916063148121157], [30.987286682589463, 30.920450911529766], [30.996414062266997, 30.92045797019957], [31.003019343659453, 30.914122602732007], [31.004861288235308, 30.902482960087266], [30.993750605435448, 30.90153763005828], [30.995059670285045, 30.90986272890671], [30.989040939663827, 30.912292669725325], [30.987811772468696, 30.916063148121157]]], [[[30.981152868280997, 30.853550438524834], [30.982162740181234, 30.858411728299917], [30.98790303597015, 30.858394268901375], [30.987914937156024, 30.85189570992529], [30.981152868280997, 30.853550438524834]]], [[[30.979514828790848, 30.588215981692777], [30.9803777776558, 30.59452759203686], [30.985703471704877, 30.594877128149303], [30.991719630470747, 30.590775072345995], [30.992838002889513, 30.58634643528608], [30.98291410534994, 30.583267009915872], [30.979514828790848, 30.588215981692777]]], [[[30.962170190365143, 30.850539078793698], [30.96562104370387, 30.853672250302704], [30.97283424821723, 30.852684283624882], [30.974005980316058, 30.845936578301444], [30.97014983928466, 30.840745084430917], [30.963465170041353, 30.84394650151608], [30.962170190365143, 30.850539078793698]]], [[[30.956424847476935, 30.88502255202537], [30.964955852155192, 30.88925113892812], [30.97277972938969, 30.886154063666336], [30.97143498360539, 30.876556224834086], [30.958432573536356, 30.881553158933396], [30.956424847476935, 30.88502255202537]]], [[[30.9609912234771, 30.906208089407126], [30.970221793512124, 30.907111868015825], [30.971872195888665, 30.90468471065008], [30.96555257591607, 30.899339333564896], [30.960398377477077, 30.90197101398896], [30.9609912234771, 30.906208089407126]]], [[[30.94737002571538, 30.792718215968055], [30.94610991609692, 30.797658025354096], [30.968918197166616, 30.798809376575164], [30.97231404979926, 30.7960812861408], [30.97339963838248, 30.789465403723284], [30.959841091601287, 30.78787372523114], [30.94737002571538, 30.792718215968055]]], [[[30.955288211850775, 30.762651433376675], [30.954382114382295, 30.76499478829608], [30.96079348539403, 30.769949107521217], [30.969106454240137, 30.773288475711148], [30.97273180350332, 30.772244074505497], [30.972890692585015, 30.766814406819492], [30.965588677762504, 30.759461477319775], [30.957574321207055, 30.7600377242993], [30.955288211850775, 30.762651433376675]]], [[[30.936623292293422, 30.67186213417947], [30.93759668287488, 30.67827010029804], [30.94423711531839, 30.67749510510339], [30.94425120367755, 30.670996510190424], [30.936623292293422, 30.67186213417947]]], [[[30.92945020488084, 30.876262332404053], [30.935761623548238, 30.87873393092822], [30.93931986742773, 30.875627893055317], [30.936316495912852, 30.871921066908115], [30.93215010230843, 30.871728386363657], [30.92945020488084, 30.876262332404053]]], [[[30.885228746348456, 30.807485714984313], [30.88928136723002, 30.8114144533174], [30.89597952639929, 30.8115783712973], [30.90269460918848, 30.810014238502724], [30.906113128763266, 30.8059862406764], [30.92064045052273, 30.80618167869159], [30.92406363957809, 30.811905316808033], [30.93107044778274, 30.812887546745735], [30.932634692784323, 30.810477841771448], [30.928968378997098, 30.80458064358636], [30.93292955335676, 30.795713827823068], [30.91026563144219, 30.797930296521045], [30.905653053914065, 30.802187763984865], [30.889581474350084, 30.80146220194943], [30.885228746348456, 30.807485714984313]]], [[[30.911721523118565, 30.529528134128242], [30.913988335079022, 30.531858547287875], [30.91174225037438, 30.536787281544978], [30.91528327749717, 30.538096026074186], [30.93324768603408, 30.5305907568707], [30.927094508438085, 30.526365741926757], [30.928031057790943, 30.521832973833863], [30.924511817707305, 30.518133322120992], [30.91856857339673, 30.519040480546735], [30.911721523118565, 30.529528134128242]]], [[[30.900989118701517, 30.870837554254237], [30.902777022697805, 30.877981450955353], [30.91107320874965, 30.880617706499713], [30.912436033243576, 30.887418785746256], [30.91911158341141, 30.885979488826788], [30.923817599704993, 30.875684110660742], [30.91710919804751, 30.87499192080008], [30.913638838186504, 30.869122045127863], [30.900989118701517, 30.870837554254237]]], [[[30.897128750975764, 30.84690515381593], [30.89932131453634, 30.85183982075846], [30.919633289635225, 30.852091679456514], [30.918525123719796, 30.844502953173254], [30.923956686113534, 30.834876072045315], [30.915750343361893, 30.83437006047588], [30.89751605542509, 30.841093930319992], [30.897128750975764, 30.84690515381593]]], [[[30.89039511680546, 30.8219270875799], [30.891647640660878, 30.826148130918437], [30.898215276731122, 30.82506439624605], [30.89699307974468, 30.817850240287207], [30.890707799378866, 30.81786430055242], [30.89039511680546, 30.8219270875799]]], [[[30.851649009496285, 30.836101181952593], [30.859862677860075, 30.84496223874488], [30.874208253282855, 30.843967825733657], [30.87774660187627, 30.850696091222765], [30.885263092393927, 30.844891398325846], [30.883182529955388, 30.841672669677497], [30.871957983141854, 30.837622476453287], [30.867058778819725, 30.83048344922077], [30.854810544064094, 30.83030659674916], [30.851649009496285, 30.836101181952593]]], [[[30.868422362822567, 30.809354088840617], [30.870619998155995, 30.811926314283678], [30.879047025678766, 30.811291141841107], [30.87983610521803, 30.807304189432717], [30.875268198989538, 30.804303594266646], [30.86946439552021, 30.80591524649948], [30.868422362822567, 30.809354088840617]]], [[[30.83832663647572, 30.50512990578521], [30.84658431023259, 30.511360448260362], [30.85285673362016, 30.51142509740865], [30.85966018536344, 30.502612002706215], [30.858856305076543, 30.49343894343682], [30.848129406547603, 30.49293456880896], [30.84329100667664, 30.49529000857928], [30.842169504297637, 30.500478027331035], [30.837461913704974, 30.501726850692826], [30.83832663647572, 30.50512990578521]]], [[[30.799216400892323, 30.832352181481927], [30.807236966515763, 30.8371463605802], [30.813311477535336, 30.83641787960646], [30.81662178421366, 30.83171452762535], [30.822469211947848, 30.831119471149705], [30.831782217940233, 30.824163160840207], [30.834742266254374, 30.816399813251785], [30.831416493118006, 30.813620290167137], [30.821773830558833, 30.81550482297582], [30.812078305715477, 30.814155777994092], [30.813234160152575, 30.822939972156476], [30.799055529507722, 30.828713785380923], [30.799216400892323, 30.832352181481927]]], [[[30.812933162944955, 30.499992102227264], [30.814706299357674, 30.50235409029958], [30.82035430770124, 30.50264841551221], [30.825449005017838, 30.508765230886905], [30.830183420130442, 30.503598000459522], [30.826997853075095, 30.494904270742804], [30.815786534186717, 30.49398725207208], [30.812565483505317, 30.49667062151311], [30.812933162944955, 30.499992102227264]]], [[[30.766104967410644, 30.460216872343338], [30.765154291978938, 30.462493315514745], [30.768314035396966, 30.464468478662695], [30.79078528445696, 30.46569977295301], [30.79870780924302, 30.470428707031562], [30.803016463438365, 30.469505935902124], [30.80515503984074, 30.46520534680804], [30.804964800304887, 30.462261348632435], [30.797528115457297, 30.45884964992739], [30.789181059764232, 30.460271509176415], [30.78591327225507, 30.4516625343206], [30.782652109136297, 30.45173329660506], [30.77262043856695, 30.459719658175594], [30.766104967410644, 30.460216872343338]]], [[[30.784203877809183, 30.523661633921563], [30.7842703460456, 30.527079537233654], [30.786722782160144, 30.52746652980651], [30.794517951563158, 30.523598926863027], [30.7949098304837, 30.517122610294365], [30.788287552009713, 30.518344586294845], [30.784203877809183, 30.523661633921563]]], [[[30.774395496118192, 30.648962785325825], [30.775438129299786, 30.654021886191263], [30.782388673307246, 30.651954425830873], [30.791765341474193, 30.657851174482193], [30.788916483770464, 30.649025616991693], [30.78377234402278, 30.650350846640908], [30.776098890029427, 30.646392816248987], [30.774395496118192, 30.648962785325825]]], [[[30.7495627201675, 30.674169509127015], [30.748667509282473, 30.678119071184557], [30.753101879803815, 30.678462808225525], [30.75723663840117, 30.676720533140656], [30.75840244970557, 30.673007809999376], [30.75472113827581, 30.67079193147452], [30.7495627201675, 30.674169509127015]]], [[[30.73762750666954, 30.716105749576585], [30.74546826953296, 30.722414559256663], [30.750181992162066, 30.718797305244905], [30.747838734468345, 30.712436693058812], [30.73746227440303, 30.713073449637204], [30.73762750666954, 30.716105749576585]]], [[[30.733331358185666, 30.568591591135654], [30.734371248035565, 30.573650930723662], [30.743269754984418, 30.573032156449983], [30.747465563330962, 30.562007526810397], [30.739103361083327, 30.562319583281997], [30.734309683337422, 30.564747212621917], [30.733331358185666, 30.568591591135654]]], [[[30.715756949844277, 30.59402519260836], [30.718744544235946, 30.598958201123253], [30.726411102653373, 30.59909245717118], [30.72794652586242, 30.59705873746717], [30.728037461708364, 30.591901264204743], [30.722266555883582, 30.58517052504095], [30.71673834011145, 30.587703136082162], [30.715756949844277, 30.59402519260836]]], [[[30.708690034462084, 30.894792547674275], [30.71190768698053, 30.896629668997022], [30.71639366573427, 30.8947520781185], [30.71444258828093, 30.885940997836776], [30.71053738338066, 30.886188276012412], [30.708690034462084, 30.894792547674275]]], [[[30.70190023650123, 30.570460087452034], [30.7026761370074, 30.577484119642328], [30.707069604683976, 30.577900395406587], [30.71311063586565, 30.574635058919025], [30.716110803264304, 30.569482893863974], [30.70899084297313, 30.56479932212025], [30.70190023650123, 30.570460087452034]]], [[[30.701107420766785, 30.713055496053656], [30.702423518930136, 30.718522037932402], [30.709898317266113, 30.716690349796796], [30.70690172845197, 30.709443450596183], [30.70150043264014, 30.710237550326454], [30.701107420766785, 30.713055496053656]]], [[[30.7021696484113, 30.639198133567156], [30.702613505391266, 30.642003098277304], [30.709504072654862, 30.64050175382565], [30.710879480916777, 30.635616108808648], [30.70340499696637, 30.63594128557852], [30.7021696484113, 30.639198133567156]]], [[[30.690434680177518, 30.752004726378754], [30.693260064720548, 30.75850438188396], [30.70166345452131, 30.758441011579155], [30.702778976967462, 30.754788777967182], [30.69979957555848, 30.751152021858353], [30.691200855726983, 30.749326281644485], [30.690434680177518, 30.752004726378754]]], [[[30.66300873654615, 30.697103346457205], [30.663065368465443, 30.70290181107305], [30.670917744324182, 30.706414519711807], [30.679117074218066, 30.696438350959767], [30.668337704064086, 30.69478044268236], [30.66300873654615, 30.697103346457205]]], [[[30.653216855043155, 30.88359494742518], [30.653561174268052, 30.890908029052703], [30.65872462185796, 30.890943798229383], [30.663342895297024, 30.88695931147808], [30.670270328965838, 30.88889000154257], [30.67268953613046, 30.887646484616642], [30.673820952217554, 30.877939055744086], [30.661049757493334, 30.877968440734506], [30.653216855043155, 30.88359494742518]]], [[[30.645765022086596, 30.72520273692952], [30.6490354894402, 30.73291698028057], [30.656302362656575, 30.73235902796502], [30.66148543242127, 30.718262265068695], [30.65133906839499, 30.717762658636257], [30.645530729345055, 30.722549129238118], [30.645765022086596, 30.72520273692952]]]]}}, {"type": "Feature", "properties": {"threshold": 80}, "geometry": {"type": "MultiPolygon", "coordinates": [[[[31.109889440980947, 30.728935108170425], [31.1090439677693, 30.734082839542744], [31.11472266601346, 30.735925091174153], [31.11600511365384, 30.72868683769675], [31.109889440980947, 30.728935108170425]]], [[[31.044033274261878, 30.908168117434368], [31.05131813142656, 30.916093940816562], [31.05982364564999, 30.916203477399147], [31.064998894409054, 30.91260007451576], [31.06415159171023, 30.903500845182748], [31.05381974442062, 30.898377338884366], [31.045729032537682, 30.900842656768717], [31.044033274261878, 30.908168117434368]]], [[[31.040822174204898, 30.82894313178586], [31.043570940678027, 30.84006307703412], [31.053097476525373, 30.841106307385576], [31.05737485763393, 30.839284831176258], [31.057438846494996, 30.836109079842327], [31.0484238268436, 30.826479339654476], [31.040822174204898, 30.82894313178586]]], [[[31.03345109972306, 30.799543574893146], [31.033320348240384, 30.805723632881588], [31.044318377460968, 30.811411192760733], [31.04741746481828, 30.797224382963385], [31.034003220105813, 30.797528068525327], [31.03345109972306, 30.799543574893146]]], [[[30.980372710340646, 30.799722517627824], [30.983134196250052, 30.80887539183234], [30.98648163215737, 30.81070288288482], [30.99513802540268, 30.809557635921454], [31.000011834901823, 30.816401595156375], [30.99886412297496, 30.822896042606626], [30.990831889837786, 30.821170599904747], [30.98989782894263, 30.82831679797332], [31.01621600054781, 30.830269538476067], [31.017588535839455, 30.81961514081494], [31.014068872999477, 30.81153890410661], [31.006237127735254, 30.809708280276503], [30.99992859936954, 30.80176254316739], [31.001532369794607, 30.794951157360597], [31.01435536619577, 30.790021217437076], [31.01502674463951, 30.78113256705426], [31.02289944237492, 30.775979498388093], [31.016597154903575, 30.764937560656843], [31.009918028773154, 30.76157014846869], [31.002050277142587, 30.763940758478643], [30.996921979273704, 30.77779063046555], [30.985572044335537, 30.773580595729822], [30.98019309391259, 30.775310756015624], [30.979964976080044, 30.78157355751325], [30.985741022263493, 30.785236884520987], [30.982435423499517, 30.788759573752007], [30.980372710340646, 30.799722517627824]], [[30.993055250394708, 30.78344351530047], [30.99759405222022, 30.78438480184284], [30.995761792175784, 30.7907151880244], [30.98851555052834, 30.78751675615328], [30.993055250394708, 30.78344351530047]]], [[[30.98693710686235, 30.871721427633865], [30.98635775886553, 30.87553791455241], [30.9938598129241, 30.876215274904343], [30.995298035707574, 30.87139903496927], [30.99047828019015, 30.869553593911], [30.98693710686235, 30.871721427633865]]], [[[30.99835240741453, 30.870227716001637], [31.002050995081245, 30.873587015587013], [31.016519561152716, 30.87157130494431], [31.00517131347092, 30.861272981584243], [30.998908308758377, 30.863835432810255], [30.99835240741453, 30.870227716001637]]], [[[30.988457186079653, 30.57791816236783], [31.00018788817558, 30.581962596267985], [31.00617904791215, 30.577212157587567], [31.013672354379917, 30.57830174994587], [31.016151201835818, 30.576453798219095], [31.016484317861142, 30.56413352733481], [31.008789401368272, 30.561626136989283], [31.006946914579576, 30.558595499617716], [31.008914477079976, 30.552872147956627], [31.017532495123568, 30.55249683758543], [31.018649165116983, 30.548067883157028], [31.016525268761626, 30.545998122021743], [31.01182582021323, 30.546022289518582], [31.008953862303162, 30.552154941951052], [31.0024345327546, 30.55107090298089], [30.999956114283613, 30.55291861712707], [30.99658865935925, 30.56451005470559], [30.987809548380646, 30.57452204726164], [30.988457186079653, 30.57791816236783]]], [[[30.98698039327501, 30.91783702254996], [30.986550482511834, 30.92049726054725], [30.9959521333979, 30.92066171907649], [31.004614016741076, 30.91439723836013], [31.00577399330745, 30.901723591546226], [31.00062980963035, 30.89986875911406], [30.992853950923998, 30.901523717032653], [30.993190954483804, 30.909730184020862], [30.98892737799566, 30.91240768411263], [30.98698039327501, 30.91783702254996]]], [[[30.96063859663152, 30.848588209703536], [30.959782608393073, 30.850993089680667], [30.96570749104444, 30.853684705776725], [30.977478071108305, 30.85053792457387], [30.977430543799436, 30.847259214754594], [30.96974397698172, 30.840612554325645], [30.96269891738475, 30.843044222401396], [30.96063859663152, 30.848588209703536]]], [[[30.98091399810213, 30.852715119485392], [30.981170214832197, 30.85989235273365], [30.98784301354431, 30.858449372174228], [30.98799495169629, 30.85117429482454], [30.98091399810213, 30.852715119485392]]], [[[30.979514828790848, 30.588215981692777], [30.9803777776558, 30.59452759203686], [30.985703471704877, 30.594877128149303], [30.99170368053963, 30.591548301905714], [30.992838002889513, 30.58634643528608], [30.98291410534994, 30.583267009915872], [30.979514828790848, 30.588215981692777]]], [[[30.955419302467135, 30.88331061653292], [30.954753825196356, 30.88587032476337], [30.962876938451448, 30.890710341020092], [30.966346524841207, 30.88995916327795], [30.973147038193655, 30.88574275897847], [30.971494972426107, 30.875848591860496], [30.964898180264576, 30.87620207254211], [30.955419302467135, 30.88331061653292]]], [[[30.961317727929956, 30.90119275802014], [30.960233554702373, 30.905575777181443], [30.962438022169277, 30.907686700598905], [30.971756726841587, 30.905969959213476], [30.96793962906886, 30.899453050049672], [30.961317727929956, 30.90119275802014]]], [[[30.885228746348456, 30.807485714984313], [30.88928136723002, 30.8114144533174], [30.897771054151026, 30.81160745776866], [30.9056541846585, 30.806489906510738], [30.92064045052273, 30.80618167869159], [30.92406363957809, 30.811905316808033], [30.931949673843224, 30.813675025135694], [30.929964427882155, 30.80352186163467], [30.938494127632136, 30.795465617026323], [30.93105037554749, 30.793604827619273], [30.910182623222763, 30.79795443558414], [30.905736810597197, 30.80204960522188], [30.889581474350084, 30.80146220194943], [30.885228746348456, 30.807485714984313]]], [[[30.940949384228055, 30.79512006289197], [30.948039338696343, 30.79926495499744], [30.968918197166616, 30.798809376575164], [30.97231404979926, 30.7960812861408], [30.97339963838248, 30.789465403723284], [30.95534683520953, 30.78857634508961], [30.940949384228055, 30.79512006289197]]], [[[30.893551979789056, 30.816151766085117], [30.88759600667186, 30.824046985152137], [30.896727303596187, 30.826256207918878], [30.89837399870064, 30.819134352741205], [30.897179545143196, 30.816377621509606], [30.893551979789056, 30.816151766085117]]], [[[30.955187077707144, 30.762168035869774], [30.954302491268002, 30.76486029665919], [30.958123577375428, 30.769133634568323], [30.965524660414374, 30.773232313094343], [30.97273180350332, 30.772244074505497], [30.972890692585015, 30.766814406819492], [30.965604943019194, 30.758688280466117], [30.955187077707144, 30.762168035869774]]], [[[30.936623292293422, 30.67186213417947], [30.93759668287488, 30.67827010029804], [30.94423711531839, 30.67749510510339], [30.94425120367755, 30.670996510190424], [30.936623292293422, 30.67186213417947]]], [[[30.900119308693096, 30.874020842795936], [30.905445886664918, 30.881942600443388], [30.910793217335932, 30.88266495147262], [30.912872038489596, 30.888410152136785], [30.919045536109184, 30.88602921355098], [30.924876748768284, 30.87949008541692], [30.923817599704993, 30.875684110660742], [30.91710919804751, 30.87499192080008], [30.913638838186504, 30.869122045127863], [30.901453097416365, 30.869742274538602], [30.900119308693096, 30.874020842795936]]], [[[30.929311800353148, 30.87653556564038], [30.935933982232015, 30.87870720839985], [30.939321982675914, 30.873932890784083], [30.93201097009498, 30.87020876994277], [30.929311800353148, 30.87653556564038]]], [[[30.91138679124559, 30.52942660142761], [30.913784030124553, 30.53223152569199], [30.91174225037438, 30.536787281544978], [30.9151303944683, 30.538087068966068], [30.92133392728687, 30.534489819710192], [30.934097824907283, 30.53228368395905], [30.926974818461186, 30.52616301164285], [30.926450826446604, 30.518170711338282], [30.918634359919064, 30.51899074188544], [30.916734311555526, 30.524179544527115], [30.911099056148085, 30.52683720171922], [30.91138679124559, 30.52942660142761]]], [[[30.85163178077992, 30.83687431320768], [30.85994460682481, 30.844989070449028], [30.866528789013394, 30.846674059300895], [30.873567590052314, 30.844019797184572], [30.879487788174732, 30.853044893660133], [30.882288475791174, 30.852781440274274], [30.882741164585312, 30.847379431288413], [30.88605906364932, 30.84535492095255], [30.89630860231821, 30.846630449597146], [30.899236716244065, 30.851820072200127], [30.9126449170684, 30.85053592841525], [30.9174889931864, 30.852917914615887], [30.92011402145689, 30.851495301865544], [30.91961484103148, 30.84178981463313], [30.926756232450565, 30.83443523254106], [30.9167484163934, 30.83359431350457], [30.901909994295032, 30.84036274644937], [30.888848409971487, 30.841732527630754], [30.885931987723016, 30.83549131501595], [30.880627430446058, 30.83463117227776], [30.87667604548223, 30.83931595608667], [30.871957983141854, 30.837622476453287], [30.86838012883967, 30.830753769892578], [30.86493807789485, 30.82964560709623], [30.852845588001063, 30.831118660581623], [30.85163178077992, 30.83687431320768]]], [[[30.907552425785937, 30.820774639132278], [30.908400567562236, 30.82547930735058], [30.912784963799588, 30.825760950338335], [30.917206371672375, 30.819511922924832], [30.912619940608753, 30.817285736512435], [30.907552425785937, 30.820774639132278]]], [[[30.869244687960435, 30.806124748695503], [30.869479321905022, 30.811831371060507], [30.87623886355795, 30.812803080533122], [30.87966865096204, 30.810908769185783], [30.877652695952314, 30.80441886609622], [30.869244687960435, 30.806124748695503]]], [[[30.812933162944955, 30.499992102227264], [30.814706299357674, 30.50235409029958], [30.82035430770124, 30.50264841551221], [30.825364719217326, 30.50874544800112], [30.83144361465629, 30.50398343895285], [30.839627231706974, 30.505446475004092], [30.846662529348794, 30.51139407639828], [30.852446855344407, 30.511544508908464], [30.859629212851317, 30.50268270143591], [30.859853176329448, 30.49535484216519], [30.858297371154897, 30.493102064747813], [30.848044319914532, 30.492951539984485], [30.843040878150507, 30.495498490996038], [30.841576970086848, 30.500925499043333], [30.83234254821315, 30.501189819675943], [30.82724195579601, 30.49498453023546], [30.816040990415644, 30.493936565641178], [30.812565483505317, 30.49667062151311], [30.812933162944955, 30.499992102227264]]], [[[30.799216400892323, 30.832352181481927], [30.803670792399636, 30.83631250826314], [30.813311477535336, 30.83641787960646], [30.81662178421366, 30.83171452762535], [30.822469211947848, 30.831119471149705], [30.831782217940233, 30.824163160840207], [30.834742266254374, 30.816399813251785], [30.831416493118006, 30.813620290167137], [30.821773830558833, 30.81550482297582], [30.812078305715477, 30.814155777994092], [30.813234160152575, 30.822939972156476], [30.799055529507722, 30.828713785380923], [30.799216400892323, 30.832352181481927]]], [[[30.766104967410644, 30.460216872343338], [30.765369099404765, 30.462729431174715], [30.774610583919, 30.466141342999155], [30.790994652895627, 30.465840743345844], [30.79512011691144, 30.471141522725112], [30.81001348973663, 30.468295068143934], [30.81602997414849, 30.469917108131433], [30.819435510207008, 30.465444947470505], [30.816133954012738, 30.461464529474128], [30.807232530179682, 30.46357045867762], [30.80367377332943, 30.459708369765988], [30.789625970838113, 30.460512897435464], [30.78591327225507, 30.4516625343206], [30.780943059539787, 30.45166534918946], [30.773168530146187, 30.45924319927078], [30.766104967410644, 30.460216872343338]]], [[[30.78354286106624, 30.52227731231199], [30.78432098699758, 30.527141142259744], [30.790228713740607, 30.52760383833911], [30.793301992862013, 30.53363297375284], [30.799041729062644, 30.5319706260483], [30.799130778904967, 30.528022103302884], [30.794535473283958, 30.525242993689357], [30.795877048624376, 30.519737087167783], [30.792935594563854, 30.51455625032928], [30.788203090851443, 30.51611868891585], [30.78354286106624, 30.52227731231199]]], [[[30.774395496118192, 30.648962785325825], [30.776314661333174, 30.65481030914936], [30.781692665700373, 30.65393658013369], [30.786307709027046, 30.658924253555284], [30.791765341474193, 30.657851174482193], [30.788916483770464, 30.649025616991693], [30.776098890029427, 30.646392816248987], [30.774395496118192, 30.648962785325825]]], [[[30.77079688435412, 30.690926575620022], [30.773866175510967, 30.69428869780345], [30.782102721194633, 30.69305079405997], [30.778863302680406, 30.68667536326911], [30.77099977124104, 30.68820249195656], [30.77079688435412, 30.690926575620022]]], [[[30.7495627201675, 30.674169509127015], [30.749010197050087, 30.67834809299996], [30.75696343282002, 30.676906562212654], [30.75837284060683, 30.67047414126875], [30.753596665980183, 30.67007526289659], [30.7495627201675, 30.674169509127015]]], [[[30.73762750666954, 30.716105749576585], [30.74546826953296, 30.722414559256663], [30.750181992162066, 30.718797305244905], [30.747838734468345, 30.712436693058812], [30.73746227440303, 30.713073449637204], [30.73762750666954, 30.716105749576585]]], [[[30.733331358185666, 30.568591591135654], [30.73347777600236, 30.573635369911692], [30.74414532515603, 30.573820756387637], [30.747465563330962, 30.562007526810397], [30.739103361083327, 30.562319583281997], [30.734309683337422, 30.564747212621917], [30.733331358185666, 30.568591591135654]]], [[[30.719549518239816, 30.5485032004802], [30.72147538082801, 30.551770198136875], [30.727731903110296, 30.552614101388595], [30.731761869562142, 30.548400261826956], [30.73272034465034, 30.540804374983434], [30.729067742374358, 30.53965799620028], [30.719789423676197, 30.54423300465284], [30.719549518239816, 30.5485032004802]]], [[[30.714882594207264, 30.593018001923152], [30.71500985485779, 30.598834825467257], [30.7278403698232, 30.598743270584617], [30.728119364491707, 30.589653665019412], [30.722444537905318, 30.58445804169993], [30.71673834011145, 30.587703136082162], [30.714882594207264, 30.593018001923152]]], [[[30.703636686847588, 30.89176945419203], [30.71206141015255, 30.896625880114662], [30.71634706373727, 30.89481611744042], [30.717493393530248, 30.890465822732992], [30.714586168129706, 30.88602745921063], [30.711247087675677, 30.885797215750333], [30.703434837116543, 30.889747606141395], [30.703636686847588, 30.89176945419203]]], [[[30.70010343033555, 30.571196338810225], [30.702175490796563, 30.57775910036038], [30.710684632594756, 30.57591773867787], [30.71853787919789, 30.577630008064837], [30.7196177324867, 30.570943057595063], [30.714795843370332, 30.56418292783657], [30.705994504021817, 30.564060411257703], [30.70010343033555, 30.571196338810225]]], [[[30.700351034575366, 30.71594773280433], [30.70174453465923, 30.720111743210705], [30.709759227894217, 30.716881861204357], [30.707123369159337, 30.709563625639877], [30.701374326356348, 30.71034213423503], [30.700351034575366, 30.71594773280433]]], [[[30.70218793115434, 30.638425057332572], [30.70201092653923, 30.641599907842405], [30.704899147354272, 30.6427730365835], [30.71074304857084, 30.63949869791568], [30.71091524735428, 30.635685101702474], [30.703484785484417, 30.63591036255606], [30.70218793115434, 30.638425057332572]]], [[[30.688517576552798, 30.753243986388693], [30.693494370347423, 30.758605236348583], [30.69936471024747, 30.75948292078619], [30.702712102459863, 30.756708394172502], [30.698706979387563, 30.74948917493223], [30.690945672633845, 30.749376684969302], [30.688517576552798, 30.753243986388693]]], [[[30.66117081574117, 30.700268315701365], [30.66146629619508, 30.703024873029314], [30.67108984268524, 30.706388137518072], [30.67908653157753, 30.696289645513335], [30.673108529491728, 30.69333037236078], [30.66550061058301, 30.693985537775635], [30.66117081574117, 30.700268315701365]]], [[[30.653216855043155, 30.88359494742518], [30.653561174268052, 30.890908029052703], [30.65872462185796, 30.890943798229383], [30.663342895297024, 30.88695931147808], [30.670270328965838, 30.88889000154257], [30.67268953613046, 30.887646484616642], [30.673820952217554, 30.877939055744086], [30.661049757493334, 30.877968440734506], [30.653216855043155, 30.88359494742518]]], [[[30.645765022086596, 30.72520273692952], [30.6490354894402, 30.73291698028057], [30.656302362656575, 30.73235902796502], [30.66148543242127, 30.718262265068695], [30.65133906839499, 30.717762658636257], [30.645530729345055, 30.722549129238118], [30.645765022086596, 30.72520273692952]]]]}}, {"type": "Feature", "properties": {"threshold": 90}, "geometry": {"type": "MultiPolygon", "coordinates": [[[[31.109889440980947, 30.728935108170425], [31.1090439677693, 30.734082839542744], [31.11472266601346, 30.735925091174153], [31.11600511365384, 30.72868683769675], [31.109889440980947, 30.728935108170425]]], [[[31.043794705370917, 30.907984505735232], [31.047501203912294, 30.91518671275405], [31.05982364564999, 30.916203477399147], [31.064976111377327, 30.91267309594897], [31.06518741043806, 30.902173872740374], [31.05069576124866, 30.898348669634554], [31.045644889321075, 30.900193544698084], [31.043794705370917, 30.907984505735232]]], [[[31.040822174204898, 30.82894313178586], [31.043570940678027, 30.84006307703412], [31.053097476525373, 30.841106307385576], [31.05737485763393, 30.839284831176258], [31.057438846494996, 30.836109079842327], [31.0484238268436, 30.826479339654476], [31.040822174204898, 30.82894313178586]]], [[[31.03345109972306, 30.799543574893146], [31.03330459497094, 30.806496856406493], [31.038850431268294, 30.81141246507481], [31.044318377460968, 30.811411192760733], [31.049256442578262, 30.80407906941435], [31.048313179543875, 30.797237877072924], [31.038497483377597, 30.796822713433073], [31.03345109972306, 30.799543574893146]]], [[[30.980372710340646, 30.799722517627824], [30.983134196250052, 30.80887539183234], [30.98648163215737, 30.81070288288482], [30.99513802540268, 30.809557635921454], [31.000083689218418, 30.816621165203475], [30.99886412297496, 30.822896042606626], [30.990831889837786, 30.821170599904747], [30.98898573484207, 30.829076087429627], [30.9991886879506, 30.827691537967645], [31.01091024622854, 30.831172518499805], [31.01621600054781, 30.830269538476067], [31.017588535839455, 30.81961514081494], [31.014068872999477, 30.81153890410661], [31.006237127735254, 30.809708280276503], [30.99992859936954, 30.80176254316739], [31.001532369794607, 30.794951157360597], [31.01435536619577, 30.790021217437076], [31.01502674463951, 30.78113256705426], [31.02289944237492, 30.775979498388093], [31.016597154903575, 30.764937560656843], [31.009918028773154, 30.76157014846869], [31.002050277142587, 30.763940758478643], [30.996921979273704, 30.77779063046555], [30.985572044335537, 30.773580595729822], [30.98019309391259, 30.775310756015624], [30.979964976080044, 30.78157355751325], [30.985741022263493, 30.785236884520987], [30.982435423499517, 30.788759573752007], [30.980372710340646, 30.799722517627824]], [[30.993055250394708, 30.78344351530047], [30.99759405222022, 30.78438480184284], [30.995761792175784, 30.7907151880244], [30.98851555052834, 30.78751675615328], [30.993055250394708, 30.78344351530047]]], [[[30.98693710686235, 30.871721427633865], [30.988102096312534, 30.877885384224978], [30.9938598129241, 30.876215274904343], [30.99555830682138, 30.87105031194966], [30.99047828019015, 30.869553593911], [30.98693710686235, 30.871721427633865]]], [[[30.997594499666135, 30.870156270311814], [31.002050995081245, 30.873587015587013], [31.016519561152716, 30.87157130494431], [31.00609961181707, 30.85974038494661], [31.001677443753117, 30.860010973016838], [30.997594499666135, 30.870156270311814]]], [[[30.988457186079653, 30.57791816236783], [31.00018788817558, 30.581962596267985], [31.00617904791215, 30.577212157587567], [31.013672354379917, 30.57830174994587], [31.016151201835818, 30.576453798219095], [31.016484317861142, 30.56413352733481], [31.008789401368272, 30.561626136989283], [31.006946914579576, 30.558595499617716], [31.008914477079976, 30.552872147956627], [31.017532495123568, 30.55249683758543], [31.018649165116983, 30.548067883157028], [31.016525268761626, 30.545998122021743], [31.01182582021323, 30.546022289518582], [31.008953862303162, 30.552154941951052], [31.0024345327546, 30.55107090298089], [30.999956114283613, 30.55291861712707], [30.99658865935925, 30.56451005470559], [30.987809548380646, 30.57452204726164], [30.988457186079653, 30.57791816236783]]], [[[30.98609131619854, 30.917037358668765], [30.986550482511834, 30.92049726054725], [30.999164620426285, 30.92044453289488], [31.004881165366, 30.913931967781686], [31.006021637491962, 30.90219680338728], [31.00308431860085, 30.898537516494418], [30.990968286922538, 30.90309735963074], [30.991829765889104, 30.9088412413837], [30.98609131619854, 30.917037358668765]]], [[[30.961458979913616, 30.846765398700345], [30.958791854411466, 30.850851858413208], [30.9663343306478, 30.854413047068693], [30.97443632074327, 30.852942113679138], [30.977007605979257, 30.858447522384267], [30.99071443314661, 30.859017411110344], [30.988907272422903, 30.850415024043667], [30.979687384169253, 30.849747945198413], [30.969996979455292, 30.840671472508905], [30.964589754192378, 30.841476288665362], [30.961458979913616, 30.846765398700345]]], [[[30.979514828790848, 30.588215981692777], [30.9803777776558, 30.59452759203686], [30.985703471704877, 30.594877128149303], [30.991687730243484, 30.592321530994244], [30.992838002889513, 30.58634643528608], [30.98291410534994, 30.583267009915872], [30.979514828790848, 30.588215981692777]]], [[[30.955419302467135, 30.88331061653292], [30.954753825196356, 30.88587032476337], [30.962876938451448, 30.890710341020092], [30.966346524841207, 30.88995916327795], [30.973147038193655, 30.88574275897847], [30.972407661795916, 30.875089456159067], [30.964898180264576, 30.87620207254211], [30.955419302467135, 30.88331061653292]]], [[[30.957549739932013, 30.90471473460573], [30.957970978361796, 30.9068428002394], [30.96473830987752, 30.90781021143067], [30.97151436016186, 30.906972031305948], [30.971916099832097, 30.903213331232365], [30.96565588886042, 30.89855642439757], [30.957549739932013, 30.90471473460573]]], [[[30.885228746348456, 30.807485714984313], [30.89583764872728, 30.813730343226222], [30.885868166054077, 30.824158360502473], [30.896727303596187, 30.826256207918878], [30.89840956286867, 30.81941559248386], [30.896325918459038, 30.812945814266524], [30.90448414920498, 30.807297819780153], [30.92135515227961, 30.80714593422521], [30.92830006625939, 30.816710457377088], [30.934436356523353, 30.81003383131816], [30.93170478175961, 30.80353179214879], [30.93319037606078, 30.7994265008103], [30.9400530974675, 30.795773003985385], [30.948039338696343, 30.79926495499744], [30.969003539255866, 30.798792338194243], [30.97231404979926, 30.7960812861408], [30.973379898774912, 30.789391733313785], [30.959841091601287, 30.78787372523114], [30.939942976923827, 30.795526359968015], [30.929259143680557, 30.793576216211033], [30.920534144698284, 30.797236942684727], [30.911094994593988, 30.797195712426383], [30.905736810597197, 30.80204960522188], [30.889581474350084, 30.80146220194943], [30.885228746348456, 30.807485714984313]]], [[[30.95431979961955, 30.762454957882316], [30.958181522145757, 30.769946877205044], [30.96909020756299, 30.77406167250682], [30.97277817663637, 30.772179931047095], [30.97284704160957, 30.766748855448512], [30.95936138393062, 30.753910589321084], [30.954533749051155, 30.755697804109637], [30.95431979961955, 30.762454957882316]]], [[[30.936623292293422, 30.67186213417947], [30.93759668287488, 30.67827010029804], [30.94423711531839, 30.67749510510339], [30.94425120367755, 30.670996510190424], [30.936623292293422, 30.67186213417947]]], [[[30.900102443470594, 30.874793994243774], [30.905445886664918, 30.881942600443388], [30.910758358081782, 30.88305453621246], [30.913859620503995, 30.889217115295562], [30.92006812951162, 30.885938837138525], [30.926888014831864, 30.877188199843502], [30.936830392641124, 30.878721506407707], [30.939357677617924, 30.874214122854482], [30.93724597390029, 30.870389020013615], [30.932183314436482, 30.870182051696915], [30.927551451067277, 30.875248066512647], [30.91920243325323, 30.875774687520718], [30.913883947966582, 30.869202184620445], [30.904584780958633, 30.868184714085647], [30.900999646916418, 30.870083615379315], [30.900102443470594, 30.874793994243774]]], [[[30.91138679124559, 30.52942660142761], [30.913784030124553, 30.53223152569199], [30.91174225037438, 30.536787281544978], [30.9151303944683, 30.538087068966068], [30.92133392728687, 30.534489819710192], [30.934097824907283, 30.53228368395905], [30.926974818461186, 30.52616301164285], [30.926450826446604, 30.518170711338282], [30.918634359919064, 30.51899074188544], [30.916734311555526, 30.524179544527115], [30.911099056148085, 30.52683720171922], [30.91138679124559, 30.52942660142761]]], [[[30.85243653461973, 30.8316616746248], [30.851417059141212, 30.8389201655445], [30.85607352987052, 30.844009861473236], [30.867271212897144, 30.846692801898005], [30.87282419454489, 30.844163268528074], [30.87981218781531, 30.853086188796095], [30.88237391543531, 30.852649607415895], [30.883219598132886, 30.84698875725546], [30.88765756868435, 30.845480214771687], [30.896544609601037, 30.846748240909395], [30.899236716244065, 30.851820072200127], [30.917744363482537, 30.85286707292444], [30.92011402145689, 30.851495301865544], [30.91961484103148, 30.84178981463313], [30.926746748195896, 30.835227091252744], [30.918607133732507, 30.830530470263152], [30.902607115443825, 30.839684250431482], [30.888848409971487, 30.841732527630754], [30.88619706927465, 30.835686394891084], [30.882120063433053, 30.83457940817411], [30.878449423999815, 30.839223226858046], [30.872353478251227, 30.837901161864213], [30.866179965252503, 30.829695549343832], [30.85243653461973, 30.8316616746248]]], [[[30.907552425785937, 30.820774639132278], [30.908400567562236, 30.82547930735058], [30.91295337010014, 30.82571981080214], [30.918104597432194, 30.817061493495448], [30.91246827755511, 30.816553712161422], [30.907552425785937, 30.820774639132278]]], [[[30.869244687960435, 30.806124748695503], [30.869479321905022, 30.811831371060507], [30.87623886355795, 30.812803080533122], [30.87966865096204, 30.810908769185783], [30.877652695952314, 30.80441886609622], [30.869244687960435, 30.806124748695503]]], [[[30.812933162944955, 30.499992102227264], [30.814706299357674, 30.50235409029958], [30.82035430770124, 30.50264841551221], [30.825364719217326, 30.50874544800112], [30.83144361465629, 30.50398343895285], [30.839627231706974, 30.505446475004092], [30.846662529348794, 30.51139407639828], [30.852446855344407, 30.511544508908464], [30.859629212851317, 30.50268270143591], [30.859853176329448, 30.49535484216519], [30.858297371154897, 30.493102064747813], [30.848044319914532, 30.492951539984485], [30.843040878150507, 30.495498490996038], [30.841576970086848, 30.500925499043333], [30.83234254821315, 30.501189819675943], [30.82724195579601, 30.49498453023546], [30.816040990415644, 30.493936565641178], [30.81260009545653, 30.495124318031504], [30.812933162944955, 30.499992102227264]]], [[[30.799216400892323, 30.832352181481927], [30.803670792399636, 30.83631250826314], [30.813311477535336, 30.83641787960646], [30.81662178421366, 30.83171452762535], [30.822469211947848, 30.831119471149705], [30.831782217940233, 30.824163160840207], [30.834742266254374, 30.816399813251785], [30.831416493118006, 30.813620290167137], [30.821773830558833, 30.81550482297582], [30.812078305715477, 30.814155777994092], [30.813234160152575, 30.822939972156476], [30.799055529507722, 30.828713785380923], [30.799216400892323, 30.832352181481927]]], [[[30.76156044200669, 30.458883712972895], [30.761127893760513, 30.462772942933647], [30.772911629987213, 30.466123431227008], [30.7907489808447, 30.4657598693343], [30.79512011691144, 30.471141522725112], [30.81602997414849, 30.469917108131433], [30.820362491581783, 30.463913552018543], [30.818759836178824, 30.45995048834204], [30.795551599709338, 30.458780270652074], [30.789866752208805, 30.46060411772952], [30.78591327225507, 30.4516625343206], [30.780867335060016, 30.451702940843983], [30.772467143605102, 30.459552053096623], [30.76156044200669, 30.458883712972895]]], [[[30.78354286106624, 30.52227731231199], [30.78432098699758, 30.527141142259744], [30.789688637500795, 30.528810052447763], [30.789729430790963, 30.533572383004117], [30.799041729062644, 30.5319706260483], [30.79917421175957, 30.528087704525383], [30.794470397048688, 30.52502775427122], [30.79384602904659, 30.513798236882252], [30.784596098147222, 30.517604259105752], [30.78354286106624, 30.52227731231199]]], [[[30.774395496118192, 30.648962785325825], [30.77617135145189, 30.65472392740925], [30.782522705866928, 30.654965300381797], [30.783309776068883, 30.66189061819627], [30.791765341474193, 30.657851174482193], [30.788916483770464, 30.649025616991693], [30.776098890029427, 30.646392816248987], [30.774395496118192, 30.648962785325825]]], [[[30.769532650733787, 30.691135544034267], [30.77391694495763, 30.695847489451896], [30.783011865981546, 30.692991516788897], [30.778777035270753, 30.686662791020417], [30.769286595374, 30.68813418963032], [30.769532650733787, 30.691135544034267]]], [[[30.7495627201675, 30.674169509127015], [30.749886708865212, 30.679136691715428], [30.757039346646376, 30.676868994797776], [30.75925945709108, 30.668877753553268], [30.756257494510656, 30.667839905723323], [30.7495627201675, 30.674169509127015]]], [[[30.73762750666954, 30.716105749576585], [30.74546826953296, 30.722414559256663], [30.750181992162066, 30.718797305244905], [30.747838734468345, 30.712436693058812], [30.73746227440303, 30.713073449637204], [30.73762750666954, 30.716105749576585]]], [[[30.733331358185666, 30.568591591135654], [30.73347777600236, 30.573635369911692], [30.745914397611564, 30.57462483307957], [30.747465563330962, 30.562007526810397], [30.739103361083327, 30.562319583281997], [30.734309683337422, 30.564747212621917], [30.733331358185666, 30.568591591135654]]], [[[30.71828707985855, 30.54871176141032], [30.722428788394136, 30.552592630724185], [30.727656079282117, 30.55265165661502], [30.73544325285034, 30.540916630124602], [30.72915288583081, 30.539641105937275], [30.726833030507198, 30.542453912597402], [30.71809694547575, 30.543391057908174], [30.71828707985855, 30.54871176141032]]], [[[30.714882594207264, 30.593018001923152], [30.714745757818946, 30.598639437741895], [30.721594119120972, 30.600547061589488], [30.722499460196765, 30.61114998654003], [30.731794688547485, 30.611419294932375], [30.732163371495066, 30.60666808279562], [30.72714662314743, 30.60064185769591], [30.728119364491707, 30.589653665019412], [30.72253665275834, 30.58372512271348], [30.71673834011145, 30.587703136082162], [30.714882594207264, 30.593018001923152]]], [[[30.703379638731892, 30.889796998559994], [30.707169582418874, 30.895710920947803], [30.716432764811024, 30.89468440759373], [30.717482306927188, 30.890390824477965], [30.714364125921787, 30.885907279145673], [30.705613505917015, 30.88575235531091], [30.703379638731892, 30.889796998559994]]], [[[30.709771494978195, 30.692035401045757], [30.711448703269447, 30.700670375518804], [30.718926753562968, 30.702455623712847], [30.721086244456483, 30.700426611211714], [30.72115588725283, 30.689035854079386], [30.715741425204826, 30.68869214688213], [30.709771494978195, 30.692035401045757]]], [[[30.700012842377372, 30.571804739844474], [30.702175490796563, 30.57775910036038], [30.710947678075513, 30.575922366838345], [30.717791586699768, 30.578088919469646], [30.72145327273052, 30.57034996541105], [30.711725430472924, 30.562527207103948], [30.70127821805991, 30.56565871494346], [30.700012842377372, 30.571804739844474]]], [[[30.700122316861194, 30.717101035243786], [30.704269348082082, 30.723238911630443], [30.712563756350114, 30.719686382958525], [30.706735532589448, 30.709396662492654], [30.70132077097736, 30.71040192639004], [30.700122316861194, 30.717101035243786]]], [[[30.70218793115434, 30.638425057332572], [30.70201092653923, 30.641599907842405], [30.704899147354272, 30.6427730365835], [30.709812540953994, 30.64102910480771], [30.71091524735428, 30.635685101702474], [30.703484785484417, 30.63591036255606], [30.70218793115434, 30.638425057332572]]], [[[30.688517576552798, 30.753243986388693], [30.693494370347423, 30.758605236348583], [30.69936471024747, 30.75948292078619], [30.702712102459863, 30.756708394172502], [30.698706979387563, 30.74948917493223], [30.690945672633845, 30.749376684969302], [30.688517576552798, 30.753243986388693]]], [[[30.662231099767784, 30.696601686787165], [30.661225493658584, 30.70280793029834], [30.668867424924148, 30.70636661215075], [30.673189297532705, 30.706284060927352], [30.674109361343753, 30.702394531432304], [30.679024793343803, 30.699756116785295], [30.678928935829525, 30.696021661105632], [30.672251116468843, 30.6917682279208], [30.66626954772315, 30.692510403184816], [30.662231099767784, 30.696601686787165]]], [[[30.653216855043155, 30.88359494742518], [30.653561174268052, 30.890908029052703], [30.65872462185796, 30.890943798229383], [30.663342895297024, 30.88695931147808], [30.670270328965838, 30.88889000154257], [30.67268953613046, 30.887646484616642], [30.673820952217554, 30.877939055744086], [30.661049757493334, 30.877968440734506], [30.653216855043155, 30.88359494742518]]], [[[30.645330622184176, 30.72446340400193], [30.6490354894402, 30.73291698028057], [30.656139475799037, 30.732413893050516], [30.66328250832001, 30.72075434686826], [30.660967008855952, 30.717878768999242], [30.651501932482518, 30.71770779831573], [30.645330622184176, 30.72446340400193]]]]}}, {"type": "Feature", "properties": {"threshold": 95}, "geometry": {"type": "MultiPolygon", "coordinates": [[[[31.109889440980947, 30.728935108170425], [31.1090439677693, 30.734082839542744], [31.11472266601346, 30.735925091174153], [31.11600511365384, 30.72868683769675], [31.109889440980947, 30.728935108170425]]], [[[31.043794705370917, 30.907984505735232], [31.047501203912294, 30.91518671275405], [31.05982364564999, 30.916203477399147], [31.064976111377327, 30.91267309594897], [31.06518741043806, 30.902173872740374], [31.05069576124866, 30.898348669634554], [31.045644889321075, 30.900193544698084], [31.043794705370917, 30.907984505735232]]], [[[31.040822174204898, 30.82894313178586], [31.043570940678027, 30.84006307703412], [31.053097476525373, 30.841106307385576], [31.05737485763393, 30.839284831176258], [31.057438846494996, 30.836109079842327], [31.0484238268436, 30.826479339654476], [31.040822174204898, 30.82894313178586]]], [[[31.03345109972306, 30.799543574893146], [31.033173887938446, 30.80630088872228], [31.03892896000832, 30.811445989652146], [31.044171185462094, 30.811492904675926], [31.050963070408535, 30.80579625811973], [31.04796933097846, 30.797009599709938], [31.034003220105813, 30.797528068525327], [31.03345109972306, 30.799543574893146]]], [[[30.980372710340646, 30.799722517627824], [30.983134196250052, 30.80887539183234], [30.98648163215737, 30.81070288288482], [30.99513802540268, 30.809557635921454], [31.000083689218418, 30.816621165203475], [30.99886412297496, 30.822896042606626], [30.990831889837786, 30.821170599904747], [30.98898573484207, 30.829076087429627], [30.9991886879506, 30.827691537967645], [31.01091024622854, 30.831172518499805], [31.01621600054781, 30.830269538476067], [31.017588535839455, 30.81961514081494], [31.014068872999477, 30.81153890410661], [31.006237127735254, 30.809708280276503], [30.99992859936954, 30.80176254316739], [31.001532369794607, 30.794951157360597], [31.01435536619577, 30.790021217437076], [31.01502674463951, 30.78113256705426], [31.02289944237492, 30.775979498388093], [31.016597154903575, 30.764937560656843], [31.009918028773154, 30.76157014846869], [31.002050277142587, 30.763940758478643], [30.996921979273704, 30.77779063046555], [30.985572044335537, 30.773580595729822], [30.98019309391259, 30.775310756015624], [30.979964976080044, 30.78157355751325], [30.985741022263493, 30.785236884520987], [30.982435423499517, 30.788759573752007], [30.980372710340646, 30.799722517627824]], [[30.993055250394708, 30.78344351530047], [30.99759405222022, 30.78438480184284], [30.995761792175784, 30.7907151880244], [30.98851555052834, 30.78751675615328], [30.993055250394708, 30.78344351530047]]], [[[31.011619622249373, 30.843573559335518], [31.01760049568288, 30.843535327974063], [31.019740475377244, 30.83863186651521], [31.013145899004236, 30.83754476258275], [31.011619622249373, 30.843573559335518]]], [[[30.985279576732776, 30.875159253806697], [30.985412804843502, 30.877843537819253], [30.98966660720596, 30.878024772522018], [30.99464272239776, 30.87634419274053], [30.996723340808806, 30.871840619474415], [31.010293702278013, 30.873714027386942], [31.015274274931052, 30.87284584783958], [31.016543209306544, 30.86979887918541], [31.006575069281144, 30.859918927895247], [31.00225254377629, 30.859692158485945], [30.997193004064062, 30.869804297295435], [30.98924663366256, 30.869621747778254], [30.985279576732776, 30.875159253806697]]], [[[30.988457186079653, 30.57791816236783], [31.00018788817558, 30.581962596267985], [31.00617904791215, 30.577212157587567], [31.013672354379917, 30.57830174994587], [31.016151201835818, 30.576453798219095], [31.016484317861142, 30.56413352733481], [31.008789401368272, 30.561626136989283], [31.006946914579576, 30.558595499617716], [31.008914477079976, 30.552872147956627], [31.017532495123568, 30.55249683758543], [31.018649165116983, 30.548067883157028], [31.016525268761626, 30.545998122021743], [31.01182582021323, 30.546022289518582], [31.008953862303162, 30.552154941951052], [31.0024345327546, 30.55107090298089], [30.999956114283613, 30.55291861712707], [30.99658865935925, 30.56451005470559], [30.987809548380646, 30.57452204726164], [30.988457186079653, 30.57791816236783]]], [[[30.985301038969034, 30.917143902970043], [30.98646845058189, 30.9204705050036], [30.996745873950218, 30.921458559876672], [31.004641963282253, 30.915888522212548], [31.006021637491962, 30.90219680338728], [31.00310037239215, 30.897764318316845], [30.990152419679937, 30.899217468334616], [30.990579446748292, 30.909114205494266], [30.985301038969034, 30.917143902970043]]], [[[30.961458979913616, 30.846765398700345], [30.958791854411466, 30.850851858413208], [30.9663343306478, 30.854413047068693], [30.97443632074327, 30.852942113679138], [30.977007605979257, 30.858447522384267], [30.986328050568716, 30.860974665821246], [30.99071443314661, 30.859017411110344], [30.988907272422903, 30.850415024043667], [30.979687384169253, 30.849747945198413], [30.969996979455292, 30.840671472508905], [30.962797595924915, 30.841448101425183], [30.961458979913616, 30.846765398700345]]], [[[30.979514828790848, 30.588215981692777], [30.9803777776558, 30.59452759203686], [30.985703471704877, 30.594877128149303], [30.991687730243484, 30.592321530994244], [30.992838002889513, 30.58634643528608], [30.98291410534994, 30.583267009915872], [30.979514828790848, 30.588215981692777]]], [[[30.955419302467135, 30.88331061653292], [30.954753825196356, 30.88587032476337], [30.962876938451448, 30.890710341020092], [30.966346524841207, 30.88995916327795], [30.973147038193655, 30.88574275897847], [30.972407661795916, 30.875089456159067], [30.967620040548294, 30.874697975188266], [30.955419302467135, 30.88331061653292]]], [[[30.958611416570278, 30.90192350281949], [30.958049551628104, 30.9068763754783], [30.96636160048577, 30.90861569685806], [30.972676036006426, 30.90668944722046], [30.97179357758944, 30.902085362233475], [30.966980781747942, 30.898632208366124], [30.958611416570278, 30.90192350281949]]], [[[30.885228746348456, 30.807485714984313], [30.89583764872728, 30.813730343226222], [30.885868166054077, 30.824158360502473], [30.896401415176687, 30.82628689603479], [30.898294131345523, 30.824713808139208], [30.897071880998286, 30.812020386883443], [30.906096356648643, 30.806759402846538], [30.921159554386602, 30.80783185752869], [30.92111911145289, 30.811394769456875], [30.91330856213334, 30.81199786164255], [30.911497528455477, 30.817832531874974], [30.907485718817497, 30.819142310659796], [30.91016587505203, 30.826473768621295], [30.917939773765983, 30.8208756354907], [30.921207902367776, 30.81231518411133], [30.925293393027736, 30.812541809736526], [30.927057011309092, 30.816720042260418], [30.932385860615618, 30.81343342058461], [30.93449183861398, 30.808394452746516], [30.932085003118626, 30.8006645861947], [30.938592276492873, 30.79616535488327], [30.948039338696343, 30.79926495499744], [30.968918197166616, 30.798809376575164], [30.97231404979926, 30.7960812861408], [30.973379898774912, 30.789391733313785], [30.959841091601287, 30.78787372523114], [30.939942976923827, 30.795526359968015], [30.929259143680557, 30.793576216211033], [30.920534144698284, 30.797236942684727], [30.911094994593988, 30.797195712426383], [30.905736810597197, 30.80204960522188], [30.889581474350084, 30.80146220194943], [30.885228746348456, 30.807485714984313]]], [[[30.951632007581072, 30.75910940034281], [30.957211833848685, 30.76989272080798], [30.963238181700724, 30.770308647539228], [30.96909020756299, 30.77406167250682], [30.97273180350332, 30.772244074505497], [30.972890692585015, 30.766814406819492], [30.96709379632038, 30.76206774111618], [30.967444318563413, 30.7563967672832], [30.96223786647842, 30.75771251200813], [30.959435648599303, 30.75395063843594], [30.956082678819016, 30.753782765207344], [30.95098263742362, 30.75635032298422], [30.951632007581072, 30.75910940034281]]], [[[30.936623292293422, 30.67186213417947], [30.93759668287488, 30.67827010029804], [30.94423711531839, 30.67749510510339], [30.94425120367755, 30.670996510190424], [30.936623292293422, 30.67186213417947]]], [[[30.900102443470594, 30.874793994243774], [30.905445886664918, 30.881942600443388], [30.910758358081782, 30.88305453621246], [30.913859620503995, 30.889217115295562], [30.92006812951162, 30.885938837138525], [30.926888014831864, 30.877188199843502], [30.936830392641124, 30.878721506407707], [30.939357677617924, 30.874214122854482], [30.93399256321515, 30.86943751811699], [30.927551451067277, 30.875248066512647], [30.91920243325323, 30.875774687520718], [30.913883947966582, 30.869202184620445], [30.901895901610523, 30.86814114475736], [30.900102443470594, 30.874793994243774]]], [[[30.91138679124559, 30.52942660142761], [30.913784030124553, 30.53223152569199], [30.91174225037438, 30.536787281544978], [30.9151303944683, 30.538087068966068], [30.92133392728687, 30.534489819710192], [30.934097824907283, 30.53228368395905], [30.926974818461186, 30.52616301164285], [30.926450826446604, 30.518170711338282], [30.918634359919064, 30.51899074188544], [30.916734311555526, 30.524179544527115], [30.911099056148085, 30.52683720171922], [30.91138679124559, 30.52942660142761]]], [[[30.85243653461973, 30.8316616746248], [30.851417059141212, 30.8389201655445], [30.85607352987052, 30.844009861473236], [30.867271212897144, 30.846692801898005], [30.87282419454489, 30.844163268528074], [30.87634001056591, 30.851910559882775], [30.87981218781531, 30.853086188796095], [30.88237391543531, 30.852649607415895], [30.883219598132886, 30.84698875725546], [30.88765756868435, 30.845480214771687], [30.896544609601037, 30.846748240909395], [30.899236716244065, 30.851820072200127], [30.917744363482537, 30.85286707292444], [30.92011402145689, 30.851495301865544], [30.91961484103148, 30.84178981463313], [30.926746748195896, 30.835227091252744], [30.918607133732507, 30.830530470263152], [30.902607115443825, 30.839684250431482], [30.888848409971487, 30.841732527630754], [30.88619706927465, 30.835686394891084], [30.882120063433053, 30.83457940817411], [30.878449423999815, 30.839223226858046], [30.872353478251227, 30.837901161864213], [30.868867710497785, 30.82973981101455], [30.85243653461973, 30.8316616746248]]], [[[30.869244687960435, 30.806124748695503], [30.868177367472185, 30.81058059692963], [30.872115429848083, 30.814194974670286], [30.87966865096204, 30.810908769185783], [30.877652695952314, 30.80441886609622], [30.869244687960435, 30.806124748695503]]], [[[30.812933162944955, 30.499992102227264], [30.814706299357674, 30.50235409029958], [30.82035430770124, 30.50264841551221], [30.825364719217326, 30.50874544800112], [30.83144361465629, 30.50398343895285], [30.839627231706974, 30.505446475004092], [30.846662529348794, 30.51139407639828], [30.852446855344407, 30.511544508908464], [30.859629212851317, 30.50268270143591], [30.859853176329448, 30.49535484216519], [30.858297371154897, 30.493102064747813], [30.848044319914532, 30.492951539984485], [30.843040878150507, 30.495498490996038], [30.841576970086848, 30.500925499043333], [30.83234254821315, 30.501189819675943], [30.82724195579601, 30.49498453023546], [30.816040990415644, 30.493936565641178], [30.81260009545653, 30.495124318031504], [30.812933162944955, 30.499992102227264]]], [[[30.799216400892323, 30.832352181481927], [30.803670792399636, 30.83631250826314], [30.813311477535336, 30.83641787960646], [30.81662178421366, 30.83171452762535], [30.822469211947848, 30.831119471149705], [30.831782217940233, 30.824163160840207], [30.834742266254374, 30.816399813251785], [30.831416493118006, 30.813620290167137], [30.821773830558833, 30.81550482297582], [30.812078305715477, 30.814155777994092], [30.813234160152575, 30.822939972156476], [30.799055529507722, 30.828713785380923], [30.799216400892323, 30.832352181481927]]], [[[30.761678067536376, 30.458594092800126], [30.760906720968208, 30.462652880214115], [30.772741320273656, 30.46609104954272], [30.790994652895627, 30.465840743345844], [30.79510268929476, 30.471914668281762], [30.80378353231164, 30.469354139731784], [30.816112717038255, 30.469893015911435], [30.820362491581783, 30.463913552018543], [30.817884591425425, 30.459162398018627], [30.789866752208805, 30.46060411772952], [30.78591327225507, 30.4516625343206], [30.780867335060016, 30.451702940843983], [30.772467143605102, 30.459552053096623], [30.761678067536376, 30.458594092800126]]], [[[30.78354286106624, 30.52227731231199], [30.78432098699758, 30.527141142259744], [30.789688637500795, 30.528810052447763], [30.789660305445267, 30.53352615889365], [30.7989708978236, 30.53280360796816], [30.79917421175957, 30.528087704525383], [30.794470397048688, 30.52502775427122], [30.79391514315332, 30.5138444583126], [30.784596098147222, 30.517604259105752], [30.78354286106624, 30.52227731231199]]], [[[30.774395496118192, 30.648962785325825], [30.77617135145189, 30.65472392740925], [30.782522705866928, 30.654965300381797], [30.783309776068883, 30.66189061819627], [30.791765341474193, 30.657851174482193], [30.788916483770464, 30.649025616991693], [30.776098890029427, 30.646392816248987], [30.774395496118192, 30.648962785325825]]], [[[30.769532650733787, 30.691135544034267], [30.772986804540334, 30.697378359685295], [30.783906465741648, 30.69300679097876], [30.778777035270753, 30.686662791020417], [30.771111227230197, 30.686618701784514], [30.769532650733787, 30.691135544034267]]], [[[30.76305169622596, 30.70670458821888], [30.76375509861467, 30.709594195574823], [30.771551968845895, 30.70728191806105], [30.77101669268327, 30.702336802876125], [30.766188604158135, 30.702814599882668], [30.76305169622596, 30.70670458821888]]], [[[30.7495627201675, 30.674169509127015], [30.749886708865212, 30.679136691715428], [30.757039346646376, 30.676868994797776], [30.75925945709108, 30.668877753553268], [30.756257494510656, 30.667839905723323], [30.7495627201675, 30.674169509127015]]], [[[30.73762750666954, 30.716105749576585], [30.74546826953296, 30.722414559256663], [30.750181992162066, 30.718797305244905], [30.747838734468345, 30.712436693058812], [30.73746227440303, 30.713073449637204], [30.73762750666954, 30.716105749576585]]], [[[30.733331358185666, 30.568591591135654], [30.73333462193604, 30.57354894760127], [30.74409161404277, 30.576140075634708], [30.74729148559606, 30.57334597929834], [30.747465563330962, 30.562007526810397], [30.739103361083327, 30.562319583281997], [30.734309683337422, 30.564747212621917], [30.733331358185666, 30.568591591135654]]], [[[30.71828707985855, 30.54871176141032], [30.722428788394136, 30.552592630724185], [30.727656079282117, 30.55265165661502], [30.73544325285034, 30.540916630124602], [30.72915288583081, 30.539641105937275], [30.726833030507198, 30.542453912597402], [30.71809694547575, 30.543391057908174], [30.71828707985855, 30.54871176141032]]], [[[30.714882594207264, 30.593018001923152], [30.714745757818946, 30.598639437741895], [30.721594119120972, 30.600547061589488], [30.722499460196765, 30.61114998654003], [30.731794688547485, 30.611419294932375], [30.732181392446627, 30.605894986550656], [30.72714662314743, 30.60064185769591], [30.728119364491707, 30.589653665019412], [30.72253665275834, 30.58372512271348], [30.71673834011145, 30.587703136082162], [30.714882594207264, 30.593018001923152]]], [[[30.709052323338156, 30.694578844021013], [30.714360482280227, 30.702459219778234], [30.720978519326277, 30.7007124466709], [30.72089154354206, 30.68884046822079], [30.712876854985847, 30.68947292147509], [30.709052323338156, 30.694578844021013]]], [[[30.703379638731892, 30.889796998559994], [30.707169582418874, 30.895710920947803], [30.716432764811024, 30.89468440759373], [30.717482306927188, 30.890390824477965], [30.714364125921787, 30.885907279145673], [30.705613505917015, 30.88575235531091], [30.703379638731892, 30.889796998559994]]], [[[30.69927216709763, 30.572634289485045], [30.702257148373345, 30.577786019370684], [30.710947678075513, 30.575922366838345], [30.717791586699768, 30.578088919469646], [30.72145327273052, 30.57034996541105], [30.711725430472924, 30.562527207103948], [30.70127821805991, 30.56565871494346], [30.69927216709763, 30.572634289485045]]], [[[30.700079885595933, 30.718632920011498], [30.701518772452367, 30.722398446700904], [30.71147446406115, 30.722265140246265], [30.71258784304576, 30.717765991198934], [30.707054166567307, 30.7095173545992], [30.70132077097736, 30.71040192639004], [30.700079885595933, 30.718632920011498]]], [[[30.70218793115434, 30.638425057332572], [30.70201092653923, 30.641599907842405], [30.704899147354272, 30.6427730365835], [30.709812540953994, 30.64102910480771], [30.71091524735428, 30.635685101702474], [30.703484785484417, 30.63591036255606], [30.70218793115434, 30.638425057332572]]], [[[30.688517576552798, 30.753243986388693], [30.693412566254523, 30.758578304837034], [30.701412324118657, 30.758649164856795], [30.701959313250835, 30.745989200069257], [30.69714726406481, 30.745691236225195], [30.688517576552798, 30.753243986388693]]], [[[30.68817494321889, 30.701036983010166], [30.689030078974636, 30.704969533408196], [30.69283732897881, 30.705133102056905], [30.695976421184422, 30.696386105612167], [30.68817494321889, 30.701036983010166]]], [[[30.67283260400261, 30.716410493710832], [30.680779298985247, 30.719651413068018], [30.68402093306292, 30.71170597927743], [30.67296174929244, 30.711965176176598], [30.67283260400261, 30.716410493710832]]], [[[30.662231099767784, 30.696601686787165], [30.661225493658584, 30.70280793029834], [30.668867424924148, 30.70636661215075], [30.673189297532705, 30.706284060927352], [30.674109361343753, 30.702394531432304], [30.679024793343803, 30.699756116785295], [30.678928935829525, 30.696021661105632], [30.672251116468843, 30.6917682279208], [30.664499126348346, 30.691705179407933], [30.662231099767784, 30.696601686787165]]], [[[30.653216855043155, 30.88359494742518], [30.653561174268052, 30.890908029052703], [30.65872462185796, 30.890943798229383], [30.663342895297024, 30.88695931147808], [30.670270328965838, 30.88889000154257], [30.67268953613046, 30.887646484616642], [30.673820952217554, 30.877939055744086], [30.661049757493334, 30.877968440734506], [30.653216855043155, 30.88359494742518]]], [[[30.645330622184176, 30.72446340400193], [30.6490354894402, 30.73291698028057], [30.656139475799037, 30.732413893050516], [30.66328250832001, 30.72075434686826], [30.660967008855952, 30.717878768999242], [30.651501932482518, 30.71770779831573], [30.645330622184176, 30.72446340400193]]], [[[30.594941488395182, 30.644037695941837], [30.59272956216636, 30.644521360074965], [30.593292088798307, 30.650078094304877], [30.60538622025068, 30.648736457717533], [30.606947982243877, 30.64663142496799], [30.601895553296515, 30.641765307094108], [30.594941488395182, 30.644037695941837]]]]}}]}