{"type": "FeatureCollection", "features": [{"type": "Feature", "properties": {"threshold": 70}, "geometry": {"type": "Polygon", "coordinates": [[[17.003844483806727, -22.51850865512659], [17.004661922857807, -22.51089237981647], [17.008803626021173, -22.50707033491925], [17.007004057651425, -22.498278554989145], [17.009948453637502, -22.492011266415986], [17.02175495652215, -22.488600760227634], [17.025030422971497, -22.498370526458505], [17.033857099191547, -22.49961848136773], [17.04092856319718, -22.489219612708297], [17.045795298409715, -22.488278292906706], [17.04778698119747, -22.491095894653526], [17.05084725993057, -22.490776449544356], [17.056381235063814, -22.480181742276503], [17.061186178230358, -22.485917216646083], [17.06608616053088, -22.486694311922275], [17.062119460003725, -22.509546462702765], [17.071759391184845, -22.517111430559627], [17.072008453794844, -22.523898183907463], [17.070167043376497, -22.52929124548099], [17.06304589217851, -22.533708136558186], [17.06790537076548, -22.539067800182643], [17.06630078390774, -22.549672601105947], [17.073128761794667, -22.551940784414267], [17.07688739099743, -22.544949234387577], [17.085628461664115, -22.540454518605504], [17.0896100124964, -22.531172462790646], [17.094772116376753, -22.53090601429941], [17.098847932864977, -22.534587554323984], [17.101456770938473, -22.553491449549533], [17.105488721827637, -22.55656813067486], [17.110028284593884, -22.555628297709966], [17.114132450284547, -22.5613698491882], [17.126961201577423, -22.567923141147343], [17.122599235863216, -22.573732738266358], [17.12453967964628, -22.57867539358923], [17.12072374636902, -22.583277210442628], [17.11225657765659, -22.585023658512466], [17.11189555146435, -22.5794275121548], [17.105023745539306, -22.57807492117079], [17.093550791441004, -22.58428819756445], [17.094311081486694, -22.587199943878645], [17.101258586568683, -22.590330316868304], [17.103676212354983, -22.59581093156731], [17.10845034281481, -22.59706948062649], [17.10958956328533, -22.617381539753826], [17.105954591337184, -22.623419250109038], [17.099176151772912, -22.62612957662806], [17.098291009992387, -22.629925242067035], [17.089847395589874, -22.631671864072615], [17.08085884253561, -22.637505450374555], [17.073892370119435, -22.6365377060691], [17.075666188817483, -22.62733827865828], [17.09088163435889, -22.624736631476676], [17.094706475302683, -22.621825495416523], [17.09279429807299, -22.605104864999237], [17.086453793597688, -22.603656709135702], [17.082885059748726, -22.59589801635984], [17.078701316006832, -22.59459701375704], [17.073954262617224, -22.613374585080138], [17.057317341636416, -22.616043502898453], [17.054290570106946, -22.606502128157206], [17.059890019694528, -22.604651644420336], [17.060067922280062, -22.597879327503847], [17.052504535273098, -22.596647475758644], [17.050559783353542, -22.58178627470636], [17.041945867128632, -22.582369257507764], [17.037415210600187, -22.560955797643377], [17.01852898691542, -22.560440570796565], [17.014962017604436, -22.566312714840922], [17.00470449238842, -22.564551696469653], [17.008881599328152, -22.551418293085955], [17.01864780583204, -22.546292279399015], [17.03150804192685, -22.544086788170173], [17.03260983765164, -22.53616515807438], [17.0363520998439, -22.533014069189505], [17.034042605784794, -22.52710259025961], [17.023446481617626, -22.526112920253947], [17.01653968629826, -22.520701067848957], [17.007968302405757, -22.52313025192657], [17.003844483806727, -22.51850865512659]], [[17.084606928583604, -22.566645766402633], [17.091762048108222, -22.568405590677635], [17.09481175328012, -22.563348496620527], [17.090861204111647, -22.560959962372863], [17.084930828438438, -22.563760373821204], [17.084606928583604, -22.566645766402633]], [[17.074698234871356, -22.588685587715986], [17.078394483684345, -22.590719691744837], [17.08117203776122, -22.58719166114187], [17.088750001737665, -22.5857442252837], [17.08960312811141, -22.582994502107855], [17.079972490517864, -22.57842098569134], [17.074439296433347, -22.579309930267936], [17.070599122074402, -22.583966384093266], [17.074698234871356, -22.588685587715986]]]}}, {"type": "Feature", "properties": {"threshold": 80}, "geometry": {"type": "Polygon", "coordinates": [[[16.997907496871548, -22.524785383390608], [16.99959603474997, -22.515689019669658], [17.007854164773256, -22.50743689868149], [17.007004057651425, -22.498278554989145], [17.00980978769103, -22.49209988955925], [17.02175495652215, -22.488600760227634], [17.02494312943453, -22.498187179634606], [17.033689532742073, -22.499294741367223], [17.039145604964556, -22.490083164713223], [17.045564121271546, -22.48826300098336], [17.050410731644774, -22.490098982351494], [17.055255696852953, -22.48116976591579], [17.060701793932466, -22.480246924935585], [17.06109784835525, -22.48544025082446], [17.06629250760546, -22.487256766398833], [17.062119460003725, -22.509546462702765], [17.071870269933545, -22.517321652368537], [17.071974851732048, -22.52541643785328], [17.076429162691078, -22.531829059447627], [17.0744937256147, -22.54342654384257], [17.084846483007006, -22.54110146306436], [17.0896100124964, -22.531172462790646], [17.095790268412898, -22.53095260492632], [17.098869555197215, -22.53466321841982], [17.101456770938473, -22.553491449549533], [17.109955386576797, -22.55558900434106], [17.114132450284547, -22.5613698491882], [17.12692727207772, -22.56704695856076], [17.125360488259147, -22.57836632915185], [17.131506205337867, -22.58235267535887], [17.128640022703916, -22.58873701682441], [17.12491015565749, -22.588629197509658], [17.1230543667238, -22.582738523304613], [17.11217986673299, -22.58499119341566], [17.111914939125622, -22.579564463286797], [17.10553044760076, -22.578091385280278], [17.09711371471229, -22.585357824083342], [17.102457316814913, -22.591185866364683], [17.109149656617735, -22.59275895861131], [17.108862120005618, -22.611738003299017], [17.116318404147986, -22.616555203235], [17.116370661059435, -22.619968797124628], [17.108494770406594, -22.62063361765691], [17.09822399036387, -22.629972757670213], [17.089847395589874, -22.631671864072615], [17.080937842851725, -22.63747804884262], [17.07402516364294, -22.63744727720109], [17.075587137666446, -22.626585240647074], [17.0922277824514, -22.623315453885034], [17.09443857646356, -22.612338156477996], [17.091845013866763, -22.604969432471577], [17.08471733224394, -22.60287857705345], [17.08225023884886, -22.59779508597179], [17.078792669302025, -22.59781814751944], [17.07494435986957, -22.61810798028103], [17.070093210891542, -22.62086061200544], [17.060750977824465, -22.619149676466733], [17.0543675051769, -22.613003494776468], [17.054309928057393, -22.606425932739665], [17.059933512674817, -22.604234543927156], [17.059979106240796, -22.597658513977656], [17.052504535273098, -22.596647475758644], [17.050559783353542, -22.58178627470636], [17.041945867128632, -22.582369257507764], [17.037077567142394, -22.562077568349665], [17.029528073682165, -22.56057167352185], [17.014962017604436, -22.566312714840922], [17.00452097120323, -22.564203495035606], [17.00893168939566, -22.5505643565025], [17.032063318088472, -22.54360636197857], [17.03260983765164, -22.53616515807438], [17.036289238038073, -22.53371802521484], [17.035492144094732, -22.528479130265083], [17.023446481617626, -22.526112920253947], [17.0162970395757, -22.520671935136125], [17.005834792109066, -22.525578083658417], [16.99870073182215, -22.52647907478574], [16.997907496871548, -22.524785383390608]], [[17.07370343830138, -22.586398000819276], [17.0793473191334, -22.58448818367187], [17.078547601442807, -22.57950212627395], [17.074439296433347, -22.579309930267936], [17.071080164089118, -22.582409437467867], [17.07370343830138, -22.586398000819276]], [[17.066933840620262, -22.547010348722743], [17.06708523697594, -22.550115761867865], [17.07222273807975, -22.55235319659009], [17.07532035904209, -22.54491360592303], [17.069121727283378, -22.54284019795766], [17.066933840620262, -22.547010348722743]], [[17.06618582954933, -22.53123560361284], [17.062981950219704, -22.53441049588968], [17.06650683643656, -22.537363161769314], [17.06956579546181, -22.533491523008014], [17.06618582954933, -22.53123560361284]]]}}, {"type": "Feature", "properties": {"threshold": 90}, "geometry": {"type": "Polygon", "coordinates": [[[16.995418259555812, -22.51800717038903], [16.997918234410893, -22.512376856413006], [17.005734320375737, -22.50678782739678], [17.00445361778419, -22.499834337900197], [17.008165239940414, -22.49287449161428], [17.02175495652215, -22.488600760227634], [17.02494312943453, -22.498187179634606], [17.032781237895435, -22.498904408784803], [17.03913387153377, -22.489282588017275], [17.050630354749355, -22.48962404030402], [17.055255696852953, -22.48116976591579], [17.06075313235851, -22.47949812954793], [17.06109784835525, -22.48544025082446], [17.06629250760546, -22.487256766398833], [17.062349666566973, -22.510218095803076], [17.06641605506253, -22.514223517582195], [17.082255879631603, -22.518864997164908], [17.080673757758237, -22.529681890488273], [17.07414379043289, -22.539431943093422], [17.0744937256147, -22.54342654384257], [17.085067653768842, -22.540968415034435], [17.088760309279593, -22.531984200785164], [17.095778184859466, -22.530152060999306], [17.098869555197215, -22.53466321841982], [17.101456770938473, -22.553491449549533], [17.109955386576797, -22.55558900434106], [17.114132450284547, -22.5613698491882], [17.12692727207772, -22.56704695856076], [17.125360488259147, -22.57836632915185], [17.131506205337867, -22.58235267535887], [17.128640022703916, -22.58873701682441], [17.12491015565749, -22.588629197509658], [17.1230543667238, -22.582738523304613], [17.11217986673299, -22.58499119341566], [17.111914939125622, -22.579564463286797], [17.10553044760076, -22.578091385280278], [17.09711371471229, -22.585357824083342], [17.10268249812966, -22.591313096356085], [17.1081676201814, -22.591040436684878], [17.109894619339908, -22.598293699708176], [17.120492069220493, -22.60141709433517], [17.119254868988122, -22.604948632822914], [17.11122009566186, -22.605401681686704], [17.10929102553171, -22.610994037454116], [17.11636959131022, -22.61661741210708], [17.116314926908203, -22.620027542618086], [17.110525174555985, -22.62065245829796], [17.104139997795418, -22.626732718020723], [17.08518829297638, -22.633700118775888], [17.080937842851725, -22.63747804884262], [17.073961892084288, -22.63739551786167], [17.074417094857164, -22.63022205846739], [17.068522885073676, -22.626935770376598], [17.06873706078793, -22.621821186679192], [17.061768844777813, -22.620837225329836], [17.054441435032494, -22.613366826593825], [17.054309928057393, -22.606425932739665], [17.059933512674817, -22.604234543927156], [17.060067922280062, -22.597879327503847], [17.052504535273098, -22.596647475758644], [17.050559783353542, -22.58178627470636], [17.041990193554412, -22.58243584906685], [17.036731347884476, -22.562876894320954], [17.02981976514167, -22.560576496054875], [17.014962017604436, -22.566312714840922], [17.004542549145334, -22.56427917503649], [17.00978200057014, -22.549752999265692], [17.032063318088472, -22.54360636197857], [17.03260983765164, -22.53616515807438], [17.036289238038073, -22.53371802521484], [17.035492144094732, -22.528479130265083], [17.02431990153633, -22.526902662287675], [17.016052515243793, -22.520664241937588], [17.001143571394813, -22.52801967193422], [16.998033140570772, -22.526870203218312], [16.995418259555812, -22.51800717038903]], [[17.074974499770335, -22.611536023307714], [17.07672763679695, -22.61879304111317], [17.088968115286164, -22.618949035770967], [17.092239191066447, -22.61613926910201], [17.09294969936773, -22.608645524274404], [17.07952458238652, -22.604230577524152], [17.074974499770335, -22.611536023307714]], [[17.066933840620262, -22.547010348722743], [17.06708523697594, -22.550115761867865], [17.07222273807975, -22.55235319659009], [17.07532035904209, -22.54491360592303], [17.069121727283378, -22.54284019795766], [17.066933840620262, -22.547010348722743]], [[17.064244858852067, -22.53636832708353], [17.068179656867073, -22.53620284272103], [17.067580389893664, -22.532023230178147], [17.063464595537607, -22.532855486462847], [17.064244858852067, -22.53636832708353]]]}}, {"type": "Feature", "properties": {"threshold": 95}, "geometry": {"type": "MultiPolygon", "coordinates": [[[[16.991820577264384, -22.51914742624804], [16.994492796601214, -22.5099590983159], [17.00456776944195, -22.505942958463876], [17.003592019442003, -22.49984505823549], [17.006453679955033, -22.493696553828872], [17.021672965223708, -22.488582764723876], [17.024988046674704, -22.49822881222463], [17.03273755310578, -22.49876804326708], [17.037343863483112, -22.489351872470973], [17.050630354749355, -22.48962404030402], [17.0551999857772, -22.48122848868381], [17.059816654094515, -22.478656802340677], [17.06109784835525, -22.48544025082446], [17.066283220924635, -22.487119716251712], [17.062435516166385, -22.50996807057891], [17.066370400919737, -22.514154571078038], [17.07186326188836, -22.516332422280346], [17.079021010112644, -22.515096167331233], [17.082255879631603, -22.518864997164908], [17.082481295136812, -22.535263447066463], [17.07464611230682, -22.538668108560934], [17.0744937256147, -22.54342654384257], [17.085067653768842, -22.540968415034435], [17.088760309279593, -22.531984200785164], [17.095778184859466, -22.530152060999306], [17.098869555197215, -22.53466321841982], [17.101456770938473, -22.553491449549533], [17.109955386576797, -22.55558900434106], [17.114132450284547, -22.5613698491882], [17.12692727207772, -22.56704695856076], [17.125360488259147, -22.57836632915185], [17.131506205337867, -22.58235267535887], [17.128640022703916, -22.58873701682441], [17.12491015565749, -22.588629197509658], [17.1230543667238, -22.582738523304613], [17.11217986673299, -22.58499119341566], [17.111914939125622, -22.579564463286797], [17.10553044760076, -22.578091385280278], [17.09711371471229, -22.585357824083342], [17.10268249812966, -22.591313096356085], [17.108110126404522, -22.590983181162414], [17.109991096050152, -22.598132394178187], [17.117354649177276, -22.598669092745624], [17.120492069220493, -22.60141709433517], [17.119254868988122, -22.604948632822914], [17.11122009566186, -22.605401681686704], [17.10929102553171, -22.610994037454116], [17.11636959131022, -22.61661741210708], [17.116370661059435, -22.619968797124628], [17.110525174555985, -22.62065245829796], [17.104139997795418, -22.626732718020723], [17.08518829297638, -22.633700118775888], [17.080937842851725, -22.63747804884262], [17.07402516364294, -22.63744727720109], [17.074400973327894, -22.630363044341735], [17.068522885073676, -22.626935770376598], [17.068726775451974, -22.621952550428727], [17.061768844777813, -22.620837225329836], [17.054441435032494, -22.613366826593825], [17.054309928057393, -22.606425932739665], [17.059933512674817, -22.604234543927156], [17.060067922280062, -22.597879327503847], [17.052504535273098, -22.596647475758644], [17.050559783353542, -22.58178627470636], [17.041990193554412, -22.58243584906685], [17.036731347884476, -22.562876894320954], [17.02981976514167, -22.560576496054875], [17.014962017604436, -22.566312714840922], [17.004542549145334, -22.56427917503649], [17.00978200057014, -22.549752999265692], [17.032063318088472, -22.54360636197857], [17.03260983765164, -22.53616515807438], [17.036289238038073, -22.53371802521484], [17.035492144094732, -22.528479130265083], [17.02345814598363, -22.526913501162795], [17.016422412043138, -22.521255766960763], [17.008848228306295, -22.523455404238607], [17.00690324440698, -22.52872229373998], [16.998640258398225, -22.528069809770525], [16.99671333731006, -22.522027899970908], [16.991820577264384, -22.51914742624804]], [[17.074974499770335, -22.611536023307714], [17.07688029264196, -22.618712743855095], [17.088968115286164, -22.618949035770967], [17.092239191066447, -22.61613926910201], [17.09294969936773, -22.608645524274404], [17.07952458238652, -22.604230577524152], [17.074974499770335, -22.611536023307714]], [[17.066933840620262, -22.547010348722743], [17.06708523697594, -22.550115761867865], [17.07222273807975, -22.55235319659009], [17.07532035904209, -22.54491360592303], [17.069121727283378, -22.54284019795766], [17.066933840620262, -22.547010348722743]], [[17.064786583671463, -22.531955426192646], [17.06324056675376, -22.5353163581275], [17.067214568160104, -22.5369140242681], [17.06850961353076, -22.533078901153957], [17.064786583671463, -22.531955426192646]]], [[[17.06475614061126, -22.38349140867005], [17.06316032925077, -22.378634388082133], [17.07128234228512, -22.37587107550755], [17.080154730591158, -22.379491978079475], [17.078417169000748, -22.389059968047814], [17.07333040042967, -22.388379574745777], [17.068584637798924, -22.392646293670463], [17.064057308371286, -22.389843827620272], [17.06475614061126, -22.38349140867005]]]]}}]}