{"type": "Feature", "properties": {"city": "Sarykemer", "country": "Kazakhstan", "real_area": 59.34}, "geometry": {"type": "MultiLineString", "coordinates": [[[71.3716437756641, 42.9305391914474], [71.3649840137831, 42.9324955055675], [71.3639705050136, 42.9376900698125], [71.3573096692614, 42.9396459639882], [71.3516631535709, 42.9364069953149], [71.3450020555103, 42.9383621707668], [71.3393563534549, 42.9351226064557], [71.340372013292, 42.9299282882568], [71.3470322998059, 42.9279734111829], [71.3526777379697, 42.9312125539694], [71.3593377624894, 42.9292569583583], [71.3603515376567, 42.9240625184951], [71.3547063636275, 42.9208237971961], [71.3557204049822, 42.915629481948], [71.3500763079038, 42.9123905868623], [71.3434179055387, 42.9143455855534], [71.3377746214872, 42.9111060954501], [71.3311159577559, 42.9130603759773], [71.3254734871843, 42.9098202910756], [71.3264899433902, 42.9046263472805], [71.3208485493525, 42.9013860894547], [71.3218652705948, 42.8961922709273], [71.3285223119584, 42.8942385866676], [71.3295382244164, 42.8890447700293], [71.3238981691817, 42.8858047612232], [71.3249143466219, 42.8806110702261], [71.3315695059194, 42.878657264538], [71.33258487506, 42.8734635758644], [71.3392389634061, 42.8715093510499], [71.344878492747, 42.8747485166852], [71.3438641968697, 42.8799423286626], [71.3495048016465, 42.8831813217464], [71.3561594387883, 42.8812260813072], [71.3618008554805, 42.8844644800536], [71.3684552305799, 42.8825085222807], [71.3694673793593, 42.8773144644366], [71.3761206825186, 42.8753580881805], [71.3771320238504, 42.8701640334159], [71.3837842551572, 42.8682072390081], [71.3894259539111, 42.8714442004652], [71.3884156862388, 42.8766383776387], [71.3940584603199, 42.8798751657294], [71.3930484593987, 42.885069468452], [71.3863946103132, 42.8870268608075], [71.3853838019647, 42.8922211666233], [71.3910279170313, 42.8954582023455], [71.3976825751599, 42.8935005109117], [71.4033275008332, 42.8967369513607], [71.4099818946758, 42.8947785424924], [71.415627630502, 42.8980143874498], [71.4146192386572, 42.9032090624524], [71.4202660507987, 42.906444732855], [71.4192579267012, 42.9116395326133], [71.4126019150949, 42.9135985402199], [71.4115929832824, 42.9187933428053], [71.4172411386901, 42.9220292595186], [71.4238979593315, 42.9200699524383], [71.429546925042, 42.9233052728215], [71.4285393370717, 42.9285003213907], [71.4218817072932, 42.9304599280144], [71.4162324746814, 42.9272241864861], [71.4095745793566, 42.9291830749305], [71.4039261575524, 42.9259467370107], [71.3972679973257, 42.9279049072467], [71.3916203867838, 42.9246679731541], [71.3849619622995, 42.9266254251529], [71.3839503382313, 42.9318201102594], [71.3772908396337, 42.9337771428603], [71.3716437756641, 42.9305391914474]], [[71.5259973989634, 43.0418921067597], [71.5269982379464, 43.0366951040377], [71.5336645014407, 43.0347290160968], [71.5393307350766, 43.037959629722], [71.5383309776465, 43.0431567518348], [71.5316639049688, 43.0451231409712], [71.5259973989634, 43.0418921067597]], [[71.299307778682, 42.8832290167824], [71.300326102423, 42.8780355734415], [71.3069817813042, 42.876083202615], [71.3126199476218, 42.8793239773959], [71.3116026969355, 42.8845175446883], [71.3049462068171, 42.8864702132875], [71.299307778682, 42.8832290167824]], [[71.530336370265, 42.9866934336887], [71.5313358714276, 42.9814969232561], [71.5379956604512, 42.9795307849393], [71.5436567557769, 42.9827608558316], [71.542658334164, 42.9879574855687], [71.5483205089597, 42.9911873772181], [71.5473223595593, 42.9963841289513], [71.5406609553889, 42.9983508698643], [71.5349985083009, 42.9951205576714], [71.5359977376171, 42.9899239251487], [71.530336370265, 42.9866934336887]], [[71.4996803315693, 43.0153398705312], [71.5006830662527, 43.0101433513372], [71.4950216936857, 43.0069109981631], [71.4960246993885, 43.0017146007334], [71.4903644069933, 42.9984820688034], [71.4913676835029, 42.9932857933719], [71.4857084709659, 42.9900530829898], [71.479045711834, 42.9920162272476], [71.4780413559813, 42.9972123823221], [71.4837008385447, 43.0004455135354], [71.4826967531324, 43.0056417907018], [71.4760321055768, 43.0076048161831], [71.4703723532284, 43.0043712641004], [71.4713775181616, 42.9991751074453], [71.4657188458881, 42.9959413771664], [71.4667242808951, 42.9907453426971], [71.4733873090803, 42.988782917862], [71.4743919351609, 42.9835868851134], [71.4810538850774, 42.9816240412599], [71.4820577025633, 42.9764280105261], [71.4887185743015, 42.9744647479865], [71.4943764372914, 42.9776972156998], [71.5010370393196, 42.9757332341699], [71.5066957110807, 42.9789651030038], [71.5056940513808, 42.9841613740831], [71.5113538024695, 42.987393064513], [71.5180149423024, 42.9854280631314], [71.5236755017521, 42.988659154185], [71.5226751927074, 42.9938556672491], [71.5283368318455, 42.9970865793152], [71.527336794494, 43.0022832143295], [71.5329995136339, 43.0055139471043], [71.5319997481884, 43.0107107038349], [71.5253361832706, 43.0126766083115], [71.524335609304, 43.0178733670996], [71.5299996808366, 43.0211043408754], [71.5289993788356, 43.0263012210057], [71.5223339244241, 43.028267007821], [71.521332813416, 43.0334638895747], [71.5146662779817, 43.0354292572245], [71.5090016630165, 43.0321974421411], [71.5023348562898, 43.0341620894689], [71.4966710513493, 43.0309296739826], [71.4900039739779, 43.0328936009577], [71.4843409795213, 43.0296605852863], [71.4853453329583, 43.024464063477], [71.4796834195185, 43.021230868698], [71.4806880436669, 43.0160344683729], [71.4873535010598, 43.0140711424636], [71.4930151441839, 43.0173039164211], [71.4920116002899, 43.0225004370698], [71.4976743241652, 43.0257330319437], [71.5043403211707, 43.0237686853698], [71.5053427846219, 43.0185720446456], [71.4996803315693, 43.0153398705312]]]}}