{"type": "FeatureCollection", "features": [{"type": "Feature", "properties": {"threshold": 70}, "geometry": {"type": "MultiPolygon", "coordinates": [[[[-99.43546185948031, 19.18775096635437], [-99.42779169423154, 19.19263877822747], [-99.41679917002034, 19.194256090853166], [-99.40952228497612, 19.187289236345915], [-99.4104101781336, 19.174475260737935], [-99.41879012541493, 19.170773198589043], [-99.42782156150864, 19.174915961156245], [-99.42609234106779, 19.18431117475065], [-99.43547404164673, 19.185432941349102], [-99.43546185948031, 19.18775096635437]]], [[[-99.71840350583338, 19.293311465778864], [-99.70880759208676, 19.295080856204162], [-99.70712907255124, 19.30073820163026], [-99.69387184862059, 19.300808384481158], [-99.69177090294308, 19.28811550125895], [-99.68766930552124, 19.28795101805843], [-99.68451634928525, 19.291106691840206], [-99.66856231240864, 19.288770486504028], [-99.66443963188833, 19.292708170818603], [-99.66014975516947, 19.29281101092213], [-99.65797237384855, 19.27628385807928], [-99.64325952557951, 19.276604762272793], [-99.6383597164204, 19.27309650512652], [-99.63582926475046, 19.274820639272317], [-99.63585582542092, 19.28465234775946], [-99.64079983605308, 19.288444562862495], [-99.64249517407913, 19.295379961230427], [-99.65877165499913, 19.297255046247876], [-99.65789620051328, 19.304241444115238], [-99.66145252041962, 19.314221520318483], [-99.66499883483304, 19.314231440684825], [-99.66680746094455, 19.30616845403055], [-99.67055865055782, 19.30593122756688], [-99.67600248024166, 19.312706489419842], [-99.67630382315869, 19.31720082391965], [-99.68459574669876, 19.31999107198084], [-99.68372760739251, 19.32774856942599], [-99.69405434925282, 19.333207094222317], [-99.70064151463961, 19.332645759693964], [-99.70169284511354, 19.34106495485884], [-99.71182377832767, 19.34398377340308], [-99.71366602734719, 19.34863611255097], [-99.71808370184391, 19.35068629782642], [-99.71700734914062, 19.354252903237086], [-99.71114900659768, 19.35354315543584], [-99.70418788610998, 19.360806529791567], [-99.69951879176364, 19.361770089674774], [-99.69599682161989, 19.354315828521127], [-99.70223941388865, 19.352745277885713], [-99.70373703360772, 19.34532845265741], [-99.69076803777217, 19.342160166019855], [-99.68662823747822, 19.344448552584073], [-99.6838025345794, 19.357472773796328], [-99.67774315282121, 19.356905526675327], [-99.6732122295906, 19.3626244516893], [-99.63992811495942, 19.36108457020647], [-99.63961094110492, 19.35548487804766], [-99.63624200869536, 19.35253458035835], [-99.64144282105985, 19.34591839157037], [-99.65208163515987, 19.34246048807438], [-99.66236481260893, 19.344041547189256], [-99.66501673877742, 19.342174878115003], [-99.65193560792056, 19.321353416595667], [-99.63838863881786, 19.323785489400052], [-99.63032723574152, 19.31893184992877], [-99.62366040155835, 19.32217953862683], [-99.62082226040057, 19.318094146004174], [-99.61222169868826, 19.318817437419977], [-99.60608775522674, 19.308876850365426], [-99.60077332837773, 19.310696695826582], [-99.59944948848545, 19.314883233071374], [-99.5937432893096, 19.314981973999487], [-99.59162164198783, 19.31076193091479], [-99.58467167650088, 19.310665829053747], [-99.58222539915843, 19.300692099310435], [-99.56864902611767, 19.301547168886596], [-99.56653151908937, 19.318570500430006], [-99.57105286742177, 19.324489066295932], [-99.5750479056972, 19.32445348096569], [-99.57749354627417, 19.320761938397503], [-99.59129828796108, 19.320699205262372], [-99.6085063455047, 19.325580284348995], [-99.60735204493348, 19.330215251424615], [-99.60054676026752, 19.3313162804527], [-99.5994510101672, 19.336054375962835], [-99.59360959669576, 19.333720384703064], [-99.58659035298962, 19.334546336582193], [-99.58679271916304, 19.34016046833631], [-99.59547634889846, 19.34450186512117], [-99.59612796468136, 19.349084207252456], [-99.6026030599068, 19.355777784854933], [-99.59444728384936, 19.362522368997833], [-99.57771969942287, 19.393610690874123], [-99.57183971031644, 19.394734492194118], [-99.56977085900333, 19.391011001284514], [-99.56434455926114, 19.390336982838818], [-99.56030087553451, 19.379601844044835], [-99.55569284006884, 19.378100930824328], [-99.55387136849995, 19.371062864341717], [-99.56055257502429, 19.36928186204731], [-99.56650975662228, 19.363883789929304], [-99.57700133591037, 19.366905205190328], [-99.58067616185595, 19.360688458583173], [-99.57781333812596, 19.353026048807283], [-99.58316387649538, 19.351678799110157], [-99.58367563476769, 19.346853218038774], [-99.57103962082478, 19.344789918009397], [-99.56488621387341, 19.329960738290282], [-99.56578035279847, 19.321972608802973], [-99.562813474868, 19.31453492430921], [-99.55460742974749, 19.303555493915688], [-99.54433296124608, 19.29771915043673], [-99.54437621514148, 19.290049165203367], [-99.54074866111537, 19.290229182961408], [-99.53788553514248, 19.297407898243105], [-99.53881672233052, 19.305346406680236], [-99.54502766498254, 19.313836544419974], [-99.53124563001391, 19.31923953053043], [-99.52465612682431, 19.316407049186864], [-99.52157529403232, 19.301097950862268], [-99.50775125135657, 19.29804803016746], [-99.50407571945563, 19.290724048650475], [-99.49697656389445, 19.28658787050756], [-99.48798829018686, 19.28524416766515], [-99.4806255394785, 19.29517957504723], [-99.47587928396761, 19.290998716306397], [-99.46335646033509, 19.291737067291894], [-99.45895183662613, 19.287340703654415], [-99.43844639122493, 19.29013860260442], [-99.43898147386741, 19.28490794661969], [-99.44564433526736, 19.27939611262371], [-99.44570107065952, 19.275023857561415], [-99.43583048118619, 19.272259124476026], [-99.43194652978976, 19.267409599044697], [-99.4438170144763, 19.258524530877235], [-99.45027651449182, 19.263335843545914], [-99.46580242961528, 19.263161125662343], [-99.4674260843733, 19.260688499157414], [-99.46535709448176, 19.25408922458159], [-99.47058549808584, 19.251965384942434], [-99.47621988535109, 19.253857373375713], [-99.47728121214313, 19.259325812707594], [-99.46916835548814, 19.261977326040533], [-99.46904435285806, 19.27023849741689], [-99.47384753550112, 19.271326253331083], [-99.47784155656886, 19.267439413349447], [-99.48432677921448, 19.26737625305701], [-99.49151885944403, 19.277743916594183], [-99.50171441178402, 19.280318584899504], [-99.51517842699924, 19.277860684875154], [-99.52123935741098, 19.282275754517666], [-99.52947724995761, 19.276182193403358], [-99.55384640831895, 19.277729082548245], [-99.56891807522175, 19.275959132411327], [-99.57227152449343, 19.27280130510441], [-99.58237527282436, 19.27534109574155], [-99.58596607103013, 19.271944944032505], [-99.5964546108114, 19.273344473460654], [-99.59717499691592, 19.25208047634094], [-99.60683656739431, 19.250462122299684], [-99.60975745374009, 19.24586367983952], [-99.62435914046344, 19.24852529769362], [-99.63499695500464, 19.246610129150064], [-99.64127589908306, 19.255205091178684], [-99.65417409432656, 19.2610424219821], [-99.67279459156295, 19.26431215142851], [-99.67683809605684, 19.26292666026307], [-99.67587791215819, 19.255289103832265], [-99.67802731942433, 19.25302024076587], [-99.68830821834028, 19.254608939724278], [-99.69179153563452, 19.25130879855837], [-99.70075394486233, 19.249591009636475], [-99.7100338884907, 19.253303211662], [-99.71014743355862, 19.26840404503192], [-99.69740023445242, 19.272722416127806], [-99.69499269339843, 19.276787656339717], [-99.70043063987087, 19.281940389821663], [-99.71591150860297, 19.283856529638943], [-99.71840350583338, 19.293311465778864]], [[-99.46461016381429, 19.2783694117093], [-99.45984068951078, 19.277340239842374], [-99.45794152018729, 19.28081077142995], [-99.46336761918943, 19.281868404577548], [-99.46461016381429, 19.2783694117093]], [[-99.47992965366069, 19.284442019662713], [-99.48179948344719, 19.280338193546445], [-99.47469682146566, 19.2794581178967], [-99.47461859123865, 19.282863910266066], [-99.47992965366069, 19.284442019662713]], [[-99.61954667217265, 19.271014403300764], [-99.6221038778187, 19.268667596290335], [-99.61989811701723, 19.26536640813089], [-99.61321446575008, 19.26551773987214], [-99.60981739744861, 19.26954793489351], [-99.61202032158333, 19.27237907845723], [-99.61954667217265, 19.271014403300764]], [[-99.67680891174967, 19.331749263042337], [-99.67367012773883, 19.333663236740822], [-99.67597335069864, 19.3367800987497], [-99.67909231442394, 19.33453033588065], [-99.67680891174967, 19.331749263042337]], [[-99.68104437187974, 19.3390842199376], [-99.67635017180173, 19.34132626256512], [-99.67817375618289, 19.34539416883915], [-99.68488056322572, 19.344192611620272], [-99.68104437187974, 19.3390842199376]]], [[[-99.49672201362553, 19.17536126232181], [-99.49357934302536, 19.185183420507755], [-99.48437092629712, 19.184334197373893], [-99.48197539536362, 19.179324030761595], [-99.47688379803584, 19.181066519514307], [-99.47366102055128, 19.188418497318608], [-99.47618928429755, 19.198585066978744], [-99.47168098172462, 19.204603846189652], [-99.46499840791813, 19.20723803335769], [-99.46710351125584, 19.212970290358275], [-99.4771349263552, 19.219988222722034], [-99.47272954602622, 19.224345394059448], [-99.47278562462361, 19.232879526019282], [-99.46755272294273, 19.23403108102007], [-99.4570396041808, 19.228265052047064], [-99.45581876465181, 19.22004249469915], [-99.4632783668858, 19.217646868124227], [-99.46460621609774, 19.20789619960136], [-99.45669088859638, 19.202771489613596], [-99.45485251929834, 19.19174588353053], [-99.4575334340795, 19.182425634689796], [-99.4641080231953, 19.178983957520725], [-99.46406676977624, 19.171802088718767], [-99.46162260691936, 19.16949187724975], [-99.45076396087023, 19.17127028357162], [-99.45319523063156, 19.16048549929518], [-99.46527007883961, 19.159317184785223], [-99.46973959376953, 19.167984228521167], [-99.48047835622727, 19.167680398870438], [-99.48229593040816, 19.16490832229724], [-99.48047949965535, 19.155678238043187], [-99.48926982552037, 19.147899690732977], [-99.4941005661753, 19.15601198053728], [-99.48997873401797, 19.171305028489723], [-99.49672201362553, 19.17536126232181]]], [[[-99.4782319079103, 19.327132372335853], [-99.47916929177926, 19.33101912675865], [-99.47449171462839, 19.33313940629171], [-99.4747996103335, 19.33774928949013], [-99.46529498379704, 19.34378978710492], [-99.45701982758592, 19.33440276520091], [-99.4552389649259, 19.3200413890376], [-99.46676139110899, 19.311403196277826], [-99.47083631275376, 19.311331959216133], [-99.47078970405437, 19.317993996402024], [-99.4782319079103, 19.327132372335853]]], [[[-99.53766423933719, 19.39881484726795], [-99.53588603137159, 19.409866121832668], [-99.53032268965451, 19.411512968113144], [-99.527841070846, 19.415100013303434], [-99.51382437047407, 19.41236875553972], [-99.5261067749427, 19.39253909376937], [-99.53547877383392, 19.392511737016985], [-99.53766423933719, 19.39881484726795]]], [[[-99.59386190211004, 19.18400716532236], [-99.58890932721464, 19.18664479350987], [-99.58985647352104, 19.194393684558232], [-99.58415365579609, 19.196330152717884], [-99.58074674318802, 19.195103701876306], [-99.57660620881003, 19.183250846964842], [-99.56571653663295, 19.187739963363562], [-99.56170713688675, 19.205799961573256], [-99.55425304160863, 19.20494148140538], [-99.55878716374461, 19.197008651784103], [-99.55835897641488, 19.187947497234045], [-99.5509148329262, 19.185630847894043], [-99.55065085257117, 19.18010153966271], [-99.55651141311581, 19.17680632580984], [-99.55660672007342, 19.160416160372], [-99.56220551546642, 19.153381976026115], [-99.57361663837452, 19.15361220416186], [-99.57194101350845, 19.147438393641092], [-99.57586206484332, 19.144396840180722], [-99.59027405416916, 19.143572130656487], [-99.59073735969018, 19.151759927026337], [-99.58224217356673, 19.15503222802874], [-99.58212777178338, 19.16014106782239], [-99.57551105988641, 19.167764599840915], [-99.57618441835443, 19.173167555148982], [-99.57141926266357, 19.173710448644364], [-99.56965481941536, 19.177804348398247], [-99.58013694573866, 19.180188694173005], [-99.5838619126574, 19.18443146899293], [-99.58696207326469, 19.18020786161268], [-99.59366624673554, 19.178458699786187], [-99.59386190211004, 19.18400716532236]]], [[[-99.67832535450412, 19.228435989416095], [-99.67803314946892, 19.23322365923557], [-99.67156486410299, 19.233434305527926], [-99.65823869544455, 19.22769332638996], [-99.65527807373434, 19.216852077284674], [-99.6629484739648, 19.213961294803642], [-99.66593319488855, 19.219470990429148], [-99.67526459892828, 19.218072913022933], [-99.67832535450412, 19.228435989416095]]], [[[-99.74104815850873, 19.32717571229924], [-99.73753517089301, 19.332986932423104], [-99.73324236258216, 19.333126453748967], [-99.72676600649561, 19.32864925904438], [-99.72837572481988, 19.321242341814777], [-99.72298365071593, 19.32023654229598], [-99.71861714246648, 19.33067098201404], [-99.7111297246686, 19.331634239316912], [-99.70958054013488, 19.32929931624696], [-99.71321015712759, 19.319690509060322], [-99.71937146361122, 19.320024774709122], [-99.72995537714735, 19.309635501673537], [-99.73346554704936, 19.31433426991747], [-99.73210334469965, 19.320525140744387], [-99.74091837035621, 19.323591434871727], [-99.74104815850873, 19.32717571229924]]], [[[-99.78364539389321, 19.369529572971924], [-99.78110676473322, 19.372788541450166], [-99.76509495978455, 19.374808235812814], [-99.76357488550826, 19.38235697746062], [-99.75769301556274, 19.382673812231562], [-99.75480253456884, 19.375576880138734], [-99.74949520971107, 19.37229477075205], [-99.73835182654045, 19.374443931220615], [-99.73456701211103, 19.363185408707068], [-99.73823054474659, 19.36247485866258], [-99.74690550753778, 19.367152002606055], [-99.74859534802322, 19.36472912392384], [-99.74668539765703, 19.360326657141986], [-99.7534576777172, 19.356690893177696], [-99.75785995204313, 19.363778986044288], [-99.76486563900319, 19.363204638256498], [-99.77138953254621, 19.369189519807158], [-99.77535883233217, 19.365599076095844], [-99.78184359449818, 19.364712307941396], [-99.78421340951064, 19.36607435858086], [-99.78364539389321, 19.369529572971924]]], [[[-99.76830459365824, 19.252504928971106], [-99.75798160634515, 19.255046719531215], [-99.75000687589741, 19.253389081635387], [-99.74524517583626, 19.248905389598075], [-99.74522035785287, 19.243407798947757], [-99.75164963096869, 19.244314973719526], [-99.76599202235147, 19.237192996832167], [-99.76911536960692, 19.244352479309544], [-99.76830459365824, 19.252504928971106]]], [[[-99.78623616745783, 19.295329464735854], [-99.78325023645509, 19.300446805749136], [-99.77591766333445, 19.298870729769853], [-99.77033210885983, 19.30213932865777], [-99.76486271342607, 19.299780163437212], [-99.75614281585563, 19.30129395994069], [-99.75490153285682, 19.293699300373138], [-99.75966405348673, 19.287437640260464], [-99.76553010379645, 19.28539692850819], [-99.76671597186879, 19.281499938454722], [-99.76242040642123, 19.278677157017135], [-99.75841787774823, 19.283618367703276], [-99.7545032303276, 19.283476606030813], [-99.753118570548, 19.278260594722422], [-99.76332049428291, 19.277608156144225], [-99.7632631438352, 19.268686909658147], [-99.76625180949334, 19.265679216291822], [-99.7798962142402, 19.265621526632284], [-99.77861429327405, 19.286348196292657], [-99.78623616745783, 19.295329464735854]]]]}}, {"type": "Feature", "properties": {"threshold": 80}, "geometry": {"type": "MultiPolygon", "coordinates": [[[[-99.49672201362553, 19.17536126232181], [-99.49357934302536, 19.185183420507755], [-99.48437092629712, 19.184334197373893], [-99.48197539536362, 19.179324030761595], [-99.47688379803584, 19.181066519514307], [-99.47366102055128, 19.188418497318608], [-99.47618928429755, 19.198585066978744], [-99.47168098172462, 19.204603846189652], [-99.46499840791813, 19.20723803335769], [-99.46710351125584, 19.212970290358275], [-99.47713258018197, 19.21917523894786], [-99.47698493542285, 19.222363626651195], [-99.47272954602622, 19.224345394059448], [-99.47278562462361, 19.232879526019282], [-99.46755272294273, 19.23403108102007], [-99.4570396041808, 19.228265052047064], [-99.45581876465181, 19.22004249469915], [-99.4632783668858, 19.217646868124227], [-99.46460621609774, 19.20789619960136], [-99.45669088859638, 19.202771489613596], [-99.45485251929834, 19.19174588353053], [-99.4575334340795, 19.182425634689796], [-99.4641080231953, 19.178983957520725], [-99.46399161548126, 19.171329328816174], [-99.46112011443329, 19.16951660040849], [-99.45162363461486, 19.17472253520502], [-99.4403186361763, 19.175600817550833], [-99.43867923479226, 19.17108971233458], [-99.4479201039148, 19.169375229585548], [-99.45350144510692, 19.160220380883015], [-99.4623724397969, 19.159293520571257], [-99.46568229846993, 19.159577420950896], [-99.46995510572114, 19.16809069122783], [-99.48076647816787, 19.167261392515996], [-99.48047949965535, 19.155678238043187], [-99.48902701656846, 19.147842575846532], [-99.4941005661753, 19.15601198053728], [-99.48997873401797, 19.171305028489723], [-99.49672201362553, 19.17536126232181]]], [[[-99.4357749586443, 19.178249790333556], [-99.43372656351538, 19.183245839195358], [-99.43594036907308, 19.18730321854383], [-99.42849387814816, 19.19512222554815], [-99.40994950737529, 19.192645531563254], [-99.4092328602923, 19.186011929882973], [-99.40607111786873, 19.183967797734514], [-99.40610852257738, 19.179434688118043], [-99.40995756362709, 19.177891099529287], [-99.41135426542073, 19.172715111640198], [-99.417831287642, 19.17079388947025], [-99.4357749586443, 19.178249790333556]]], [[[-99.71840350583338, 19.293311465778864], [-99.70880759208676, 19.295080856204162], [-99.70712907255124, 19.30073820163026], [-99.69410141872167, 19.30082601736735], [-99.69130495729469, 19.287934302853884], [-99.68451634928525, 19.291106691840206], [-99.66856231240864, 19.288770486504028], [-99.66443963188833, 19.292708170818603], [-99.66014975516947, 19.29281101092213], [-99.65797237384855, 19.27628385807928], [-99.64334237456535, 19.2766161345566], [-99.6366852507489, 19.273626485278182], [-99.63585582542092, 19.28465234775946], [-99.64079983605308, 19.288444562862495], [-99.64249517407913, 19.295379961230427], [-99.65806348398449, 19.29644632354638], [-99.65903523382862, 19.31076944757317], [-99.66231421385902, 19.314707617108667], [-99.66559282569152, 19.313464938932302], [-99.66691306389247, 19.306045320404458], [-99.6706260910863, 19.305978332611414], [-99.67600248024166, 19.312706489419842], [-99.67630382315869, 19.31720082391965], [-99.68459574669876, 19.31999107198084], [-99.68372760739251, 19.32774856942599], [-99.69405434925282, 19.333207094222317], [-99.7007089746293, 19.332692852875102], [-99.70153210099919, 19.340880562684333], [-99.71189124615064, 19.344030862137885], [-99.71366602734719, 19.34863611255097], [-99.71812705429582, 19.350754308291386], [-99.7172845797794, 19.35396014917953], [-99.71114900659768, 19.35354315543584], [-99.70419486659165, 19.362432405299767], [-99.6982552273416, 19.362530133828795], [-99.6960168436724, 19.35423864369237], [-99.70223941388865, 19.352745277885713], [-99.70382690333996, 19.345546943817705], [-99.69026457148068, 19.342185750375677], [-99.68742562404547, 19.34497640452445], [-99.68983065637998, 19.35332142318679], [-99.68553418692167, 19.353969897762], [-99.68347040065882, 19.357708508327555], [-99.6781303972746, 19.357874818163275], [-99.67578520528112, 19.363427874955352], [-99.6435154593254, 19.362758612632838], [-99.62332081050192, 19.354374130343803], [-99.62377182519027, 19.35152149610084], [-99.63747260239931, 19.34966568058177], [-99.64040806831002, 19.343845044717973], [-99.62835429974646, 19.33802940430226], [-99.6315158440016, 19.33027134618116], [-99.63001546427483, 19.324535782426008], [-99.62281330270775, 19.324621328483623], [-99.61981762045077, 19.31990001434685], [-99.61287768870042, 19.319920028186534], [-99.6111292989357, 19.327598693778565], [-99.61536244863716, 19.332159159673054], [-99.60970497048021, 19.338023239596502], [-99.61531870413506, 19.3430009436487], [-99.61447728372414, 19.347019324361067], [-99.61055704784636, 19.34986469799578], [-99.60446288848641, 19.34993473237655], [-99.60293896929134, 19.345338080695896], [-99.59866326732046, 19.34667819687091], [-99.60337602878597, 19.35599904010905], [-99.59186623488392, 19.36698446200753], [-99.57771969942287, 19.393610690874123], [-99.57183971031644, 19.394734492194118], [-99.5689956879558, 19.390953055394544], [-99.56445113896861, 19.3904594002899], [-99.55873984882696, 19.381248244260206], [-99.54489391715735, 19.38984768749521], [-99.54108237210872, 19.38930271559888], [-99.54471603332861, 19.38124434772575], [-99.5541741054372, 19.377205507721374], [-99.554232549385, 19.370546280001598], [-99.56055257502429, 19.36928186204731], [-99.56650975662228, 19.363883789929304], [-99.57700133591037, 19.366905205190328], [-99.58067616185595, 19.360688458583173], [-99.5778412890389, 19.3529511145141], [-99.58371063267266, 19.350466321478198], [-99.58223121196087, 19.34603886438677], [-99.570999157373, 19.34553483108615], [-99.56487119197129, 19.3315096171379], [-99.56564994489398, 19.321620536084847], [-99.55458745403179, 19.304456405690697], [-99.5467709745733, 19.29984333265747], [-99.54384518620944, 19.300695561893402], [-99.54173579683986, 19.305821767687284], [-99.5475530739043, 19.31151120042923], [-99.55109438521907, 19.320983130022405], [-99.53889536974141, 19.326514549315174], [-99.53727907948816, 19.318509140048256], [-99.53124563001391, 19.31923953053043], [-99.52469939093724, 19.316475108074666], [-99.52161331575412, 19.301271189408173], [-99.51384661504578, 19.29952940891952], [-99.50776880874909, 19.303738839901712], [-99.50609964648231, 19.296061646615176], [-99.49697656389445, 19.28658787050756], [-99.49116263864762, 19.288058326928304], [-99.4888416812734, 19.292483616330323], [-99.48376781583754, 19.291802354379566], [-99.48026059531915, 19.296419974152325], [-99.46872511267435, 19.290092281320316], [-99.46335646033509, 19.291737067291894], [-99.45895183662613, 19.287340703654415], [-99.43844639122493, 19.29013860260442], [-99.43898147386741, 19.28490794661969], [-99.44564433526736, 19.27939611262371], [-99.44570107065952, 19.275023857561415], [-99.43583048118619, 19.272259124476026], [-99.43194652978976, 19.267409599044697], [-99.4438170144763, 19.258524530877235], [-99.45513306030257, 19.26343753109481], [-99.46569185346996, 19.263177798139548], [-99.4674260843733, 19.260688499157414], [-99.46535709448176, 19.25408922458159], [-99.47050267084722, 19.251953933691514], [-99.47621988535109, 19.253857373375713], [-99.47728121214313, 19.259325812707594], [-99.46931794016386, 19.261784695909135], [-99.46887683955293, 19.269573740873575], [-99.47551363121524, 19.266574736384978], [-99.4844080343785, 19.267395353188427], [-99.49036356245966, 19.27691088168962], [-99.49642000251266, 19.276305951888904], [-99.50118847459375, 19.280268378016963], [-99.50485984897273, 19.27754994007057], [-99.50308914470946, 19.26448628233635], [-99.51060240879785, 19.263228184303063], [-99.51482306495087, 19.26438543909381], [-99.51498636390757, 19.269653033036807], [-99.51040892953701, 19.27135755465814], [-99.510157365117, 19.275356733934277], [-99.5202767178394, 19.280198787693678], [-99.52947724995761, 19.276182193403358], [-99.56691581093357, 19.275239756980618], [-99.58471117830952, 19.270965720878774], [-99.58762681662263, 19.26823693109264], [-99.58584766730661, 19.25815908089425], [-99.57582217161584, 19.25527969187887], [-99.57700457828811, 19.248488893470167], [-99.58566607685157, 19.252614477318254], [-99.58958076142753, 19.258541224988704], [-99.59400684324636, 19.257295888134514], [-99.59770486169957, 19.249174655416617], [-99.60647797178328, 19.249587158208595], [-99.60998680478947, 19.245844409664635], [-99.6244971717516, 19.248161083417855], [-99.63567628517566, 19.243324909924365], [-99.64606273939691, 19.25680952675206], [-99.65417409432656, 19.2610424219821], [-99.67279459156295, 19.26431215142851], [-99.67683809605684, 19.26292666026307], [-99.67587791215819, 19.255289103832265], [-99.67810284103768, 19.252985973693054], [-99.68830821834028, 19.254608939724278], [-99.6988748583493, 19.249598196539747], [-99.70799929989158, 19.251321651147954], [-99.71009569482119, 19.253533556755464], [-99.71006407154997, 19.268628181819974], [-99.69760643149236, 19.27261282825318], [-99.6949185649754, 19.276558903888038], [-99.70043063987087, 19.281940389821663], [-99.71591150860297, 19.283856529638943], [-99.71840350583338, 19.293311465778864]], [[-99.46461016381429, 19.2783694117093], [-99.45984068951078, 19.277340239842374], [-99.45794152018729, 19.28081077142995], [-99.46336761918943, 19.281868404577548], [-99.46461016381429, 19.2783694117093]], [[-99.47936746024976, 19.279374366088618], [-99.47508247287607, 19.279162448775434], [-99.47431677836938, 19.28249055396979], [-99.4813357504722, 19.284039668453683], [-99.48232199575783, 19.28113298044744], [-99.47936746024976, 19.279374366088618]], [[-99.59231320008377, 19.317022736145034], [-99.59053043199314, 19.31424704596499], [-99.5837768289435, 19.313856727438722], [-99.58152941402868, 19.301486932857244], [-99.57420054674357, 19.300763308669456], [-99.56926462740239, 19.304112473559094], [-99.56694597309782, 19.311803309059197], [-99.56854696336545, 19.31550727221611], [-99.5779723994727, 19.316741663171996], [-99.58121404954801, 19.32071866906016], [-99.59084077651018, 19.320600355917144], [-99.59231320008377, 19.317022736145034]], [[-99.61029885939452, 19.317776422885352], [-99.60840937609716, 19.31450172642398], [-99.6030629861887, 19.313463970182074], [-99.59710978378875, 19.320408678676404], [-99.59937478877755, 19.322287502393845], [-99.60858769925723, 19.321410543894185], [-99.61029885939452, 19.317776422885352]], [[-99.61954667217265, 19.271014403300764], [-99.62208290932614, 19.26889979219122], [-99.62013560846111, 19.265420215807072], [-99.61321446575008, 19.26551773987214], [-99.61096073053751, 19.26845907742141], [-99.6125733226429, 19.271816852484438], [-99.61954667217265, 19.271014403300764]], [[-99.65495605050148, 19.326692290916807], [-99.65144179059699, 19.323309388296718], [-99.64413851184595, 19.32579687684107], [-99.64677960648059, 19.34312541363964], [-99.66190324642136, 19.341047335806998], [-99.65495605050148, 19.326692290916807]], [[-99.67571262185339, 19.336730638276844], [-99.67897240421803, 19.33499439895245], [-99.67740490826732, 19.331884581570026], [-99.6737273107068, 19.333436602331975], [-99.67571262185339, 19.336730638276844]], [[-99.68104437187974, 19.3390842199376], [-99.67635017180173, 19.34132626256512], [-99.67817375618289, 19.34539416883915], [-99.68488056322572, 19.344192611620272], [-99.68104437187974, 19.3390842199376]]], [[[-99.47931151835239, 19.33159372291134], [-99.47487137992694, 19.333552895353172], [-99.47463194551057, 19.33792586103343], [-99.46514025442026, 19.343729413608305], [-99.45701982758592, 19.33440276520091], [-99.45530256914164, 19.319894521523818], [-99.46676139110899, 19.311403196277826], [-99.47099101316175, 19.311392328614115], [-99.47075734182836, 19.317806872391433], [-99.47909162711686, 19.32633743903331], [-99.47931151835239, 19.33159372291134]]], [[[-99.53854034763108, 19.404694226536787], [-99.53829982605178, 19.407611016954583], [-99.52768664435449, 19.415161229382495], [-99.51375986399118, 19.41222223245964], [-99.52626118054059, 19.392477879539758], [-99.53739922239345, 19.39427361326782], [-99.53854034763108, 19.404694226536787]]], [[[-99.59493921552465, 19.181375532195784], [-99.59404391038994, 19.18468330790046], [-99.58895296029549, 19.18673316985236], [-99.58968034246553, 19.196992831212864], [-99.58176071715398, 19.19773036623642], [-99.57783321076155, 19.18440898608404], [-99.57488446608644, 19.183095175621258], [-99.56466615248031, 19.188744448342046], [-99.56165750852296, 19.205863963487396], [-99.55429628744484, 19.205009534799284], [-99.55878716374461, 19.197008651784103], [-99.55835897641488, 19.187947497234045], [-99.5509148329262, 19.185630847894043], [-99.55065085257117, 19.18010153966271], [-99.55651141311581, 19.17680632580984], [-99.55660672007342, 19.160416160372], [-99.56220551546642, 19.153381976026115], [-99.57361663837452, 19.15361220416186], [-99.57194101350845, 19.147438393641092], [-99.57578656952634, 19.144431064765843], [-99.59027405416916, 19.143572130656487], [-99.59073735969018, 19.151759927026337], [-99.58224217356673, 19.15503222802874], [-99.58212777178338, 19.16014106782239], [-99.57551105988641, 19.167764599840915], [-99.57618441835443, 19.173167555148982], [-99.57141926266357, 19.173710448644364], [-99.56976326171123, 19.178020379327183], [-99.58013694573866, 19.180188694173005], [-99.58361652226178, 19.18440582329408], [-99.59060451107898, 19.17846857707421], [-99.59474836759316, 19.17855683297648], [-99.59493921552465, 19.181375532195784]]], [[[-99.62329767821208, 19.160544331111712], [-99.6257768093077, 19.16487543371559], [-99.61652219750525, 19.173003881752486], [-99.61992511413371, 19.178989016856278], [-99.61991485810348, 19.18921280130587], [-99.61110169602749, 19.189680758220817], [-99.60710923703189, 19.173340996325315], [-99.61361803352823, 19.169749217919023], [-99.61305013690047, 19.16031357358526], [-99.61766094605619, 19.152465812675818], [-99.62313051270878, 19.1551097754906], [-99.62329767821208, 19.160544331111712]]], [[[-99.67907353052058, 19.228126669985866], [-99.67998375798312, 19.2312743197437], [-99.67657735151975, 19.23422881892035], [-99.65816999208839, 19.228465675251517], [-99.65521846556938, 19.22308295537621], [-99.65531115858789, 19.214344864266383], [-99.6640472047951, 19.21401507596057], [-99.6672173677091, 19.21950586369709], [-99.67704812100905, 19.21810719858986], [-99.67907353052058, 19.228126669985866]]], [[[-99.74104815850873, 19.32717571229924], [-99.73753517089301, 19.332986932423104], [-99.73324236258216, 19.333126453748967], [-99.72676600649561, 19.32864925904438], [-99.72837572481988, 19.321242341814777], [-99.72298365071593, 19.32023654229598], [-99.71861714246648, 19.33067098201404], [-99.7111297246686, 19.331634239316912], [-99.70958054013488, 19.32929931624696], [-99.71321015712759, 19.319690509060322], [-99.71937146361122, 19.320024774709122], [-99.72995537714735, 19.309635501673537], [-99.73346554704936, 19.31433426991747], [-99.73210334469965, 19.320525140744387], [-99.74091837035621, 19.323591434871727], [-99.74104815850873, 19.32717571229924]]], [[[-99.78364539389321, 19.369529572971924], [-99.78110676473322, 19.372788541450166], [-99.76509495978455, 19.374808235812814], [-99.76357488550826, 19.38235697746062], [-99.75769301556274, 19.382673812231562], [-99.75480253456884, 19.375576880138734], [-99.74985267179197, 19.373161114012532], [-99.73749523451649, 19.374447404701844], [-99.73456701211103, 19.363185408707068], [-99.73823054474659, 19.36247485866258], [-99.74690550753778, 19.367152002606055], [-99.74859534802322, 19.36472912392384], [-99.74668539765703, 19.360326657141986], [-99.7534576777172, 19.356690893177696], [-99.75785995204313, 19.363778986044288], [-99.76486563900319, 19.363204638256498], [-99.77138953254621, 19.369189519807158], [-99.77535883233217, 19.365599076095844], [-99.78184359449818, 19.364712307941396], [-99.78421340951064, 19.36607435858086], [-99.78364539389321, 19.369529572971924]]], [[[-99.78623616745783, 19.295329464735854], [-99.78325023645509, 19.300446805749136], [-99.77591766333445, 19.298870729769853], [-99.77033210885983, 19.30213932865777], [-99.76486271342607, 19.299780163437212], [-99.75614281585563, 19.30129395994069], [-99.75490153285682, 19.293699300373138], [-99.75966405348673, 19.287437640260464], [-99.76553010379645, 19.28539692850819], [-99.76671597186879, 19.281499938454722], [-99.76242040642123, 19.278677157017135], [-99.75841787774823, 19.283618367703276], [-99.7545032303276, 19.283476606030813], [-99.753118570548, 19.278260594722422], [-99.76332049428291, 19.277608156144225], [-99.7632631438352, 19.268686909658147], [-99.76625180949334, 19.265679216291822], [-99.7798962142402, 19.265621526632284], [-99.77861429327405, 19.286348196292657], [-99.78623616745783, 19.295329464735854]]]]}}, {"type": "Feature", "properties": {"threshold": 90}, "geometry": {"type": "MultiPolygon", "coordinates": [[[[-99.49672201362553, 19.17536126232181], [-99.49357934302536, 19.185183420507755], [-99.48437092629712, 19.184334197373893], [-99.48197539536362, 19.179324030761595], [-99.47688379803584, 19.181066519514307], [-99.47366102055128, 19.188418497318608], [-99.47618928429755, 19.198585066978744], [-99.47168098172462, 19.204603846189652], [-99.46499840791813, 19.20723803335769], [-99.46710351125584, 19.212970290358275], [-99.47713258018197, 19.21917523894786], [-99.47698493542285, 19.222363626651195], [-99.47272954602622, 19.224345394059448], [-99.47278562462361, 19.232879526019282], [-99.46755272294273, 19.23403108102007], [-99.4570396041808, 19.228265052047064], [-99.45581876465181, 19.22004249469915], [-99.4632783668858, 19.217646868124227], [-99.46460621609774, 19.20789619960136], [-99.45669088859638, 19.202771489613596], [-99.45485251929834, 19.19174588353053], [-99.4575334340795, 19.182425634689796], [-99.4641080231953, 19.178983957520725], [-99.46399161548126, 19.171329328816174], [-99.46112011443329, 19.16951660040849], [-99.45162363461486, 19.17472253520502], [-99.4403186361763, 19.175600817550833], [-99.43867923479226, 19.17108971233458], [-99.4479201039148, 19.169375229585548], [-99.45350144510692, 19.160220380883015], [-99.4623724397969, 19.159293520571257], [-99.46568229846993, 19.159577420950896], [-99.46995510572114, 19.16809069122783], [-99.48079801098844, 19.167140358362946], [-99.48047949965535, 19.155678238043187], [-99.48902701656846, 19.147842575846532], [-99.4941005661753, 19.15601198053728], [-99.48997873401797, 19.171305028489723], [-99.49672201362553, 19.17536126232181]]], [[[-99.4357749586443, 19.178249790333556], [-99.43372656351538, 19.183245839195358], [-99.43594036907308, 19.18730321854383], [-99.42865370267631, 19.19507575534419], [-99.41275845526104, 19.195158311198668], [-99.40784732593296, 19.19061980959987], [-99.40606038080196, 19.179586756434954], [-99.40995756362709, 19.177891099529287], [-99.41168643580903, 19.172479866503267], [-99.41910069497281, 19.17081031223705], [-99.4357749586443, 19.178249790333556]]], [[[-99.71840350583338, 19.293311465778864], [-99.70880759208676, 19.295080856204162], [-99.70712907255124, 19.30073820163026], [-99.69410141872167, 19.30082601736735], [-99.69130495729469, 19.287934302853884], [-99.68451634928525, 19.291106691840206], [-99.66856231240864, 19.288770486504028], [-99.66443963188833, 19.292708170818603], [-99.66014975516947, 19.29281101092213], [-99.65797237384855, 19.27628385807928], [-99.64334237456535, 19.2766161345566], [-99.63649226311492, 19.27378806401082], [-99.63585582542092, 19.28465234775946], [-99.64079983605308, 19.288444562862495], [-99.64249517407913, 19.295379961230427], [-99.65881496869304, 19.297323072632476], [-99.65810306961995, 19.30472871564643], [-99.66127358006545, 19.314052929532888], [-99.66499883483304, 19.314231440684825], [-99.66680746094455, 19.30616845403055], [-99.67055865055782, 19.30593122756688], [-99.67600248024166, 19.312706489419842], [-99.67630382315869, 19.31720082391965], [-99.68459574669876, 19.31999107198084], [-99.68372760739251, 19.32774856942599], [-99.69405434925282, 19.333207094222317], [-99.7007089746293, 19.332692852875102], [-99.70169284511354, 19.34106495485884], [-99.71182377832767, 19.34398377340308], [-99.71816944525139, 19.352258903739333], [-99.71670024680115, 19.354375058826772], [-99.71071803065149, 19.353790629672872], [-99.70412320516903, 19.36247354885794], [-99.6982552273416, 19.362530133828795], [-99.6960168436724, 19.35423864369237], [-99.70223941388865, 19.352745277885713], [-99.70382690333996, 19.345546943817705], [-99.69026457148068, 19.342185750375677], [-99.68742562404547, 19.34497640452445], [-99.68995447257957, 19.349539724154308], [-99.68869870432901, 19.36090663895333], [-99.67955415525198, 19.357352899165466], [-99.67606135952386, 19.36325126098919], [-99.67134921719533, 19.365116291301998], [-99.6478046194825, 19.364369319506896], [-99.6224179045717, 19.353496073222388], [-99.62944610409644, 19.34670605531183], [-99.6248431836266, 19.340990882489884], [-99.62828298639891, 19.328239137849575], [-99.62414440079613, 19.32648493666322], [-99.61471402435195, 19.33652295033731], [-99.61798745648458, 19.341807698430404], [-99.61529705066181, 19.348710667779727], [-99.6041113787913, 19.353563962183447], [-99.58231893621343, 19.38301104657833], [-99.577143917915, 19.395550273305656], [-99.5856648123002, 19.406158201247607], [-99.5811796883626, 19.408719492965908], [-99.57962223407011, 19.415033923709274], [-99.57288057425704, 19.41204543562962], [-99.57461487895903, 19.3975217600745], [-99.56920831699863, 19.39109375565499], [-99.56439468047172, 19.39040067606622], [-99.55989708682492, 19.381697676725363], [-99.55517447782903, 19.382053667615992], [-99.5448183039796, 19.389881901404152], [-99.54108237210872, 19.38930271559888], [-99.54471603332861, 19.38124434772575], [-99.5541741054372, 19.377205507721374], [-99.55416543380375, 19.370593837792644], [-99.56055257502429, 19.36928186204731], [-99.56650975662228, 19.363883789929304], [-99.57614304190602, 19.36739714984315], [-99.58060392204642, 19.36116162228595], [-99.57779325832853, 19.35659251769512], [-99.57926317921394, 19.34779766102075], [-99.5710019850194, 19.346347791381184], [-99.56487119197129, 19.3315096171379], [-99.56571863070099, 19.321844276966043], [-99.56234539948117, 19.31954666283775], [-99.5615947920666, 19.314316544719865], [-99.55002385556045, 19.313591078438275], [-99.55023155946357, 19.32512771215919], [-99.54469142561572, 19.32887548257701], [-99.53539093917763, 19.32649809126008], [-99.53338328344672, 19.32000417567496], [-99.52465612682431, 19.316407049186864], [-99.5252940322281, 19.311000193836474], [-99.52086055342704, 19.30136448416025], [-99.51384661504578, 19.29952940891952], [-99.50776880874909, 19.303738839901712], [-99.50609964648231, 19.296061646615176], [-99.49697656389445, 19.28658787050756], [-99.49116263864762, 19.288058326928304], [-99.4888416812734, 19.292483616330323], [-99.48376781583754, 19.291802354379566], [-99.48026059531915, 19.296419974152325], [-99.46872511267435, 19.290092281320316], [-99.46335646033509, 19.291737067291894], [-99.45895183662613, 19.287340703654415], [-99.4383744739994, 19.290097907114507], [-99.44519803786784, 19.275036795728923], [-99.43575857212298, 19.27221842749296], [-99.43194652978976, 19.267409599044697], [-99.4438170144763, 19.258524530877235], [-99.45583737669543, 19.263306635380424], [-99.46569185346996, 19.263177798139548], [-99.4674260843733, 19.260688499157414], [-99.46535709448176, 19.25408922458159], [-99.47050267084722, 19.251953933691514], [-99.47621988535109, 19.253857373375713], [-99.47728121214313, 19.259325812707594], [-99.46931794016386, 19.261784695909135], [-99.46887683955293, 19.269573740873575], [-99.47551363121524, 19.266574736384978], [-99.4844080343785, 19.267395353188427], [-99.49036356245966, 19.27691088168962], [-99.49642000251266, 19.276305951888904], [-99.50118847459375, 19.280268378016963], [-99.50488353681084, 19.27731122307656], [-99.50130422945246, 19.268283000435087], [-99.50216707017809, 19.263822541428002], [-99.50887776749018, 19.259168075973324], [-99.51450243313187, 19.260057071066242], [-99.51829053285773, 19.26444382742906], [-99.5158730000842, 19.275739034997606], [-99.5200405501441, 19.279591915682413], [-99.52947724995761, 19.276182193403358], [-99.56543754875086, 19.275213454708272], [-99.58361609714214, 19.270643732387715], [-99.58646519566193, 19.259888725443425], [-99.58438254755596, 19.25735438861589], [-99.57573917173613, 19.257472139682235], [-99.57201129788976, 19.264478708489822], [-99.56422559022614, 19.266217073516163], [-99.56290062967878, 19.259736530332148], [-99.56580817151959, 19.24937770225499], [-99.56865377249301, 19.24952851992707], [-99.56898102527562, 19.254411684912956], [-99.57154634527579, 19.25582935853619], [-99.57871080587239, 19.246857551402385], [-99.58706667872893, 19.247583144046725], [-99.58799603722699, 19.256901127142527], [-99.59273065837093, 19.258027979046222], [-99.59770486169957, 19.249174655416617], [-99.60647797178328, 19.249587158208595], [-99.60984019931007, 19.245851740126344], [-99.62558355088944, 19.247653231318882], [-99.62702357664264, 19.243680946395976], [-99.61931861899753, 19.238416916394787], [-99.6215410801434, 19.235301490881046], [-99.62708612749492, 19.235224823449958], [-99.62942597151601, 19.244286544010873], [-99.63949702214074, 19.245070153889205], [-99.6439820667682, 19.255095469811355], [-99.65440830256671, 19.261094622171], [-99.67489900893239, 19.26430356061021], [-99.67810284103768, 19.252985973693054], [-99.68830821834028, 19.254608939724278], [-99.6988748583493, 19.249598196539747], [-99.70799929989158, 19.251321651147954], [-99.71009569482119, 19.253533556755464], [-99.71006407154997, 19.268628181819974], [-99.69760643149236, 19.27261282825318], [-99.6949185649754, 19.276558903888038], [-99.70043063987087, 19.281940389821663], [-99.71591150860297, 19.283856529638943], [-99.71840350583338, 19.293311465778864]], [[-99.46461016381429, 19.2783694117093], [-99.45984068951078, 19.277340239842374], [-99.45794152018729, 19.28081077142995], [-99.46336761918943, 19.281868404577548], [-99.46461016381429, 19.2783694117093]], [[-99.47660332553069, 19.283645380041666], [-99.47950370527597, 19.281526495160122], [-99.47720937099969, 19.278770564078854], [-99.47394513529706, 19.280910863365307], [-99.47660332553069, 19.283645380041666]], [[-99.58465108125915, 19.316986827537587], [-99.5811203007796, 19.303020919510114], [-99.57576872788971, 19.304051964812015], [-99.56708976493267, 19.3110991765193], [-99.56898147373627, 19.31571798414045], [-99.58161618413703, 19.318840936395997], [-99.58465108125915, 19.316986827537587]], [[-99.61954667217265, 19.271014403300764], [-99.62208290932614, 19.26889979219122], [-99.62013560846111, 19.265420215807072], [-99.61321446575008, 19.26551773987214], [-99.61096073053751, 19.26845907742141], [-99.61260085486691, 19.271715678613006], [-99.61954667217265, 19.271014403300764]], [[-99.66017806577966, 19.33648586596353], [-99.65425851098486, 19.328088877051805], [-99.64923961417179, 19.32673889398148], [-99.64562628570542, 19.32905153982388], [-99.64460605303312, 19.334484275204307], [-99.64938014428492, 19.341819258916278], [-99.65872386112044, 19.34061236314274], [-99.66017806577966, 19.33648586596353]], [[-99.67680891174967, 19.331749263042337], [-99.67367012773883, 19.333663236740822], [-99.67597335069864, 19.3367800987497], [-99.67909231442394, 19.33453033588065], [-99.67680891174967, 19.331749263042337]], [[-99.68104437187974, 19.3390842199376], [-99.67635017180173, 19.34132626256512], [-99.67817375618289, 19.34539416883915], [-99.68488056322572, 19.344192611620272], [-99.68104437187974, 19.3390842199376]]], [[[-99.47931151835239, 19.33159372291134], [-99.46648291393882, 19.34381772946645], [-99.45587281339512, 19.33348707915332], [-99.44582479388335, 19.33419989503667], [-99.44606001927612, 19.330295205194037], [-99.45401002495983, 19.326689661741856], [-99.45539513169449, 19.319762256857288], [-99.4670797010872, 19.311310633645387], [-99.471342228506, 19.311723963522997], [-99.47075734182836, 19.317806872391433], [-99.47909162711686, 19.32633743903331], [-99.47931151835239, 19.33159372291134]]], [[[-99.53938602396424, 19.4030806544254], [-99.53829982605178, 19.407611016954583], [-99.52776544247261, 19.415134220337194], [-99.51743320950249, 19.41307672390526], [-99.50429341528977, 19.41720828150378], [-99.49686502696252, 19.423377847678584], [-99.48554435096305, 19.422943303765962], [-99.48832538232436, 19.41061810053745], [-99.49588758675391, 19.410429315485565], [-99.50348241317758, 19.413942476533734], [-99.51812582696022, 19.40390078999075], [-99.52617978072269, 19.391691925370075], [-99.53568044402377, 19.39265274757224], [-99.53938602396424, 19.4030806544254]]], [[[-99.59758579004776, 19.17800600635023], [-99.59586367919914, 19.18536763741316], [-99.59058950376094, 19.187316799033486], [-99.59060597390905, 19.19775547855787], [-99.58090501652542, 19.197733078696913], [-99.57793038138387, 19.18462980790669], [-99.57464365236527, 19.18316540866448], [-99.56479496027266, 19.18853875682195], [-99.56178545458971, 19.20565967626348], [-99.55556554093857, 19.207000454789533], [-99.55483880612458, 19.214014556046862], [-99.54923887913317, 19.213218441432566], [-99.54912954388436, 19.208258115481247], [-99.5536048110005, 19.206067999996556], [-99.55878716374461, 19.197008651784103], [-99.55818303976908, 19.187270808476566], [-99.5509148329262, 19.185630847894043], [-99.55065085257117, 19.18010153966271], [-99.55642730963126, 19.177031937346076], [-99.55658665297666, 19.160493333038485], [-99.56199137691894, 19.153504841925134], [-99.57277146216677, 19.15407483037365], [-99.57448982302836, 19.1513156459335], [-99.57196107195182, 19.147361219728623], [-99.57571496772219, 19.144472157009453], [-99.5903459422898, 19.143612767638523], [-99.59065388786964, 19.15198401505512], [-99.58224217356673, 19.15503222802874], [-99.58212777178338, 19.16014106782239], [-99.57551105988641, 19.167764599840915], [-99.57618441835443, 19.173167555148982], [-99.57162841144203, 19.173575580209615], [-99.56950718155042, 19.177347275868563], [-99.58013694573866, 19.180188694173005], [-99.5838619126574, 19.18443146899293], [-99.59301131004344, 19.17689562251457], [-99.59758579004776, 19.17800600635023]]], [[[-99.62780414930685, 19.161201934703335], [-99.62489385395796, 19.169011516491654], [-99.618293531773, 19.174495045155073], [-99.6198793552943, 19.189284782307944], [-99.61017327844161, 19.190462839081565], [-99.6112269791214, 19.183867969234882], [-99.60718626897446, 19.181125578826798], [-99.60460226974993, 19.16662160380203], [-99.60989490682337, 19.164685095532242], [-99.61060983180278, 19.16002969867317], [-99.61796775662562, 19.152343829437797], [-99.6247258122941, 19.15254266851571], [-99.62780414930685, 19.161201934703335]]], [[[-99.68133598630695, 19.23248129667677], [-99.672833354507, 19.23420526673136], [-99.67047447998902, 19.239642943323418], [-99.66763029671736, 19.23981297549238], [-99.66580895864524, 19.231135976151858], [-99.65816999208839, 19.228465675251517], [-99.65359201426513, 19.22331258154082], [-99.65445860115402, 19.215160881599083], [-99.66380098221127, 19.213145239242284], [-99.66709573341761, 19.218947172013085], [-99.67704812100905, 19.21810719858986], [-99.67756496638575, 19.226398931560755], [-99.68165348495592, 19.2297633199402], [-99.68133598630695, 19.23248129667677]]], [[[-99.78364539389321, 19.369529572971924], [-99.78110676473322, 19.372788541450166], [-99.76509495978455, 19.374808235812814], [-99.76357488550826, 19.38235697746062], [-99.75769301556274, 19.382673812231562], [-99.75366335235655, 19.374740743301896], [-99.73749523451649, 19.374447404701844], [-99.73456701211103, 19.363185408707068], [-99.73823054474659, 19.36247485866258], [-99.74690550753778, 19.367152002606055], [-99.74859534802322, 19.36472912392384], [-99.74668539765703, 19.360326657141986], [-99.7534576777172, 19.356690893177696], [-99.75785995204313, 19.363778986044288], [-99.76486563900319, 19.363204638256498], [-99.77138953254621, 19.369189519807158], [-99.77535883233217, 19.365599076095844], [-99.78184359449818, 19.364712307941396], [-99.78421340951064, 19.36607435858086], [-99.78364539389321, 19.369529572971924]]], [[[-99.78623616745783, 19.295329464735854], [-99.78325023645509, 19.300446805749136], [-99.77591766333445, 19.298870729769853], [-99.77033210885983, 19.30213932865777], [-99.76486271342607, 19.299780163437212], [-99.75614281585563, 19.30129395994069], [-99.75490153285682, 19.293699300373138], [-99.75966405348673, 19.287437640260464], [-99.76553010379645, 19.28539692850819], [-99.76671597186879, 19.281499938454722], [-99.76242040642123, 19.278677157017135], [-99.75841787774823, 19.283618367703276], [-99.7545032303276, 19.283476606030813], [-99.753118570548, 19.278260594722422], [-99.76332049428291, 19.277608156144225], [-99.7632631438352, 19.268686909658147], [-99.76625180949334, 19.265679216291822], [-99.7798962142402, 19.265621526632284], [-99.77861429327405, 19.286348196292657], [-99.78623616745783, 19.295329464735854]]]]}}, {"type": "Feature", "properties": {"threshold": 95}, "geometry": {"type": "MultiPolygon", "coordinates": [[[[-99.49672201362553, 19.17536126232181], [-99.49357934302536, 19.185183420507755], [-99.48437092629712, 19.184334197373893], [-99.48197539536362, 19.179324030761595], [-99.47688379803584, 19.181066519514307], [-99.47366102055128, 19.188418497318608], [-99.47618928429755, 19.198585066978744], [-99.47168098172462, 19.204603846189652], [-99.46499840791813, 19.20723803335769], [-99.46710351125584, 19.212970290358275], [-99.47713258018197, 19.21917523894786], [-99.47698493542285, 19.222363626651195], [-99.47272954602622, 19.224345394059448], [-99.47278562462361, 19.232879526019282], [-99.46755272294273, 19.23403108102007], [-99.4570396041808, 19.228265052047064], [-99.45581876465181, 19.22004249469915], [-99.4632783668858, 19.217646868124227], [-99.46460621609774, 19.20789619960136], [-99.45669088859638, 19.202771489613596], [-99.45485251929834, 19.19174588353053], [-99.4575334340795, 19.182425634689796], [-99.4641080231953, 19.178983957520725], [-99.46399161548126, 19.171329328816174], [-99.46112011443329, 19.16951660040849], [-99.45162363461486, 19.17472253520502], [-99.4403186361763, 19.175600817550833], [-99.43867923479226, 19.17108971233458], [-99.4479201039148, 19.169375229585548], [-99.45350144510692, 19.160220380883015], [-99.4623724397969, 19.159293520571257], [-99.46568229846993, 19.159577420950896], [-99.46995510572114, 19.16809069122783], [-99.48087192833012, 19.167100962829785], [-99.48047949965535, 19.155678238043187], [-99.48902701656846, 19.147842575846532], [-99.4941005661753, 19.15601198053728], [-99.48997873401797, 19.171305028489723], [-99.49672201362553, 19.17536126232181]]], [[[-99.4357749586443, 19.178249790333556], [-99.43372656351538, 19.183245839195358], [-99.43594036907308, 19.18730321854383], [-99.42865370267631, 19.19507575534419], [-99.41275845526104, 19.195158311198668], [-99.40784732593296, 19.19061980959987], [-99.40606038080196, 19.179586756434954], [-99.40995756362709, 19.177891099529287], [-99.41168643580903, 19.172479866503267], [-99.41910069497281, 19.17081031223705], [-99.4357749586443, 19.178249790333556]]], [[[-99.71840350583338, 19.293311465778864], [-99.70880759208676, 19.295080856204162], [-99.70712907255124, 19.30073820163026], [-99.69410141872167, 19.30082601736735], [-99.69130495729469, 19.287934302853884], [-99.68451634928525, 19.291106691840206], [-99.66856231240864, 19.288770486504028], [-99.66443963188833, 19.292708170818603], [-99.66014975516947, 19.29281101092213], [-99.65797237384855, 19.27628385807928], [-99.64334237456535, 19.2766161345566], [-99.63649226311492, 19.27378806401082], [-99.63585582542092, 19.28465234775946], [-99.64079983605308, 19.288444562862495], [-99.64249517407913, 19.295379961230427], [-99.65881496869304, 19.297323072632476], [-99.65810306961995, 19.30472871564643], [-99.66127358006545, 19.314052929532888], [-99.66499883483304, 19.314231440684825], [-99.66680746094455, 19.30616845403055], [-99.67055865055782, 19.30593122756688], [-99.67600248024166, 19.312706489419842], [-99.67630382315869, 19.31720082391965], [-99.68459574669876, 19.31999107198084], [-99.68372760739251, 19.32774856942599], [-99.69405434925282, 19.333207094222317], [-99.7007089746293, 19.332692852875102], [-99.70169284511354, 19.34106495485884], [-99.71182377832767, 19.34398377340308], [-99.71816944525139, 19.352258903739333], [-99.71670024680115, 19.354375058826772], [-99.71071803065149, 19.353790629672872], [-99.70412320516903, 19.36247354885794], [-99.6982552273416, 19.362530133828795], [-99.6960168436724, 19.35423864369237], [-99.70223941388865, 19.352745277885713], [-99.70382690333996, 19.345546943817705], [-99.6900172492482, 19.342233557800974], [-99.68742562404547, 19.34497640452445], [-99.68995447257957, 19.349539724154308], [-99.68883744046606, 19.36081789499728], [-99.67904570151471, 19.35743452442067], [-99.67330115238794, 19.365841956666184], [-99.659454405952, 19.366034813338338], [-99.65584085002386, 19.368443154263804], [-99.6535160369091, 19.365470282643262], [-99.61455165320903, 19.349588417616378], [-99.59978274877719, 19.358783259536406], [-99.58231893621343, 19.38301104657833], [-99.577143917915, 19.395550273305656], [-99.5856648123002, 19.406158201247607], [-99.5811796883626, 19.408719492965908], [-99.57962223407011, 19.415033923709274], [-99.57288057425704, 19.41204543562962], [-99.57461487895903, 19.3975217600745], [-99.56920831699863, 19.39109375565499], [-99.56439468047172, 19.39040067606622], [-99.55989708682492, 19.381697676725363], [-99.55517447782903, 19.382053667615992], [-99.5448183039796, 19.389881901404152], [-99.54108237210872, 19.38930271559888], [-99.54471603332861, 19.38124434772575], [-99.5541741054372, 19.377205507721374], [-99.55416543380375, 19.370593837792644], [-99.56055257502429, 19.36928186204731], [-99.56650975662228, 19.363883789929304], [-99.57614304190602, 19.36739714984315], [-99.58060392204642, 19.36116162228595], [-99.57779325832853, 19.35659251769512], [-99.57926317921394, 19.34779766102075], [-99.5710019850194, 19.346347791381184], [-99.56487119197129, 19.3315096171379], [-99.56564994489398, 19.321620536084847], [-99.56147636220102, 19.315816972863402], [-99.5514508294475, 19.314915147843074], [-99.55102440616174, 19.32527202510458], [-99.54311174850609, 19.330540129062967], [-99.53505711843748, 19.326264577459792], [-99.53319434710096, 19.319835839658534], [-99.52469939093724, 19.316475108074666], [-99.5252940322281, 19.311000193836474], [-99.52086055342704, 19.30136448416025], [-99.51384661504578, 19.29952940891952], [-99.50776880874909, 19.303738839901712], [-99.50609964648231, 19.296061646615176], [-99.49697656389445, 19.28658787050756], [-99.49116263864762, 19.288058326928304], [-99.4888416812734, 19.292483616330323], [-99.48376781583754, 19.291802354379566], [-99.48026059531915, 19.296419974152325], [-99.46872511267435, 19.290092281320316], [-99.46335646033509, 19.291737067291894], [-99.45895183662613, 19.287340703654415], [-99.4383744739994, 19.290097907114507], [-99.44519803786784, 19.275036795728923], [-99.43575857212298, 19.27221842749296], [-99.43194652978976, 19.267409599044697], [-99.4438170144763, 19.258524530877235], [-99.45583737669543, 19.263306635380424], [-99.46569185346996, 19.263177798139548], [-99.4674260843733, 19.260688499157414], [-99.46535709448176, 19.25408922458159], [-99.47035601214323, 19.25194746881989], [-99.47621988535109, 19.253857373375713], [-99.47728121214313, 19.259325812707594], [-99.46931794016386, 19.261784695909135], [-99.46887683955293, 19.269573740873575], [-99.47551363121524, 19.266574736384978], [-99.4844080343785, 19.267395353188427], [-99.49036356245966, 19.27691088168962], [-99.49642000251266, 19.276305951888904], [-99.50118847459375, 19.280268378016963], [-99.50488353681084, 19.27731122307656], [-99.50130422945246, 19.268283000435087], [-99.50216707017809, 19.263822541428002], [-99.50887776749018, 19.259168075973324], [-99.51621704308553, 19.26086522211852], [-99.51914658806902, 19.26444139904044], [-99.51680611083626, 19.27023393497049], [-99.51732065733542, 19.27695430533196], [-99.5200405501441, 19.279591915682413], [-99.52947724995761, 19.276182193403358], [-99.57770302538528, 19.27273514820052], [-99.58570450844387, 19.268702966452476], [-99.5861314363285, 19.258540812666684], [-99.57573917173613, 19.257472139682235], [-99.57201129788976, 19.264478708489822], [-99.56430137555665, 19.266250827344777], [-99.56459409066731, 19.25070992140954], [-99.56846777345788, 19.2493694587603], [-99.56898102527562, 19.254411684912956], [-99.57203174752291, 19.255764290713692], [-99.57857210214475, 19.246946211612457], [-99.58464903053915, 19.2467956537314], [-99.586233752136, 19.237672602212335], [-99.58421250319887, 19.231136886059577], [-99.58854787112064, 19.22884894396188], [-99.59620535710528, 19.23944589575248], [-99.5959071771935, 19.244078036617], [-99.58769623975964, 19.24675734623119], [-99.5896890008996, 19.2581471470758], [-99.59400684324636, 19.257295888134514], [-99.59770486169957, 19.249174655416617], [-99.60647797178328, 19.249587158208595], [-99.60984019931007, 19.245851740126344], [-99.6257698521883, 19.247521010548486], [-99.62688282212342, 19.24348242148394], [-99.6193554624743, 19.239544301163072], [-99.62178362414937, 19.23524290777857], [-99.6285218484282, 19.236325124944493], [-99.63002421734902, 19.24469024145898], [-99.63567628517566, 19.243324909924365], [-99.64213540015305, 19.24592123869282], [-99.64381697807116, 19.25489908348506], [-99.65440830256671, 19.261094622171], [-99.67489900893239, 19.26430356061021], [-99.67810284103768, 19.252985973693054], [-99.68805752471609, 19.25463334232299], [-99.6987921186679, 19.249610176399074], [-99.7079273363252, 19.25128106277226], [-99.71009569482119, 19.253533556755464], [-99.71006407154997, 19.268628181819974], [-99.69760643149236, 19.27261282825318], [-99.6949185649754, 19.276558903888038], [-99.70043063987087, 19.281940389821663], [-99.71591150860297, 19.283856529638943], [-99.71840350583338, 19.293311465778864]], [[-99.46461016381429, 19.2783694117093], [-99.45984068951078, 19.277340239842374], [-99.45794152018729, 19.28081077142995], [-99.46336761918943, 19.281868404577548], [-99.46461016381429, 19.2783694117093]], [[-99.47660332553069, 19.283645380041666], [-99.47950370527597, 19.281526495160122], [-99.47720937099969, 19.278770564078854], [-99.47394513529706, 19.280910863365307], [-99.47660332553069, 19.283645380041666]], [[-99.58373869991014, 19.313798948084827], [-99.58111352825436, 19.30451522876064], [-99.5757289121802, 19.304338255573068], [-99.56696946423996, 19.3115644935195], [-99.56875893724076, 19.315622443918517], [-99.58090160021288, 19.317989165273918], [-99.58373869991014, 19.313798948084827]], [[-99.61954667217265, 19.271014403300764], [-99.62208290932614, 19.26889979219122], [-99.62013560846111, 19.265420215807072], [-99.61321446575008, 19.26551773987214], [-99.61096073053751, 19.26845907742141], [-99.61260085486691, 19.271715678613006], [-99.61954667217265, 19.271014403300764]], [[-99.6267200907248, 19.33306854961805], [-99.62677864893257, 19.329602061510965], [-99.6221764707165, 19.328340286580797], [-99.61840671765493, 19.33365686155587], [-99.62218272614267, 19.33740510997482], [-99.6267200907248, 19.33306854961805]], [[-99.66008517220988, 19.33639072176855], [-99.65368714147154, 19.329069450403175], [-99.64836695087801, 19.32925078429159], [-99.64904524128158, 19.34048740683227], [-99.65775682603746, 19.34063224606001], [-99.66008517220988, 19.33639072176855]], [[-99.67680891174967, 19.331749263042337], [-99.67367012773883, 19.333663236740822], [-99.67597335069864, 19.3367800987497], [-99.67909231442394, 19.33453033588065], [-99.67680891174967, 19.331749263042337]], [[-99.68104437187974, 19.3390842199376], [-99.67635017180173, 19.34132626256512], [-99.67817375618289, 19.34539416883915], [-99.68488056322572, 19.344192611620272], [-99.68104437187974, 19.3390842199376]]], [[[-99.47931151835239, 19.33159372291134], [-99.46648291393882, 19.34381772946645], [-99.45587281339512, 19.33348707915332], [-99.44582479388335, 19.33419989503667], [-99.44606001927612, 19.330295205194037], [-99.45401002495983, 19.326689661741856], [-99.45539513169449, 19.319762256857288], [-99.4670797010872, 19.311310633645387], [-99.471342228506, 19.311723963522997], [-99.47075734182836, 19.317806872391433], [-99.47909162711686, 19.32633743903331], [-99.47931151835239, 19.33159372291134]]], [[[-99.53938602396424, 19.4030806544254], [-99.53829982605178, 19.407611016954583], [-99.52776544247261, 19.415134220337194], [-99.51743320950249, 19.41307672390526], [-99.50429341528977, 19.41720828150378], [-99.49686502696252, 19.423377847678584], [-99.48554435096305, 19.422943303765962], [-99.48661415773908, 19.411435663552393], [-99.49588758675391, 19.410429315485565], [-99.5037045373161, 19.413829035144293], [-99.5208592216557, 19.399859885583474], [-99.52140763057355, 19.392218901405627], [-99.52446113840323, 19.3900709499521], [-99.52974167623834, 19.39307234944009], [-99.53568044402377, 19.39265274757224], [-99.53938602396424, 19.4030806544254]]], [[[-99.60284837040273, 19.1932449478279], [-99.60220885463556, 19.197073071743237], [-99.59463774235269, 19.195590743462418], [-99.58134234262144, 19.197953383347564], [-99.57682875905358, 19.18336297502166], [-99.56529903857334, 19.188006878321577], [-99.56174992294363, 19.205731646537394], [-99.55511953248299, 19.207824832884917], [-99.55320249219712, 19.22247525507413], [-99.5600614267863, 19.225229473933172], [-99.56360502779314, 19.237360347206305], [-99.55392770043501, 19.236202312614214], [-99.55015959881503, 19.23272725379052], [-99.55159412885845, 19.224304697165906], [-99.54908752544954, 19.22099287013758], [-99.54891833036001, 19.211058260360076], [-99.54047103948834, 19.20696033320252], [-99.55825744926409, 19.19886527227406], [-99.55818303976908, 19.187270808476566], [-99.5509148329262, 19.185630847894043], [-99.55065085257117, 19.18010153966271], [-99.55642730963126, 19.177031937346076], [-99.55658665297666, 19.160493333038485], [-99.56199137691894, 19.153504841925134], [-99.57321738938708, 19.15388202404014], [-99.57445466043657, 19.15108727266384], [-99.57202450873463, 19.1472143133967], [-99.58013351319435, 19.142757437711946], [-99.59047545895223, 19.14371309098801], [-99.59065388786964, 19.15198401505512], [-99.58224217356673, 19.15503222802874], [-99.58212777178338, 19.16014106782239], [-99.57551105988641, 19.167764599840915], [-99.57618441835443, 19.173167555148982], [-99.57162841144203, 19.173575580209615], [-99.56950718155042, 19.177347275868563], [-99.58013694573866, 19.180188694173005], [-99.5841087610754, 19.184434598094604], [-99.58696207326469, 19.18020786161268], [-99.59638180954431, 19.176884702863745], [-99.59849123759345, 19.180341159266597], [-99.59551098758773, 19.18571942826067], [-99.59131441060643, 19.186829240070004], [-99.59106862595996, 19.19098214409213], [-99.59404942794568, 19.192748751572232], [-99.60218237834947, 19.189793359796443], [-99.60284837040273, 19.1932449478279]]], [[[-99.62780414930685, 19.161201934703335], [-99.62489385395796, 19.169011516491654], [-99.618293531773, 19.174495045155073], [-99.62073195912417, 19.188468922358066], [-99.61017327844161, 19.190462839081565], [-99.60628158886603, 19.18097661159672], [-99.60698960775328, 19.172541131202703], [-99.60288824095335, 19.165814257790686], [-99.60971742869359, 19.16485492832565], [-99.61060983180278, 19.16002969867317], [-99.61796775662562, 19.152343829437797], [-99.6247258122941, 19.15254266851571], [-99.62780414930685, 19.161201934703335]]], [[[-99.68261464483378, 19.23085894907043], [-99.68310805742226, 19.234878080623183], [-99.67328836387178, 19.233996992805647], [-99.67041851608293, 19.23970204799673], [-99.66770224540524, 19.239853579991227], [-99.66564852795246, 19.230961218718058], [-99.65360165849188, 19.22575145697105], [-99.65270750146242, 19.216048281127012], [-99.65693103323771, 19.212350181330443], [-99.66497221914668, 19.21241977026246], [-99.66758510630952, 19.217448655539904], [-99.67696619453007, 19.215627731262366], [-99.6776433346567, 19.22661493329312], [-99.68261464483378, 19.23085894907043]]], [[[-99.78364539389321, 19.369529572971924], [-99.78110676473322, 19.372788541450166], [-99.76509495978455, 19.374808235812814], [-99.76357488550826, 19.38235697746062], [-99.75769301556274, 19.382673812231562], [-99.75366335235655, 19.374740743301896], [-99.73749523451649, 19.374447404701844], [-99.73456701211103, 19.363185408707068], [-99.73823054474659, 19.36247485866258], [-99.74690550753778, 19.367152002606055], [-99.74859534802322, 19.36472912392384], [-99.74668539765703, 19.360326657141986], [-99.7534576777172, 19.356690893177696], [-99.75785995204313, 19.363778986044288], [-99.76486563900319, 19.363204638256498], [-99.77138953254621, 19.369189519807158], [-99.77535883233217, 19.365599076095844], [-99.78184359449818, 19.364712307941396], [-99.78421340951064, 19.36607435858086], [-99.78364539389321, 19.369529572971924]]], [[[-99.78623616745783, 19.295329464735854], [-99.78325023645509, 19.300446805749136], [-99.77591766333445, 19.298870729769853], [-99.77033210885983, 19.30213932865777], [-99.76486271342607, 19.299780163437212], [-99.75614281585563, 19.30129395994069], [-99.75490153285682, 19.293699300373138], [-99.75966405348673, 19.287437640260464], [-99.76553010379645, 19.28539692850819], [-99.76671597186879, 19.281499938454722], [-99.76242040642123, 19.278677157017135], [-99.75841787774823, 19.283618367703276], [-99.7545032303276, 19.283476606030813], [-99.753118570548, 19.278260594722422], [-99.76332049428291, 19.277608156144225], [-99.7632631438352, 19.268686909658147], [-99.76625180949334, 19.265679216291822], [-99.7798962142402, 19.265621526632284], [-99.77861429327405, 19.286348196292657], [-99.78623616745783, 19.295329464735854]]]]}}]}