{"type": "FeatureCollection", "features": [{"type": "Feature", "properties": {"threshold": 70}, "geometry": {"type": "MultiPolygon", "coordinates": [[[[47.587510934940575, -18.733816378042565], [47.58962517007867, -18.72838543150839], [47.60419572129459, -18.73011994060622], [47.60810431030958, -18.72418924848525], [47.611977341063465, -18.7236388392917], [47.61117046159161, -18.731720563121495], [47.60579397251824, -18.7313657479227], [47.60402415259133, -18.735367621850067], [47.59615533952005, -18.733927526591085], [47.59000208478483, -18.737244665701464], [47.587510934940575, -18.733816378042565]]], [[[47.485759243642484, -18.941353490422596], [47.48482833542899, -18.93652060404227], [47.490371330903685, -18.933251752890815], [47.49063607157757, -18.927578259200242], [47.49605148521629, -18.92348255654689], [47.496544624333524, -18.918916412866526], [47.49381440554435, -18.91573889756454], [47.49450394019217, -18.90029682209585], [47.48895922659667, -18.891323532328006], [47.48499675287598, -18.89016293652306], [47.48569324919298, -18.88385034363721], [47.488440233126056, -18.88246157112208], [47.49790346840485, -18.889404040153497], [47.50256645739429, -18.888685318978766], [47.504028572608746, -18.88510634993791], [47.50006641233798, -18.87472133762235], [47.50872199465014, -18.864465451958917], [47.52162822662772, -18.86811634064703], [47.52623858854291, -18.864048557335458], [47.542954586488335, -18.866458594419534], [47.54915493060933, -18.864480308166847], [47.55332494391697, -18.868589137434697], [47.55999481385304, -18.868518917914884], [47.56560658230996, -18.87288831282932], [47.56949479063669, -18.867609520920503], [47.57482140191644, -18.86773620650572], [47.57507392274431, -18.875867062181587], [47.568102400706174, -18.87979414526996], [47.56688438520992, -18.885467354656054], [47.56938862850554, -18.890318080457977], [47.5675055450164, -18.897140668421148], [47.57130635646515, -18.906713622145492], [47.56213756844731, -18.91770296686091], [47.56480215060864, -18.91985806748734], [47.577216800743585, -18.916384838100406], [47.57835147810385, -18.919536343928076], [47.573709517287796, -18.931192641206575], [47.58330986496802, -18.93244624288083], [47.58461272461649, -18.938133011030775], [47.58312584605391, -18.940414350684943], [47.57879175714698, -18.938764311242213], [47.569682918931875, -18.940480324592613], [47.56839294680585, -18.935605568727542], [47.57218800355695, -18.93005213051455], [47.56651822430288, -18.926887613434467], [47.56130765579362, -18.935269329510998], [47.56067963458926, -18.947756533967834], [47.555005350672936, -18.95057077280873], [47.55181922544152, -18.946484895644335], [47.545380235938204, -18.947639325821715], [47.543743255232535, -18.953612480095796], [47.53904679511732, -18.95677290407942], [47.54167986983019, -18.96153480960035], [47.54894994081049, -18.959140380307037], [47.550885516750114, -18.964497363552503], [47.549618306387956, -18.980365843571438], [47.558844339470205, -18.982932401073874], [47.55873887782675, -18.98840076176041], [47.55266146717978, -18.99034373965353], [47.547925184931195, -18.987605739582246], [47.54260985818557, -18.973122836876325], [47.53675633854947, -18.974676194346216], [47.53654519360585, -18.982887978874505], [47.53027558847131, -18.986974806137127], [47.53840655441829, -18.99584127800097], [47.539201702963915, -19.000263177631158], [47.5436722086935, -19.00233588448798], [47.542697170834835, -19.00823066234274], [47.536634412125714, -19.008402126209756], [47.534411077636555, -19.002240356258287], [47.52778236193041, -19.00107065665448], [47.52103750899639, -18.989157517352094], [47.5128783755866, -18.989563270063755], [47.51477425345724, -18.983802628383145], [47.5219236634604, -18.982014188194036], [47.51856008203727, -18.971221034510286], [47.52561646053772, -18.967101524873247], [47.52547784137657, -18.963083327874905], [47.52128598744005, -18.95990068278278], [47.51552777823912, -18.95981948535881], [47.508369587983836, -18.970698091773514], [47.504396796974945, -18.970619359077936], [47.500573390388034, -18.966171097863626], [47.500567429382436, -18.961492755829397], [47.513467362380055, -18.948583690906556], [47.51681423203293, -18.93907550631221], [47.49962207481553, -18.94126350250098], [47.495189159547444, -18.94569240147336], [47.48871629453306, -18.94487536421816], [47.485759243642484, -18.941353490422596]], [[47.549961326884095, -18.89702762884301], [47.55054673093571, -18.907993282850693], [47.555305597401954, -18.91549025385526], [47.559391499627125, -18.91536697238761], [47.562122618719286, -18.89755018029725], [47.55805051905112, -18.88573273068503], [47.55486046905891, -18.885872104344028], [47.5529873216464, -18.890997832636963], [47.54819240493496, -18.893299720547517], [47.549961326884095, -18.89702762884301]], [[47.52921221168428, -18.886637277437483], [47.52869664469361, -18.892327672880143], [47.537593738570735, -18.896695876200727], [47.54161534846075, -18.89299678946146], [47.534385504616466, -18.886912148193538], [47.53698005259973, -18.879241628302807], [47.54239800090168, -18.880208186820063], [47.54563374945183, -18.884036553190622], [47.55483123779952, -18.8839110774152], [47.55637212079154, -18.879887456921978], [47.55253056371218, -18.875549312803667], [47.54596221462463, -18.87593975472028], [47.54014126090294, -18.873139376096134], [47.53652237292592, -18.877028333085892], [47.52949291424073, -18.877138971500827], [47.52921221168428, -18.886637277437483]], [[47.52291771145805, -18.926172143571602], [47.52696253301953, -18.931501622562422], [47.53162995338269, -18.931281778127516], [47.544450954779364, -18.920013568192015], [47.536635375489105, -18.917226097996238], [47.52900889670529, -18.919192127537475], [47.52291771145805, -18.926172143571602]], [[47.535921006419215, -18.945464673746677], [47.54065936280323, -18.944299614846763], [47.53850034316896, -18.93708702288309], [47.53103234330434, -18.94033038125224], [47.535921006419215, -18.945464673746677]]], [[[47.5495465272898, -18.86216015818304], [47.54586981509308, -18.85884008409168], [47.54864729861706, -18.845177090243247], [47.541060978103, -18.842818682265303], [47.526568869604525, -18.845288114319704], [47.52510991946759, -18.83960650428804], [47.5270901550075, -18.83740853354384], [47.54741199838595, -18.8369635069115], [47.550174015100694, -18.840748354367708], [47.55909497466151, -18.8435825783864], [47.559410563854144, -18.858283342738748], [47.5495465272898, -18.86216015818304]]], [[[47.465883709901284, -18.802005363970913], [47.467371598708795, -18.796589965089446], [47.493615338377325, -18.800601938704528], [47.496556404102684, -18.813202146086322], [47.49327049700985, -18.82026851808954], [47.49849037310812, -18.82861162723764], [47.49402961635451, -18.836668445270274], [47.48967886886875, -18.836814811110845], [47.48504393850558, -18.832550570918848], [47.485141561630535, -18.826711051425082], [47.481155026173326, -18.82036137947548], [47.467832213268586, -18.81903232054477], [47.46833709309081, -18.80659793417491], [47.465883709901284, -18.802005363970913]]], [[[47.41785243804549, -18.790328209146388], [47.41683240173373, -18.78490703008113], [47.41893977107136, -18.782698894540772], [47.42636553470023, -18.783544579427996], [47.42857846542959, -18.778419961648957], [47.43536623561973, -18.78031227335891], [47.43531028805855, -18.78377238543046], [47.42719826622684, -18.786151623269628], [47.42605470323981, -18.790267618050812], [47.42949760503442, -18.7985923115134], [47.43575058328349, -18.801570166834136], [47.43488196015737, -18.806774474486517], [47.43937838291002, -18.81231463838868], [47.43804144375359, -18.81595597878462], [47.43106830662242, -18.81701434557723], [47.43057611140231, -18.807796224303964], [47.41971219673341, -18.798476245778684], [47.41785243804549, -18.790328209146388]]], [[[47.4443323573396, -18.829873485484455], [47.45286592286741, -18.83181342935557], [47.4690782352408, -18.840700371723507], [47.47868024496394, -18.83724670383976], [47.480457384251785, -18.841892523235483], [47.48587496981776, -18.845590702270574], [47.48938567674063, -18.863165190630262], [47.49707755851486, -18.865487860395135], [47.49719779870613, -18.86982166356634], [47.490798197296485, -18.87424981630596], [47.48409393191309, -18.872546536034317], [47.48334229808866, -18.865415805128062], [47.47008467150064, -18.856372956056656], [47.46818499353846, -18.84794615148828], [47.464119779404676, -18.848200647178157], [47.46137349998827, -18.85190600098651], [47.44706264034788, -18.849477618722105], [47.44558529103395, -18.843599718855845], [47.44237656008786, -18.841681041228682], [47.44223264875901, -18.830884269112424], [47.4443323573396, -18.829873485484455]]], [[[47.38033525713871, -18.730689132309845], [47.37957779036843, -18.727287101464253], [47.38559558089827, -18.725307988396825], [47.384475283436984, -18.719222943483405], [47.38851234942922, -18.717996334850614], [47.40372412422414, -18.72611280371741], [47.40752501714932, -18.731504515313695], [47.40423585940649, -18.735668834109802], [47.39701485441236, -18.73488447324271], [47.392475774708466, -18.730944891056566], [47.38523852529516, -18.735081020573585], [47.38033525713871, -18.730689132309845]]]]}}, {"type": "Feature", "properties": {"threshold": 80}, "geometry": {"type": "MultiPolygon", "coordinates": [[[[47.587510934940575, -18.733816378042565], [47.58962517007867, -18.72838543150839], [47.60419572129459, -18.73011994060622], [47.60810431030958, -18.72418924848525], [47.611977341063465, -18.7236388392917], [47.61117046159161, -18.731720563121495], [47.60579397251824, -18.7313657479227], [47.60402415259133, -18.735367621850067], [47.59615533952005, -18.733927526591085], [47.59000208478483, -18.737244665701464], [47.587510934940575, -18.733816378042565]]], [[[47.485759243642484, -18.941353490422596], [47.48482833542899, -18.93652060404227], [47.490371330903685, -18.933251752890815], [47.49063607157757, -18.927578259200242], [47.49605148521629, -18.92348255654689], [47.496544624333524, -18.918916412866526], [47.49381440554435, -18.91573889756454], [47.49450394019217, -18.90029682209585], [47.48895922659667, -18.891323532328006], [47.48499675287598, -18.89016293652306], [47.485754866865754, -18.883702918103303], [47.488519184833805, -18.882487275134125], [47.49766590701785, -18.889294878479358], [47.501597595089066, -18.88934604492132], [47.50405673437469, -18.885343988994638], [47.50006641233798, -18.87472133762235], [47.5086609756388, -18.864519619985753], [47.52187940884446, -18.868112935066648], [47.529671606488066, -18.863995067138905], [47.542954586488335, -18.866458594419534], [47.54915493060933, -18.864480308166847], [47.55332494391697, -18.868589137434697], [47.55999481385304, -18.868518917914884], [47.56535625429356, -18.872868324698736], [47.56949479063669, -18.867609520920503], [47.57476448075932, -18.867678139285886], [47.57507392274431, -18.875867062181587], [47.568102400706174, -18.87979414526996], [47.56688438520992, -18.885467354656054], [47.56938862850554, -18.890318080457977], [47.5675055450164, -18.897140668421148], [47.57132545305487, -18.90663630652027], [47.56668773863919, -18.91384141575117], [47.5624391135517, -18.91494361779369], [47.56233848059345, -18.918407367762256], [47.56480215060864, -18.91985806748734], [47.57303270174839, -18.916221380485723], [47.57813958864387, -18.91724321736342], [47.573569502851605, -18.93001598655899], [47.57552177914026, -18.932710465751214], [47.585787977153416, -18.933351470064665], [47.5929605865835, -18.92999436628352], [47.59437151213118, -18.926530693016264], [47.602791721348076, -18.927259023256713], [47.60689511762658, -18.942477262489398], [47.6007118198814, -18.945023141551157], [47.596030127660974, -18.93752970220339], [47.58730242511323, -18.93620937546759], [47.583979353832426, -18.940402455660596], [47.57879175714698, -18.938764311242213], [47.569831091843575, -18.940553067686405], [47.56839294680585, -18.935605568727542], [47.57224061452675, -18.930285964583515], [47.567253018148115, -18.92673792105882], [47.561377106579904, -18.935039507718873], [47.562471219372576, -18.941689756613645], [47.55894213519932, -18.949464088166135], [47.55461603709157, -18.950511588773104], [47.5513305233921, -18.94637554077879], [47.544557491496796, -18.94817891485648], [47.543785131813785, -18.953543773856726], [47.53894361810262, -18.959157049731285], [47.54217752875398, -18.961598079820423], [47.54894994081049, -18.959140380307037], [47.550885516750114, -18.964497363552503], [47.549618306387956, -18.980365843571438], [47.55852908568543, -18.982390415558665], [47.55892124179277, -18.987964092404788], [47.55648640221836, -18.990348628920014], [47.549073381792724, -18.98869372112453], [47.54277523588103, -18.97329653063039], [47.53704961223568, -18.974288441994304], [47.53654519360585, -18.982887978874505], [47.53024735462898, -18.98673717983772], [47.53840655441829, -18.99584127800097], [47.539201702963915, -19.000263177631158], [47.5437089968432, -19.0024071840655], [47.54374557738813, -19.00715975214494], [47.539673844344506, -19.00927125452301], [47.53545785792527, -19.007341758689996], [47.53420585432334, -19.002082441480294], [47.52685928204637, -19.00021205710184], [47.52681869466192, -18.996220041165024], [47.52124969188724, -18.989296082567524], [47.5128783755866, -18.989563270063755], [47.51477425345724, -18.983802628383145], [47.5219236634604, -18.982014188194036], [47.51856008203727, -18.971221034510286], [47.52561646053772, -18.967101524873247], [47.52547784137657, -18.963083327874905], [47.52128598744005, -18.95990068278278], [47.51552777823912, -18.95981948535881], [47.508369587983836, -18.970698091773514], [47.504396796974945, -18.970619359077936], [47.500573390388034, -18.966171097863626], [47.50139686473173, -18.9598568006968], [47.513467362380055, -18.948583690906556], [47.51681423203293, -18.93907550631221], [47.49962207481553, -18.94126350250098], [47.495189159547444, -18.94569240147336], [47.48871629453306, -18.94487536421816], [47.485759243642484, -18.941353490422596]], [[47.549961326884095, -18.89702762884301], [47.55054673093571, -18.907993282850693], [47.555305597401954, -18.91549025385526], [47.559391499627125, -18.91536697238761], [47.562122618719286, -18.89755018029725], [47.55805051905112, -18.88573273068503], [47.55486046905891, -18.885872104344028], [47.5529873216464, -18.890997832636963], [47.54819240493496, -18.893299720547517], [47.549961326884095, -18.89702762884301]], [[47.52921221168428, -18.886637277437483], [47.52869664469361, -18.892327672880143], [47.537593738570735, -18.896695876200727], [47.54161534846075, -18.89299678946146], [47.534385504616466, -18.886912148193538], [47.53698005259973, -18.879241628302807], [47.54239800090168, -18.880208186820063], [47.54563374945183, -18.884036553190622], [47.55483123779952, -18.8839110774152], [47.55637212079154, -18.879887456921978], [47.55253056371218, -18.875549312803667], [47.54596221462463, -18.87593975472028], [47.54014126090294, -18.873139376096134], [47.53652237292592, -18.877028333085892], [47.52949291424073, -18.877138971500827], [47.52921221168428, -18.886637277437483]], [[47.52291771145805, -18.926172143571602], [47.52696253301953, -18.931501622562422], [47.53162995338269, -18.931281778127516], [47.544450954779364, -18.920013568192015], [47.536635375489105, -18.917226097996238], [47.52900889670529, -18.919192127537475], [47.52291771145805, -18.926172143571602]], [[47.535921006419215, -18.945464673746677], [47.54065936280323, -18.944299614846763], [47.53850034316896, -18.93708702288309], [47.53103234330434, -18.94033038125224], [47.535921006419215, -18.945464673746677]]], [[[47.5495465272898, -18.86216015818304], [47.54586981509308, -18.85884008409168], [47.54864729861706, -18.845177090243247], [47.541060978103, -18.842818682265303], [47.526568869604525, -18.845288114319704], [47.52510991946759, -18.83960650428804], [47.5270901550075, -18.83740853354384], [47.54741199838595, -18.8369635069115], [47.550174015100694, -18.840748354367708], [47.55909497466151, -18.8435825783864], [47.559410563854144, -18.858283342738748], [47.5495465272898, -18.86216015818304]]], [[[47.41785243804549, -18.790328209146388], [47.41683240173373, -18.78490703008113], [47.41893977107136, -18.782698894540772], [47.42636553470023, -18.783544579427996], [47.42857846542959, -18.778419961648957], [47.43536623561973, -18.78031227335891], [47.43618646802331, -18.785385798284214], [47.427630736653086, -18.785884439147928], [47.42605470323981, -18.790267618050812], [47.42953259161106, -18.79863267042385], [47.43575058328349, -18.801570166834136], [47.43559304237028, -18.807577608491165], [47.43937838291002, -18.81231463838868], [47.43804144375359, -18.81595597878462], [47.43106830662242, -18.81701434557723], [47.43057611140231, -18.807796224303964], [47.41971219673341, -18.798476245778684], [47.41785243804549, -18.790328209146388]]], [[[47.44139824644609, -18.81906587775713], [47.445763676689715, -18.814074527780623], [47.44958283495573, -18.813885030326084], [47.453392455094004, -18.820189684048295], [47.4577172854147, -18.819123834347213], [47.46815780594712, -18.808858215960534], [47.4656824157635, -18.80156607398322], [47.46706266461261, -18.796631844572335], [47.49355846815086, -18.800543840917953], [47.496556404102684, -18.813202146086322], [47.49327049700985, -18.82026851808954], [47.49848013016682, -18.827919034379956], [47.49582784980199, -18.834907375423455], [47.489914897312424, -18.836891681565856], [47.4851514438589, -18.832671798624215], [47.485064337698475, -18.82648261512418], [47.47919250765776, -18.8192340273713], [47.473657343644625, -18.822396462335966], [47.47436792259496, -18.835538093574893], [47.48583824763576, -18.84551938331425], [47.48938567674063, -18.863165190630262], [47.497265726187855, -18.86574793798319], [47.4946190876557, -18.872352290883942], [47.49056977810274, -18.874271368588328], [47.48403132890831, -18.872494026443505], [47.48334229808866, -18.865415805128062], [47.47008467150064, -18.856372956056656], [47.468413537137195, -18.84804538214475], [47.46432887340647, -18.848082128001128], [47.46137349998827, -18.85190600098651], [47.44700005639445, -18.849425093910664], [47.44558529103395, -18.843599718855845], [47.4423899364878, -18.841759444180067], [47.44223264875901, -18.830884269112424], [47.444433762679616, -18.827836614062036], [47.441299911637266, -18.823977647827892], [47.44139824644609, -18.81906587775713]]], [[[47.38033525713871, -18.730689132309845], [47.37957779036843, -18.727287101464253], [47.38559558089827, -18.725307988396825], [47.384475283436984, -18.719222943483405], [47.38851234942922, -18.717996334850614], [47.40372412422414, -18.72611280371741], [47.40752501714932, -18.731504515313695], [47.40423585940649, -18.735668834109802], [47.39701485441236, -18.73488447324271], [47.392475774708466, -18.730944891056566], [47.38523852529516, -18.735081020573585], [47.38033525713871, -18.730689132309845]]]]}}, {"type": "Feature", "properties": {"threshold": 90}, "geometry": {"type": "MultiPolygon", "coordinates": [[[[47.587510934940575, -18.733816378042565], [47.58962517007867, -18.72838543150839], [47.60419572129459, -18.73011994060622], [47.60810431030958, -18.72418924848525], [47.611977341063465, -18.7236388392917], [47.61117046159161, -18.731720563121495], [47.60579397251824, -18.7313657479227], [47.60402415259133, -18.735367621850067], [47.59615533952005, -18.733927526591085], [47.59000208478483, -18.737244665701464], [47.587510934940575, -18.733816378042565]]], [[[47.485759243642484, -18.941353490422596], [47.48482833542899, -18.93652060404227], [47.490371330903685, -18.933251752890815], [47.49063607157757, -18.927578259200242], [47.49605148521629, -18.92348255654689], [47.496544624333524, -18.918916412866526], [47.49381440554435, -18.91573889756454], [47.49450394019217, -18.90029682209585], [47.48895922659667, -18.891323532328006], [47.48499675287598, -18.89016293652306], [47.485754866865754, -18.883702918103303], [47.488519184833805, -18.882487275134125], [47.49766590701785, -18.889294878479358], [47.501597595089066, -18.88934604492132], [47.50405673437469, -18.885343988994638], [47.50006641233798, -18.87472133762235], [47.5086609756388, -18.864519619985753], [47.52187940884446, -18.868112935066648], [47.529671606488066, -18.863995067138905], [47.542954586488335, -18.866458594419534], [47.54915493060933, -18.864480308166847], [47.55332494391697, -18.868589137434697], [47.55999481385304, -18.868518917914884], [47.56535625429356, -18.872868324698736], [47.56949479063669, -18.867609520920503], [47.57476448075932, -18.867678139285886], [47.57507392274431, -18.875867062181587], [47.568102400706174, -18.87979414526996], [47.56688438520992, -18.885467354656054], [47.56938862850554, -18.890318080457977], [47.5675055450164, -18.897140668421148], [47.57132545305487, -18.90663630652027], [47.56668773863919, -18.91384141575117], [47.5624391135517, -18.91494361779369], [47.56233848059345, -18.918407367762256], [47.56480215060864, -18.91985806748734], [47.57303270174839, -18.916221380485723], [47.57813958864387, -18.91724321736342], [47.573569502851605, -18.93001598655899], [47.57552177914026, -18.932710465751214], [47.585787977153416, -18.933351470064665], [47.5929605865835, -18.92999436628352], [47.59444966987109, -18.926502840505556], [47.603645148966514, -18.927247045751873], [47.60689511762658, -18.942477262489398], [47.6007118198814, -18.945023141551157], [47.596030127660974, -18.93752970220339], [47.58730242511323, -18.93620937546759], [47.583979353832426, -18.940402455660596], [47.57879175714698, -18.938764311242213], [47.569831091843575, -18.940553067686405], [47.56839294680585, -18.935605568727542], [47.57224061452675, -18.930285964583515], [47.567253018148115, -18.92673792105882], [47.561377106579904, -18.935039507718873], [47.562471219372576, -18.941689756613645], [47.55894213519932, -18.949464088166135], [47.55461603709157, -18.950511588773104], [47.5513305233921, -18.94637554077879], [47.544557491496796, -18.94817891485648], [47.543785131813785, -18.953543773856726], [47.53894361810262, -18.959157049731285], [47.54217752875398, -18.961598079820423], [47.54894994081049, -18.959140380307037], [47.550885516750114, -18.964497363552503], [47.549618306387956, -18.980365843571438], [47.55852908568543, -18.982390415558665], [47.55892124179277, -18.987964092404788], [47.55648640221836, -18.990348628920014], [47.549073381792724, -18.98869372112453], [47.54277523588103, -18.97329653063039], [47.53704961223568, -18.974288441994304], [47.53654519360585, -18.982887978874505], [47.53024735462898, -18.98673717983772], [47.53840655441829, -18.99584127800097], [47.539201702963915, -19.000263177631158], [47.5437089968432, -19.0024071840655], [47.54374557738813, -19.00715975214494], [47.539673844344506, -19.00927125452301], [47.53545785792527, -19.007341758689996], [47.53420585432334, -19.002082441480294], [47.52685928204637, -19.00021205710184], [47.52681869466192, -18.996220041165024], [47.52124969188724, -18.989296082567524], [47.5128783755866, -18.989563270063755], [47.51477425345724, -18.983802628383145], [47.5219236634604, -18.982014188194036], [47.51856008203727, -18.971221034510286], [47.52561646053772, -18.967101524873247], [47.52547784137657, -18.963083327874905], [47.52128598744005, -18.95990068278278], [47.51552777823912, -18.95981948535881], [47.508369587983836, -18.970698091773514], [47.504396796974945, -18.970619359077936], [47.500573390388034, -18.966171097863626], [47.50139686473173, -18.9598568006968], [47.513467362380055, -18.948583690906556], [47.51681423203293, -18.93907550631221], [47.49962207481553, -18.94126350250098], [47.495189159547444, -18.94569240147336], [47.48871629453306, -18.94487536421816], [47.485759243642484, -18.941353490422596]], [[47.549961326884095, -18.89702762884301], [47.55054673093571, -18.907993282850693], [47.555305597401954, -18.91549025385526], [47.559391499627125, -18.91536697238761], [47.562122618719286, -18.89755018029725], [47.55805051905112, -18.88573273068503], [47.55486046905891, -18.885872104344028], [47.5529873216464, -18.890997832636963], [47.54819240493496, -18.893299720547517], [47.549961326884095, -18.89702762884301]], [[47.52921221168428, -18.886637277437483], [47.52869664469361, -18.892327672880143], [47.537593738570735, -18.896695876200727], [47.54161534846075, -18.89299678946146], [47.534385504616466, -18.886912148193538], [47.53698005259973, -18.879241628302807], [47.54239800090168, -18.880208186820063], [47.54563374945183, -18.884036553190622], [47.55483123779952, -18.8839110774152], [47.55637212079154, -18.879887456921978], [47.55253056371218, -18.875549312803667], [47.54596221462463, -18.87593975472028], [47.54014126090294, -18.873139376096134], [47.53652237292592, -18.877028333085892], [47.52949291424073, -18.877138971500827], [47.52921221168428, -18.886637277437483]], [[47.52291771145805, -18.926172143571602], [47.52696253301953, -18.931501622562422], [47.53162995338269, -18.931281778127516], [47.544450954779364, -18.920013568192015], [47.536635375489105, -18.917226097996238], [47.52900889670529, -18.919192127537475], [47.52291771145805, -18.926172143571602]], [[47.535921006419215, -18.945464673746677], [47.54065936280323, -18.944299614846763], [47.53850034316896, -18.93708702288309], [47.53103234330434, -18.94033038125224], [47.535921006419215, -18.945464673746677]]], [[[47.5495465272898, -18.86216015818304], [47.54586981509308, -18.85884008409168], [47.54864729861706, -18.845177090243247], [47.541060978103, -18.842818682265303], [47.526568869604525, -18.845288114319704], [47.52510991946759, -18.83960650428804], [47.5270901550075, -18.83740853354384], [47.54741199838595, -18.8369635069115], [47.550174015100694, -18.840748354367708], [47.55909497466151, -18.8435825783864], [47.559410563854144, -18.858283342738748], [47.5495465272898, -18.86216015818304]]], [[[47.41785243804549, -18.790328209146388], [47.41683240173373, -18.78490703008113], [47.41893977107136, -18.782698894540772], [47.42636553470023, -18.783544579427996], [47.42857846542959, -18.778419961648957], [47.43536623561973, -18.78031227335891], [47.43618646802331, -18.785385798284214], [47.427630736653086, -18.785884439147928], [47.42605470323981, -18.790267618050812], [47.42953259161106, -18.79863267042385], [47.43575058328349, -18.801570166834136], [47.43559304237028, -18.807577608491165], [47.43937838291002, -18.81231463838868], [47.43804144375359, -18.81595597878462], [47.43106830662242, -18.81701434557723], [47.43057611140231, -18.807796224303964], [47.41971219673341, -18.798476245778684], [47.41785243804549, -18.790328209146388]]], [[[47.44139824644609, -18.81906587775713], [47.445763676689715, -18.814074527780623], [47.44958283495573, -18.813885030326084], [47.453392455094004, -18.820189684048295], [47.4577172854147, -18.819123834347213], [47.46815780594712, -18.808858215960534], [47.4656824157635, -18.80156607398322], [47.46706266461261, -18.796631844572335], [47.49355846815086, -18.800543840917953], [47.496556404102684, -18.813202146086322], [47.49327049700985, -18.82026851808954], [47.49848013016682, -18.827919034379956], [47.49582784980199, -18.834907375423455], [47.489914897312424, -18.836891681565856], [47.4851514438589, -18.832671798624215], [47.485064337698475, -18.82648261512418], [47.47919250765776, -18.8192340273713], [47.473657343644625, -18.822396462335966], [47.47436792259496, -18.835538093574893], [47.48583824763576, -18.84551938331425], [47.48938567674063, -18.863165190630262], [47.497265726187855, -18.86574793798319], [47.4946190876557, -18.872352290883942], [47.49056977810274, -18.874271368588328], [47.48403132890831, -18.872494026443505], [47.48334229808866, -18.865415805128062], [47.47008467150064, -18.856372956056656], [47.468413537137195, -18.84804538214475], [47.46432887340647, -18.848082128001128], [47.46137349998827, -18.85190600098651], [47.44700005639445, -18.849425093910664], [47.44558529103395, -18.843599718855845], [47.4423899364878, -18.841759444180067], [47.44223264875901, -18.830884269112424], [47.444433762679616, -18.827836614062036], [47.441299911637266, -18.823977647827892], [47.44139824644609, -18.81906587775713]]], [[[47.42644404073426, -19.00430557062118], [47.432703241324695, -19.00390124683971], [47.431952815522514, -19.011029923050916], [47.42867112707325, -19.014703161945032], [47.433626817221125, -19.017496255053363], [47.43385998734636, -19.020523263296724], [47.42364035175233, -19.027883142079887], [47.42010190811143, -19.013233617377242], [47.42517901204953, -19.01058327284547], [47.42644404073426, -19.00430557062118]]], [[[47.38033525713871, -18.730689132309845], [47.37957779036843, -18.727287101464253], [47.38559558089827, -18.725307988396825], [47.384475283436984, -18.719222943483405], [47.38851234942922, -18.717996334850614], [47.40372412422414, -18.72611280371741], [47.40752501714932, -18.731504515313695], [47.40423585940649, -18.735668834109802], [47.39701485441236, -18.73488447324271], [47.392475774708466, -18.730944891056566], [47.38523852529516, -18.735081020573585], [47.38033525713871, -18.730689132309845]]], [[[47.37130127775266, -18.944777966220393], [47.37270907752301, -18.941658383953403], [47.385556687543705, -18.94094217314022], [47.383702804729815, -18.94835845588373], [47.38855147062915, -18.95760596888824], [47.38572063518735, -18.960765325223825], [47.381056230221695, -18.960649326662338], [47.37913677322823, -18.95241581168699], [47.373044286643626, -18.953796058516044], [47.370735608472394, -18.951908669917508], [47.37130127775266, -18.944777966220393]]]]}}, {"type": "Feature", "properties": {"threshold": 95}, "geometry": {"type": "MultiPolygon", "coordinates": [[[[47.67318509230617, -18.707540329325354], [47.67653118186897, -18.697473727107642], [47.67922479329993, -18.697042257178058], [47.6823523619409, -18.699086910530436], [47.68488369904812, -18.708687040015842], [47.69072303989005, -18.70916355842141], [47.69369937210588, -18.71409016142682], [47.688451499504055, -18.718766630044417], [47.68510739637319, -18.710062308423815], [47.6764850787784, -18.711646625968484], [47.67318509230617, -18.707540329325354]]], [[[47.68124861693238, -18.875061148082636], [47.68329484177757, -18.872420827657937], [47.691010619174186, -18.87346575221187], [47.69382827434206, -18.880432698549182], [47.6918807757423, -18.889196893682943], [47.68294186845056, -18.884229150705192], [47.68277000779011, -18.88016896199379], [47.67844119372251, -18.87750397479676], [47.68124861693238, -18.875061148082636]]], [[[47.63001226503446, -18.747446009945328], [47.633984364922625, -18.747889669623415], [47.638377736407094, -18.743172636127174], [47.64267330594173, -18.7431192066469], [47.64895498469512, -18.735613756338697], [47.651308927731264, -18.735943063906365], [47.65587771126821, -18.746135521115036], [47.646550706719594, -18.753518795935108], [47.63178187822796, -18.752850420897097], [47.62785086437021, -18.7507682373749], [47.63001226503446, -18.747446009945328]]], [[[47.587510934940575, -18.733816378042565], [47.58962517007867, -18.72838543150839], [47.60419572129459, -18.73011994060622], [47.60810431030958, -18.72418924848525], [47.611977341063465, -18.7236388392917], [47.61117046159161, -18.731720563121495], [47.60579397251824, -18.7313657479227], [47.60402415259133, -18.735367621850067], [47.59615533952005, -18.733927526591085], [47.59000208478483, -18.737244665701464], [47.587510934940575, -18.733816378042565]]], [[[47.485759243642484, -18.941353490422596], [47.48482833542899, -18.93652060404227], [47.490371330903685, -18.933251752890815], [47.49063607157757, -18.927578259200242], [47.49605148521629, -18.92348255654689], [47.496544624333524, -18.918916412866526], [47.49381440554435, -18.91573889756454], [47.49450394019217, -18.90029682209585], [47.48895922659667, -18.891323532328006], [47.48499675287598, -18.89016293652306], [47.485754866865754, -18.883702918103303], [47.488519184833805, -18.882487275134125], [47.49766590701785, -18.889294878479358], [47.501597595089066, -18.88934604492132], [47.50405673437469, -18.885343988994638], [47.50006641233798, -18.87472133762235], [47.5086609756388, -18.864519619985753], [47.52187940884446, -18.868112935066648], [47.529671606488066, -18.863995067138905], [47.542954586488335, -18.866458594419534], [47.54915493060933, -18.864480308166847], [47.55332494391697, -18.868589137434697], [47.55999481385304, -18.868518917914884], [47.56535625429356, -18.872868324698736], [47.56949479063669, -18.867609520920503], [47.57476448075932, -18.867678139285886], [47.57507392274431, -18.875867062181587], [47.568102400706174, -18.87979414526996], [47.56688438520992, -18.885467354656054], [47.56938862850554, -18.890318080457977], [47.5675055450164, -18.897140668421148], [47.57132545305487, -18.90663630652027], [47.56668773863919, -18.91384141575117], [47.5624391135517, -18.91494361779369], [47.56233848059345, -18.918407367762256], [47.56480215060864, -18.91985806748734], [47.57303270174839, -18.916221380485723], [47.57813958864387, -18.91724321736342], [47.573569502851605, -18.93001598655899], [47.57552177914026, -18.932710465751214], [47.585787977153416, -18.933351470064665], [47.5929605865835, -18.92999436628352], [47.59444966987109, -18.926502840505556], [47.603645148966514, -18.927247045751873], [47.60689511762658, -18.942477262489398], [47.6007118198814, -18.945023141551157], [47.596030127660974, -18.93752970220339], [47.58730242511323, -18.93620937546759], [47.583979353832426, -18.940402455660596], [47.57879175714698, -18.938764311242213], [47.569831091843575, -18.940553067686405], [47.56839294680585, -18.935605568727542], [47.57224061452675, -18.930285964583515], [47.567253018148115, -18.92673792105882], [47.561377106579904, -18.935039507718873], [47.562471219372576, -18.941689756613645], [47.55894213519932, -18.949464088166135], [47.55461603709157, -18.950511588773104], [47.5513305233921, -18.94637554077879], [47.544557491496796, -18.94817891485648], [47.543785131813785, -18.953543773856726], [47.53894361810262, -18.959157049731285], [47.54217752875398, -18.961598079820423], [47.54894994081049, -18.959140380307037], [47.550885516750114, -18.964497363552503], [47.549618306387956, -18.980365843571438], [47.55852908568543, -18.982390415558665], [47.55892124179277, -18.987964092404788], [47.55648640221836, -18.990348628920014], [47.549073381792724, -18.98869372112453], [47.54277523588103, -18.97329653063039], [47.53704961223568, -18.974288441994304], [47.53654519360585, -18.982887978874505], [47.53024735462898, -18.98673717983772], [47.53840655441829, -18.99584127800097], [47.539201702963915, -19.000263177631158], [47.5437089968432, -19.0024071840655], [47.54374557738813, -19.00715975214494], [47.539673844344506, -19.00927125452301], [47.53545785792527, -19.007341758689996], [47.53420585432334, -19.002082441480294], [47.52685928204637, -19.00021205710184], [47.52681869466192, -18.996220041165024], [47.52124969188724, -18.989296082567524], [47.5128783755866, -18.989563270063755], [47.51477425345724, -18.983802628383145], [47.5219236634604, -18.982014188194036], [47.51856008203727, -18.971221034510286], [47.52561646053772, -18.967101524873247], [47.52547784137657, -18.963083327874905], [47.52128598744005, -18.95990068278278], [47.51552777823912, -18.95981948535881], [47.508369587983836, -18.970698091773514], [47.504396796974945, -18.970619359077936], [47.500573390388034, -18.966171097863626], [47.50139686473173, -18.9598568006968], [47.513467362380055, -18.948583690906556], [47.51681423203293, -18.93907550631221], [47.49962207481553, -18.94126350250098], [47.495189159547444, -18.94569240147336], [47.48871629453306, -18.94487536421816], [47.485759243642484, -18.941353490422596]], [[47.549961326884095, -18.89702762884301], [47.55054673093571, -18.907993282850693], [47.555305597401954, -18.91549025385526], [47.559391499627125, -18.91536697238761], [47.562122618719286, -18.89755018029725], [47.55805051905112, -18.88573273068503], [47.55486046905891, -18.885872104344028], [47.5529873216464, -18.890997832636963], [47.54819240493496, -18.893299720547517], [47.549961326884095, -18.89702762884301]], [[47.52921221168428, -18.886637277437483], [47.52869664469361, -18.892327672880143], [47.537593738570735, -18.896695876200727], [47.54161534846075, -18.89299678946146], [47.534385504616466, -18.886912148193538], [47.53698005259973, -18.879241628302807], [47.54239800090168, -18.880208186820063], [47.54563374945183, -18.884036553190622], [47.55483123779952, -18.8839110774152], [47.55637212079154, -18.879887456921978], [47.55253056371218, -18.875549312803667], [47.54596221462463, -18.87593975472028], [47.54014126090294, -18.873139376096134], [47.53652237292592, -18.877028333085892], [47.52949291424073, -18.877138971500827], [47.52921221168428, -18.886637277437483]], [[47.52291771145805, -18.926172143571602], [47.52696253301953, -18.931501622562422], [47.53162995338269, -18.931281778127516], [47.544450954779364, -18.920013568192015], [47.536635375489105, -18.917226097996238], [47.52900889670529, -18.919192127537475], [47.52291771145805, -18.926172143571602]], [[47.535921006419215, -18.945464673746677], [47.54065936280323, -18.944299614846763], [47.53850034316896, -18.93708702288309], [47.53103234330434, -18.94033038125224], [47.535921006419215, -18.945464673746677]]], [[[47.5495465272898, -18.86216015818304], [47.54586981509308, -18.85884008409168], [47.54864729861706, -18.845177090243247], [47.541060978103, -18.842818682265303], [47.526568869604525, -18.845288114319704], [47.52510991946759, -18.83960650428804], [47.5270901550075, -18.83740853354384], [47.54741199838595, -18.8369635069115], [47.550174015100694, -18.840748354367708], [47.55909497466151, -18.8435825783864], [47.559410563854144, -18.858283342738748], [47.5495465272898, -18.86216015818304]]], [[[47.41785243804549, -18.790328209146388], [47.41683240173373, -18.78490703008113], [47.41893977107136, -18.782698894540772], [47.42636553470023, -18.783544579427996], [47.42857846542959, -18.778419961648957], [47.43536623561973, -18.78031227335891], [47.43618646802331, -18.785385798284214], [47.427630736653086, -18.785884439147928], [47.42605470323981, -18.790267618050812], [47.42953259161106, -18.79863267042385], [47.43575058328349, -18.801570166834136], [47.43559304237028, -18.807577608491165], [47.43937838291002, -18.81231463838868], [47.43804144375359, -18.81595597878462], [47.43106830662242, -18.81701434557723], [47.43057611140231, -18.807796224303964], [47.41971219673341, -18.798476245778684], [47.41785243804549, -18.790328209146388]]], [[[47.44139824644609, -18.81906587775713], [47.445763676689715, -18.814074527780623], [47.44958283495573, -18.813885030326084], [47.453392455094004, -18.820189684048295], [47.4577172854147, -18.819123834347213], [47.46815780594712, -18.808858215960534], [47.4656824157635, -18.80156607398322], [47.46706266461261, -18.796631844572335], [47.49355846815086, -18.800543840917953], [47.496556404102684, -18.813202146086322], [47.49327049700985, -18.82026851808954], [47.49848013016682, -18.827919034379956], [47.49582784980199, -18.834907375423455], [47.489914897312424, -18.836891681565856], [47.4851514438589, -18.832671798624215], [47.485064337698475, -18.82648261512418], [47.47919250765776, -18.8192340273713], [47.473657343644625, -18.822396462335966], [47.47436792259496, -18.835538093574893], [47.48583824763576, -18.84551938331425], [47.48938567674063, -18.863165190630262], [47.497265726187855, -18.86574793798319], [47.4946190876557, -18.872352290883942], [47.49056977810274, -18.874271368588328], [47.48403132890831, -18.872494026443505], [47.48334229808866, -18.865415805128062], [47.47008467150064, -18.856372956056656], [47.468413537137195, -18.84804538214475], [47.46432887340647, -18.848082128001128], [47.46137349998827, -18.85190600098651], [47.44700005639445, -18.849425093910664], [47.44558529103395, -18.843599718855845], [47.4423899364878, -18.841759444180067], [47.44223264875901, -18.830884269112424], [47.444433762679616, -18.827836614062036], [47.441299911637266, -18.823977647827892], [47.44139824644609, -18.81906587775713]]], [[[47.42644404073426, -19.00430557062118], [47.432703241324695, -19.00390124683971], [47.431952815522514, -19.011029923050916], [47.42867112707325, -19.014703161945032], [47.433626817221125, -19.017496255053363], [47.43385998734636, -19.020523263296724], [47.42364035175233, -19.027883142079887], [47.42010190811143, -19.013233617377242], [47.42517901204953, -19.01058327284547], [47.42644404073426, -19.00430557062118]]], [[[47.38033525713871, -18.730689132309845], [47.37957779036843, -18.727287101464253], [47.38559558089827, -18.725307988396825], [47.384475283436984, -18.719222943483405], [47.38851234942922, -18.717996334850614], [47.40372412422414, -18.72611280371741], [47.40752501714932, -18.731504515313695], [47.40423585940649, -18.735668834109802], [47.39701485441236, -18.73488447324271], [47.392475774708466, -18.730944891056566], [47.38523852529516, -18.735081020573585], [47.38033525713871, -18.730689132309845]]], [[[47.37130127775266, -18.944777966220393], [47.37270907752301, -18.941658383953403], [47.385556687543705, -18.94094217314022], [47.383702804729815, -18.94835845588373], [47.38855147062915, -18.95760596888824], [47.38572063518735, -18.960765325223825], [47.381056230221695, -18.960649326662338], [47.37913677322823, -18.95241581168699], [47.373044286643626, -18.953796058516044], [47.370735608472394, -18.951908669917508], [47.37130127775266, -18.944777966220393]]]]}}]}