{"type": "Feature", "properties": {"city": "Okara", "country": "Pakistan", "real_area": 382.15}, "geometry": {"type": "MultiLineString", "coordinates": [[[74.1389533007582, 31.4243376136557], [74.1395887188497, 31.4194465523637], [74.1450385146617, 31.4174905653513], [74.1498533950209, 31.4204253062618], [74.1492187382463, 31.4253164376521], [74.1437684397726, 31.4272727580673], [74.1389533007582, 31.4243376136557]], [[74.4056249240118, 31.5757994905247], [74.4062417327537, 31.5709010203502], [74.4116946425268, 31.5689308776834], [74.41653124261, 31.5718588683495], [74.4159151999239, 31.5767574035502], [74.4104617910767, 31.5787278830925], [74.4056249240118, 31.5757994905247]], [[73.5903487350674, 30.8814129181809], [73.5910197474598, 30.8765482331924], [73.5964434667283, 30.8746259065772], [73.6011966797572, 30.8775679391698], [73.6005264135015, 30.8824327046296], [73.5951021880556, 30.8843553570586], [73.5903487350674, 30.8814129181809]], [[71.5080474659999, 30.2413827085573], [71.5088646079926, 30.2365580036306], [71.514299141831, 30.2347335713261], [71.518917071677, 30.2377335461521], [71.5181006481815, 30.2425583695951], [71.5126655763108, 30.2443830997271], [71.5080474659999, 30.2413827085573]], [[73.4520170012203, 30.7639351922731], [73.452697080225, 30.759076433433], [73.4581157291203, 30.7571621480139], [73.4628548062771, 30.7601062975619], [73.4621754700154, 30.7649651394529], [73.4567563138288, 30.766879748778], [73.4520170012203, 30.7639351922731]], [[74.1756901185163, 31.3412180557107], [74.1750581644007, 31.3461056835117], [74.1696153408559, 31.3480614420531], [74.164804972334, 31.345129239155], [74.165437686054, 31.3402416809923], [74.1708800087144, 31.3382862560558], [74.1715122009741, 31.3333989918629], [74.1769537435842, 31.3314434577648], [74.1817635945586, 31.3343748542239], [74.1811321617732, 31.3392621879433], [74.1756901185163, 31.3412180557107]], [[74.4069557562965, 31.5238974598081], [74.4075719772502, 31.5190013035077], [74.413020528553, 31.5170321827782], [74.4178533571357, 31.5199588815663], [74.4172379010326, 31.5248551028882], [74.4117888514741, 31.5268245604342], [74.4069557562965, 31.5238974598081]], [[73.4275382351363, 30.8649883447564], [73.4221097094541, 30.8669035524598], [73.4173646333839, 30.8639550647752], [73.4180483182187, 30.8590917767213], [73.4234763343386, 30.8571768926351], [73.4282211751607, 30.8601249730187], [73.4336489413702, 30.8582096507947], [73.4343313574035, 30.8533465719045], [73.4397583642162, 30.8514311353989], [73.4404402564478, 30.8465683495495], [73.4458665039396, 30.8446527990011], [73.446547872559, 30.8397903063857], [73.4519733608057, 30.8378746420333], [73.4567179890718, 30.8408211463814], [73.4560373649824, 30.8456837221539], [73.4506113680717, 30.8475997104541], [73.4499302204899, 30.8524625795732], [73.4445034641009, 30.8543784540025], [73.4438217928373, 30.859241616275], [73.438394276894, 30.8611573765946], [73.437712081759, 30.8660208318273], [73.4322838061855, 30.8679364777982], [73.4275382351363, 30.8649883447564]], [[73.1484645013041, 30.6539454193149], [73.1477629912745, 30.6587981463507], [73.1524821312984, 30.6617512277077], [73.157902554714, 30.6598511734088], [73.1626221943187, 30.6628039075512], [73.1619216373583, 30.6676571045353], [73.1565007018906, 30.669557478803], [73.1517808354616, 30.6666043360851], [73.1463596607804, 30.6685042743444], [73.1416402942081, 30.6655507843552], [73.1362188806671, 30.667450286567], [73.1355163212474, 30.6723035985055], [73.1402359142522, 30.6752574971717], [73.139533568882, 30.6801111902922], [73.1341108914549, 30.6820108957594], [73.1293910721334, 30.6790565883712], [73.123968156167, 30.6809558574517], [73.1232645466074, 30.6858097535216], [73.1178408793212, 30.6877089056798], [73.1171367444104, 30.6925630935259], [73.1117123257331, 30.6944621285239], [73.1110076652836, 30.6993166079531], [73.1055824951439, 30.7012155255529], [73.1008624990786, 30.6982596443243], [73.0954370912358, 30.7001581249899], [73.0947311656543, 30.7050128061495], [73.0893050064389, 30.7069111690094], [73.088598554828, 30.7117661412523], [73.083171644169, 30.7136643860684], [73.0784516994035, 30.7107073395103], [73.0791588904524, 30.7058524572275], [73.0744396731971, 30.7028954725633], [73.0690130399611, 30.7047929611], [73.0642943253054, 30.70183562942], [73.0650024686047, 30.6969812183623], [73.0704285874303, 30.6950840487308], [73.0711362045418, 30.6902299286099], [73.0664184418117, 30.687273068383], [73.0671262717652, 30.6824193295742], [73.072551125633, 30.6805223607779], [73.0732584296585, 30.6756689131795], [73.0685416184866, 30.6727125246001], [73.0631172787195, 30.6746091745473], [73.0584009698545, 30.6716524396227], [73.0591092251136, 30.6667994638994], [73.0543936429336, 30.6638427919501], [73.0551021106566, 30.6589901980001], [73.0605254223389, 30.6570941855636], [73.0652407802946, 30.6600504483856], [73.0706638559476, 30.6581539995926], [73.0713710598272, 30.6533016068029], [73.0666559262125, 30.6503457530634], [73.0673633427004, 30.6454937422067], [73.0727851548121, 30.6435974948802], [73.0734920459632, 30.6387457758596], [73.0687778628484, 30.6357903943834], [73.0694849665542, 30.6309390575291], [73.0749055156969, 30.6290430119811], [73.0796194743968, 30.6319979844528], [73.0789131083954, 30.6368494114444], [73.0836277929783, 30.6398044471527], [73.0890486188984, 30.6379076468884], [73.0897542471124, 30.6330561299463], [73.08503978722, 30.6301015031864], [73.0857456282587, 30.6252503684165], [73.0911651915436, 30.6233537705364], [73.095879426629, 30.6263079883926], [73.1012987530807, 30.6244109550016], [73.1060134888124, 30.6273648270537], [73.1053091232013, 30.6322161413116], [73.1100245846668, 30.6351700762028], [73.1154441864117, 30.633272288012], [73.1161478141849, 30.6284208842902], [73.1215666659103, 30.6265229799932], [73.1262824021228, 30.6294761599926], [73.1255795122699, 30.6343276529913], [73.1302959742257, 30.6372808954208], [73.1295932979889, 30.6421327702963], [73.1241734216519, 30.6440313135719], [73.1234702208414, 30.6488834810414], [73.1281876346577, 30.651837194397], [73.1336080233579, 30.6499383315385], [73.1343104858524, 30.6450860749399], [73.1397301239102, 30.6431870960084], [73.1404320619465, 30.6383351321169], [73.1458509494331, 30.6364360373499], [73.1505684107956, 30.6393885867255], [73.1559870594896, 30.6374890565109], [73.1607050201488, 30.6404412591377], [73.16000455876, 30.6452934005004], [73.154585398321, 30.6471932506269], [73.1538844127055, 30.6520456849224], [73.1484645013041, 30.6539454193149]], [[73.0775000639692, 30.6465529395817], [73.0767933854986, 30.651405040615], [73.0815090208625, 30.654360548326], [73.0869311099899, 30.6524635459891], [73.08763705036, 30.6476113549659], [73.0829216397296, 30.6446562562368], [73.0775000639692, 30.6465529395817]], [[73.1760839613135, 30.6765152037712], [73.1767835646003, 30.6716615373286], [73.18220402058, 30.6697602911618], [73.1869253849488, 30.6727123911783], [73.1862265209002, 30.677566145779], [73.1808055532185, 30.6794677122379], [73.1760839613135, 30.6765152037712]], [[73.1902499628419, 30.6853724417374], [73.1909486118506, 30.680518306326], [73.1963693390637, 30.6786163038464], [73.2010919287875, 30.6815681163259], [73.2003940192966, 30.6864223396336], [73.1949727805381, 30.6883246625982], [73.1902499628419, 30.6853724417374]], [[74.1902825096799, 31.4292235388271], [74.1848333309726, 31.4311816377816], [74.1800162649057, 31.4282479929385], [74.1745668057138, 31.4302056473344], [74.1739339105547, 31.4350972803868], [74.1684836689722, 31.437054823893], [74.1636668248399, 31.4341204005932], [74.1643004816587, 31.4292288371717], [74.1697502209732, 31.4272716273854], [74.1703833549012, 31.4223803563778], [74.1758323120634, 31.4204230357666], [74.176464923296, 31.4155320573682], [74.1819130983935, 31.4135746261748], [74.1825451871262, 31.4086839405809], [74.1777298619822, 31.4057507556348], [74.1722821886484, 31.4077078530415], [74.1716493387177, 31.4125984691474], [74.1662008835574, 31.4145554560365], [74.1613857803249, 31.4116214931265], [74.1559370454635, 31.4135780356605], [74.151122423868, 31.4106436982038], [74.1456734096672, 31.4125997963322], [74.1408592699995, 31.4096650844713], [74.1354099768212, 31.4116207381436], [74.1305963193722, 31.4086856520211], [74.1312322133877, 31.4037953157979], [74.1366810039604, 31.4018399954033], [74.1414944031002, 31.4047746779879], [74.1469429149057, 31.4028189132645], [74.147577525181, 31.3979287993326], [74.1530252557006, 31.3959729238006], [74.1578388780789, 31.3989068287643], [74.1632863293184, 31.3969505091318], [74.1639196562377, 31.3920606181036], [74.1591062926664, 31.3891271165174], [74.1536593433457, 31.3910831026155], [74.1488464611492, 31.3881492269649], [74.1433992327588, 31.3901047690896], [74.1385868322279, 31.3871705195171], [74.1392219184173, 31.382281131315], [74.1446686447064, 31.3803259225349], [74.1453032083961, 31.3754368272458], [74.1507491539625, 31.373481508029], [74.1513831953475, 31.3685927058479], [74.1465720513128, 31.3656592929359], [74.1472063305819, 31.3607708540316], [74.152650993915, 31.3588157580318], [74.1574618795534, 31.3617487675584], [74.1629062639349, 31.359793228195], [74.1635392612955, 31.3549050128146], [74.1689828652152, 31.3529493637411], [74.173793972901, 31.3558815964787], [74.1792372973576, 31.3539255042698], [74.1798690131937, 31.3490375130244], [74.1853115571249, 31.3470813115252], [74.190122885899, 31.3500127675106], [74.1955651498561, 31.3480561231043], [74.2003769583207, 31.3509872054203], [74.2058189419432, 31.3490301181578], [74.2106312298077, 31.3519608266626], [74.2100017938066, 31.3568490254233], [74.2045593099031, 31.358806446734], [74.1997467623045, 31.3558753352021], [74.1943039978559, 31.3578323135297], [74.19367328051, 31.3627207373394], [74.1984860877353, 31.3656522519459], [74.1978556091403, 31.3705410387914], [74.2026691558356, 31.3734725823687], [74.2020389161273, 31.378361732086], [74.2068532024555, 31.3812933044076], [74.2062232017696, 31.3861828168328], [74.2110382278938, 31.389114417672], [74.2164829945804, 31.3871561030335], [74.2171122345198, 31.3822665217611], [74.2225562194292, 31.3803080979306], [74.2231849379755, 31.3754188105493], [74.2286281411954, 31.3734602777691], [74.2292563385437, 31.3685712844735], [74.2244420931801, 31.3656408925482], [74.2189993900847, 31.3675990910284], [74.2141856238097, 31.3646683247343], [74.214814820795, 31.359779762936], [74.2202570237928, 31.3578218986933], [74.2208856997091, 31.3529336311464], [74.2263271215808, 31.3509756583243], [74.226955276623, 31.3460876852232], [74.2221427697705, 31.3431577535849], [74.2227711639575, 31.3382701436867], [74.2282113051955, 31.3363123968302], [74.2288391787676, 31.3314250816547], [74.2342785392924, 31.3294672267667], [74.2390905255805, 31.3323963527207], [74.2445296046007, 31.3304380556118], [74.2493420688672, 31.3333668076696], [74.2487157147517, 31.3382542595548], [74.2432761365842, 31.3402128911574], [74.2426492621149, 31.3451006379884], [74.2474627257534, 31.3480298214278], [74.252902803095, 31.3460708552691], [74.2577167446904, 31.3489996643968], [74.2570908699288, 31.3538878423642], [74.2516502933864, 31.3558471431417], [74.2468360908289, 31.3529179312993], [74.2413952321498, 31.3548767894764], [74.2407680766123, 31.3597651940169], [74.2353264365075, 31.3617239439704], [74.2346987601621, 31.3666126429856], [74.2395134843233, 31.3695426604003], [74.23888604753, 31.3744317221266], [74.2334431259979, 31.3763906980412], [74.2328151681373, 31.3812800539651], [74.2376308925415, 31.3842105023575], [74.2430743140142, 31.3822511919536], [74.2437015111195, 31.3773617676802], [74.249144150603, 31.3754023486826], [74.2497708267717, 31.3705132187184], [74.2449556241041, 31.367583575956], [74.2455825400251, 31.3626948086216], [74.2510238981426, 31.3607356158897], [74.2558388397815, 31.3636648559086], [74.2552126843542, 31.3685536913691], [74.2600283652371, 31.3714829593377], [74.2594024497623, 31.3763721573467], [74.2539600926881, 31.378332019376], [74.2533336564076, 31.3832215118058], [74.2478905171946, 31.3851812654194], [74.2472635599133, 31.3900710520754], [74.2520805028475, 31.3930011532267], [74.2575241418166, 31.3910410649345], [74.2623415632247, 31.3939707908095], [74.267784919362, 31.3920102592326], [74.2726028189524, 31.3949396096899], [74.2719776241512, 31.3998298943585], [74.2665337684425, 31.4017907608031], [74.2617156071288, 31.3988610076777], [74.2562714683768, 31.400821430711], [74.2514537855261, 31.3978913021012], [74.246009364092, 31.3998512816715], [74.2411921599959, 31.396920777719], [74.2357474562406, 31.3988803137747], [74.2351194563718, 31.4037706882995], [74.2296739702132, 31.4057301152128], [74.2290454487577, 31.4106207833797], [74.2235991801076, 31.4125801009083], [74.2229701368701, 31.4174710625225], [74.2175230856405, 31.4194302704237], [74.2127055785909, 31.4164981823822], [74.2072582458519, 31.4184569461831], [74.2066279190271, 31.4233481322223], [74.2011798037711, 31.4253067859752], [74.2005489546425, 31.4301982649598], [74.1951000567817, 31.432156808422], [74.1902825096799, 31.4292235388271]], [[74.2254857454755, 31.3979085271111], [74.2309307311907, 31.3959494346213], [74.2315589707546, 31.3910594223134], [74.2267429856428, 31.3881285710346], [74.221298500344, 31.3900873291634], [74.2206694997633, 31.3949772728983], [74.2254857454755, 31.3979085271111]], [[74.1670848711948, 31.3676144428642], [74.1718969771653, 31.3705471084689], [74.1773415834118, 31.3685907921268], [74.1779735824877, 31.3637021438793], [74.1731617354749, 31.3607698815284], [74.1677176304057, 31.3627258642049], [74.1670848711948, 31.3676144428642]], [[74.1947018022234, 31.3949882554242], [74.189886996272, 31.3920558768852], [74.1844408863288, 31.3940131945995], [74.1838090810728, 31.3989032247349], [74.1886241466744, 31.4018360064537], [74.1940707579047, 31.3998783548236], [74.1947018022234, 31.3949882554242]], [[74.1921770586996, 31.4145499641173], [74.1867291640267, 31.4165078395641], [74.186097314193, 31.4213988873693], [74.1909141204787, 31.424332128975], [74.1963625167319, 31.4223739195517], [74.1969936050963, 31.4174828025328], [74.1921770586996, 31.4145499641173]], [[74.1218863994862, 31.3558784474818], [74.1225224358782, 31.350990512706], [74.127967154042, 31.3490366366789], [74.13277633778, 31.351970362367], [74.1321410610396, 31.3568583675831], [74.1266958408865, 31.3588125767046], [74.1218863994862, 31.3558784474818]], [[73.0804485122885, 31.3709628068443], [73.081162679294, 31.3660776761814], [73.0866436821453, 31.3641668416676], [73.0914110425918, 31.3671408178356], [73.0906976300124, 31.3720260384151], [73.0954657327051, 31.3750000639675], [73.0947525379087, 31.3798856539317], [73.0995213830176, 31.3828597286457], [73.0988084061346, 31.3877456878339], [73.0933258292797, 31.3896574825762], [73.0885567540429, 31.3866829979589], [73.0830739348915, 31.3885943419895], [73.082359666057, 31.3934804906715], [73.0768760798282, 31.3953917038845], [73.0721072876078, 31.3924164484491], [73.0666234596146, 31.394327210738], [73.061855180698, 31.3913515945835], [73.0625709591841, 31.3864656262356], [73.0578034230025, 31.3834900596339], [73.0585194187128, 31.3786044606524], [73.0640021960542, 31.3766943379013], [73.0647176544855, 31.3718090180329], [73.0701996653946, 31.369898764434], [73.0749667429115, 31.3728735109273], [73.0804485122885, 31.3709628068443]], [[74.4348904510854, 31.4670708634698], [74.4355040382491, 31.462177192663], [74.4409468735827, 31.4602081028212], [74.4457766185042, 31.4631323467483], [74.4451637949901, 31.468026082073], [74.439720462883, 31.4699955089866], [74.4348904510854, 31.4670708634698]], [[71.5040042706463, 30.1745056836627], [71.5048208818063, 30.1696841973527], [71.5102500380882, 30.1678611384402], [71.5148631202014, 30.1708592681792], [71.5140472260573, 30.1756808730452], [71.5086175327522, 30.1775042296475], [71.5040042706463, 30.1745056836627]], [[74.1692319845079, 31.3109209370202], [74.1685998375017, 31.3158071791768], [74.1631592961027, 31.3177620461242], [74.1583514022969, 31.3148303373998], [74.1589843081771, 31.3099441650122], [74.164424349012, 31.3079896315463], [74.1650567338212, 31.3031037535707], [74.1704959954047, 31.3011491113779], [74.1753033724831, 31.3040800136486], [74.1746717464183, 31.3089659612816], [74.1692319845079, 31.3109209370202]], [[73.0981417795082, 31.4993323489065], [73.0988560182098, 31.4944414053186], [73.0940790958034, 31.4914644388619], [73.0947935531468, 31.4865738625345], [73.1002841756438, 31.4846601629726], [73.1050608670369, 31.4876367194307], [73.1043471669737, 31.4925273854162], [73.1091246033153, 31.4955039887323], [73.1084111220996, 31.5003950219021], [73.102919447029, 31.502309362207], [73.0981417795082, 31.4993323489065]], [[74.285910971504, 31.5348572821467], [74.2804564032486, 31.5368215119754], [74.2798304469248, 31.5417181765635], [74.2743750924177, 31.5436822955558], [74.2695461958184, 31.5407494147579], [74.2640905567716, 31.5427130875664], [74.2592621404735, 31.5397798283148], [74.2598896259835, 31.5348832991269], [74.2653447632559, 31.5329199613596], [74.2701729167701, 31.5358528177729], [74.2756277697157, 31.5338890339489], [74.2762539675895, 31.5289927288513], [74.2817080345229, 31.5270288342554], [74.286536404882, 31.5299609095581], [74.2919901869752, 31.5279965691365], [74.2968190367769, 31.5309282659777], [74.2961943679641, 31.5358247058633], [74.3010239606529, 31.5387564266908], [74.3003995337933, 31.543653225903], [74.2949447494555, 31.5456182371065], [74.2901148931355, 31.5426861136418], [74.2907400847618, 31.5377893816446], [74.285910971504, 31.5348572821467]], [[74.1503763058797, 31.3363319443476], [74.1510100168771, 31.3314448197858], [74.1564521175138, 31.329490171146], [74.1612610081969, 31.3324223136864], [74.160628056533, 31.3373095081601], [74.1551854548297, 31.3392644902152], [74.1503763058797, 31.3363319443476]], [[73.1229554804261, 31.4721133687462], [73.123667565741, 31.4672235367749], [73.1291556361566, 31.4653089892772], [73.1339321465749, 31.4682839530956], [73.1332208182665, 31.4731738741868], [73.127732222506, 31.4750887423729], [73.1229554804261, 31.4721133687462]], [[73.0735437669689, 31.4893360985579], [73.0783196606609, 31.4923137908399], [73.0776039072457, 31.4972045546886], [73.0721115028837, 31.4991175361312], [73.0673353788725, 31.496139433691], [73.0618427321486, 31.4980519621001], [73.0570671232032, 31.4950734969175], [73.0577843909865, 31.4901829135749], [73.063276510602, 31.4882707050329], [73.0639932392688, 31.4833803988302], [73.0694845898547, 31.4814680573276], [73.0742597386142, 31.484445702122], [73.0735437669689, 31.4893360985579]], [[73.7148591359783, 30.990039755517], [73.7155219835006, 30.9851696550545], [73.7209504682116, 30.9832400153642], [73.7257166105711, 30.9861801486421], [73.7250545123005, 30.9910503272431], [73.7196255223943, 30.992980294461], [73.7148591359783, 30.990039755517]], [[74.2087845296266, 31.2454591400136], [74.2094129910463, 31.2405759893181], [74.2148455233449, 31.2386208199959], [74.2196500926066, 31.2415484674077], [74.2190223886943, 31.2464316869491], [74.2238276945723, 31.2493593653051], [74.2292604450042, 31.2474034213108], [74.2340662281072, 31.2503307276287], [74.2334395203542, 31.255214380664], [74.2280062716998, 31.2571706588423], [74.2232002290435, 31.2542429497676], [74.2177666999073, 31.2561987871427], [74.2129611347549, 31.2532707059639], [74.2135893579904, 31.2483871902664], [74.2087845296266, 31.2454591400136]], [[74.3438872225582, 31.5700346545633], [74.344508626206, 31.5651365786261], [74.3499632664878, 31.563169111583], [74.3547970034589, 31.5660993843941], [74.3602513562306, 31.5641314712809], [74.3650855711248, 31.5670613640873], [74.3644656988394, 31.5719595722141], [74.359010845922, 31.5739278215706], [74.354176365458, 31.5709975265232], [74.3487212248167, 31.5729653296831], [74.3438872225582, 31.5700346545633]], [[74.3892627509875, 31.5817090360439], [74.3898808477235, 31.5768103384187], [74.3953348352888, 31.5748407507908], [74.400171225624, 31.5777695241366], [74.3995538950095, 31.5826682870939], [74.394099407916, 31.5846382114072], [74.3892627509875, 31.5817090360439]], [[74.2340757694988, 31.4928070202521], [74.2347046998372, 31.4879126514727], [74.240156827026, 31.4859513226406], [74.2449805254671, 31.4888840279555], [74.2443523584781, 31.4937784650224], [74.2388997296759, 31.4957401285207], [74.2340757694988, 31.4928070202521]], [[74.4227736875464, 31.4807969499916], [74.4276042327805, 31.4837223988318], [74.4269898499053, 31.4886170190273], [74.4215441577247, 31.4905861255644], [74.4209292546701, 31.4954810403275], [74.4154827756165, 31.497450039587], [74.4106516973674, 31.4945237872311], [74.4052049293167, 31.4964923422151], [74.400374326467, 31.4935657106731], [74.4009907578195, 31.4886709260306], [74.4064370279285, 31.4867027077391], [74.4070529388352, 31.4818082174414], [74.4124984224579, 31.4798398917563], [74.4131138131149, 31.4749456959982], [74.418558510342, 31.4729772631623], [74.4233883143544, 31.475902689299], [74.4227736875464, 31.4807969499916]], [[73.1456178198102, 31.4595641803265], [73.1401307632606, 31.4614793109828], [73.1353544846241, 31.4585047569287], [73.136065494412, 31.4536154819716], [73.141552026097, 31.4517006721464], [73.1422624984128, 31.4468116759975], [73.1477482608436, 31.4448967353758], [73.1525240755559, 31.4478704700338], [73.1518143598867, 31.4527595549564], [73.1565909185572, 31.4557333363472], [73.1620769606159, 31.4538176231647], [73.1668540309409, 31.4567910414611], [73.1661452917083, 31.4616805825103], [73.1606587251867, 31.4635966167906], [73.1558814223876, 31.4606227888907], [73.1503946106687, 31.4625383713792], [73.1456178198102, 31.4595641803265]], [[74.4570781622848, 31.5805807868242], [74.4576911400737, 31.575681993463], [74.46314259777, 31.5737096225803], [74.4679815756552, 31.5766357075865], [74.4673693642586, 31.5815345650016], [74.4619174085626, 31.5835072733905], [74.4570781622848, 31.5805807868242]], [[74.2621517917787, 31.4360294017885], [74.2567045865946, 31.4379906112212], [74.2518841594098, 31.4350595960996], [74.2464366712086, 31.4370203613325], [74.2416167233078, 31.4340889701105], [74.2422445250546, 31.429197216529], [74.2476915127049, 31.4272367859698], [74.2525111991367, 31.4301677743521], [74.2579579039815, 31.4282068997199], [74.2627780694161, 31.4311375120684], [74.2682244910938, 31.4291761934148], [74.273045135239, 31.4321064295879], [74.2724196197605, 31.4369983870873], [74.2669726979553, 31.4389600406681], [74.2621517917787, 31.4360294017885]], [[73.0763958253317, 33.6620232935056], [73.0771358334239, 33.6570427088998], [73.0828128791665, 33.6550912046346], [73.0877504796789, 33.658119962765], [73.0870112808874, 33.6631006371549], [73.0813336722525, 33.6650524636645], [73.0763958253317, 33.6620232935056]], [[74.3498781045155, 31.3997343346779], [74.3504974484448, 31.394843875963], [74.3559377452202, 31.3928796931022], [74.3565565694633, 31.3879895297288], [74.3619960826112, 31.3860252402358], [74.3668172688944, 31.3889507781448], [74.3661992062309, 31.39384100755], [74.3607591956825, 31.3958056330482], [74.3601406134648, 31.4006961579063], [74.3546998190511, 31.4026606767089], [74.3498781045155, 31.3997343346779]], [[74.3527104036342, 31.459399512956], [74.3533300975705, 31.4545063652666], [74.3485046291801, 31.4515787167784], [74.3430592024831, 31.4535438138145], [74.3424387455053, 31.4584368952427], [74.3472644782438, 31.4613649459298], [74.346644263521, 31.4662583877676], [74.3411975528637, 31.4682237125795], [74.3363715558834, 31.4652952596458], [74.33699253378, 31.4604018841807], [74.3321672779607, 31.4574734558453], [74.3327884979115, 31.4525804408719], [74.3382342107307, 31.4506157877453], [74.3388549098265, 31.445723066892], [74.3340306588977, 31.4427950656683], [74.3346515999746, 31.4379027055551], [74.340096029362, 31.4359382802066], [74.3407164498433, 31.4310462144915], [74.3461600947687, 31.4290816814149], [74.3509838175944, 31.432008878211], [74.3564271763129, 31.4300439017087], [74.3570463140182, 31.425152064384], [74.362488888216, 31.4231869805748], [74.367312822639, 31.426113398058], [74.3727551101204, 31.4241478710545], [74.3775795200584, 31.4270739112261], [74.3769619073091, 31.4319658803747], [74.3715191220877, 31.4339317435702], [74.3709009893354, 31.4388240076458], [74.3654574192067, 31.4407897636496], [74.3648387662556, 31.4456823224578], [74.3696644462558, 31.4486091911403], [74.3690460358871, 31.4535021104425], [74.3636011825191, 31.4554680951397], [74.3629822516923, 31.4603613088966], [74.3575366129986, 31.4623271858536], [74.3527104036342, 31.459399512956]], [[74.3442998378558, 31.443758305731], [74.3491245654349, 31.4466859295819], [74.3545692071933, 31.4447207246903], [74.3551886229211, 31.4398282319202], [74.3503641596213, 31.4369010102398], [74.3449200162922, 31.4388658791926], [74.3442998378558, 31.443758305731]], [[74.0619615429054, 31.2981815375215], [74.0626015112666, 31.2932963667033], [74.0680435437972, 31.291346148223], [74.0728461103614, 31.29428076832], [74.0722069000347, 31.2991660107196], [74.066764365086, 31.3011165614743], [74.0619615429054, 31.2981815375215]], [[74.2928991049806, 31.6024317329036], [74.2935246563771, 31.597532332457], [74.2989838085906, 31.5955663126097], [74.3038179113719, 31.5984993577017], [74.3031931261487, 31.6033988252892], [74.2977334719483, 31.6053651806776], [74.2928991049806, 31.6024317329036]], [[73.5068863396667, 30.8138464104277], [73.5075628610391, 30.8089851396576], [73.5129837985713, 30.8070675998294], [73.5177287216098, 30.8100110061356], [73.517052944402, 30.8148723589345], [73.5116314999662, 30.8167902234313], [73.5068863396667, 30.8138464104277]], [[73.3869036727257, 30.8238653278727], [73.3875892025143, 30.8190040081087], [73.3930149199186, 30.8170911787024], [73.397755617092, 30.8200393459182], [73.397070831041, 30.8249007499341], [73.3916446040536, 30.8268139025153], [73.3869036727257, 30.8238653278727]], [[73.0654263756012, 31.4736004313832], [73.0661427833143, 31.4687107702577], [73.0716328383567, 31.4667986159884], [73.0764070122456, 31.4697758029291], [73.0756913612289, 31.4746655542482], [73.0702007795993, 31.4765780284661], [73.0654263756012, 31.4736004313832]], [[73.5068773878188, 30.7768793748518], [73.5075535307257, 30.7720198251778], [73.5129714307105, 30.7701030359012], [73.5177136940995, 30.773045471718], [73.5170382945233, 30.7779051034252], [73.5116198882026, 30.7798222173153], [73.5068773878188, 30.7768793748518]], [[74.2672253683773, 31.5182319007972], [74.2617715184749, 31.520195014472], [74.2569448506397, 31.5172622075128], [74.2575722952259, 31.5123666897419], [74.2630256436467, 31.5104039110478], [74.2636525653487, 31.5055086854158], [74.2691051284754, 31.5035457961432], [74.2739312711197, 31.5064777974912], [74.2793835500443, 31.5045144627736], [74.2842101721655, 31.5074460862863], [74.2835847783158, 31.5123414471978], [74.2781319983616, 31.5143051170875], [74.2775060818915, 31.5192007703618], [74.2720525162536, 31.5211643297874], [74.2672253683773, 31.5182319007972]], [[74.2845616220624, 31.4232911317704], [74.2851860949641, 31.4183997619222], [74.2906306660674, 31.4164377819417], [74.2954512636856, 31.4193668366613], [74.3008955506001, 31.4174044131201], [74.3057166257825, 31.4203330915149], [74.3050936768797, 31.4252245958947], [74.2996488907383, 31.4271873547443], [74.299025420908, 31.4320791532705], [74.2935798509005, 31.4340418036773], [74.2887582502109, 31.4311123202797], [74.2893824822066, 31.4262205890344], [74.2845616220624, 31.4232911317704]], [[73.4519515038558, 30.8748638638487], [73.4526327327963, 30.8699999492002], [73.4580605070848, 30.8680834268213], [73.4628075614098, 30.8710304950555], [73.4621270777154, 30.8758944927453], [73.4566987944247, 30.8778113391926], [73.4519515038558, 30.8748638638487]], [[74.191384515059, 31.3402373037311], [74.1920151882997, 31.3353499006779], [74.1974561714418, 31.3333934813238], [74.202266981547, 31.3363241311336], [74.201637067921, 31.3412116033279], [74.1961955845523, 31.3431683566049], [74.191384515059, 31.3402373037311]], [[74.3728973453311, 31.5876169145195], [74.3735167304574, 31.5827179900576], [74.3789717952445, 31.5807489581251], [74.3838079748655, 31.5836785141934], [74.3831893559261, 31.5885775042937], [74.3777337911565, 31.5905468727211], [74.3728973453311, 31.5876169145195]], [[73.3199792112961, 30.7504741128487], [73.3206689387745, 30.7456164507925], [73.3260908097876, 30.7437078364881], [73.3308234631476, 30.7466565620498], [73.3301344773823, 30.7515143096023], [73.3247120965184, 30.7534232461296], [73.3199792112961, 30.7504741128487]], [[74.2213172706321, 31.2688950247714], [74.2219450170941, 31.2640107795586], [74.2273790446894, 31.2620546080631], [74.232185824286, 31.264982347631], [74.2315588359291, 31.269866661447], [74.2261243098479, 31.2718231671256], [74.2213172706321, 31.2688950247714]], [[74.2649061270898, 31.4957188866055], [74.2594540651788, 31.4976814408953], [74.2546291445603, 31.4947490871703], [74.2552565481301, 31.4898545820096], [74.2607081088522, 31.48789236264], [74.2655327671708, 31.4908243135446], [74.2709840441157, 31.4888616489839], [74.2758091819336, 31.4917932224706], [74.275183305411, 31.4966878632378], [74.2697315274896, 31.4986508628457], [74.2649061270898, 31.4957188866055]], [[74.1925740034062, 31.4517252038556], [74.193205658487, 31.4468327779319], [74.198655840914, 31.4448740109661], [74.2034748701383, 31.4478073358583], [74.2089247712965, 31.4458481241306], [74.2137442812436, 31.4487810732155], [74.213114150639, 31.4536736371096], [74.2076637477912, 31.4556331830639], [74.2070330944927, 31.4605260394579], [74.2015819082363, 31.462485474685], [74.1967618772297, 31.4595517193225], [74.1973932929325, 31.4546589319291], [74.1925740034062, 31.4517252038556]], [[74.1951671419486, 31.310916176103], [74.195797250314, 31.3060300897329], [74.201235673594, 31.304074121406], [74.2060444881836, 31.3070039055569], [74.2054151387729, 31.3118900610067], [74.2102246914899, 31.3148198751073], [74.2156633341034, 31.3128631307846], [74.2204733654007, 31.3157925716874], [74.2259117272902, 31.3138353853457], [74.2307222368776, 31.3167644529092], [74.2361603176832, 31.3148068245997], [74.2367873898118, 31.3099204630661], [74.242224690317, 31.3079627272722], [74.2470354175279, 31.3108910186133], [74.2464091046322, 31.3157774484562], [74.2512205699286, 31.3187057689165], [74.2505944964348, 31.3235925622924], [74.2451561981895, 31.3255509670134], [74.2403444723438, 31.3226222438301], [74.2349058924443, 31.324580206508], [74.2300946445878, 31.3216511096361], [74.2246557833941, 31.3236086302197], [74.2240276707484, 31.328495581946], [74.2185880290789, 31.330452994562], [74.2137769996192, 31.3275231212401], [74.2144058716891, 31.3226362382389], [74.2095955806819, 31.3197063944146], [74.2041561579797, 31.3216630306562], [74.1993463458328, 31.3187328135682], [74.1999762157953, 31.3138463632597], [74.1951671419486, 31.310916176103]], [[74.4061438969945, 31.6130242315144], [74.4067610166962, 31.6081241032125], [74.4122170025259, 31.6061531684686], [74.417056368261, 31.6090820251251], [74.4164400154871, 31.6139822184286], [74.4109835300283, 31.6159534901078], [74.4061438969945, 31.6130242315144]], [[73.3706232404472, 30.8296029199628], [73.3713100380822, 30.8247413919203], [73.3767367615298, 30.8228291147869], [73.3814771973305, 30.8257780427509], [73.3807911434725, 30.8306396553465], [73.3753639100113, 30.8325522554578], [73.3706232404472, 30.8296029199628]], [[72.9300639461605, 33.6319081746981], [72.9308149267313, 33.626929431944], [72.9364941781296, 33.6249850356256], [72.9414230145929, 33.62801906182], [72.947102012172, 33.6260741680475], [72.9520314021893, 33.6291077892406], [72.9512820369007, 33.6340867169817], [72.945602473874, 33.636031931172], [72.9406728416144, 33.6329978971693], [72.9349930245492, 33.6349426137632], [72.9300639461605, 33.6319081746981]], [[74.2217297871018, 31.3060200542851], [74.2223578572608, 31.3011341251124], [74.2277949399591, 31.2991771653519], [74.232604451516, 31.3021058005546], [74.2319771403209, 31.3069917983104], [74.2265395585823, 31.3089490923141], [74.2217297871018, 31.3060200542851]], [[71.4412906190894, 30.1819024456567], [71.4421118889855, 30.177080998239], [71.4475433715767, 30.1752603895033], [71.452154122577, 30.1782609313652], [71.4513335693788, 30.1830824984728], [71.4459015484504, 30.1849034040597], [71.4412906190894, 30.1819024456567]], [[74.3723974076984, 31.5503999093649], [74.3730164792626, 31.5455026450814], [74.3681835387931, 31.5425735789095], [74.3627312611301, 31.5445413748897], [74.3578987980317, 31.5416119290574], [74.3585188780053, 31.5367150894638], [74.363970656053, 31.53474762973], [74.3688028537201, 31.5376766733772], [74.3742543440242, 31.5357087682383], [74.3790870187804, 31.5386374322927], [74.378468468968, 31.5435344035696], [74.3833018865139, 31.5464630899399], [74.3826835802657, 31.5513604198856], [74.3772310911334, 31.5533289978327], [74.3723974076984, 31.5503999093649]], [[73.4072851419067, 30.78896276783], [73.407968797247, 30.7841029989961], [73.4133909748239, 30.7821900372433], [73.4181300056514, 30.7851365209769], [73.42355193423, 30.7832231225078], [73.4282914589245, 30.786169253273], [73.4337131381502, 30.7842554181296], [73.438453156436, 30.78720119578], [73.4438745859542, 30.7852869240044], [73.4486150975553, 30.7882323483939], [73.4540362770115, 30.7863176400284], [73.458777281652, 30.7892627110108], [73.4641982106914, 30.7873475660976], [73.4648776274721, 30.7824876741995], [73.4702977983451, 30.7805724168747], [73.4750390598076, 30.7835167273873], [73.4804589797529, 30.781601033729], [73.4852007334263, 30.7845449906019], [73.4906204020895, 30.7826288606525], [73.4912978100896, 30.7777690981523], [73.4967167203497, 30.7758528563728], [73.5014587293513, 30.778796052708], [73.5007820647241, 30.7836558975421], [73.5055248019902, 30.7865991466983], [73.5048483590245, 30.791459368758], [73.4994284351969, 30.7933762594367], [73.4946854611609, 30.7904326035419], [73.4892652854986, 30.7923490578432], [73.4885875768639, 30.7972094924208], [73.4831666424896, 30.7991258345874], [73.4824884115674, 30.8039865637483], [73.4770667184049, 30.8059027935419], [73.4763879650063, 30.8107638170936], [73.4811316486758, 30.8137086934794], [73.4804531166621, 30.8185700939364], [73.4851975294137, 30.8215150228698], [73.4906202376087, 30.8195981444507], [73.4912980254935, 30.8147366614751], [73.4967199744346, 30.8128196705499], [73.5014646428009, 30.8157638381601], [73.500787599123, 30.8206254034655], [73.5055329965708, 30.8235696232126], [73.5048561748032, 30.8284315651144], [73.509602301496, 30.8313758367794], [73.5089257017678, 30.836238155121], [73.5035022307184, 30.8381561196534], [73.4987558668261, 30.8352114412129], [73.4933321434606, 30.8371289685079], [73.4885862720543, 30.8341839351363], [73.4892643609111, 30.8293217813379], [73.4845192189139, 30.8263768000758], [73.4790957513886, 30.8282935657505], [73.4784169180846, 30.8331556369942], [73.4729926911526, 30.8350722896859], [73.4682478055492, 30.83212654689], [73.4628233273667, 30.834042762216], [73.4580789350801, 30.8310966649271], [73.4526542060024, 30.8330124428449], [73.4479103073092, 30.8300659912091], [73.4424853276916, 30.8319813316763], [73.4377419228685, 30.82903452584], [73.4323166930663, 30.8309494288142], [73.4275737823897, 30.8280022689236], [73.4282563367522, 30.8231406132829], [73.4235141554838, 30.8201935067347], [73.4180891848423, 30.8221076486099], [73.4133474979962, 30.8191601883593], [73.4079222780784, 30.8210738927868], [73.4031810859307, 30.8181260789803], [73.4038653482205, 30.8132649681018], [73.4092900589858, 30.8113515870459], [73.4140310165883, 30.8142989935299], [73.419455478275, 30.8123851751559], [73.4201384734144, 30.8075242737695], [73.4153977504708, 30.8045772745624], [73.4099737977036, 30.8064907694977], [73.4052335691809, 30.803543416999], [73.4059175278959, 30.798682976888], [73.4113409717788, 30.7967698053288], [73.4120244071807, 30.7919096588214], [73.4072851419067, 30.78896276783]], [[74.3359435295369, 31.5915967841124], [74.3365657357472, 31.5866977659007], [74.3317312032344, 31.5837662860203], [74.326274199522, 31.5857334219336], [74.3256512272658, 31.5906323736174], [74.3201934355631, 31.5925993986664], [74.3195699400433, 31.5974986418735], [74.3141113602601, 31.5994655558142], [74.3092767775523, 31.5965328907814], [74.3099010391819, 31.5916337144087], [74.315359117432, 31.5896671362006], [74.3159828556652, 31.5847682512391], [74.3111492815786, 31.5818360113683], [74.3056917048353, 31.5838022539061], [74.3008586104041, 31.5808696342527], [74.301483356919, 31.5759711747017], [74.3069404321818, 31.5740052677717], [74.307564655429, 31.5691070998002], [74.3027325689402, 31.5661749058059], [74.2972759951317, 31.5681404771907], [74.2966510063803, 31.5730385780813], [74.2911936453614, 31.5750040383718], [74.2863617747842, 31.5720710623196], [74.2869875289704, 31.5671730287041], [74.2924443883216, 31.5652079038319], [74.293069619172, 31.5603101617679], [74.2882387559268, 31.5573776118994], [74.2827823982168, 31.5593424014159], [74.2779520149562, 31.5564094725338], [74.2785782527996, 31.5515121569016], [74.2840341088949, 31.5495477026785], [74.2888642287389, 31.552480228828], [74.294319799718, 31.5505153283463], [74.299150399264, 31.5534474755494], [74.3046056847636, 31.5514821288612], [74.3094367637174, 31.5544138969761], [74.3148917633741, 31.5524481041339], [74.3197233214415, 31.5553794930189], [74.3191001441389, 31.5602770772431], [74.3239324455723, 31.56320848922], [74.3293876597839, 31.5612419144754], [74.3342204400245, 31.5641729468719], [74.3335982707983, 31.5690709564228], [74.3384317945564, 31.5720020114736], [74.3378098682361, 31.5769003795223], [74.3426441356752, 31.5798314569985], [74.3420224523985, 31.5847301833788], [74.3468574636821, 31.5876612830516], [74.3462360235866, 31.5925603675968], [74.3407788060702, 31.5945282861696], [74.3359435295369, 31.5915967841124]], [[74.3220633611087, 31.577902968633], [74.327519863768, 31.5759361685813], [74.3281425557995, 31.5710378670307], [74.3233095108366, 31.5681064321905], [74.3178535092043, 31.5700728964432], [74.3172300515304, 31.5749711313014], [74.3220633611087, 31.577902968633]], [[71.5029000160275, 30.2112621507911], [71.5037171612936, 30.2064389146983], [71.5091493637953, 30.2046152376156], [71.5137649586402, 30.2076144989363], [71.5129485311786, 30.2124378536233], [71.5075157910358, 30.2142618284267], [71.5029000160275, 30.2112621507911]], [[74.31208973221, 31.4927305678911], [74.3127127957424, 31.4878360182284], [74.3078864847197, 31.4849059803506], [74.302436846608, 31.4868700896643], [74.3018130194416, 31.4917645723136], [74.2963625960031, 31.493728572136], [74.291536500066, 31.4907977539103], [74.2921610907973, 31.4859033384681], [74.287335736744, 31.48297254518], [74.2879605688719, 31.4780784900597], [74.2934099917118, 31.4761151609047], [74.2940343019366, 31.471221398901], [74.2892099525071, 31.4682910333892], [74.2898345040559, 31.4633976319561], [74.2952826420257, 31.4614345287421], [74.2959066719317, 31.4565414207042], [74.2910833267206, 31.4536114831872], [74.2856356887455, 31.4555742511597], [74.2850108960093, 31.4604672918569], [74.2795624736626, 31.4624299505946], [74.2747393442816, 31.4594992334865], [74.2692906379201, 31.461461447696], [74.2686645605164, 31.4663547140304], [74.2734879523445, 31.4692858338352], [74.2789371591517, 31.4673232845751], [74.283761029927, 31.4702540273042], [74.2831359565392, 31.4751477219373], [74.2776862492598, 31.4771106063106], [74.2728621158629, 31.4741794609039], [74.2674121245063, 31.4761419004435], [74.2625884703382, 31.4732103778943], [74.2571381952665, 31.4751723725483], [74.2523150206199, 31.4722404729984], [74.2468644621955, 31.474202022715], [74.2462365773048, 31.4790958067432], [74.2407852345424, 31.4810572461391], [74.2359622780409, 31.4781245668049], [74.2365909259483, 31.4732308510339], [74.2317687112228, 31.470298197908], [74.2263175871798, 31.4722588575951], [74.2214958528537, 31.4693258278944], [74.2221255037611, 31.4644325415512], [74.2173045110581, 31.4614995384949], [74.2179344018823, 31.4566066132938], [74.2233845228877, 31.4546466225016], [74.2282052545514, 31.457579222528], [74.2275761262717, 31.4624722163428], [74.2323975993846, 31.4654048430326], [74.237847939479, 31.4634440729107], [74.2384763051442, 31.4585510106758], [74.2439258613783, 31.4565901303619], [74.2487475530063, 31.4595219776465], [74.2481199500253, 31.4644151081081], [74.2529423830808, 31.4673469816392], [74.258392157256, 31.4653853218448], [74.2590189974831, 31.46049212335], [74.2644679874975, 31.4585303537206], [74.2650943056867, 31.4536374482855], [74.2602723965066, 31.4507063803673], [74.2548239071233, 31.4526678151353], [74.2500024772052, 31.4497363706999], [74.250629798465, 31.444843894332], [74.2560777872439, 31.4428827943628], [74.2608989553448, 31.4458138359965], [74.2663466608947, 31.4438522917007], [74.2711683079764, 31.4467829568839], [74.2766157299356, 31.4448209683134], [74.2772410046366, 31.4399286495831], [74.2826876427013, 31.437966551906], [74.2875095059845, 31.4408964378765], [74.2929558599471, 31.4389338961551], [74.2977782013449, 31.4418634054588], [74.2971544515704, 31.446755859004], [74.3019775338392, 31.4496853939864], [74.3013540253803, 31.4545782084341], [74.306177848683, 31.4575077688677], [74.3116249172434, 31.4555441123522], [74.312247662935, 31.450651230869], [74.3074241028559, 31.447722072903], [74.3080470900636, 31.4428295522405], [74.3134928747374, 31.4408661225865], [74.3183161714864, 31.4437948781326], [74.317693946914, 31.4486874657189], [74.3225179845106, 31.4516162465271], [74.3218960016551, 31.4565091948522], [74.3164492183446, 31.4584732955609], [74.315826714306, 31.4633665376996], [74.3206517565923, 31.4662957459234], [74.3260990392601, 31.4643313095936], [74.33092455904, 31.4672601402429], [74.3303030600286, 31.47215380955], [74.3351293211444, 31.4750826647782], [74.3405768171584, 31.473117448371], [74.3454035554625, 31.4760459256752], [74.3447830620853, 31.4809400216278], [74.3496105418758, 31.4838685230744], [74.3489902909639, 31.4887629790226], [74.3435417965315, 31.4907288672376], [74.3387140522554, 31.4877999635354], [74.3393350668749, 31.4829055739076], [74.3345080642604, 31.4799766943285], [74.3290597828001, 31.4819418020881], [74.3242332576552, 31.4790125445177], [74.3248552779775, 31.4741185815635], [74.3200294943434, 31.4711893485525], [74.314581426617, 31.4731536761198], [74.3139586429251, 31.4780475722842], [74.3187846903068, 31.4809772077047], [74.3181621484776, 31.4858714641107], [74.3229889375449, 31.4888011240713], [74.3223666377153, 31.4936957405535], [74.3271941686313, 31.496625424826], [74.3326437353018, 31.4946600902119], [74.3374717439569, 31.4975893962173], [74.3368504502364, 31.5024844391539], [74.3416792008912, 31.5054137690346], [74.3410581496455, 31.5103091716343], [74.3458876424628, 31.513238525162], [74.3513379218187, 31.5112720737922], [74.3519582088223, 31.5063766049248], [74.3471289807344, 31.5034476536611], [74.3477495104139, 31.4985525443745], [74.3531985040942, 31.4965863201619], [74.3580274673462, 31.4995148692093], [74.363476173988, 31.4975482002764], [74.364095418321, 31.4926533184539], [74.3695433387409, 31.490686541104], [74.374372513627, 31.49361430936], [74.3737540333388, 31.498509257033], [74.3683056140977, 31.5004763706333], [74.3676866127051, 31.505371612038], [74.3622374070032, 31.5073386171575], [74.3616178843098, 31.5122341520987], [74.3561678920569, 31.5142010484943], [74.3555478478663, 31.5190968767769], [74.3603785604178, 31.5220258746892], [74.3597587591776, 31.5269220622209], [74.3543074807195, 31.5288891857709], [74.3494765030878, 31.5259597856339], [74.3440249374624, 31.5279264638523], [74.3434038496878, 31.5328228782313], [74.3482350922932, 31.5357526806407], [74.3476142473414, 31.5406494541014], [74.3421613948521, 31.5426163588596], [74.3373298873796, 31.53968615413], [74.3318767480216, 31.5416526131979], [74.3312546158765, 31.546549612891], [74.3258006895173, 31.5485159620186], [74.3209693958212, 31.5455849756168], [74.32159229294, 31.5406880425566], [74.316761742271, 31.537757079495], [74.3113080302647, 31.5397226470246], [74.3064779584387, 31.5367913050092], [74.3071018626172, 31.5318947980205], [74.3022725336667, 31.5289634797826], [74.3028966798626, 31.5240673322042], [74.3083493905294, 31.5221024358388], [74.3089730143049, 31.5172065807634], [74.3041446917367, 31.5142756890928], [74.3047685574567, 31.5093801936773], [74.3102199815989, 31.5074155229374], [74.3108433251591, 31.5025203203042], [74.3162939634964, 31.5005555399448], [74.3169167850932, 31.4956606302894], [74.31208973221, 31.4927305678911]], [[74.3289125631347, 31.5240327592485], [74.3337425850913, 31.5269629174477], [74.3391944375212, 31.5249966846136], [74.3398157679813, 31.5201006294825], [74.334986010541, 31.517170873643], [74.329534658102, 31.5191367706087], [74.3289125631347, 31.5240327592485]], [[74.3211217584033, 31.5034856266356], [74.3204991788792, 31.5083808961181], [74.3150480403898, 31.5103460120943], [74.3144249388382, 31.515241574471], [74.319253739991, 31.5181720876727], [74.3247053786585, 31.5162066360174], [74.3253277159728, 31.5113110068733], [74.3307785684469, 31.5093454457134], [74.3314003838661, 31.5044501095753], [74.3265721109384, 31.5015204012189], [74.3211217584033, 31.5034856266356]], [[73.0416059871042, 31.3520481150883], [73.0423228504107, 31.3471639951778], [73.0478035269312, 31.3452551507569], [73.0525678652624, 31.34823010679], [73.0518517557147, 31.3531143173412], [73.0463705540495, 31.3550234812515], [73.0416059871042, 31.3520481150883]], [[73.1214466017121, 31.3752108669722], [73.1221577504996, 31.3703253777892], [73.1276377829037, 31.3684127424262], [73.1283483953944, 31.3635275333327], [73.1338276606827, 31.361614768475], [73.1385968370439, 31.3645868921258], [73.1378869792018, 31.3694721902564], [73.1324071903229, 31.3713852757321], [73.1316967963033, 31.3762708540674], [73.1364669459887, 31.3792434359212], [73.1357567705707, 31.3841293833375], [73.1302756904676, 31.3860426598568], [73.1295649786046, 31.390928887193], [73.1343361019946, 31.3939019270432], [73.1336256087896, 31.3987885232146], [73.1281432368705, 31.4007019904535], [73.1274322069525, 31.4055888662598], [73.1322043044281, 31.4085623638997], [73.1314934932246, 31.4134496082952], [73.136266333807, 31.4164231537855], [73.1355557414487, 31.4213107666091], [73.1403293253082, 31.4242843597267], [73.1458132699082, 31.4223699303136], [73.1465231063551, 31.4174822286029], [73.1520062823289, 31.4155676690248], [73.1567801458946, 31.4185404902703], [73.1560710654441, 31.4234282806766], [73.1505873654044, 31.4253431611749], [73.1498777481384, 31.4302312310762], [73.1443932792327, 31.4321459813384], [73.1396189519259, 31.4291723408171], [73.1341342386256, 31.4310866398207], [73.1334233281138, 31.4359749000905], [73.1381978871113, 31.4389489503159], [73.137487195632, 31.443837578606], [73.132001188772, 31.4457520676622], [73.127226398204, 31.4427776076885], [73.1217401472813, 31.4446916451391], [73.1210281619284, 31.4495804631659], [73.1155411420837, 31.4514943694729], [73.1148286190191, 31.4563834660772], [73.1093408301785, 31.4582972409958], [73.1086277692079, 31.4631866159767], [73.1031392112978, 31.465100259262], [73.0983642400918, 31.462124207174], [73.0928754389849, 31.4640373982932], [73.0881009814121, 31.4610609837521], [73.0826119374753, 31.4629737226655], [73.0778379938165, 31.4599969458231], [73.0785533244181, 31.4551078401548], [73.0737801250189, 31.4521311112753], [73.074495673608, 31.4472423736757], [73.0697232182976, 31.4442656929825], [73.0704389847438, 31.4393773236128], [73.0656672733513, 31.4364006913294], [73.0663832575239, 31.431512690351], [73.0616122898786, 31.4285361067007], [73.0561251084641, 31.4304471139086], [73.0554083685365, 31.4353350245054], [73.0601795657509, 31.4383120183091], [73.0594630433444, 31.443200297373], [73.0539745678217, 31.4451114921692], [73.049203141159, 31.4421340881682], [73.0499204194397, 31.4372458996014], [73.0451497366835, 31.4342685444295], [73.0396615464569, 31.4361789676025], [73.0389435123887, 31.4410670654807], [73.0334545545743, 31.4429773561239], [73.0286841576805, 31.4399992294235], [73.0231949592704, 31.4419090679315], [73.0184250776811, 31.4389305801097], [73.0191446230642, 31.4340426641826], [73.0246332944501, 31.432133144973], [73.0294029474495, 31.4351112224251], [73.0348913784391, 31.4332012512143], [73.0356096296174, 31.4283135219547], [73.041097293259, 31.4264034182859], [73.0418150060405, 31.421515966966], [73.0370458105846, 31.4185387101218], [73.037763740421, 31.4136516276669], [73.032995288359, 31.4106744203213], [73.03371343512, 31.4057877068922], [73.0391992789179, 31.4038781099757], [73.0439675021912, 31.4068549070696], [73.0494531052902, 31.4049448588045], [73.0542218427182, 31.407921295216], [73.0597072047523, 31.4060107956415], [73.0644764560552, 31.4089868712189], [73.0699615766582, 31.4070759203743], [73.070676920305, 31.4021892137759], [73.0761612736844, 31.4002781316249], [73.0809308088158, 31.4032534361808], [73.0802162203617, 31.4081402328902], [73.0849864985746, 31.4111155863436], [73.0904711352168, 31.409203733077], [73.0911849683921, 31.4043168464479], [73.0864149202313, 31.4013419029721], [73.0871289713014, 31.3964553852361], [73.0926123154, 31.3945437211384], [73.0973821333883, 31.3975182546806], [73.1028652349907, 31.3956061397379], [73.10357799383, 31.3907198114865], [73.1090603280227, 31.3888075660724], [73.1138304278966, 31.3917813286088], [73.1193125190613, 31.3898686325626], [73.1200239860164, 31.3849824944178], [73.1255053096789, 31.3830696683175], [73.1262162400695, 31.3781838099775], [73.1214466017121, 31.3752108669722]], [[73.1012188713407, 31.4425683579755], [73.1005053732929, 31.4474569971139], [73.0950178667553, 31.4493699997428], [73.0943038307565, 31.4542589172278], [73.0990780576921, 31.4572349217724], [73.104566089896, 31.4553215988463], [73.1052793694706, 31.450432591706], [73.1107666328451, 31.448519137218], [73.1114793745884, 31.4436304085397], [73.106705609289, 31.4406552238561], [73.1012188713407, 31.4425683579755]], [[73.0520716123092, 31.422582626979], [73.0575582675782, 31.4206719394809], [73.0582746868122, 31.4157846757683], [73.0535052061491, 31.4128081900541], [73.0480190769853, 31.4147185579047], [73.0473019024069, 31.419605731084], [73.0520716123092, 31.422582626979]], [[74.1663212202539, 31.2933326565363], [74.1669533219194, 31.2884474375935], [74.1621474206682, 31.2855165971456], [74.1627797599314, 31.2806317427926], [74.1682172422532, 31.2786776591468], [74.1730228853239, 31.2816080964027], [74.17846008884, 31.2796535710924], [74.1832662111108, 31.2825836362643], [74.1887031354617, 31.28062866934], [74.1935097366432, 31.2835583622861], [74.1928796722361, 31.2884434251836], [74.1976870110579, 31.2913731487571], [74.1970571848477, 31.2962585760019], [74.1916192612379, 31.2982142104653], [74.1868116635041, 31.2952840838493], [74.1813734603099, 31.2972392764454], [74.1765663417564, 31.2943087773304], [74.1711278593374, 31.2962635280085], [74.1663212202539, 31.2933326565363]], [[73.0470381300917, 33.6059620251462], [73.0477797674501, 33.6009837326989], [73.0534528741922, 33.5990344824187], [73.0583849061261, 33.602063202807], [73.057644076478, 33.6070415856096], [73.0519704071553, 33.6089911577028], [73.0470381300917, 33.6059620251462]], [[74.287786990526, 31.5201688161167], [74.2884121428337, 31.5152730953815], [74.2938646380104, 31.513308979972], [74.2986924817003, 31.5162402499699], [74.2980680936241, 31.5211360379722], [74.292615097604, 31.5231004887432], [74.287786990526, 31.5201688161167]], [[74.242467292979, 31.5084630813617], [74.243095742255, 31.5035679917842], [74.2485488726976, 31.5016059935572], [74.2533740555085, 31.5045387501501], [74.2527463699846, 31.5094339078518], [74.2472927378749, 31.5113962408701], [74.242467292979, 31.5084630813617]]]}}