{"type": "FeatureCollection", "features": [{"type": "Feature", "properties": {"threshold": 70}, "geometry": {"type": "MultiPolygon", "coordinates": [[[[-77.29886702140908, 1.2066799687662717], [-77.29565460742742, 1.2089237751805055], [-77.29406785809607, 1.2192901985596407], [-77.29706449619638, 1.2320721941493706], [-77.28709123121297, 1.2376046719858882], [-77.28233223167068, 1.2364071209375582], [-77.27744606893164, 1.2216645838068088], [-77.26731890802618, 1.2275939103446845], [-77.26166833433916, 1.2240162335497597], [-77.26355227518675, 1.2154517777142368], [-77.25468093807592, 1.207826022154143], [-77.24920061802828, 1.2073134891876347], [-77.24729576480107, 1.1999593643256885], [-77.25776082567282, 1.1942490827205328], [-77.26282797042533, 1.1941763891514443], [-77.26413047104106, 1.1894103596576262], [-77.26975724047652, 1.1878856694763575], [-77.2739234876932, 1.1824771834528476], [-77.27974974971121, 1.1904165938972662], [-77.28854972263179, 1.1927326487286758], [-77.28963308663276, 1.197848568733609], [-77.29602524328722, 1.1969045689869762], [-77.2965475373679, 1.2013352003529911], [-77.2995579918104, 1.2030980909254734], [-77.29886702140908, 1.2066799687662717]]], [[[-77.47298646100367, 1.2872742392449779], [-77.47108541552157, 1.2916537030216815], [-77.46747443180452, 1.2904799374207279], [-77.4694667842717, 1.2826670886411713], [-77.47298753031724, 1.2837052632609967], [-77.47298646100367, 1.2872742392449779]]]]}}, {"type": "Feature", "properties": {"threshold": 80}, "geometry": {"type": "MultiPolygon", "coordinates": [[[[-77.29912270307891, 1.2066034276079374], [-77.2958961312902, 1.220859921097761], [-77.2987228215362, 1.2295638454501072], [-77.28723346507836, 1.2376115811281336], [-77.28238064770511, 1.2364727088925027], [-77.27834644859604, 1.22563903470578], [-77.26422916038354, 1.2357681202085513], [-77.26225977061449, 1.231722002303761], [-77.26396972096111, 1.226081278205355], [-77.26142959652886, 1.2235092871460982], [-77.26275968689235, 1.2154077774034264], [-77.25488405059069, 1.2079416093165762], [-77.24946914668598, 1.207493759499734], [-77.24646205482043, 1.204281544345229], [-77.24842334468511, 1.1985607378458085], [-77.26008195405844, 1.1924431026092868], [-77.26086485068372, 1.1835085719588219], [-77.2681958394945, 1.186160330400168], [-77.2737812556858, 1.1824702680556196], [-77.27974974971121, 1.1904165938972662], [-77.28854972263179, 1.1927326487286758], [-77.28963308663276, 1.197848568733609], [-77.29602524328722, 1.1969045689869762], [-77.29912270307891, 1.2066034276079374]]], [[[-77.47294207966979, 1.2881589330847432], [-77.47101207038445, 1.2916887054030988], [-77.46756464806562, 1.2906155455042727], [-77.46850190080036, 1.2827586952758885], [-77.47298753031724, 1.2837052632609967], [-77.47294207966979, 1.2881589330847432]]]]}}, {"type": "Feature", "properties": {"threshold": 90}, "geometry": {"type": "MultiPolygon", "coordinates": [[[[-77.30291560104294, 1.2109711877098843], [-77.29630738986181, 1.220804298633978], [-77.29961798911413, 1.228347265464902], [-77.29599578077556, 1.233233751411175], [-77.28824266701561, 1.2375718290111817], [-77.28285897457175, 1.236760708414566], [-77.2784571126967, 1.2289439788407004], [-77.27441085048945, 1.2349237115181526], [-77.26799547969306, 1.2376211823678445], [-77.26229865160404, 1.2320252126911075], [-77.26404177445333, 1.2265673495779958], [-77.26144157620371, 1.2235901034632275], [-77.26178420530309, 1.214836531315502], [-77.25488405059069, 1.2079416093165762], [-77.24946914668598, 1.207493759499734], [-77.24646892487948, 1.204138381935848], [-77.2475336638178, 1.1994520134958921], [-77.2580649663592, 1.192168781617828], [-77.25726042205615, 1.1873353682589327], [-77.26003393064946, 1.1826735948093878], [-77.2681958394945, 1.186160330400168], [-77.2739234876932, 1.1824771834528476], [-77.27995309483538, 1.1905531058031011], [-77.28835461680332, 1.1925872581988186], [-77.29110497742514, 1.1968964699600175], [-77.29602524328722, 1.1969045689869762], [-77.30291560104294, 1.2109711877098843]]], [[[-77.47722459081042, 1.2854870155447344], [-77.4760654982497, 1.2908132946402904], [-77.46747443180452, 1.2904799374207279], [-77.4694659831026, 1.281831557782142], [-77.47722459081042, 1.2854870155447344]]]]}}, {"type": "Feature", "properties": {"threshold": 95}, "geometry": {"type": "MultiPolygon", "coordinates": [[[[-77.30268543741187, 1.213112547091298], [-77.29630738986181, 1.220804298633978], [-77.29961798911413, 1.228347265464902], [-77.29593061737715, 1.2332824819566868], [-77.28824266701561, 1.2375718290111817], [-77.28285897457175, 1.236760708414566], [-77.2784571126967, 1.2289439788407004], [-77.27441085048945, 1.2349237115181526], [-77.26791516555595, 1.2376092620955172], [-77.26229865160404, 1.2320252126911075], [-77.26404177445333, 1.2265673495779958], [-77.26144157620371, 1.2235901034632275], [-77.26178420530309, 1.214836531315502], [-77.24648077068089, 1.2040575447526325], [-77.2475336638178, 1.1994520134958921], [-77.2580649663592, 1.192168781617828], [-77.25726042205615, 1.1873353682589327], [-77.26003393064946, 1.1826735948093878], [-77.2681958394945, 1.186160330400168], [-77.27400379944456, 1.182489106584418], [-77.27995309483538, 1.1905531058031011], [-77.29685616574376, 1.197739505879178], [-77.30268543741187, 1.213112547091298]]], [[[-77.3026486616416, 1.1688362535580785], [-77.30252271953528, 1.1739467283240015], [-77.29556362488577, 1.1737227718744139], [-77.29827612931594, 1.1658805665932401], [-77.30168592361264, 1.1658777618389236], [-77.3026486616416, 1.1688362535580785]]], [[[-77.36307046225228, 1.291800525712886], [-77.35581485272104, 1.2934700720022871], [-77.35370187619547, 1.2882062125633986], [-77.35976205032861, 1.2860787830396185], [-77.36349854590574, 1.2889588189452907], [-77.36307046225228, 1.291800525712886]]], [[[-77.47227393605516, 1.2072670775206271], [-77.47236180183336, 1.2115358690829883], [-77.45734321761836, 1.2091316413705442], [-77.46057261221793, 1.20571197633393], [-77.47227393605516, 1.2072670775206271]]], [[[-77.47722459081042, 1.2854870155447344], [-77.4760654982497, 1.2908132946402904], [-77.46747443180452, 1.2904799374207279], [-77.46780648663066, 1.2826687013612141], [-77.47092609106392, 1.281767685603158], [-77.47722459081042, 1.2854870155447344]]]]}}]}