{"type": "Feature", "geometry": {"type": "MultiPolygon", "coordinates": [[[[-97.9842604209851, 19.078558015261184], [-97.9862080596035, 19.081726806466445], [-97.98541530020204, 19.085008673091266], [-97.97283599019127, 19.092337892596486], [-97.95878074506723, 19.078610418146727], [-97.95771814378885, 19.075428461803753], [-97.96217034435914, 19.069426832983858], [-97.96535611187298, 19.068320061838747], [-97.9842604209851, 19.078558015261184]]], [[[-98.00070711739734, 19.116203733936146], [-97.99767952571688, 19.125660423404067], [-97.99238041855439, 19.130121708291433], [-97.98504183269159, 19.130048279865424], [-97.97886127977927, 19.122622288819493], [-97.97886529203625, 19.11112516036692], [-97.98741829159454, 19.105093309763568], [-97.99644379145121, 19.106053160488646], [-98.00104005493118, 19.11092710347775], [-98.00070711739734, 19.116203733936146]]], [[[-98.05778408273115, 19.04928206499843], [-98.05154841335288, 19.05649606312026], [-98.04927811466067, 19.063312647696765], [-98.03951892688151, 19.064007113720677], [-98.02781048702437, 19.056227432264514], [-98.02612917236435, 19.050160433368962], [-98.02098519526812, 19.045509537793784], [-98.01004325809247, 19.041187568760993], [-98.00873206620636, 19.037213767945577], [-98.01766596338751, 19.02709521620626], [-98.01982069711642, 19.02176810363413], [-98.03544664597507, 19.016590440760325], [-98.03976573293023, 19.023110586587617], [-98.04662009499397, 19.02447873333991], [-98.04967575454798, 19.03080788877845], [-98.05850910024438, 19.03488013386167], [-98.06026925372346, 19.042610845699926], [-98.05778408273115, 19.04928206499843]]], [[[-98.11500958613912, 19.153987943254297], [-98.10914758511085, 19.16356193233055], [-98.10017138600588, 19.16549422624119], [-98.09370008433359, 19.161606038124987], [-98.09161384166804, 19.151987745915815], [-98.09916981700427, 19.141447603930647], [-98.10721046600281, 19.136436741859296], [-98.11418524822909, 19.1420694861213], [-98.11500958613912, 19.153987943254297]]], [[[-98.1057691025662, 19.073200605734517], [-98.105139058366, 19.077998368116763], [-98.11299969225307, 19.082282477353345], [-98.11399785559578, 19.086288034891364], [-98.10957170907353, 19.091412467054422], [-98.09913371988102, 19.096420916876905], [-98.09643911755074, 19.093866481791903], [-98.0959237878723, 19.087450818131444], [-98.10181490418606, 19.07702165221001], [-98.09310696460987, 19.069691066990405], [-98.09476126600663, 19.06087509882216], [-98.09812140062628, 19.0598655599034], [-98.11137737417425, 19.063076054481733], [-98.11185565183808, 19.06775692869774], [-98.1057691025662, 19.073200605734517]]], [[[-98.13416712267087, 19.021249817449764], [-98.13215594566319, 19.0235458475049], [-98.12643879941758, 19.025344985808722], [-98.12253818486268, 19.024488368695934], [-98.12041542285824, 19.014791235068866], [-98.11221528153557, 19.01051151253864], [-98.11285736716376, 19.002176399964238], [-98.11681116904947, 19.000968026502555], [-98.12839014729283, 19.003087469722047], [-98.13263822162261, 19.007707259503043], [-98.13416712267087, 19.021249817449764]]], [[[-98.18202029080393, 19.066366565290018], [-98.17750724440997, 19.074729036746234], [-98.17280678476469, 19.078455521741052], [-98.17032142560986, 19.08585545243274], [-98.16666101234645, 19.089934931848425], [-98.16661414648195, 19.092631453890125], [-98.16960823343354, 19.097443260765864], [-98.16752304926021, 19.102980091070428], [-98.15986907337204, 19.107814590595], [-98.15244738561397, 19.106342376017754], [-98.1502420970291, 19.101855657985634], [-98.15516924542133, 19.094364836115435], [-98.15524547020713, 19.09092332316495], [-98.14376723926839, 19.083997942851937], [-98.1417575500005, 19.080459587241943], [-98.15095980898874, 19.053799895199173], [-98.15877705126384, 19.050905041142553], [-98.16575313317594, 19.058777087681538], [-98.18044387996117, 19.061139593958654], [-98.18228132826759, 19.06354338645855], [-98.18202029080393, 19.066366565290018]]], [[[-98.14476062526136, 19.100581101926334], [-98.13728354476763, 19.108068752849405], [-98.12279587215535, 19.11577124173688], [-98.11964104565287, 19.115999075341136], [-98.1173470431802, 19.113953517084468], [-98.11622824051354, 19.106399826280317], [-98.12596711392918, 19.093184915116417], [-98.14171580080024, 19.09582412232398], [-98.14476062526136, 19.100581101926334]]], [[[-98.1423032367978, 18.92092745297919], [-98.14721978529738, 18.925186095066806], [-98.14600440112086, 18.930991074727178], [-98.14110394866385, 18.932496163109647], [-98.13521526470306, 18.93737213054878], [-98.12728712626757, 18.934577166016087], [-98.12576212049424, 18.929307111146237], [-98.13137821428742, 18.915155352247766], [-98.13680752314957, 18.91456638425243], [-98.1423032367978, 18.92092745297919]]], [[[-98.19736963575154, 18.979936725046688], [-98.19830249336111, 18.985716982918824], [-98.19284258824655, 18.991146737015068], [-98.19014731758767, 18.99219376118191], [-98.18509630984676, 18.9910950200488], [-98.18229603012075, 18.99312307322867], [-98.18195822763397, 19.001765588765462], [-98.17621144572426, 19.006972178522705], [-98.17592624782812, 19.011296564819457], [-98.17871503517402, 19.017371951749425], [-98.17576261919734, 19.022611678108813], [-98.17254968709142, 19.023648928540307], [-98.16536106026092, 19.02252437891654], [-98.15987844162784, 19.013682246851936], [-98.1573368585766, 19.01204387923153], [-98.15406377034375, 19.012883488895074], [-98.14991592274808, 19.01777009449615], [-98.14527862205286, 19.016276036153585], [-98.1446575206349, 19.00997596721939], [-98.14091283087252, 19.004628027025277], [-98.1405365591942, 19.000154072687113], [-98.14729703779689, 18.99264077387748], [-98.1620653276538, 18.991958621549763], [-98.16762097137484, 18.99390433175907], [-98.17406937190457, 18.988533771637524], [-98.1820582827571, 18.98973003730237], [-98.1841659455473, 18.98667031000296], [-98.1834819104501, 18.977728891812767], [-98.18680587369374, 18.97412207209973], [-98.18972305155513, 18.97452295690674], [-98.19736963575154, 18.979936725046688]]], [[[-98.21272233230712, 19.091016011450026], [-98.21456445290585, 19.09350612330241], [-98.21500080348787, 19.09977248293876], [-98.21275051394556, 19.10333530230057], [-98.20851339250197, 19.105487735601688], [-98.20496249833619, 19.105015649902146], [-98.19722076158219, 19.099764483434885], [-98.18399751694074, 19.10360164963602], [-98.17972785941235, 19.099259356069158], [-98.18161474847972, 19.088008097994344], [-98.18845231297944, 19.076953633067586], [-98.18946493947354, 19.072169282345623], [-98.19349333439436, 19.067986179889356], [-98.19756353887416, 19.06807865526641], [-98.20301192223621, 19.072414446657], [-98.20471728590454, 19.075932565810575], [-98.20504745049737, 19.087097476425445], [-98.21272233230712, 19.091016011450026]]], [[[-98.20786344676046, 19.24184936358068], [-98.21061926946619, 19.24886911516216], [-98.20836737119501, 19.257907984676205], [-98.20475331776221, 19.25921088160894], [-98.19548211316827, 19.25599893208539], [-98.1932135881176, 19.25214940200423], [-98.19422711077067, 19.246011359106237], [-98.19148848971433, 19.241105824367114], [-98.19549066854631, 19.228884066588012], [-98.1922374569899, 19.222961703614903], [-98.19239452406404, 19.214361677917235], [-98.19351978930443, 19.209042447224018], [-98.19594399784555, 19.20685496525872], [-98.20128512677405, 19.206687911987576], [-98.2040741578532, 19.209198693944874], [-98.20483478517436, 19.215672774385737], [-98.19998842631301, 19.22774978890741], [-98.20791675329637, 19.236530941819876], [-98.20786344676046, 19.24184936358068]]], [[[-98.20755616215493, 19.024621044705516], [-98.20844618973965, 19.028465595967337], [-98.20488027447671, 19.032753407747403], [-98.20184641818625, 19.03392700775057], [-98.19905553348407, 19.032598362380615], [-98.19307620114219, 19.024032386639508], [-98.19616516991995, 19.012780142684317], [-98.20100632777577, 19.010411787971634], [-98.2054406084998, 19.012027168511743], [-98.2075868115395, 19.01717576531048], [-98.20755616215493, 19.024621044705516]]], [[[-98.27105639289552, 19.135058757902048], [-98.26520168835309, 19.140361504675518], [-98.26181460526035, 19.140684238133232], [-98.23972204936615, 19.12902608621679], [-98.23681784870442, 19.12357275821933], [-98.23137732433723, 19.119889555434586], [-98.22526020619081, 19.120361912915932], [-98.2238756494756, 19.123865831343725], [-98.22624485140996, 19.134760230267542], [-98.23288850749495, 19.146705093992733], [-98.23384451402757, 19.15218448206416], [-98.23800345075766, 19.15511109275435], [-98.2391337654442, 19.15801090304166], [-98.23350311355556, 19.167533375139534], [-98.23396371253781, 19.17543553920938], [-98.22762406336092, 19.17922045052896], [-98.22351524303504, 19.17790712643501], [-98.21905493811897, 19.161377718815533], [-98.21996753299348, 19.155242899143555], [-98.21389433882783, 19.151602688706504], [-98.21254782590592, 19.149206662358633], [-98.21250515629839, 19.1425935806995], [-98.215806079488, 19.136786469654304], [-98.21358019928469, 19.125604440081606], [-98.21528882727196, 19.122639118709056], [-98.22286690553757, 19.118782458943297], [-98.222791514807, 19.11083456889616], [-98.22842951926788, 19.101247250664063], [-98.22418994196772, 19.09566155602156], [-98.22301886643223, 19.09142200099049], [-98.23020797665903, 19.08043911968858], [-98.2344180010124, 19.080179929925638], [-98.24032769168394, 19.086013403234638], [-98.23836804205027, 19.093979240907167], [-98.23487586412415, 19.09785253825443], [-98.235468314372, 19.101670141132818], [-98.23833439845347, 19.103854986247097], [-98.24320707841989, 19.102981866864983], [-98.24589285795194, 19.10408516981013], [-98.27081558801459, 19.129134527603743], [-98.27105639289552, 19.135058757902048]]], [[[-98.28621930943656, 19.001270734341155], [-98.28424247898788, 19.00516499264715], [-98.27521258786847, 19.006053274021465], [-98.25907483219255, 19.01658739231122], [-98.2555317310029, 19.015665068566452], [-98.2502614502313, 19.00816582690673], [-98.25280850177845, 19.00322475348839], [-98.2606373452943, 19.00360367850708], [-98.26877666784905, 18.996787133093253], [-98.27611373978775, 18.99663352711844], [-98.2810237270089, 18.99308905545535], [-98.2855640792951, 18.99536410380981], [-98.28621930943656, 19.001270734341155]]], [[[-98.25017378412308, 19.021481654255258], [-98.25140659992334, 19.025153330439863], [-98.24779888725065, 19.032525068058586], [-98.24896322488473, 19.038371055705156], [-98.24691026419545, 19.041406081821467], [-98.23030147385865, 19.047566806646678], [-98.22511692567328, 19.043697882225835], [-98.220273998196, 19.04274224407887], [-98.21794435322994, 19.039819216362744], [-98.21867039504326, 19.03162001257218], [-98.22682455150874, 19.026995041835274], [-98.23402879139906, 19.016483217447636], [-98.23715081737016, 19.016107529879264], [-98.25017378412308, 19.021481654255258]]], [[[-98.26721064889276, 18.826302909824935], [-98.26669557192375, 18.83226597298276], [-98.26326012230008, 18.834430939336723], [-98.25323610370478, 18.83304836178096], [-98.24916908020268, 18.82668666615765], [-98.25063338619135, 18.821973750846755], [-98.25859874308195, 18.818498544347783], [-98.26370745746254, 18.820166715501372], [-98.26721064889276, 18.826302909824935]]], [[[-98.32875033361609, 19.063275676262148], [-98.32366559578139, 19.06637726320834], [-98.31591028381814, 19.07498406111376], [-98.30095593370936, 19.069629733581817], [-98.29804478895525, 19.07081483384789], [-98.2942567204536, 19.077531599215803], [-98.29185090559892, 19.07904913816276], [-98.28330149307212, 19.076502417788713], [-98.27483255199616, 19.07869524714008], [-98.27022294661845, 19.075007495126812], [-98.2711750447828, 19.067099596036325], [-98.27700285502661, 19.06049499805451], [-98.27734446277134, 19.055876381631677], [-98.27483356770954, 19.051270531412964], [-98.27555131836667, 19.048070764983056], [-98.27890861414079, 19.046327234506425], [-98.29128112523019, 19.048198638669113], [-98.29927667189965, 19.044910686663197], [-98.30425628614297, 19.03929873800982], [-98.30362317948452, 19.028068894342944], [-98.30493959070662, 19.021751566891588], [-98.30933288639086, 19.017957046334207], [-98.3194116667841, 19.022512929124645], [-98.3235783748306, 19.028796443130634], [-98.32358689945652, 19.031872511316912], [-98.31993399255174, 19.037602697497668], [-98.31818800854643, 19.047120863085226], [-98.32029385096175, 19.054229061923376], [-98.32862522300489, 19.059156593660283], [-98.32875033361609, 19.063275676262148]]], [[[-98.31479018408601, 18.97257174132845], [-98.31349849256549, 18.97816197777945], [-98.30192579024437, 18.984131973024255], [-98.29533726643031, 18.982352326266717], [-98.29124039520362, 18.97899034257467], [-98.28451145267317, 18.98058312286914], [-98.28152525693815, 18.979617900629805], [-98.27518811412399, 18.97186878765735], [-98.27514645566137, 18.96506259665243], [-98.27702760923891, 18.962269930418664], [-98.28061009068988, 18.96151602258587], [-98.28969839747107, 18.962680622344266], [-98.29650770256883, 18.967225222458005], [-98.30980150268572, 18.96638046159137], [-98.31479018408601, 18.97257174132845]]], [[[-98.30944850165727, 18.94520335780957], [-98.30663448909779, 18.94650713770435], [-98.30286613477939, 18.952161634082806], [-98.2996830926175, 18.95299280557907], [-98.29685701702121, 18.95098752868375], [-98.29399991304481, 18.942931187723755], [-98.29882838280072, 18.935712628303158], [-98.30750550143964, 18.934714333029927], [-98.31396235166136, 18.9404670883074], [-98.31283323949361, 18.94402853619932], [-98.30944850165727, 18.94520335780957]]], [[[-98.31145794364365, 19.211505154224337], [-98.30992919437425, 19.215739968395386], [-98.3076982583301, 19.21736151521309], [-98.3011193667667, 19.214831624964788], [-98.29528852762638, 19.202170683262622], [-98.29630529922312, 19.197508279865527], [-98.3020772258586, 19.194611105819305], [-98.30571458912948, 19.19552372614385], [-98.30899866458809, 19.204329738833177], [-98.31199141406894, 19.20790905026715], [-98.31145794364365, 19.211505154224337]]], [[[-98.35528214534682, 19.17261710883698], [-98.35316231042897, 19.17938942724569], [-98.3461610447768, 19.183031204562404], [-98.34337973217488, 19.189382808206357], [-98.3404344671912, 19.190988210293362], [-98.33689936219879, 19.189957242284517], [-98.33124816695806, 19.184248794190125], [-98.33018339747608, 19.178415358752474], [-98.32762994822797, 19.176071865620507], [-98.31700054257922, 19.179126890155775], [-98.31323715173889, 19.18402151732794], [-98.3106967793182, 19.18502384735629], [-98.30231350513964, 19.181796722730493], [-98.29787537595529, 19.175896552670796], [-98.30024809490315, 19.17028778374444], [-98.30798607947169, 19.16892055682171], [-98.31196692303219, 19.16257527860137], [-98.3197319358172, 19.15646058838471], [-98.32994088336474, 19.16309602775941], [-98.33787228453942, 19.158069770710128], [-98.34653781835746, 19.1592415707015], [-98.35467819150747, 19.165510608159842], [-98.35528214534682, 19.17261710883698]]], [[[-98.34523796149107, 19.006058508386094], [-98.33916832789467, 19.014914847618662], [-98.33226566767671, 19.016788619542833], [-98.32283888119815, 19.015071530772307], [-98.31684859974565, 19.01031051057595], [-98.31865358169182, 19.00530432729566], [-98.3261191809146, 19.001589306678333], [-98.32837181440594, 18.997121871076608], [-98.33097262278447, 18.995729954403423], [-98.345863867256, 18.994775405379237], [-98.35001201284867, 19.00140421801454], [-98.34883198622143, 19.00416034525969], [-98.34523796149107, 19.006058508386094]]], [[[-98.3493605140049, 19.22303262115965], [-98.34164572857776, 19.23021959026285], [-98.33216758396075, 19.22952995400015], [-98.32832860064167, 19.218318985047755], [-98.33091302080385, 19.209403538215373], [-98.33682230782061, 19.20658617777074], [-98.34502117582308, 19.211772415340214], [-98.35029648031248, 19.218597099805017], [-98.3493605140049, 19.22303262115965]]], [[[-98.35091703697154, 18.87551760585944], [-98.35462215143583, 18.875221779850747], [-98.3614894721259, 18.879772728404514], [-98.36092394653045, 18.886039828990988], [-98.35596095977746, 18.891160231448673], [-98.34698425152284, 18.888722107273217], [-98.344083696093, 18.884620366844178], [-98.34641274709813, 18.8786261838079], [-98.35091703697154, 18.87551760585944]]], [[[-98.42768256259237, 19.19413335728519], [-98.42995389431435, 19.199565854356155], [-98.42944151060085, 19.204072404470704], [-98.42072298433855, 19.213375085816246], [-98.41515822288027, 19.229105124942688], [-98.41215586389366, 19.22960536893976], [-98.40459091462138, 19.22656289895673], [-98.40084767619521, 19.22242622515531], [-98.396584330515, 19.22133537307081], [-98.39100259522247, 19.22185012875794], [-98.38232099376117, 19.22621584080085], [-98.37469720356258, 19.232596672894104], [-98.36871052541653, 19.229576101627785], [-98.36846350855346, 19.22312546331004], [-98.36376796562121, 19.214473761500013], [-98.36270498035653, 19.208449889287724], [-98.36558761511996, 19.200696954880115], [-98.37298782566752, 19.20059842519197], [-98.37771815897564, 19.196945329856824], [-98.38595739583, 19.196580050091562], [-98.39915733265184, 19.203639039584033], [-98.40944870119428, 19.197089874548848], [-98.40960391345175, 19.188601685641352], [-98.40801698619953, 19.186037482203286], [-98.39377714173098, 19.183033865409268], [-98.38613875857813, 19.183088545543217], [-98.3831050780742, 19.17896813342829], [-98.38500624854228, 19.173668348104204], [-98.39147083121884, 19.17154282962245], [-98.39483443099124, 19.16530183777561], [-98.39437208395124, 19.15441013240376], [-98.39888099232887, 19.144146475630997], [-98.40735981255915, 19.141520657635468], [-98.41247928216225, 19.13435458464225], [-98.42112062353377, 19.13473163594144], [-98.42395187775692, 19.13703594208455], [-98.41993212254904, 19.149946343868184], [-98.42620909231836, 19.164935935491382], [-98.42009982615681, 19.17146927750038], [-98.41497592133383, 19.172236006522898], [-98.40851242932335, 19.175920874042635], [-98.40776795034769, 19.18376417562816], [-98.41053357646774, 19.186717726694063], [-98.4256604193013, 19.188705605810664], [-98.42766074826568, 19.190972076356783], [-98.42768256259237, 19.19413335728519]]], [[[-98.38531672593635, 19.04662014341027], [-98.3786043852653, 19.04391062329673], [-98.3758569069632, 19.03548845722997], [-98.378368993683, 19.029686495595506], [-98.3879667873481, 19.02574952646315], [-98.39414207537168, 19.030144140233794], [-98.39511879298804, 19.033380983766275], [-98.39127399591565, 19.04493892249913], [-98.38531672593635, 19.04662014341027]]], [[[-98.3960355237334, 19.060554636402912], [-98.3972467282319, 19.067860706783502], [-98.39277756333388, 19.073013067949965], [-98.38930010283525, 19.072655158763045], [-98.38068323046436, 19.065732486516946], [-98.38143489103702, 19.061989064157714], [-98.38906775184799, 19.055449529165102], [-98.3945258145543, 19.057187699838202], [-98.3960355237334, 19.060554636402912]]], [[[-98.43482159746766, 19.058026656501376], [-98.43296539924692, 19.062106388710518], [-98.43432130125099, 19.069714233662513], [-98.43233244304888, 19.07174927662586], [-98.42918307617995, 19.072102905904764], [-98.42015773687656, 19.066185055775083], [-98.4170017397859, 19.05918925218386], [-98.41135464247708, 19.056889598900916], [-98.41008250304824, 19.05168514910712], [-98.41570045323341, 19.047500979446905], [-98.41870195144634, 19.042647260305017], [-98.42971096831019, 19.040170862137277], [-98.43568002904797, 19.043975945407237], [-98.43773307994016, 19.049978088149174], [-98.43482159746766, 19.058026656501376]]]]}, "properties": {}}