{"type": "Feature", "geometry": {"type": "MultiPolygon", "coordinates": [[[[69.35298552108907, 42.3792454882733], [69.35543804970553, 42.381194608059985], [69.36162251282654, 42.38159586989275], [69.36705709453742, 42.38661796003241], [69.37858696096929, 42.38654090636052], [69.38831329770457, 42.38024225550458], [69.3952859868737, 42.38518498665304], [69.40320241960444, 42.38273307812015], [69.40845826040793, 42.3831893124033], [69.41087266426932, 42.38692521585342], [69.40779662093215, 42.39267254313598], [69.40896513328924, 42.39887672108378], [69.41896561237796, 42.40129090305803], [69.43175106671751, 42.401610208359905], [69.43351021064025, 42.40414332468135], [69.43390517205536, 42.413804471260036], [69.43872206337691, 42.416725719509905], [69.44924375092937, 42.41494394581633], [69.46071115804166, 42.404011018815176], [69.47244167672419, 42.40441326389882], [69.47722846626708, 42.40263377243755], [69.48918414560103, 42.40514819939116], [69.5157471559108, 42.40045266756318], [69.51878625472774, 42.4011812973142], [69.52074546505632, 42.408909060675], [69.52672672141918, 42.415875502620445], [69.52882760587754, 42.42565997152947], [69.51971208873152, 42.434774082904795], [69.52106336083087, 42.441569099137155], [69.5161657665222, 42.447433780704195], [69.5170213017653, 42.45555051766399], [69.51450690908624, 42.45735394839204], [69.50918154643759, 42.45653466753075], [69.50159334023193, 42.45939213000562], [69.48378536951043, 42.45743939585442], [69.47782993538556, 42.462354853548355], [69.47905120866396, 42.46626191001799], [69.49342850031726, 42.47668124339985], [69.49166691192441, 42.48766561517334], [69.49449526692, 42.4912075449863], [69.5031722610022, 42.492666939839324], [69.5190105744327, 42.49089892924496], [69.52244197097068, 42.48782337011302], [69.52232069683303, 42.48044394486475], [69.52427674103811, 42.47762389168856], [69.52996383568538, 42.47705748106852], [69.53618076872011, 42.479022510293206], [69.54577512494843, 42.4701524250085], [69.55565338175205, 42.46881425804953], [69.55742283651067, 42.46441253167556], [69.55621075589472, 42.458005341820616], [69.55348783627718, 42.45354083709087], [69.5530457008593, 42.446653959417844], [69.55455970986542, 42.43793034998462], [69.55678903912069, 42.434757568525924], [69.55970047182551, 42.43420535810743], [69.56620600971698, 42.436252466551686], [69.57950528307767, 42.43030982913375], [69.5884426057816, 42.43057489072393], [69.5999921937417, 42.42617968034642], [69.60337591357248, 42.42799985495624], [69.60679976965045, 42.43727465605616], [69.61901521242831, 42.43723513996385], [69.62692063861705, 42.43917836820951], [69.6305263912618, 42.44452620017394], [69.62772330664559, 42.44882289512945], [69.60549318902294, 42.45260822090144], [69.60171081092831, 42.454527368778386], [69.58755831925785, 42.455943806508394], [69.58281601288773, 42.45913969295532], [69.5850057526279, 42.46510772129987], [69.59156007393771, 42.46823637544966], [69.59235142498244, 42.47442075371242], [69.59436927356978, 42.476723994433605], [69.60824655827977, 42.47594641744761], [69.61357821606835, 42.47397994411651], [69.61731052501317, 42.47587080409011], [69.6182397657139, 42.48134750486538], [69.61240392925784, 42.48643846176431], [69.60859771817653, 42.492763710754815], [69.6091104260104, 42.49850344928301], [69.61149090971405, 42.50152809770137], [69.61943277853936, 42.50114403765714], [69.63492475982336, 42.49410364498388], [69.64707552269512, 42.48164370609567], [69.65402162407351, 42.48148966083251], [69.65925990206699, 42.47800847680879], [69.67750828336614, 42.48857466008238], [69.68655380096881, 42.49105743328548], [69.69297646044635, 42.48756582281437], [69.7043553680156, 42.48646112538453], [69.70609852907607, 42.49141829045725], [69.70215241037646, 42.49563094418979], [69.70042707282064, 42.500964840139545], [69.69540907578559, 42.50565952558941], [69.6915379558914, 42.50693136962569], [69.68537608557173, 42.504792186584325], [69.67548893712224, 42.5060149107045], [69.67169764055559, 42.51006602626152], [69.66954446071011, 42.51656029294731], [69.65312202119169, 42.53393442732872], [69.65084562491084, 42.54069521837242], [69.64314654702825, 42.545555046659906], [69.63667895810923, 42.55506975108802], [69.63828070694689, 42.562071834856255], [69.6437860090636, 42.563993457424594], [69.64767725568099, 42.56868486924987], [69.65433847092827, 42.56977773675503], [69.66129561061045, 42.56174619763621], [69.66677281402958, 42.559928723311785], [69.67216475783316, 42.5602518822475], [69.68050414351931, 42.55378392036172], [69.6827174810464, 42.547241321964236], [69.686643424872, 42.54351931157112], [69.6877020516567, 42.53406969008149], [69.69382671645324, 42.52238261219026], [69.70384022445664, 42.51557433423391], [69.71420885262779, 42.51275221729168], [69.71913211067309, 42.508469483808376], [69.72920335092451, 42.50920988955848], [69.73093736078376, 42.5136836501119], [69.72684946505635, 42.51806156409016], [69.72553157574053, 42.52212777861453], [69.71750752394618, 42.52728521574294], [69.7114888768057, 42.52871783314941], [69.70993593591501, 42.53445388682622], [69.71161817949402, 42.536690425174186], [69.71587690982334, 42.538171562759786], [69.72343890955133, 42.53605004577897], [69.73054662688382, 42.53847115366947], [69.73757597313313, 42.537575300626436], [69.74271177412544, 42.55205790484765], [69.74227932019339, 42.55509490579183], [69.73245476990974, 42.55914041481363], [69.71787460862272, 42.5618417528014], [69.71095677169467, 42.558536050232874], [69.70297229317188, 42.55801809238873], [69.69983422888471, 42.56575017737089], [69.68870669697745, 42.56884752412816], [69.68300349322452, 42.57826434862162], [69.68246515567382, 42.582929686516266], [69.68700175316593, 42.58785587708735], [69.70165515103437, 42.58384277652637], [69.71696809065007, 42.58421350310667], [69.72748194137847, 42.58128690901847], [69.74697000806898, 42.583710497268235], [69.76235422281417, 42.57712439793347], [69.78347202928197, 42.5765675909506], [69.79674919713575, 42.58089625612152], [69.80825050687673, 42.578376878057774], [69.81169828424044, 42.574610173632124], [69.81019745775205, 42.570452090554795], [69.79624613075777, 42.56255351112894], [69.78964887315843, 42.56431726351572], [69.78066090173797, 42.56176707566479], [69.77835842398825, 42.55736657141466], [69.7814801786528, 42.54889185818348], [69.79143623319011, 42.547771154578555], [69.80083613000338, 42.53757523925795], [69.80953135693034, 42.538425611582], [69.81572392415461, 42.53530126616577], [69.81689047461857, 42.521142546918945], [69.8147218203447, 42.51664547549781], [69.81478592627172, 42.511277262340485], [69.82147998707012, 42.49900896713733], [69.8223836549017, 42.48788647063036], [69.82569497386956, 42.486181709840345], [69.83159530206284, 42.48791135314708], [69.83648550723605, 42.48594817401392], [69.85313616595322, 42.48952566358023], [69.87014524213336, 42.48866195807928], [69.87434340363954, 42.4833172823558], [69.88202031011278, 42.48175455582706], [69.88423699601091, 42.47986590883964], [69.88484069125838, 42.46958707652342], [69.89259554550381, 42.463554067736936], [69.89198857784014, 42.460575791946916], [69.88786336252575, 42.45600569303504], [69.88946474897406, 42.451878414705725], [69.89864334395979, 42.45085024817746], [69.90542400940042, 42.44280416748827], [69.92026135080708, 42.45152105058197], [69.92642965938798, 42.449033518875474], [69.92814865669536, 42.44612870143017], [69.92720128321416, 42.441461274664576], [69.91734762207835, 42.43261130101374], [69.90033269783379, 42.431034611612866], [69.89090551910837, 42.42806404445643], [69.88928377119002, 42.42548308531163], [69.88975764618495, 42.4200702612444], [69.88611516960586, 42.41521197999318], [69.89338376866085, 42.40157199597324], [69.90636591336951, 42.40049324779858], [69.91131858604696, 42.40316777112085], [69.91547172219411, 42.40313293488459], [69.92642734876661, 42.396517327152345], [69.92547742829218, 42.39192048414497], [69.91626698003829, 42.386924021502], [69.91730270721543, 42.379787736747176], [69.91311663124685, 42.36965798893383], [69.91443386126355, 42.36296105036939], [69.91188607797388, 42.3602462074853], [69.90650186368075, 42.359112518653866], [69.89364506401715, 42.36245505221577], [69.88949554900127, 42.369194828729945], [69.87827474167057, 42.375830435051284], [69.86902464706925, 42.37803322021584], [69.86333929665226, 42.386627123168935], [69.86295484573583, 42.39354435513841], [69.85847501151157, 42.395942158449], [69.85542322783296, 42.39551641294169], [69.85196139228056, 42.39230997549585], [69.8524236361842, 42.386216871710516], [69.85490746488773, 42.38154541180699], [69.85360465794587, 42.378068536353794], [69.84610910731507, 42.37580199063846], [69.83962088509062, 42.37646985889507], [69.836167845185, 42.38051289424784], [69.8357306244996, 42.38900186635237], [69.83294592924527, 42.39322909761964], [69.83184534229866, 42.39929763216719], [69.82800632966178, 42.401438232536094], [69.82097197025605, 42.40081895651901], [69.81749383295451, 42.39885169348097], [69.81343766444358, 42.39030517656318], [69.80722631010188, 42.38780357152147], [69.80434122653449, 42.38150275353865], [69.8000716545102, 42.37758278321178], [69.79601923092189, 42.37625207696776], [69.7857863202139, 42.37823260805712], [69.7800165330208, 42.377625118981335], [69.77142312423254, 42.36831289389578], [69.75411730194797, 42.36593668659182], [69.75089763314308, 42.36138479493336], [69.74585957829586, 42.35878905646776], [69.74161627563996, 42.35139396538074], [69.73174897223295, 42.35127323716478], [69.72451684126197, 42.345972275159895], [69.7220459590474, 42.342095309367856], [69.71670781167114, 42.340269259140804], [69.71537266369299, 42.336416678100946], [69.72011545207509, 42.32546645713985], [69.71800791076765, 42.31624188554425], [69.71552651622366, 42.31393623261322], [69.7024098038543, 42.31275051608949], [69.67197789545062, 42.3060826960224], [69.66952220035395, 42.307821343955524], [69.66826876432127, 42.31405026963271], [69.6656880876476, 42.31623991744349], [69.65536363480354, 42.31507873042569], [69.64672633448941, 42.319091283763825], [69.63839752326312, 42.31533158001585], [69.63176443526473, 42.31672657627207], [69.6285387141226, 42.32378695091633], [69.62066917459174, 42.32650833204241], [69.61362202396262, 42.33863794617475], [69.6108891008462, 42.340185151990276], [69.60589288895112, 42.33903941501942], [69.6006639295556, 42.329731254399775], [69.59299067780692, 42.32980596606066], [69.58959915649909, 42.32677199988588], [69.5926464996167, 42.31288634723657], [69.59567289599798, 42.31181813661962], [69.60062753903172, 42.31454163954649], [69.60418740702718, 42.314039951230605], [69.61156675292374, 42.304813472680635], [69.61985435468138, 42.303634961113495], [69.62486499211937, 42.2944380764211], [69.63497948338109, 42.29212162342941], [69.6440876879462, 42.298103363030954], [69.64700737389636, 42.29852416987755], [69.65478564417602, 42.29479882101078], [69.66024768662744, 42.2860832431153], [69.66559822567756, 42.284924396206776], [69.67738710642462, 42.28889176488618], [69.70119900350608, 42.27843391972101], [69.71279258897984, 42.28186692079938], [69.7132078478132, 42.28597311189664], [69.70690400200753, 42.29219999575295], [69.70657401627534, 42.29596404050663], [69.71191248822582, 42.3022214727974], [69.720325192459, 42.30381978708265], [69.7270122470529, 42.31280259636786], [69.75978065543013, 42.30676257833167], [69.76925965430476, 42.28900881952424], [69.76990014196252, 42.28318749013782], [69.75832051314292, 42.277225918825785], [69.74699331062682, 42.2805271515414], [69.74407064835205, 42.276425863430376], [69.74635653326807, 42.26744782965586], [69.75253339721351, 42.25510152944888], [69.76750066944638, 42.24971035225393], [69.7671583130441, 42.24495014924709], [69.76401067458006, 42.24266060880463], [69.75561510152242, 42.24273789805942], [69.74516623300428, 42.24514684529382], [69.73854885062349, 42.24290451923987], [69.72746528207294, 42.24404701354621], [69.71987630045008, 42.24773754190249], [69.71388999448439, 42.246944433033704], [69.69845621161316, 42.25244826190985], [69.69322243120608, 42.24921332512465], [69.64559825694617, 42.2387321667709], [69.6386731126339, 42.244930269228625], [69.63294883103707, 42.24591229515857], [69.6207963861205, 42.251745971693325], [69.61123840845468, 42.25928974274616], [69.59776610965723, 42.25770732708085], [69.58102093445842, 42.26156583386157], [69.57628622504197, 42.26713818460751], [69.57993786350187, 42.27771356381784], [69.57931935823927, 42.280772022153606], [69.57721205303977, 42.28239951222257], [69.57385524284071, 42.2820018576524], [69.56210150036554, 42.2729950476298], [69.55534762937654, 42.27811859849406], [69.545898393105, 42.27706269962571], [69.53588529767978, 42.28251321296557], [69.51214397719079, 42.28129490648137], [69.49329945095847, 42.28669489039737], [69.4907553842781, 42.289119199269656], [69.4912422085256, 42.29281732478794], [69.50649182794794, 42.304927113719295], [69.50519546790785, 42.317464780100146], [69.51307937970483, 42.32564864121245], [69.51340302071993, 42.328293979766215], [69.51167839121226, 42.33078254355057], [69.48027414097807, 42.33803073783424], [69.44735266865173, 42.351447962869834], [69.43852048790076, 42.34612594030807], [69.43586892328545, 42.336593555473705], [69.42642483067145, 42.33602637960364], [69.42366402156175, 42.33794574611667], [69.42116147919795, 42.342927902405314], [69.40873867685676, 42.35110740956396], [69.40569481081488, 42.35714464319683], [69.39328003877802, 42.359425730987475], [69.3870492152268, 42.3648126480806], [69.37571185113613, 42.36681049925746], [69.36296746060074, 42.36665545456037], [69.35888197930777, 42.371722704677985], [69.35324914713779, 42.37408654814546], [69.35298552108907, 42.3792454882733]], [[69.8528708461137, 42.46507239010487], [69.85198558179782, 42.46173225076395], [69.85403302555683, 42.45894869228974], [69.85800764715994, 42.45852001235294], [69.86080984619727, 42.46082050939876], [69.86111508856682, 42.46380747343218], [69.85925613620657, 42.466165316336934], [69.85548387621694, 42.46668065127926], [69.8528708461137, 42.46507239010487]], [[69.77020035867871, 42.48880919254478], [69.76935929002558, 42.484424390663065], [69.77327555834661, 42.47461621354359], [69.77787004670272, 42.4693644550099], [69.80966344033209, 42.47633806621655], [69.81260389131876, 42.47919639496498], [69.8132400891732, 42.48559687096609], [69.81177510512285, 42.48836568202185], [69.80336515359187, 42.4925332440675], [69.79547202545076, 42.49271534250145], [69.79073433567181, 42.496425692568906], [69.78778748478311, 42.49581360622245], [69.78302009037625, 42.491578617712214], [69.77573310896139, 42.492998800095215], [69.77020035867871, 42.48880919254478]], [[69.64492050599917, 42.4546659078361], [69.6467734628938, 42.451857339010694], [69.64689110770514, 42.447166504695765], [69.65036561093919, 42.443673242403825], [69.6518084701477, 42.439011996885], [69.66122843500315, 42.43328625813387], [69.66327198474343, 42.42305415855303], [69.67152579891166, 42.41783038326591], [69.67805590254136, 42.41710370425331], [69.68772699182442, 42.403933935983154], [69.70272483672694, 42.39489835326719], [69.7062125975009, 42.38980903168604], [69.71181203567971, 42.38762047550573], [69.72485227611085, 42.38624596008069], [69.7327878323911, 42.38101019140273], [69.74202242887777, 42.37748042636415], [69.75820976915269, 42.389315275497275], [69.75861197883879, 42.39231627714209], [69.75598130713244, 42.397028371197784], [69.7570022255124, 42.40417995675484], [69.74975788379973, 42.407641601186974], [69.7480955646758, 42.41059078864927], [69.74937336769224, 42.414044344695725], [69.75477985937547, 42.41682050628723], [69.75521305687289, 42.42055636269179], [69.75176970879721, 42.42421661494227], [69.74280140823139, 42.42415812231745], [69.74017087661822, 42.43000372453487], [69.7421104699021, 42.43360316111098], [69.75476357964132, 42.43882128227643], [69.756973622566, 42.45126811910433], [69.75201414632285, 42.45586620718773], [69.74307132408985, 42.46033939384236], [69.73641139188494, 42.46008515321875], [69.73225748864037, 42.46205863751749], [69.72958388907253, 42.468479118484225], [69.72184069055498, 42.474222953929264], [69.71292566114984, 42.47447670565879], [69.7105914730319, 42.4831015188764], [69.70741257717943, 42.485971346547046], [69.70298436176597, 42.48553616284769], [69.70001633776369, 42.47855312674237], [69.69007640833571, 42.47507458814271], [69.68725359321452, 42.46965220509387], [69.68063294592402, 42.46562826654554], [69.67547084190821, 42.46548234502782], [69.67108872596071, 42.4682902945075], [69.665160005837, 42.46897375291397], [69.65436675432211, 42.461832548255416], [69.64563096537114, 42.46302769495715], [69.64256280133809, 42.45915427381647], [69.64492050599917, 42.4546659078361]], [[69.7037735542092, 42.33589926037368], [69.70508231600601, 42.33941773769101], [69.70254094769354, 42.34262802803995], [69.6973510356086, 42.34159490049252], [69.69522838056464, 42.33934406158837], [69.69534614425669, 42.33625244843002], [69.69763387499607, 42.3341696070361], [69.70080798587114, 42.33387807804348], [69.7037735542092, 42.33589926037368]], [[69.62529966121025, 42.409019503575365], [69.62142777272227, 42.411223752687135], [69.61781461548631, 42.408099043274255], [69.61661952331333, 42.39674613271088], [69.62126997025099, 42.39294934964744], [69.62438063596338, 42.39338291733272], [69.62621931920128, 42.39592918245298], [69.62804095941908, 42.40457738227728], [69.62529966121025, 42.409019503575365]], [[69.51921540379523, 42.330422220546815], [69.51884438633962, 42.32542780461238], [69.5269394717509, 42.31971495349699], [69.53027563089243, 42.320395867792776], [69.5356886734056, 42.32691974686232], [69.53439187327332, 42.33080746294131], [69.5255861551003, 42.334974457750384], [69.52218683926273, 42.33422050251132], [69.51921540379523, 42.330422220546815]], [[69.47413500707063, 42.36504051614208], [69.47190692232454, 42.36152930367776], [69.47400131582322, 42.35793674324292], [69.48856422296915, 42.3529521211673], [69.492769138591, 42.35503882453176], [69.49444153156207, 42.360659757440146], [69.49238333182727, 42.36552691966224], [69.48154058590895, 42.367773556871704], [69.47413500707063, 42.36504051614208]], [[69.43225675084146, 42.390122918744225], [69.43075581402026, 42.38521020274382], [69.43619008088386, 42.37809561246694], [69.45609076439231, 42.38058487198885], [69.45908872115237, 42.383490699065476], [69.45652185039219, 42.39154934312196], [69.45243620422403, 42.39558541891335], [69.44032722454058, 42.39410385354735], [69.43225675084146, 42.390122918744225]]], [[[69.37281605936033, 42.518428846498], [69.37345538075824, 42.515111113350024], [69.38313337975904, 42.50517125297405], [69.39127726000432, 42.5078836052348], [69.39713560958602, 42.50647394306233], [69.40054401269259, 42.50250608076186], [69.4054976614187, 42.50109571366279], [69.42365975423414, 42.50273360762183], [69.43805710962388, 42.49780968252572], [69.44660260906839, 42.492235297223296], [69.45223125184211, 42.48606377186514], [69.46320589488779, 42.48292608503686], [69.46565847608788, 42.478963109759675], [69.46426901952297, 42.474463410984725], [69.46173292113231, 42.47018952021149], [69.45030350654086, 42.4625852720963], [69.42932243555839, 42.47303522026145], [69.4219805827553, 42.46955548009312], [69.41564621819055, 42.46993758862691], [69.41293992679005, 42.46596465227699], [69.41685741363385, 42.46004160014413], [69.41647155911214, 42.4536079233259], [69.41398614290806, 42.45150267950342], [69.40574609997924, 42.45009730465283], [69.39334369357698, 42.46061263655263], [69.37574857719386, 42.48603119321712], [69.35161373628743, 42.51390906365862], [69.35232689417191, 42.51717731917492], [69.36020543121595, 42.52511537181168], [69.37089542649035, 42.5229990131947], [69.37281605936033, 42.518428846498]]]]}, "properties": {}}