{"type": "Feature", "geometry": {"type": "MultiPolygon", "coordinates": [[[[-72.34068405447547, 7.80969795186133], [-72.34248308300513, 7.8133640199374845], [-72.33970866576993, 7.8186599158545675], [-72.3394676771062, 7.825800859953038], [-72.3335800232592, 7.82974595439279], [-72.32526816395462, 7.8395167174404365], [-72.32212614565775, 7.839888043599191], [-72.31225638893177, 7.8356346452934105], [-72.30257190605441, 7.83555954053613], [-72.29619291315525, 7.839713156214232], [-72.29216895424968, 7.84516020814347], [-72.27669351622062, 7.851460214754163], [-72.27278677283073, 7.850153466249876], [-72.27174224564058, 7.841928777882426], [-72.26493908780557, 7.830750515558807], [-72.26901084125656, 7.823866210675374], [-72.27438625312836, 7.819029904876393], [-72.27233819439907, 7.813532276227097], [-72.26637859374952, 7.810965414024004], [-72.26479691498278, 7.808300988074307], [-72.27068876176267, 7.793302095823959], [-72.26854333373807, 7.790580264276326], [-72.26282433394319, 7.789442439909638], [-72.26016155408905, 7.785018346012373], [-72.26496270921419, 7.771382867495881], [-72.26261638931601, 7.758917682191926], [-72.26389096364873, 7.752793890609254], [-72.27063375409516, 7.7477382019527035], [-72.27038433433687, 7.73939287545948], [-72.27264664650093, 7.735617587005596], [-72.27726953447052, 7.734224057585423], [-72.28293812314305, 7.736937844786307], [-72.28436411842479, 7.74734927817691], [-72.286742029745, 7.749853569804437], [-72.29710067399931, 7.750249197084574], [-72.30343214450453, 7.746958491285545], [-72.31073041632872, 7.750367957564488], [-72.31595346812627, 7.760173046427095], [-72.31265825736475, 7.762276007445463], [-72.31144974233878, 7.769028655012363], [-72.30445958081232, 7.778420160740089], [-72.30082466916375, 7.788481710885899], [-72.29721222379317, 7.791787543861599], [-72.2929390492254, 7.801247352100922], [-72.29656651349771, 7.812250269662316], [-72.30416418846367, 7.815698746753716], [-72.3193909935262, 7.815870555718887], [-72.32697116190475, 7.8126552282618125], [-72.3318932084308, 7.812399072945937], [-72.33664821538096, 7.8087227261219505], [-72.34068405447547, 7.80969795186133]]], [[[-72.31774748683462, 7.760483166322329], [-72.3277212253013, 7.755725192185027], [-72.32950290994295, 7.74783559212495], [-72.33154161589236, 7.745432624135725], [-72.33581519485267, 7.74499477497165], [-72.33840728980758, 7.746739202998002], [-72.34011732283957, 7.7523500653891935], [-72.33905371614289, 7.761718115639787], [-72.33489040610569, 7.766465339154458], [-72.32554606584632, 7.76738407922061], [-72.31774748683462, 7.760483166322329]]], [[[-72.33732131514854, 8.04348351037309], [-72.33663417557415, 8.048037838433553], [-72.33230921786247, 8.050209980068681], [-72.32184761416119, 8.048528709646726], [-72.31930341995108, 8.042691496743648], [-72.32149352267484, 8.039203374470986], [-72.32990237000121, 8.036876587891065], [-72.33537390166447, 8.040025665600332], [-72.33732131514854, 8.04348351037309]]], [[[-72.39712640093474, 7.685583386057091], [-72.40091744450673, 7.692709506895669], [-72.39939073161736, 7.696152777639273], [-72.39451544335658, 7.699208226475636], [-72.39289805802495, 7.7052417026014695], [-72.38550740304942, 7.707803088955204], [-72.37571567627874, 7.707907353976693], [-72.36944288281595, 7.715986992684089], [-72.37323704940614, 7.731967636109048], [-72.37637328701392, 7.739311546594137], [-72.381023894354, 7.744772450810619], [-72.37911827290468, 7.748929336606496], [-72.37291227493705, 7.7499261592016335], [-72.35446230067818, 7.73801866335939], [-72.35387666979938, 7.734208193343376], [-72.35939548037648, 7.728284702923986], [-72.35935108649156, 7.724474666047857], [-72.35548967618769, 7.720955288167909], [-72.35235100034885, 7.7125253277611], [-72.34535981008212, 7.707742967057146], [-72.3383809480383, 7.706016976915763], [-72.33575720322135, 7.702403954514799], [-72.33803242546519, 7.695261637592804], [-72.33614069047759, 7.679311792261599], [-72.343697454645, 7.668062253660661], [-72.34064010520686, 7.66227887642877], [-72.34069972834645, 7.654958169131399], [-72.34604662383948, 7.651711329437446], [-72.34911115722032, 7.651998551695319], [-72.35185029934779, 7.654276679424904], [-72.35628082302019, 7.663231968114132], [-72.36025350638738, 7.664903826214584], [-72.36350251241775, 7.662281770511734], [-72.36733859894555, 7.647069329163147], [-72.37087107433962, 7.645919986554012], [-72.37663396532044, 7.648787723738547], [-72.37962813946022, 7.655265168024805], [-72.37790914363214, 7.665439499121534], [-72.38116183754983, 7.670231995573341], [-72.38806466593729, 7.675333360666395], [-72.3901897289408, 7.680519800156449], [-72.39712640093474, 7.685583386057091]]], [[[-72.36913115773122, 7.999823404149555], [-72.36049832937104, 8.001842575673178], [-72.35459868542016, 7.998007610406971], [-72.35308155584148, 7.994502752172533], [-72.35529636454879, 7.988884562372258], [-72.35792859470382, 7.986963286663464], [-72.36172802151364, 7.986774836888557], [-72.3702538112205, 7.991479303047594], [-72.3727713941893, 7.996251798870713], [-72.36913115773122, 7.999823404149555]]], [[[-72.38440174825199, 7.87594181650597], [-72.3758257673817, 7.885460179281742], [-72.37271916599215, 7.885761387775326], [-72.36958948421845, 7.88335888654755], [-72.36921800891713, 7.8796093298278445], [-72.37448285304306, 7.868461306745738], [-72.38247900230641, 7.868927375321494], [-72.38423324783889, 7.8715257824187095], [-72.38440174825199, 7.87594181650597]]], [[[-72.40129968419642, 7.937022787039381], [-72.3980042509771, 7.942441422674686], [-72.3907735054319, 7.945730567070199], [-72.38433428585834, 7.942821933052442], [-72.37920961236766, 7.935535621526184], [-72.38313590795103, 7.930429061079527], [-72.39067055662598, 7.9310608852991535], [-72.39842167232075, 7.927747625820115], [-72.40115839142386, 7.9290046700152885], [-72.40294869573287, 7.932507293279791], [-72.40129968419642, 7.937022787039381]]], [[[-72.44349848778106, 7.978404752441102], [-72.44051145045194, 7.983400913819593], [-72.44036558942294, 7.990059599992986], [-72.43799130061305, 7.993058311898536], [-72.43527624765476, 7.993755336001682], [-72.42922066607117, 7.992952601313381], [-72.41787709397282, 7.988076612588371], [-72.41203281182756, 7.976116175111544], [-72.41584934185745, 7.971925883785854], [-72.42582452661127, 7.972547333679774], [-72.42960268814647, 7.967096760016153], [-72.43546771451507, 7.9655839639858526], [-72.44199445570808, 7.969347638324684], [-72.44409634630229, 7.974602982091587], [-72.44349848778106, 7.978404752441102]]], [[[-72.42830944496178, 8.037660069392947], [-72.4270398196508, 8.040485560133734], [-72.42769029022934, 8.047536415958497], [-72.42123453545983, 8.050213609568575], [-72.41659351181742, 8.047247888274816], [-72.41611070642571, 8.040960942216628], [-72.41321466395634, 8.037191919138555], [-72.41278159238541, 8.03303004744764], [-72.41598727711127, 8.028848446749086], [-72.42298703767955, 8.027816193444751], [-72.42901101612966, 8.031352908376338], [-72.42981358793047, 8.03471347272473], [-72.42830944496178, 8.037660069392947]]], [[[-72.55959185011176, 7.895491677736773], [-72.55910537828261, 7.899314857334587], [-72.56262392133652, 7.90290117505746], [-72.56316030294136, 7.905570979876827], [-72.56161098943521, 7.909835068174564], [-72.55804871156727, 7.91335090200939], [-72.55696650857637, 7.917956820091667], [-72.55396706898713, 7.919715492632736], [-72.54378139533674, 7.918774344374613], [-72.53629768510109, 7.923066926444258], [-72.53521255356662, 7.925979444657514], [-72.53630055431245, 7.93047526148408], [-72.53441024029323, 7.9350544738914035], [-72.53517452101507, 7.941976259590883], [-72.53286807657264, 7.946059638276975], [-72.53186110375376, 7.953406182615793], [-72.52940261978193, 7.9554379160101165], [-72.52276270039056, 7.95550496053274], [-72.51892675253316, 7.957324318514417], [-72.5107718273617, 7.954971219333649], [-72.50419414918424, 7.956243420679361], [-72.500140772698, 7.951037515543899], [-72.49509394882848, 7.948734138834083], [-72.48897957440121, 7.951206374464713], [-72.47864904658523, 7.962408380225924], [-72.47506746285715, 7.962849036262674], [-72.47239000707448, 7.960436020793355], [-72.47235930788494, 7.957142464739631], [-72.4854482894884, 7.93976474956376], [-72.4838256361338, 7.934253231574556], [-72.47339907369462, 7.922770025837107], [-72.46454163425925, 7.922017994125954], [-72.45683818414903, 7.926092093200241], [-72.45217358027774, 7.935507732095289], [-72.436317384318, 7.939052882965298], [-72.43360158138917, 7.937819043415793], [-72.4262447284874, 7.926925892732275], [-72.4202255044513, 7.923183980573269], [-72.41868242490389, 7.920441955740683], [-72.42012824119173, 7.916234319069673], [-72.42598218776213, 7.912077548157938], [-72.4359397431318, 7.90892859060072], [-72.44036653945828, 7.903895012324306], [-72.44549982184769, 7.9026039508063155], [-72.45188541192165, 7.905579275933293], [-72.4557629010102, 7.9048843809425815], [-72.45724186857939, 7.9022648921170235], [-72.45656801585633, 7.895778705942611], [-72.45953470657743, 7.890866920545484], [-72.45832264393886, 7.886808287315473], [-72.45579816697908, 7.885021694902726], [-72.45275430561453, 7.885569238839974], [-72.44908199702877, 7.889684637597623], [-72.4444247379851, 7.890481482989117], [-72.4346692641284, 7.885195433926215], [-72.43379527158426, 7.878550899300023], [-72.43809234058794, 7.874378782570248], [-72.43871567225376, 7.871398482157753], [-72.4324812198476, 7.863684394179007], [-72.4301417192525, 7.857244357062905], [-72.42633851268351, 7.8536262977262], [-72.42685900047641, 7.847556525842426], [-72.43331385489863, 7.845648329854252], [-72.44736859716615, 7.846912317332282], [-72.44737001600545, 7.8549124261603795], [-72.44859121319277, 7.859523644140229], [-72.45087356871493, 7.861549655471587], [-72.45392050480817, 7.861376308744233], [-72.45986419989872, 7.857300230614244], [-72.46195101765778, 7.851193234169499], [-72.45989164235172, 7.846772488145151], [-72.45715759901913, 7.84543779097937], [-72.44872603115292, 7.845722855570168], [-72.44978632773828, 7.839118866775956], [-72.45676597142037, 7.83025254620443], [-72.45480256335169, 7.8257239743797875], [-72.44941427970942, 7.823937218827397], [-72.4475213643601, 7.821549126729489], [-72.44838790854169, 7.814452586812384], [-72.45133979564297, 7.8120033653494225], [-72.46673650460961, 7.812896972661699], [-72.47323027412438, 7.807431785162439], [-72.4797094182393, 7.8071746768885495], [-72.48808382028679, 7.816204358671144], [-72.48501638727983, 7.824036297075702], [-72.48620000505584, 7.828019958540659], [-72.48935717872605, 7.830111626405545], [-72.49258193911184, 7.828927712759791], [-72.49972766553297, 7.8151768213195885], [-72.50530865378279, 7.812851395371191], [-72.5089145147658, 7.808136835626492], [-72.50938231700465, 7.804672367667088], [-72.50646561634044, 7.80067157120314], [-72.50629638174617, 7.796599409312286], [-72.51098423177937, 7.791890454271436], [-72.51238174328267, 7.784485873998208], [-72.51809295679273, 7.7826475416294105], [-72.52009640639406, 7.780408088469564], [-72.51989884404462, 7.769992785014271], [-72.51793482151635, 7.764756836485482], [-72.5190539482945, 7.7596286951859055], [-72.5224112990707, 7.756537097986121], [-72.5290438628137, 7.759834089411633], [-72.53046151758994, 7.764717674775443], [-72.52895040691443, 7.77439964264697], [-72.52564875299481, 7.778340288835689], [-72.52081247985929, 7.780171239989559], [-72.51955899897516, 7.782610646637205], [-72.52189324043718, 7.791954146380649], [-72.52506381333109, 7.795956143020957], [-72.52597941068188, 7.8034900837295265], [-72.5185701483676, 7.829452785260223], [-72.52029452435544, 7.8320423466706], [-72.52690239244949, 7.835339507366648], [-72.52822839017597, 7.84322101908985], [-72.52210539522898, 7.8531692555293935], [-72.52177747095146, 7.856232221993794], [-72.52372374823142, 7.858619962064096], [-72.53130598494177, 7.861806518003313], [-72.53605524661906, 7.8686521957100615], [-72.54355669378974, 7.870820629621881], [-72.54751385995813, 7.87962908867081], [-72.55146471085565, 7.882545179195319], [-72.5536845233409, 7.886927570664558], [-72.55928802924069, 7.88993052611352], [-72.55959185011176, 7.895491677736773]], [[-72.44472618007973, 7.876549868707921], [-72.45044484170246, 7.880064883334724], [-72.45441084837523, 7.878034007044086], [-72.4530354279072, 7.868348694032498], [-72.45119344142307, 7.86587804373188], [-72.44740120248778, 7.8657247239542425], [-72.44254250870543, 7.86986891091228], [-72.44220642990265, 7.8732788776488976], [-72.44472618007973, 7.876549868707921]], [[-72.48859676487369, 7.838471765077981], [-72.48612823310802, 7.83532900189916], [-72.48206087256192, 7.835885102447214], [-72.47692321414412, 7.84239829104491], [-72.47638312860273, 7.845471541287068], [-72.4792366290816, 7.849074838243571], [-72.49256712680551, 7.854869637549267], [-72.49520533694867, 7.852690501411173], [-72.49609282375867, 7.847837924284249], [-72.48859676487369, 7.838471765077981]]], [[[-72.46598780792746, 7.777479893634058], [-72.46006929979232, 7.793099144734307], [-72.45588527966655, 7.795680489655807], [-72.45224935586305, 7.794651476184215], [-72.4488888460395, 7.786634103317799], [-72.44907744076984, 7.782823898369675], [-72.45734778152224, 7.7694535117967085], [-72.46060177975647, 7.768230142879639], [-72.4653977343511, 7.770372185534295], [-72.467031603437, 7.77432414291998], [-72.46598780792746, 7.777479893634058]]], [[[-72.61427148198057, 7.694750405274455], [-72.61317508433943, 7.698574589994735], [-72.60877352705114, 7.700349951816432], [-72.60004960028046, 7.6967234748115345], [-72.59826635766592, 7.69292456838057], [-72.60296952885506, 7.6850827505706585], [-72.60868630373201, 7.683707729266925], [-72.61344158952298, 7.687373021543288], [-72.61427148198057, 7.694750405274455]]], [[[-72.63319819164644, 7.871362868592454], [-72.6348820615841, 7.874281220867446], [-72.63387208959469, 7.878716798386337], [-72.62766540717867, 7.884036133866905], [-72.62429316016144, 7.884309409814917], [-72.61772360402753, 7.880167014020834], [-72.6174445551743, 7.876742297425059], [-72.62109695933164, 7.87120561510201], [-72.62928368282564, 7.870211953496131], [-72.63319819164644, 7.871362868592454]]], [[[-72.63823262452007, 7.9000359], [-72.65189915031078, 7.9039740226480415], [-72.65352725025754, 7.906881484005346], [-72.65262640844699, 7.910478617547218], [-72.64954382533102, 7.912151897085238], [-72.6278025665698, 7.911345211386113], [-72.62562004853577, 7.906509427929448], [-72.62665828122391, 7.903175700475218], [-72.63823262452007, 7.9000359]]]]}, "properties": {}}