{"type": "FeatureCollection", "features": [{"type": "Feature", "properties": {"threshold": 70}, "geometry": {"type": "MultiPolygon", "coordinates": [[[[-48.926523012981704, -26.290559942874268], [-48.9274198304724, -26.287105323179897], [-48.92384407251392, -26.28284950594742], [-48.917197160375615, -26.280504914751113], [-48.92034959903832, -26.272415145621743], [-48.91360525505658, -26.27141332445165], [-48.91115156878119, -26.274459637161076], [-48.902504766309924, -26.27551918863658], [-48.90195858334535, -26.28200735542686], [-48.90765819331238, -26.285735194119926], [-48.90560606741569, -26.289299825316814], [-48.906692480258755, -26.298699858331762], [-48.913708140229396, -26.298054786422774], [-48.91547258598139, -26.293713730657913], [-48.92323395453773, -26.293530681174158], [-48.926523012981704, -26.290559942874268]]], [[[-48.89898748873012, -26.283203607638676], [-48.893496082631444, -26.279616978907622], [-48.89422847040061, -26.26491297034198], [-48.884350963023664, -26.262318359166674], [-48.87873283923695, -26.265327997954742], [-48.860774467308616, -26.262709289857852], [-48.85463687558462, -26.25900119833341], [-48.852642119433675, -26.251018699497834], [-48.85490015842814, -26.24527403920186], [-48.85274049151021, -26.243053490060667], [-48.84645088307493, -26.244670059690055], [-48.844341322222434, -26.250243279356496], [-48.83917743298421, -26.250323046964187], [-48.8437519713559, -26.257178756996993], [-48.84286967842166, -26.263244705496508], [-48.83094675273441, -26.26616479665881], [-48.82645192628911, -26.26010552272465], [-48.821630681179194, -26.258146826308543], [-48.820887568483634, -26.25323104974529], [-48.82666539417166, -26.251718430574876], [-48.82782933997115, -26.2464408103728], [-48.822140348155855, -26.244663568904677], [-48.819126636754234, -26.234872687628048], [-48.80882484760416, -26.232072559474947], [-48.802016451680274, -26.23546052856501], [-48.8011300443249, -26.24194469596029], [-48.80625666336012, -26.243024486577422], [-48.81278300372531, -26.239936711483175], [-48.814834802137106, -26.247476914128665], [-48.81993284708012, -26.252183438874802], [-48.81119502489741, -26.25972361187887], [-48.80342733215365, -26.258968227242967], [-48.802359347610285, -26.26629822448819], [-48.81147781278594, -26.27221693816265], [-48.81884756157118, -26.26966373747989], [-48.8226433478072, -26.27312900486117], [-48.82742274855296, -26.273257345607938], [-48.83145159626325, -26.2701267198784], [-48.83604074615503, -26.27383701694582], [-48.82805468638307, -26.282005570466186], [-48.8351109990745, -26.285918368633943], [-48.838000122333604, -26.29090516941694], [-48.837450992153336, -26.303429324973795], [-48.83322479886462, -26.305870376179417], [-48.82931196892143, -26.304354028417425], [-48.82667696112534, -26.297934021907373], [-48.82002531770591, -26.295434116034507], [-48.81820954860382, -26.29122132516825], [-48.81329144823227, -26.291378900228715], [-48.80673105554772, -26.30198499925046], [-48.82016048939971, -26.304590971590944], [-48.82412719788553, -26.31299124456608], [-48.82791933534781, -26.314514021645767], [-48.8298753139389, -26.31865988841902], [-48.82643582357767, -26.322666569807115], [-48.82744894395124, -26.33130921574276], [-48.832773894860274, -26.33147524298492], [-48.83804894266947, -26.326030027407214], [-48.84275689544227, -26.329121287179984], [-48.84021261061126, -26.33757928837447], [-48.83049967555827, -26.33996380665144], [-48.83153503427987, -26.346320904286856], [-48.8406674462472, -26.344866294295674], [-48.84368742487374, -26.349906665530245], [-48.837333432359046, -26.354022139296355], [-48.83688693478294, -26.358530068289006], [-48.83215476440153, -26.361239769504266], [-48.83037131203574, -26.367060567897962], [-48.82262891058013, -26.366726972023503], [-48.82079546394669, -26.36451995274125], [-48.82314513579878, -26.35953425069858], [-48.82889396037926, -26.35848521504892], [-48.82997233129103, -26.35221831543993], [-48.82383302574639, -26.349594722680887], [-48.821263057242945, -26.351460190560015], [-48.82271292399217, -26.355056252296297], [-48.819137870790136, -26.356608087286357], [-48.81737602848529, -26.354215853980158], [-48.81959893381561, -26.351434862473017], [-48.816147675018456, -26.347344208564312], [-48.80889877609814, -26.345533023680463], [-48.80756600190972, -26.35101068012403], [-48.81179892711159, -26.35707799370438], [-48.811741168958676, -26.36381077619368], [-48.817971688453014, -26.365777143698278], [-48.81769088258692, -26.372556661617157], [-48.82231199851746, -26.376126186033495], [-48.829554881644015, -26.374565064607864], [-48.831271489778864, -26.367623175104324], [-48.84105369283512, -26.366870678482275], [-48.84186137846819, -26.362618298013068], [-48.84666980346006, -26.359472355303012], [-48.844755001797466, -26.35145865203786], [-48.85108960398592, -26.349592507902525], [-48.85282439680009, -26.3406583224453], [-48.86501745374597, -26.339001346924544], [-48.867025613098775, -26.3329062748756], [-48.875148735092154, -26.32778429912734], [-48.87424534259961, -26.322252438800007], [-48.86914283630412, -26.321106961225176], [-48.866213027336876, -26.32461695297824], [-48.861474143810874, -26.325259159306775], [-48.86086453131029, -26.330331661293446], [-48.85474101185442, -26.328559210017417], [-48.855241513848725, -26.325379709288857], [-48.86025278071917, -26.3245632672142], [-48.859620429813326, -26.31751105877434], [-48.85543737520246, -26.314290008716085], [-48.855874212564345, -26.30479794025263], [-48.86397610082016, -26.3043189049478], [-48.871268030146275, -26.293212632175635], [-48.875545912394536, -26.295979661743427], [-48.881588852629534, -26.295924846766592], [-48.88310029072439, -26.286574850090656], [-48.8877916684149, -26.281144514863907], [-48.89328368277238, -26.282756421372707], [-48.8931537496042, -26.292323827741384], [-48.8976166012129, -26.290416234174653], [-48.89898748873012, -26.283203607638676]]], [[[-48.919014822758164, -26.21599561331238], [-48.916635065836815, -26.205042561158127], [-48.91281681527633, -26.201448289624015], [-48.908509564885605, -26.201385700117974], [-48.901072172285325, -26.20710723946036], [-48.90219726427289, -26.212905880087796], [-48.90871202023271, -26.21236141336733], [-48.919014822758164, -26.21599561331238]]]]}}, {"type": "Feature", "properties": {"threshold": 80}, "geometry": {"type": "MultiPolygon", "coordinates": [[[[-48.92646216856359, -26.290749758534993], [-48.92815134704279, -26.28605923612348], [-48.917551541599636, -26.280717006376765], [-48.92034959903832, -26.272415145621743], [-48.91360525505658, -26.27141332445165], [-48.91135190103914, -26.274283443528503], [-48.902504766309924, -26.27551918863658], [-48.90195858334535, -26.28200735542686], [-48.90765819331238, -26.285735194119926], [-48.90560606741569, -26.289299825316814], [-48.906692480258755, -26.298699858331762], [-48.913782044522165, -26.298016306749695], [-48.91620159967647, -26.293440301447273], [-48.92241399691751, -26.29506661332428], [-48.92646216856359, -26.290749758534993]]], [[[-48.89898748873012, -26.283203607638676], [-48.89580435309244, -26.280978633069328], [-48.8930140656698, -26.271274726730304], [-48.895100957274195, -26.26492576748859], [-48.88258520748901, -26.262285701953328], [-48.87822076168934, -26.26529772307931], [-48.85463687558462, -26.25900119833341], [-48.85290096683803, -26.251366363835327], [-48.855761357767356, -26.2452107946484], [-48.85189712669975, -26.241467185070814], [-48.84550573169223, -26.245499734747295], [-48.84417782063283, -26.249551910475834], [-48.83914735669766, -26.250395034189687], [-48.8437519713559, -26.257178756996993], [-48.84286967842166, -26.263244705496508], [-48.83094675273441, -26.26616479665881], [-48.82645192628911, -26.26010552272465], [-48.821630681179194, -26.258146826308543], [-48.820887568483634, -26.25323104974529], [-48.82666539417166, -26.251718430574876], [-48.82873090204958, -26.244880766817392], [-48.821432339558896, -26.24258966768596], [-48.82004288554997, -26.232526083613674], [-48.808740275970585, -26.232082558474435], [-48.80206841808662, -26.235399527918297], [-48.8011300443249, -26.24194469596029], [-48.80625666336012, -26.243024486577422], [-48.81278300372531, -26.239936711483175], [-48.814834802137106, -26.247476914128665], [-48.81993284708012, -26.252183438874802], [-48.81119502489741, -26.25972361187887], [-48.80342733215365, -26.258968227242967], [-48.802309693368244, -26.266235668249724], [-48.81156199056976, -26.272229510869177], [-48.81884756157118, -26.26966373747989], [-48.8226433478072, -26.27312900486117], [-48.82742274855296, -26.273257345607938], [-48.832873813834844, -26.270609891230578], [-48.83581735274006, -26.27586782084384], [-48.831007779789445, -26.27748485537518], [-48.82806578819793, -26.28208184253754], [-48.8351109990745, -26.285918368633943], [-48.83823175227276, -26.29180208462442], [-48.836952431015426, -26.302846816718294], [-48.82998351033467, -26.304690736820213], [-48.82662071871457, -26.297876163365864], [-48.81951897042961, -26.294913152194386], [-48.813852206784716, -26.28357615234362], [-48.80853315210209, -26.280907559830126], [-48.80180640402922, -26.285386247564006], [-48.80201821839526, -26.290793318863088], [-48.80869785585361, -26.288268945556084], [-48.812525365786016, -26.292921685248782], [-48.806771155755364, -26.30314929887646], [-48.82016048939971, -26.304590971590944], [-48.82325439175582, -26.31297799357518], [-48.82791933534781, -26.314514021645767], [-48.8298753139389, -26.31865988841902], [-48.82643582357767, -26.322666569807115], [-48.82744894395124, -26.33130921574276], [-48.832773894860274, -26.33147524298492], [-48.83804894266947, -26.326030027407214], [-48.842802822130224, -26.329349176664035], [-48.840027379986886, -26.33774059358187], [-48.83049967555827, -26.33996380665144], [-48.83153503427987, -26.346320904286856], [-48.8406674462472, -26.344866294295674], [-48.84368742487374, -26.349906665530245], [-48.837333432359046, -26.354022139296355], [-48.83688693478294, -26.358530068289006], [-48.83215476440153, -26.361239769504266], [-48.83037131203574, -26.367060567897962], [-48.82262891058013, -26.366726972023503], [-48.82079546394669, -26.36451995274125], [-48.82314513579878, -26.35953425069858], [-48.82889396037926, -26.35848521504892], [-48.82997233129103, -26.35221831543993], [-48.82383302574639, -26.349594722680887], [-48.821263057242945, -26.351460190560015], [-48.82271292399217, -26.355056252296297], [-48.819137870790136, -26.356608087286357], [-48.81700596418881, -26.348144119085156], [-48.80889877609814, -26.345533023680463], [-48.80756600190972, -26.35101068012403], [-48.81179892711159, -26.35707799370438], [-48.811741168958676, -26.36381077619368], [-48.81839306721395, -26.36661615008292], [-48.81704897524286, -26.3736397029924], [-48.827412558815, -26.376302076278673], [-48.83085564722147, -26.367876458781325], [-48.840101620386335, -26.36769481465918], [-48.84186137846819, -26.362618298013068], [-48.84666980346006, -26.359472355303012], [-48.84485010509155, -26.351249138758522], [-48.85108960398592, -26.349592507902525], [-48.85282439680009, -26.3406583224453], [-48.86501745374597, -26.339001346924544], [-48.867025613098775, -26.3329062748756], [-48.87511097053145, -26.327853290258513], [-48.87607850108934, -26.322681521042607], [-48.88485639452548, -26.32012897851782], [-48.88275352170112, -26.31585663358541], [-48.86949786299467, -26.31486221185051], [-48.8652061987224, -26.311617542688282], [-48.856828282477075, -26.31386488186486], [-48.854487499662525, -26.308768388174894], [-48.855874212564345, -26.30479794025263], [-48.86397610082016, -26.3043189049478], [-48.871268030146275, -26.293212632175635], [-48.875545912394536, -26.295979661743427], [-48.881588852629534, -26.295924846766592], [-48.88310029072439, -26.286574850090656], [-48.88735436058416, -26.28267614386378], [-48.89043733156166, -26.283647922962572], [-48.8916700635564, -26.291046255755834], [-48.89460737380367, -26.29226766206454], [-48.897654339195924, -26.290347234968515], [-48.89898748873012, -26.283203607638676]], [[-48.86400529442412, -26.32023702118944], [-48.86650512687695, -26.32316109440647], [-48.861474143810874, -26.325259159306775], [-48.86136297235124, -26.32969371341426], [-48.85507990076931, -26.328916636532696], [-48.85504717204672, -26.325536934583138], [-48.86025278071917, -26.3245632672142], [-48.86021942758578, -26.321043573766303], [-48.86400529442412, -26.32023702118944]]], [[[-48.92204169175247, -26.199033332603342], [-48.91373271947883, -26.197237553416773], [-48.91235148869922, -26.186576393083058], [-48.90694490420886, -26.18723885794242], [-48.90569377915678, -26.190533174040404], [-48.91024757433746, -26.194731715467235], [-48.9065562079184, -26.20275940004893], [-48.90112862536701, -26.20396060201323], [-48.89930092766923, -26.21103398630511], [-48.90866062980009, -26.213227460949724], [-48.914464884460955, -26.218651294111588], [-48.919576449399464, -26.21784013755434], [-48.91735725873869, -26.206262619117535], [-48.92186096083693, -26.203427199533035], [-48.92204169175247, -26.199033332603342]]]]}}, {"type": "Feature", "properties": {"threshold": 90}, "geometry": {"type": "MultiPolygon", "coordinates": [[[[-48.92646216856359, -26.290749758534993], [-48.92815134704279, -26.28605923612348], [-48.917551541599636, -26.280717006376765], [-48.92034959903832, -26.272415145621743], [-48.91360525505658, -26.27141332445165], [-48.91135190103914, -26.274283443528503], [-48.902504766309924, -26.27551918863658], [-48.90195858334535, -26.28200735542686], [-48.90765819331238, -26.285735194119926], [-48.90560606741569, -26.289299825316814], [-48.906692480258755, -26.298699858331762], [-48.913782044522165, -26.298016306749695], [-48.91620159967647, -26.293440301447273], [-48.92241399691751, -26.29506661332428], [-48.92646216856359, -26.290749758534993]]], [[[-48.89898748873012, -26.283203607638676], [-48.89580435309244, -26.280978633069328], [-48.892968053874014, -26.27104684708798], [-48.89546622346187, -26.264466121114843], [-48.88827510908843, -26.259894593459205], [-48.887506164272196, -26.254624619271986], [-48.88009282249082, -26.25391301065378], [-48.87738113719904, -26.24860221335769], [-48.86631051765653, -26.245520866809613], [-48.85944255284207, -26.248779266892377], [-48.850283137659595, -26.24141014153371], [-48.84159815496184, -26.2453589830878], [-48.83914735669766, -26.250395034189687], [-48.8437519713559, -26.257178756996993], [-48.842872857222915, -26.263240980347653], [-48.83069567075673, -26.266115809431454], [-48.82638968184582, -26.26005291255165], [-48.82212752958404, -26.258985894915444], [-48.820601730569706, -26.254141396967356], [-48.82660704990902, -26.25177455445915], [-48.831583229977696, -26.244584534619616], [-48.83857046029288, -26.243968849360133], [-48.837420230026105, -26.239145265928048], [-48.83304993870727, -26.236413798193233], [-48.83324857504614, -26.228853456938047], [-48.82516191960711, -26.22659889623298], [-48.822962261205134, -26.223625649241527], [-48.818111161864955, -26.22373287397709], [-48.811988281309446, -26.23079131153681], [-48.80753541159668, -26.225788200147353], [-48.80134421607082, -26.22752013064407], [-48.80102419606597, -26.241824273352172], [-48.80625666336012, -26.243024486577422], [-48.81278300372531, -26.239936711483175], [-48.814834802137106, -26.247476914128665], [-48.81993284708012, -26.252183438874802], [-48.81119502489741, -26.25972361187887], [-48.80342733215365, -26.258968227242967], [-48.80226707916413, -26.266169025399634], [-48.81156199056976, -26.272229510869177], [-48.81884756157118, -26.26966373747989], [-48.8226433478072, -26.27312900486117], [-48.82742274855296, -26.273257345607938], [-48.832873813834844, -26.270609891230578], [-48.83581735274006, -26.27586782084384], [-48.831007779789445, -26.27748485537518], [-48.82806578819793, -26.28208184253754], [-48.8351109990745, -26.285918368633943], [-48.83823175227276, -26.29180208462442], [-48.836952431015426, -26.302846816718294], [-48.82998351033467, -26.304690736820213], [-48.82662071871457, -26.297876163365864], [-48.81951897042961, -26.294913152194386], [-48.813852206784716, -26.28357615234362], [-48.80853315210209, -26.280907559830126], [-48.80180640402922, -26.285386247564006], [-48.80201821839526, -26.290793318863088], [-48.80822074876402, -26.28923698131543], [-48.812010859939896, -26.29247086399084], [-48.806771155755364, -26.30314929887646], [-48.82016048939971, -26.304590971590944], [-48.82325439175582, -26.31297799357518], [-48.82791933534781, -26.314514021645767], [-48.8298753139389, -26.31865988841902], [-48.82643582357767, -26.322666569807115], [-48.82744894395124, -26.33130921574276], [-48.832773894860274, -26.33147524298492], [-48.83804894266947, -26.326030027407214], [-48.842802822130224, -26.329349176664035], [-48.840027379986886, -26.33774059358187], [-48.83049967555827, -26.33996380665144], [-48.83153503427987, -26.346320904286856], [-48.8406674462472, -26.344866294295674], [-48.84368742487374, -26.349906665530245], [-48.837333432359046, -26.354022139296355], [-48.83688693478294, -26.358530068289006], [-48.83215476440153, -26.361239769504266], [-48.83037131203574, -26.367060567897962], [-48.82262891058013, -26.366726972023503], [-48.82079546394669, -26.36451995274125], [-48.82314513579878, -26.35953425069858], [-48.82889396037926, -26.35848521504892], [-48.82997233129103, -26.35221831543993], [-48.82383302574639, -26.349594722680887], [-48.821263057242945, -26.351460190560015], [-48.82271292399217, -26.355056252296297], [-48.819137870790136, -26.356608087286357], [-48.81700596418881, -26.348144119085156], [-48.80889877609814, -26.345533023680463], [-48.80756600190972, -26.35101068012403], [-48.81179892711159, -26.35707799370438], [-48.811741168958676, -26.36381077619368], [-48.81839306721395, -26.36661615008292], [-48.81704897524286, -26.3736397029924], [-48.827412558815, -26.376302076278673], [-48.83085564722147, -26.367876458781325], [-48.840101620386335, -26.36769481465918], [-48.84186137846819, -26.362618298013068], [-48.84666980346006, -26.359472355303012], [-48.84485010509155, -26.351249138758522], [-48.85108960398592, -26.349592507902525], [-48.85282439680009, -26.3406583224453], [-48.86501745374597, -26.339001346924544], [-48.867025613098775, -26.3329062748756], [-48.87511097053145, -26.327853290258513], [-48.87607850108934, -26.322681521042607], [-48.88485639452548, -26.32012897851782], [-48.88275352170112, -26.31585663358541], [-48.86949786299467, -26.31486221185051], [-48.8652061987224, -26.311617542688282], [-48.856828282477075, -26.31386488186486], [-48.854487499662525, -26.308768388174894], [-48.855874212564345, -26.30479794025263], [-48.86397610082016, -26.3043189049478], [-48.871268030146275, -26.293212632175635], [-48.875545912394536, -26.295979661743427], [-48.881588852629534, -26.295924846766592], [-48.88310029072439, -26.286574850090656], [-48.88735436058416, -26.28267614386378], [-48.89043733156166, -26.283647922962572], [-48.8916700635564, -26.291046255755834], [-48.89460737380367, -26.29226766206454], [-48.897654339195924, -26.290347234968515], [-48.89898748873012, -26.283203607638676]], [[-48.827094555360105, -26.233914340693172], [-48.83090016092775, -26.237657748483947], [-48.828012455661685, -26.24268169054993], [-48.82476723591058, -26.243278597426716], [-48.82047137339908, -26.231325982172773], [-48.823982729567, -26.230145199650906], [-48.827094555360105, -26.233914340693172]], [[-48.86400529442412, -26.32023702118944], [-48.86650512687695, -26.32316109440647], [-48.861474143810874, -26.325259159306775], [-48.86136297235124, -26.32969371341426], [-48.85507990076931, -26.328916636532696], [-48.85504717204672, -26.325536934583138], [-48.86025278071917, -26.3245632672142], [-48.86021942758578, -26.321043573766303], [-48.86400529442412, -26.32023702118944]], [[-48.8638301680547, -26.25159240146409], [-48.86672768990017, -26.253173154650295], [-48.866399846976826, -26.256503934912125], [-48.858992781317504, -26.256649940774707], [-48.85890719695016, -26.25164332554111], [-48.8638301680547, -26.25159240146409]]], [[[-48.92204169175247, -26.199033332603342], [-48.9131224932387, -26.19607512408893], [-48.91437130546555, -26.188708647686607], [-48.91235148869922, -26.186576393083058], [-48.90694490420886, -26.18723885794242], [-48.90569377915678, -26.190533174040404], [-48.91024757433746, -26.194731715467235], [-48.9065562079184, -26.20275940004893], [-48.90112862536701, -26.20396060201323], [-48.89930092766923, -26.21103398630511], [-48.918676294395524, -26.21940084354253], [-48.920041392416735, -26.213183776149098], [-48.91735725873869, -26.206262619117535], [-48.92186096083693, -26.203427199533035], [-48.92204169175247, -26.199033332603342]]], [[[-48.90570873789657, -26.217935116382648], [-48.892902489365106, -26.222794521083678], [-48.89843183574237, -26.23255534561973], [-48.9109423435706, -26.230739770923265], [-48.90570873789657, -26.217935116382648]]]]}}, {"type": "Feature", "properties": {"threshold": 95}, "geometry": {"type": "MultiPolygon", "coordinates": [[[[-48.92646216856359, -26.290749758534993], [-48.92815134704279, -26.28605923612348], [-48.917551541599636, -26.280717006376765], [-48.92034959903832, -26.272415145621743], [-48.91360525505658, -26.27141332445165], [-48.91135190103914, -26.274283443528503], [-48.902504766309924, -26.27551918863658], [-48.90195858334535, -26.28200735542686], [-48.90765819331238, -26.285735194119926], [-48.90560606741569, -26.289299825316814], [-48.906692480258755, -26.298699858331762], [-48.913782044522165, -26.298016306749695], [-48.91620159967647, -26.293440301447273], [-48.92241399691751, -26.29506661332428], [-48.92646216856359, -26.290749758534993]]], [[[-48.89898748873012, -26.283203607638676], [-48.89580435309244, -26.280978633069328], [-48.892968053874014, -26.27104684708798], [-48.895501444876, -26.264536189804012], [-48.88920872331284, -26.259724195388404], [-48.89043039610035, -26.253376200353152], [-48.87960860060119, -26.251199006894943], [-48.88179861858352, -26.247775165762402], [-48.89058758532012, -26.244675374275943], [-48.88869147633546, -26.237331183878226], [-48.87705813873485, -26.244788751486578], [-48.868638991956466, -26.244018345830156], [-48.8604616133218, -26.24883964726175], [-48.851740798249, -26.241406032098617], [-48.84316905325026, -26.244483755084705], [-48.839059955853266, -26.252923878235457], [-48.84368150880885, -26.256956022272632], [-48.84314397084877, -26.262848146228333], [-48.83094675273441, -26.26616479665881], [-48.82638968184582, -26.26005291255165], [-48.82212752958404, -26.258985894915444], [-48.820601730569706, -26.254141396967356], [-48.82660704990902, -26.25177455445915], [-48.831583229977696, -26.244584534619616], [-48.83857046029288, -26.243968849360133], [-48.837420230026105, -26.239145265928048], [-48.83304993870727, -26.236413798193233], [-48.83324857504614, -26.228853456938047], [-48.82516191960711, -26.22659889623298], [-48.822962261205134, -26.223625649241527], [-48.8182543955115, -26.223649663974072], [-48.814110036442415, -26.22735973334415], [-48.80385950136009, -26.225695457086122], [-48.80134421607082, -26.22752013064407], [-48.80102419606597, -26.241824273352172], [-48.80625666336012, -26.243024486577422], [-48.81278300372531, -26.239936711483175], [-48.814834802137106, -26.247476914128665], [-48.81993284708012, -26.252183438874802], [-48.81119502489741, -26.25972361187887], [-48.80342733215365, -26.258968227242967], [-48.80226707916413, -26.266169025399634], [-48.81156199056976, -26.272229510869177], [-48.81884756157118, -26.26966373747989], [-48.8226433478072, -26.27312900486117], [-48.82742274855296, -26.273257345607938], [-48.832873813834844, -26.270609891230578], [-48.83581735274006, -26.27586782084384], [-48.831007779789445, -26.27748485537518], [-48.82806578819793, -26.28208184253754], [-48.8351109990745, -26.285918368633943], [-48.83823175227276, -26.29180208462442], [-48.836952431015426, -26.302846816718294], [-48.82998351033467, -26.304690736820213], [-48.82662071871457, -26.297876163365864], [-48.81951897042961, -26.294913152194386], [-48.813852206784716, -26.28357615234362], [-48.80853315210209, -26.280907559830126], [-48.80180640402922, -26.285386247564006], [-48.80185008073714, -26.290620273566038], [-48.80906641732226, -26.296616553760607], [-48.806771155755364, -26.30314929887646], [-48.82016048939971, -26.304590971590944], [-48.82325439175582, -26.31297799357518], [-48.82791933534781, -26.314514021645767], [-48.8298753139389, -26.31865988841902], [-48.82643582357767, -26.322666569807115], [-48.82744894395124, -26.33130921574276], [-48.832773894860274, -26.33147524298492], [-48.83804894266947, -26.326030027407214], [-48.842802822130224, -26.329349176664035], [-48.840027379986886, -26.33774059358187], [-48.83049967555827, -26.33996380665144], [-48.83153503427987, -26.346320904286856], [-48.8406674462472, -26.344866294295674], [-48.84368742487374, -26.349906665530245], [-48.837333432359046, -26.354022139296355], [-48.83688693478294, -26.358530068289006], [-48.83215476440153, -26.361239769504266], [-48.83037131203574, -26.367060567897962], [-48.82262891058013, -26.366726972023503], [-48.82079546394669, -26.36451995274125], [-48.82314513579878, -26.35953425069858], [-48.82889396037926, -26.35848521504892], [-48.82997233129103, -26.35221831543993], [-48.82383302574639, -26.349594722680887], [-48.821263057242945, -26.351460190560015], [-48.82271292399217, -26.355056252296297], [-48.819137870790136, -26.356608087286357], [-48.81700596418881, -26.348144119085156], [-48.80889877609814, -26.345533023680463], [-48.80756600190972, -26.35101068012403], [-48.81179892711159, -26.35707799370438], [-48.811741168958676, -26.36381077619368], [-48.81839306721395, -26.36661615008292], [-48.81704897524286, -26.3736397029924], [-48.827412558815, -26.376302076278673], [-48.83085564722147, -26.367876458781325], [-48.840101620386335, -26.36769481465918], [-48.84186137846819, -26.362618298013068], [-48.84666980346006, -26.359472355303012], [-48.84485010509155, -26.351249138758522], [-48.85108960398592, -26.349592507902525], [-48.85282439680009, -26.3406583224453], [-48.86501745374597, -26.339001346924544], [-48.867025613098775, -26.3329062748756], [-48.87511097053145, -26.327853290258513], [-48.87607850108934, -26.322681521042607], [-48.88485639452548, -26.32012897851782], [-48.88275352170112, -26.31585663358541], [-48.86949786299467, -26.31486221185051], [-48.8652061987224, -26.311617542688282], [-48.856828282477075, -26.31386488186486], [-48.854487499662525, -26.308768388174894], [-48.855874212564345, -26.30479794025263], [-48.86397610082016, -26.3043189049478], [-48.871268030146275, -26.293212632175635], [-48.875545912394536, -26.295979661743427], [-48.881588852629534, -26.295924846766592], [-48.88310029072439, -26.286574850090656], [-48.88735436058416, -26.28267614386378], [-48.89043733156166, -26.283647922962572], [-48.8916700635564, -26.291046255755834], [-48.89460737380367, -26.29226766206454], [-48.897654339195924, -26.290347234968515], [-48.89898748873012, -26.283203607638676]], [[-48.827094555360105, -26.233914340693172], [-48.83090016092775, -26.237657748483947], [-48.828012455661685, -26.24268169054993], [-48.82476723591058, -26.243278597426716], [-48.82047137339908, -26.231325982172773], [-48.823982729567, -26.230145199650906], [-48.827094555360105, -26.233914340693172]], [[-48.86400529442412, -26.32023702118944], [-48.86650512687695, -26.32316109440647], [-48.861474143810874, -26.325259159306775], [-48.86136297235124, -26.32969371341426], [-48.85507990076931, -26.328916636532696], [-48.85504717204672, -26.325536934583138], [-48.86025278071917, -26.3245632672142], [-48.86021942758578, -26.321043573766303], [-48.86400529442412, -26.32023702118944]]], [[[-48.92204169175247, -26.199033332603342], [-48.9131224932387, -26.19607512408893], [-48.91437130546555, -26.188708647686607], [-48.91235148869922, -26.186576393083058], [-48.90694490420886, -26.18723885794242], [-48.90569377915678, -26.190533174040404], [-48.91024757433746, -26.194731715467235], [-48.9065562079184, -26.20275940004893], [-48.90112862536701, -26.20396060201323], [-48.89930092766923, -26.21103398630511], [-48.918676294395524, -26.21940084354253], [-48.920041392416735, -26.213183776149098], [-48.91735725873869, -26.206262619117535], [-48.92186096083693, -26.203427199533035], [-48.92204169175247, -26.199033332603342]]], [[[-48.90570873789657, -26.217935116382648], [-48.89303715282553, -26.222599151366833], [-48.8938681582814, -26.231583369070453], [-48.90757111249448, -26.23274465364881], [-48.91080769819796, -26.230935158650077], [-48.90570873789657, -26.217935116382648]]]]}}]}