{"type": "Feature", "geometry": {"type": "MultiPolygon", "coordinates": [[[[-39.910196014259085, -14.024737207233452], [-39.902400269660454, -14.018993892977415], [-39.90351883885794, -14.006667884752337], [-39.89840198945708, -13.999069866461861], [-39.892891680735325, -13.999460194004634], [-39.887697498621236, -14.006543914429459], [-39.877916974494575, -14.008249461500288], [-39.87544943161109, -14.01054129288946], [-39.8757527571923, -14.014156785497555], [-39.88180773124464, -14.021254319856789], [-39.89929812040311, -14.029445182989635], [-39.900282207614545, -14.037271211228832], [-39.9026288357859, -14.039708559182161], [-39.905981986265864, -14.03983968982192], [-39.908310427124036, -14.037784348352126], [-39.910196014259085, -14.024737207233452]]], [[[-39.992525414277324, -14.04738736994177], [-39.99187944232146, -14.042769725142119], [-39.98737524554915, -14.041447037857672], [-39.98325340555395, -14.045992761471794], [-39.978766262974084, -14.048268726298268], [-39.97798796991334, -14.052284792535154], [-39.98070832394512, -14.055400415429053], [-39.987676491885836, -14.05619024052373], [-39.99201833448198, -14.052910404493733], [-39.992525414277324, -14.04738736994177]]], [[[-40.14809111443684, -13.865457618038379], [-40.14635838124356, -13.861792707349805], [-40.13509756252975, -13.855711242216183], [-40.13169985645624, -13.847450370018274], [-40.126436029080814, -13.846901990486415], [-40.12105051201033, -13.848726915859393], [-40.11370419732544, -13.845219983580106], [-40.11446201126816, -13.835576180308124], [-40.12375245046123, -13.833129056913387], [-40.12674010004109, -13.827398971595521], [-40.12528174596716, -13.822795529206504], [-40.11884588994452, -13.820550742544821], [-40.11327230448764, -13.815142569908037], [-40.109192961691846, -13.815611853166777], [-40.10739461971997, -13.819726493085476], [-40.10786292706839, -13.823293413266331], [-40.11201908153866, -13.82731035752055], [-40.11115433731369, -13.831826727808988], [-40.108399119470874, -13.83302201585376], [-40.1004883529517, -13.832278880733913], [-40.09212053498521, -13.83844198838008], [-40.08874995585041, -13.837536738774492], [-40.08615699041029, -13.832931699110583], [-40.081352661047696, -13.830705132730913], [-40.07743464926246, -13.825799028183138], [-40.058101778931174, -13.826448203613861], [-40.05506965088529, -13.83160780117322], [-40.05673630214709, -13.838965147837621], [-40.05551063209598, -13.84182564195099], [-40.0406697541344, -13.843079210903449], [-40.03708195879626, -13.847097342763844], [-40.039783347439524, -13.85980954270901], [-40.03349844153996, -13.868849161692712], [-40.03913853277223, -13.879474505633347], [-40.037402463684344, -13.884174941276733], [-40.03768515983341, -13.890481687578093], [-40.0352385943851, -13.89494482135573], [-40.03684188999051, -13.901123448040902], [-40.03525111089541, -13.907823863696384], [-40.03711733661602, -13.910058137430536], [-40.04159154558091, -13.91142190162352], [-40.04583282956711, -13.909104248990127], [-40.046743397174374, -13.9048112566084], [-40.04561403195136, -13.899518422910417], [-40.04810907722059, -13.895370528156922], [-40.04814032677573, -13.889673116211718], [-40.05039164905052, -13.887475434008675], [-40.06785506758356, -13.884621847263324], [-40.081163883966006, -13.888315709830097], [-40.08514414329558, -13.892417540457762], [-40.08921607703239, -13.893368618086583], [-40.092524692437046, -13.891223420530709], [-40.09444713884735, -13.884279595398349], [-40.0972050744049, -13.881324227958912], [-40.10169858848409, -13.880774498995235], [-40.10631315296675, -13.877966244342844], [-40.11702634873213, -13.880366992844019], [-40.12588822098477, -13.875679202190957], [-40.13234569466603, -13.879191295787386], [-40.13591733132128, -13.878869338821254], [-40.138271217977625, -13.876849304528594], [-40.139653758265894, -13.871149352884833], [-40.14634547886463, -13.869217535153009], [-40.14809111443684, -13.865457618038379]]], [[[-40.098526481165, -13.691537691967806], [-40.09752807492925, -13.682366694819489], [-40.094809699896196, -13.680706791876762], [-40.09129285152003, -13.681279996863053], [-40.08888921009058, -13.685286150703506], [-40.0880106200292, -13.692106114733901], [-40.08911220050414, -13.695297690305729], [-40.09441926408477, -13.696770756599769], [-40.09745120372792, -13.69491852143476], [-40.098526481165, -13.691537691967806]]], [[[-40.23177798607274, -13.865024600190399], [-40.227431545757106, -13.86271793278771], [-40.22411987186973, -13.862892599930362], [-40.219330777788244, -13.865954490179476], [-40.218733602873456, -13.870330116288281], [-40.22247011923694, -13.873157821331844], [-40.2315274461938, -13.872726166518312], [-40.23405465568824, -13.869043289941496], [-40.23177798607274, -13.865024600190399]]]]}, "properties": {}}