{"type": "Feature", "properties": {"city": "Faisalabad", "country": "Pakistan", "real_area": 161.9}, "geometry": {"type": "MultiLineString", "coordinates": [[[73.1419472584976, 31.3773300297652], [73.1364669459887, 31.3792434359212], [73.1357567705707, 31.3841293833375], [73.1405276626922, 31.387102013516], [73.1398177060064, 31.3919883298524], [73.1445893407339, 31.3949610081325], [73.1500707006206, 31.3930469604296], [73.1507799020441, 31.3881605552842], [73.1562604939318, 31.3862463780471], [73.1610324078773, 31.3892182850507], [73.1603239618011, 31.3941047788138], [73.1650966183616, 31.3970767335006], [73.1643883915574, 31.4019635958705], [73.1589067526138, 31.4038784150452], [73.158197989456, 31.4087655573955], [73.1527155820343, 31.4106802468941], [73.1479424615847, 31.4077074730804], [73.1424598096377, 31.4096217118006], [73.1417497541407, 31.4145090451593], [73.1465231063551, 31.4174822286029], [73.1520062823289, 31.4155676690248], [73.1567801458946, 31.4185404902703], [73.1560710654441, 31.4234282806766], [73.1608456722959, 31.4264011491305], [73.1663291274092, 31.4244858175874], [73.1711042453355, 31.4274583234827], [73.1703961405573, 31.4323465704313], [73.1649121615395, 31.4342622230898], [73.1642035199918, 31.4391507495635], [73.1689796139262, 31.4421237117632], [73.1744641168878, 31.440207737927], [73.1792407219052, 31.4431803371492], [73.1785330567018, 31.4480693196895], [73.1833104055199, 31.4510419652395], [73.1826029603006, 31.4559313153332], [73.1873810530897, 31.4589040069872], [73.1928663579595, 31.4569869390723], [73.1976449615579, 31.4599592671785], [73.1969384936452, 31.4648490725944], [73.1914526649158, 31.4667664620067], [73.1907456600584, 31.4716565467221], [73.1852590609317, 31.4735738058908], [73.1804799907894, 31.4706006588846], [73.1749931455308, 31.4725174662094], [73.1702145867697, 31.4695439555382], [73.1647274957459, 31.4714603109784], [73.1640184389692, 31.4763504982787], [73.1585305778049, 31.4782667228826], [73.1537522981867, 31.4752924390642], [73.1544621122259, 31.4704023403085], [73.1496845770729, 31.467428102761], [73.1441969956194, 31.4693435543105], [73.1394199726929, 31.4663689535519], [73.1339321465749, 31.4682839530956], [73.1332208182665, 31.4731738741868], [73.127732222506, 31.4750887423729], [73.1229554804261, 31.4721133687462], [73.123667565741, 31.4672235367749], [73.1188915681121, 31.4642482100483], [73.1134032537658, 31.4661623054598], [73.1086277692079, 31.4631866159767], [73.1031392112978, 31.465100259262], [73.1024256122269, 31.4699899124186], [73.1072013278739, 31.4729660118263], [73.1064879474634, 31.4778560325764], [73.1112644077223, 31.48083217908], [73.1105512461029, 31.4857225672619], [73.1153284511446, 31.4886987606374], [73.1146155084475, 31.4935895160893], [73.1091246033153, 31.4955039887323], [73.1084111220996, 31.5003950219021], [73.102919447029, 31.502309362207], [73.0981417795082, 31.4993323489065], [73.0988560182098, 31.4944414053186], [73.0940790958034, 31.4914644388619], [73.0885877037754, 31.4933780059837], [73.0878727076739, 31.4982688597979], [73.0823805460414, 31.5001822942344], [73.0816650109873, 31.505073425334], [73.0761720796767, 31.5069867268398], [73.0754560054754, 31.5118781350234], [73.0699623044133, 31.5137913033532], [73.0651852047693, 31.5108127434748], [73.0659020365234, 31.5059214254881], [73.0611256823144, 31.5029429128456], [73.0618427321486, 31.4980519621001], [73.0570671232032, 31.4950734969175], [73.0577843909865, 31.4901829135749], [73.063276510602, 31.4882707050329], [73.068051889515, 31.4912487599995], [73.0735437669689, 31.4893360985579], [73.0742597386142, 31.484445702122], [73.0694845898547, 31.4814680573276], [73.0639932392688, 31.4833803988302], [73.0592186052827, 31.4804023915612], [73.0537270127353, 31.4823142802981], [73.0489528938034, 31.4793359107067], [73.0496705970928, 31.4744460626552], [73.0551616626125, 31.4725344936613], [73.0558788269355, 31.4676449229209], [73.0613691239066, 31.46573322111], [73.0620857494575, 31.4608439278821], [73.0573128344691, 31.4578664268932], [73.0518230642449, 31.4597778089514], [73.0470506640126, 31.4567999461173], [73.0415606524266, 31.4587108758116], [73.0367887672309, 31.4557326512844], [73.0375071227995, 31.4508439073809], [73.0327359818403, 31.4478657316554], [73.0272462563652, 31.449775889524], [73.0224756307167, 31.4467973524675], [73.0169856648135, 31.4487070580279], [73.0122155547559, 31.4457281597927], [73.0129356390422, 31.4408399664435], [73.0081662730374, 31.4378611176527], [73.0088865739476, 31.432973292988], [73.0143754853631, 31.4310642258187], [73.0191446230642, 31.4340426641826], [73.0246332944501, 31.432133144973], [73.0253523011238, 31.427245506669], [73.0205833918478, 31.4242674786883], [73.0213026152959, 31.4193802092396], [73.0165344495724, 31.4164022309534], [73.0172538896647, 31.4115153305209], [73.0227407404236, 31.4096063172348], [73.0234596421508, 31.404719694797], [73.0186924480259, 31.4017421767947], [73.0194115663423, 31.3968559236193], [73.0146451152637, 31.3938784557709], [73.0153644500394, 31.3889925720184], [73.0208494813656, 31.387084064939], [73.0256157042703, 31.3900611224514], [73.0248971240503, 31.3949470973462], [73.0296640898367, 31.3979242050258], [73.0351494074111, 31.3960149274989], [73.0399168876259, 31.3989916748577], [73.0454019647006, 31.3970819461159], [73.0501699590642, 31.4000583330019], [73.0556547952732, 31.3981481530844], [73.0604233035058, 31.4011241793455], [73.065907898483, 31.3992135482915], [73.0666234596146, 31.394327210738], [73.061855180698, 31.3913515945835], [73.0563711113063, 31.3932619059089], [73.0516033459734, 31.390285929187], [73.0523198791561, 31.3854000512928], [73.0475528565524, 31.3824241243331], [73.0482696067543, 31.3775386158809], [73.0537526250958, 31.3756289438263], [73.0544688379002, 31.3707437143718], [73.059951089976, 31.3688339112964], [73.0606667655761, 31.3639489610399], [73.0559009432963, 31.3609739043154], [73.0566168359352, 31.3560893238313], [73.0620977968317, 31.3541797096645], [73.0628131525344, 31.3492954086633], [73.058048301213, 31.346320812246], [73.058763873899, 31.3414368812625], [73.0642435442075, 31.3395274563287], [73.0649585802251, 31.334643805113], [73.0704374849642, 31.3327342500334], [73.0752018781263, 31.3357080264373], [73.080680541598, 31.3337980216193], [73.0854454469017, 31.3367714383708], [73.0847319181856, 31.3416552698346], [73.0792527304449, 31.3435655945512], [73.0785386652976, 31.3484497060131], [73.0730587115824, 31.3503599006855], [73.0723441098107, 31.3552442919457], [73.0668633900482, 31.3571543563298], [73.0661482514589, 31.3620390271881], [73.0709145867404, 31.3650137238788], [73.0763958312902, 31.3631033396763], [73.081162679294, 31.3660776761814], [73.0866436821453, 31.3641668416676], [73.0914110425918, 31.3671408178356], [73.0906976300124, 31.3720260384151], [73.0954657327051, 31.3750000639675], [73.1009470179212, 31.3730884590345], [73.1057156327821, 31.3760621238893], [73.1050031927022, 31.3809478035032], [73.1097725499845, 31.3839215173103], [73.1152541168408, 31.382009141669], [73.1159658021187, 31.3771233725964], [73.1214466017121, 31.3752108669722], [73.1221577504996, 31.3703253777892], [73.1173888544037, 31.3673524835408], [73.1181002214578, 31.3624673636756], [73.1235797300716, 31.3605550487974], [73.1283483953944, 31.3635275333327], [73.1338276606827, 31.361614768475], [73.1385968370439, 31.3645868921258], [73.1440758586417, 31.3626736773285], [73.148845545761, 31.3656454399438], [73.1481364426525, 31.3705308269204], [73.1529068718775, 31.3735026378882], [73.1521979876491, 31.3783883939546], [73.1467179192306, 31.3803022503163], [73.1419472584976, 31.3773300297652]], [[73.03325430154, 31.3734957232533], [73.0339720228317, 31.3686106751998], [73.039454756144, 31.3667017732892], [73.0442202938006, 31.3696776000566], [73.0435033267094, 31.374562738906], [73.0380200677335, 31.3764719602252], [73.03325430154, 31.3734957232533]]]}}