{"type": "Feature", "properties": {"city": "Cuiab\u00e1", "country": "Brazil", "real_area": 239.93}, "geometry": {"type": "MultiLineString", "coordinates": [[[-54.6601528344029, -16.4616549463869], [-54.6561646798649, -16.4587483636794], [-54.6569452646058, -16.4538511163808], [-54.6617138881943, -16.4518606132929], [-54.6657018565093, -16.4547672805801], [-54.6649213874646, -16.4596643663695], [-54.6601528344029, -16.4616549463869]], [[-55.9598985912784, -15.6254975496259], [-55.9646076615107, -15.623493095082], [-55.9685547163346, -15.6263907093494], [-55.9677929010126, -15.6312926923116], [-55.9630839122772, -15.6332972376084], [-55.962322013455, -15.6381991086277], [-55.9576127411479, -15.6402036277575], [-55.9536652862153, -15.6373061851907], [-55.9489556489862, -15.6393105873734], [-55.9481935481035, -15.6442125227094], [-55.9434836274637, -15.6462168984287], [-55.9395357263756, -15.6433192482649], [-55.9402979458029, -15.6384171365573], [-55.9363499984759, -15.6355191071682], [-55.9371122529618, -15.6306167068297], [-55.9418223362452, -15.6286125122258], [-55.94577008373, -15.6315106273922], [-55.9504798023393, -15.6295063158324], [-55.9512418548102, -15.6246039797651], [-55.9472943072215, -15.6217057788338], [-55.9480563947622, -15.6168031544012], [-55.9527659113422, -15.6147989073819], [-55.9567132589806, -15.6176971940656], [-55.9559512899944, -15.6225996420111], [-55.9598985912784, -15.6254975496259]], [[-56.0646339496798, -15.658681282085], [-56.0638734268886, -15.6635806274229], [-56.0591683448522, -15.6655866114489], [-56.0584077384458, -15.6704858451276], [-56.053702371684, -15.6724918038223], [-56.0497575290702, -15.6695984377624], [-56.0450517954215, -15.6716042799471], [-56.0442909866113, -15.676503579177], [-56.0482360302376, -15.679396858816], [-56.0474752566136, -15.6842958685741], [-56.0427693205753, -15.6863017760411], [-56.0420084633489, -15.6912006735378], [-56.0373022427593, -15.6932065551086], [-56.0333567972692, -15.6903134483484], [-56.0286502100984, -15.692319213086], [-56.0247045168729, -15.689425812267], [-56.025465611626, -15.6845265603095], [-56.0301722808561, -15.682520886352], [-56.0309332920264, -15.6776215219967], [-56.0356396768512, -15.6756158221156], [-56.0364006044345, -15.6707163455633], [-56.0324552659513, -15.6678223916532], [-56.0277487990518, -15.6698280006422], [-56.023803212866, -15.6669337528521], [-56.0245642943645, -15.6620338097883], [-56.0206186613282, -15.6591391818982], [-56.0213797779841, -15.6542389497098], [-56.0260864089478, -15.6522335225991], [-56.0268474420331, -15.6473331786114], [-56.0229019628833, -15.6444380845574], [-56.0181952499303, -15.6464434206818], [-56.0142495232654, -15.6435480329572], [-56.009542444166, -15.6455532525434], [-56.0055964701408, -15.6426575711785], [-56.0008890250696, -15.6446626741682], [-56.0001276358732, -15.6495635494055], [-55.9954199067768, -15.6515686265785], [-55.9914734851102, -15.6486727376707], [-55.9922349929708, -15.6437716855279], [-55.9882885246895, -15.6408754169736], [-55.9835803481991, -15.6428802865946], [-55.9828187216944, -15.647781515554], [-55.9867653903191, -15.6506776980808], [-55.9860037989274, -15.6555786381516], [-55.9812954202717, -15.6575835724489], [-55.9805337453533, -15.6624844002467], [-55.9758250828912, -15.6644893082428], [-55.9718780137413, -15.6615932978081], [-55.9726398072842, -15.6566922933301], [-55.9686926916593, -15.6537959032149], [-55.9639835823436, -15.6558006035955], [-55.9600362201634, -15.6529039198828], [-55.9607981673983, -15.6480024498337], [-55.965507358224, -15.6459978400629], [-55.9662692219576, -15.6410962577372], [-55.9709781291675, -15.6390916217186], [-55.9717399093952, -15.6341899273173], [-55.9764485329309, -15.6321852652394], [-55.9772102296485, -15.6272834589633], [-55.9819185694517, -15.6252787710146], [-55.9826801826547, -15.6203768530647], [-55.9787335746739, -15.6174794463042], [-55.9740251532572, -15.6194840433698], [-55.9700782985686, -15.6165863432708], [-55.9708400654812, -15.6116839602924], [-55.9755485684831, -15.6096794541412], [-55.9763102518921, -15.6047769597547], [-55.9810184711911, -15.6027724280826], [-55.984964925447, -15.6056702998069], [-55.9896727793117, -15.6036656517265], [-55.993618986675, -15.6065632301916], [-55.9983264749306, -15.6045584657612], [-56.0022724352462, -15.6074557509364], [-56.0069795577179, -15.6054508702144], [-56.0109252708311, -15.6083478620691], [-56.010164061998, -15.6132496487156], [-56.005457021373, -15.6152546205809], [-56.0046957289969, -15.6201562960919], [-55.9999884043182, -15.6221612426787], [-55.9992270284034, -15.6270628068533], [-55.9945194197292, -15.6290677279732], [-55.99375796028, -15.6339691806103], [-55.9977042281639, -15.6368655351795], [-56.0024117550508, -15.634860523109], [-56.003173095836, -15.6299592474249], [-56.0078803386835, -15.6279542098068], [-56.0086415959245, -15.6230528226534], [-56.0133485546742, -15.6210477596763], [-56.0172941742742, -15.6239439927771], [-56.0165330357269, -15.6288452028205], [-56.0204786085342, -15.6317410563611], [-56.0251851192042, -15.6297357859223], [-56.0291304444667, -15.6326313459018], [-56.0283694597923, -15.6375320901939], [-56.0323147381756, -15.6404272704212], [-56.0370208004178, -15.6384217925122], [-56.037781666349, -15.6335212255284], [-56.0424874441434, -15.6315157225027], [-56.0432482264911, -15.6266150443222], [-56.0393033498022, -15.6237196917859], [-56.0400641673248, -15.618818725165], [-56.0447697427784, -15.6168132885199], [-56.0455304767185, -15.6119122110359], [-56.0415857539629, -15.6090163927681], [-56.0423465230791, -15.60411502713], [-56.0470518961931, -15.6021096572467], [-56.0509964180056, -15.6050055615854], [-56.0557014243613, -15.6030000758101], [-56.0564619911237, -15.5980987772028], [-56.0525176703079, -15.5952027868057], [-56.0478125817279, -15.5972081810793], [-56.0438680129066, -15.594311897319], [-56.0446287336184, -15.5894101332841], [-56.0406841178122, -15.5865134702245], [-56.0359785804229, -15.5885186571714], [-56.0320337168281, -15.5856217008491], [-56.0273278129994, -15.587626771944], [-56.0265668548217, -15.5925288907911], [-56.0218606667068, -15.5945339373612], [-56.0210996249729, -15.5994359456758], [-56.0163931526298, -15.6014409675327], [-56.012447640091, -15.5985438897655], [-56.0077408016872, -15.6005487954968], [-56.0037950418536, -15.5976514244486], [-56.0045563209546, -15.5927490618137], [-56.0092632412206, -15.5907442473377], [-56.0100244367851, -15.5858417740341], [-56.014731072969, -15.5838369348179], [-56.0154921849928, -15.5789343510467], [-56.0115467795113, -15.5760364293238], [-56.0123079266734, -15.5711335580551], [-56.0083624744427, -15.5682352574881], [-56.0091236567386, -15.5633320988759], [-56.0138301725969, -15.5613274180358], [-56.0145912713587, -15.5564241494233], [-56.0106459729308, -15.5535253844567], [-56.0114071068275, -15.5486218287878], [-56.0161134204838, -15.5466172153377], [-56.0168744708475, -15.5417135500028], [-56.0215805003791, -15.5397089126201], [-56.0223414672055, -15.5348051378204], [-56.0270472125543, -15.5328004766935], [-56.0309919090752, -15.5356994986178], [-56.0356972881427, -15.5336947221008], [-56.0364580527246, -15.5287910154988], [-56.0411631474493, -15.5267862155336], [-56.0451073954743, -15.5296850302919], [-56.044346749615, -15.5345885593438], [-56.0482909506602, -15.5374869955723], [-56.0475303399721, -15.5423902379255], [-56.0514744940134, -15.5452882955014], [-56.0561790577821, -15.5432831964777], [-56.056939549718, -15.5383801317845], [-56.0616438288962, -15.5363750094469], [-56.0655875338477, -15.5392728598568], [-56.070291446048, -15.5372676223622], [-56.0710517356213, -15.5323646264941], [-56.0757553630715, -15.5303593659815], [-56.0796986185415, -15.5332570092613], [-56.0789384477694, -15.5381598272237], [-56.08288165601, -15.5410570916929], [-56.0821215204488, -15.5459596228731], [-56.0860646814359, -15.5488565084093], [-56.08530458109, -15.5537587526532], [-56.0892476947997, -15.556655259134], [-56.0939507074885, -15.5546496073352], [-56.0947106889937, -15.5497475411274], [-56.0907677766558, -15.5468509486773], [-56.0915277933861, -15.5419485955123], [-56.0962306036088, -15.5399430128966], [-56.1001733145215, -15.5428396913033], [-56.0994134166416, -15.5477418663642], [-56.1033560801762, -15.5506381656978], [-56.1025962175314, -15.5555400537809], [-56.1065388336639, -15.5584359739193], [-56.111241110891, -15.5564300920183], [-56.1151834780039, -15.5593257189402], [-56.1198853872397, -15.5573197220758], [-56.123827505179, -15.560215055751], [-56.1230679155727, -15.5651163001453], [-56.1270099859614, -15.5680112543636], [-56.1262504316187, -15.572912211431], [-56.1215486879632, -15.5749183926285], [-56.1207890499596, -15.5798192405796], [-56.1247312745355, -15.5827137289739], [-56.1239716717945, -15.5876142893115], [-56.1279138488101, -15.5905083979527], [-56.1326154267715, -15.5885020325488], [-56.1365573543645, -15.5913958476648], [-56.1357979058392, -15.5962959418301], [-56.1397397857857, -15.5991893770018], [-56.1389803725417, -15.6040891832261], [-56.1429222048176, -15.6069822383317], [-56.1421628268593, -15.6118817564617], [-56.1374614976518, -15.6138883979373], [-56.1367020360054, -15.6187878062864], [-56.1320004212046, -15.6207944243673], [-56.1280581851523, -15.6179015421825], [-56.1233562019567, -15.6199080448494], [-56.1225965376773, -15.6248075215272], [-56.1265389755376, -15.6277003172327], [-56.1257793465276, -15.6325995054178], [-56.1297217368082, -15.6354919207792], [-56.1344235542574, -15.633485234482], [-56.1351830643084, -15.6285862246276], [-56.1398845961782, -15.6265795146669], [-56.1406440225399, -15.6216803946981], [-56.1453452687726, -15.6196736612621], [-56.1492870056355, -15.622565955871], [-56.1539878831269, -15.6205591071384], [-56.1547471067972, -15.6156600558111], [-56.1508055719789, -15.6127676746564], [-56.1515648309493, -15.6078683350611], [-56.1562655057355, -15.6058615552389], [-56.1602068384559, -15.6087540229268], [-56.1594476984929, -15.6136531838989], [-56.1633889833945, -15.6165452712607], [-56.1680892060746, -15.6145382842182], [-56.1688482270108, -15.6096393019576], [-56.1735481637368, -15.6076322920313], [-56.1743071009518, -15.6027332003946], [-56.1790067516664, -15.6007261677724], [-56.179765605156, -15.5958269669603], [-56.1844649698017, -15.5938199118304], [-56.1884053976313, -15.5967119651687], [-56.1876466632071, -15.6016109870449], [-56.182947381883, -15.6036181345236], [-56.1821885637238, -15.6085170472924], [-56.186129145959, -15.6114086336313], [-56.1853703631347, -15.6163072582037], [-56.1806708790046, -15.6183144753304], [-56.1799120124441, -15.6232129904619], [-56.1838527490842, -15.626104109563], [-56.1885521498795, -15.6240968002318], [-56.1893108973645, -15.6191984640089], [-56.1940100119603, -15.6171911319283], [-56.1979502956593, -15.6200820438223], [-56.197191667269, -15.6249802010484], [-56.2011319028767, -15.6278707322185], [-56.2003733098399, -15.6327686009219], [-56.1956743620859, -15.634776117477], [-56.1917339239386, -15.6318856731026], [-56.1870346065065, -15.6338930746064], [-56.1830939178575, -15.6310023362123], [-56.17839423092, -15.6330096226059], [-56.177635315956, -15.6379077394808], [-56.1815762070002, -15.6407983911062], [-56.1808173273689, -15.6456962192133], [-56.1847581704362, -15.6485864899584], [-56.1894576907062, -15.6465790194125], [-56.193398283301, -15.6494689960294], [-56.1926395581023, -15.6543663563145], [-56.1965801026341, -15.6572559518614], [-56.1958214127869, -15.6621530230527], [-56.1997619092318, -15.6650422374087], [-56.1990032547404, -15.6699390193537], [-56.1943039846844, -15.6719467658892], [-56.1935452464287, -15.676843437397], [-56.1888456900699, -15.6788511604043], [-56.1880868680539, -15.6837477212744], [-56.1920277215068, -15.6866363802484], [-56.1912689348403, -15.6915326514547], [-56.1865691756103, -15.6935404425176], [-56.1826281196775, -15.6906518705974], [-56.1833870254496, -15.6857554205654], [-56.1794459215204, -15.6828664671777], [-56.1802048626322, -15.6779697275021], [-56.1849047885823, -15.6759621200148], [-56.1856636459434, -15.6710652696333], [-56.1817226964452, -15.6681758479489], [-56.1770226871776, -15.6701833636006], [-56.1762637107306, -15.6750803927675], [-56.1715634153619, -15.6770878846758], [-56.1708043551738, -15.6819848030689], [-56.1661037737615, -15.6839922710456], [-56.1653446298364, -15.6888890784644], [-56.160643762438, -15.6908965223215], [-56.1567019558113, -15.6880070671291], [-56.1520007193694, -15.6900143951331], [-56.1480586628187, -15.6871246455751], [-56.148818044819, -15.6822274811225], [-56.1448759405206, -15.6793373503724], [-56.1456353578214, -15.6744398963567], [-56.1416932057993, -15.6715493845352], [-56.1369914344872, -15.6735564135384], [-56.136231898188, -15.6784540459184], [-56.1315298412368, -15.6804610505595], [-56.1307702212391, -15.6853585716928], [-56.1347127771765, -15.6882489098936], [-56.1339531924639, -15.6931461413516], [-56.1378957007542, -15.6960360983773], [-56.137136151331, -15.7009330400073], [-56.1324339746235, -15.7029402028648], [-56.1316743414953, -15.7078370327828], [-56.1269718791765, -15.7098441707409], [-56.1230289671077, -15.7069543874891], [-56.1237887192154, -15.702057379391], [-56.119845759576, -15.6991672148602], [-56.1206055469579, -15.694269916822], [-56.1253081750145, -15.6922629614696], [-56.1260678787064, -15.6873655517836], [-56.1221250733064, -15.6844749193055], [-56.1174223624236, -15.6864817833075], [-56.113479307715, -15.6835908565816], [-56.114239165632, -15.6786929791211], [-56.1189419593127, -15.6766862065011], [-56.1197017335506, -15.6717882176576], [-56.1157588330528, -15.6688968233302], [-56.1165186425571, -15.6639985451372], [-56.1212212336144, -15.661991839434], [-56.1219809594408, -15.6570934501912], [-56.1180382131547, -15.6542015884998], [-56.1187979742485, -15.6493029101929], [-56.1148551804352, -15.646410667932], [-56.1101524238369, -15.6484171905518], [-56.1093925438132, -15.6533160469852], [-56.1046895019097, -15.6553225452693], [-56.1039295382232, -15.6602212907174], [-56.0992262110721, -15.6622277644775], [-56.0984661637271, -15.6671263987396], [-56.0937625513863, -15.6691328477874], [-56.093002420387, -15.6740313706628], [-56.0882985229141, -15.6760377948102], [-56.0843546738927, -15.6731456048103], [-56.0796504088366, -15.6751519126825], [-56.0757063111855, -15.6722594286228], [-56.0764666799277, -15.6673605501686], [-56.0725225350514, -15.6644676855913], [-56.0732829390104, -15.6595685178894], [-56.077987368999, -15.6575623924846], [-56.0787476893288, -15.6526631133923], [-56.0834518343746, -15.6506569631405], [-56.0842120710707, -15.6457575728586], [-56.0802682815777, -15.6428641550512], [-56.0810285534973, -15.63796447594], [-56.0770847167504, -15.6350706779621], [-56.0723804067983, -15.6370766454591], [-56.071620016037, -15.6419765023222], [-56.0755640540645, -15.6448702139414], [-56.0748036985168, -15.6497697819957], [-56.0700991861046, -15.6517758161194], [-56.069338746933, -15.6566752729159], [-56.0646339496798, -15.658681282085]], [[-56.1674760851863, -15.6468202496029], [-56.1635347416346, -15.6439293906894], [-56.1588341134541, -15.6459365152594], [-56.1580749119907, -15.6508345906203], [-56.1620164577399, -15.6537253627795], [-56.16671700276, -15.6517181463272], [-56.1674760851863, -15.6468202496029]], [[-56.1057790062586, -15.5633375748707], [-56.1010764438455, -15.565343433834], [-56.100316532804, -15.5702449256661], [-56.1042593030506, -15.5731403803735], [-56.1089617828036, -15.5711344293575], [-56.1097215749651, -15.5662331156917], [-56.1057790062586, -15.5633375748707]], [[-56.0614500672456, -15.6508881088084], [-56.057505579703, -15.6479941897389], [-56.0528003330802, -15.6499999914306], [-56.052039656284, -15.6548998033696], [-56.055984344908, -15.6577936360951], [-56.0606895092519, -15.6557877432205], [-56.0614500672456, -15.6508881088084]], [[-56.0259461390381, -15.6248347530777], [-56.0220007669204, -15.621938813468], [-56.0227618219093, -15.6170374922244], [-56.0188164029605, -15.6141411731066], [-56.0195774931, -15.6092395636174], [-56.0242838834799, -15.6072344504872], [-56.0250448900622, -15.6023327301317], [-56.02975099617, -15.6003275922075], [-56.0336960136549, -15.6032240833214], [-56.0329351257959, -15.6081256263627], [-56.0368800963729, -15.6110217380728], [-56.0361192436798, -15.6159229929807], [-56.0314133016717, -15.6179283135185], [-56.0306523654061, -15.6228294574952], [-56.0259461390381, -15.6248347530777]], [[-56.2084011386226, -15.6659233875938], [-56.2044608929277, -15.663034467533], [-56.2052194636505, -15.6581375753513], [-56.2099181609292, -15.6561297823235], [-56.2138582039318, -15.6590187893884], [-56.2130997523528, -15.6639155024722], [-56.2084011386226, -15.6659233875938]], [[-56.1033129226832, -15.6925020932136], [-56.0993694172175, -15.6896109589796], [-56.10012947773, -15.6847130151398], [-56.0961859248664, -15.6818215000071], [-56.0969460206245, -15.6769232665731], [-56.1016495503404, -15.6749167262094], [-56.1055929016398, -15.6778083280004], [-56.1048329247925, -15.6827063834919], [-56.1087762286556, -15.685597604436], [-56.1080162870637, -15.690495370313], [-56.1033129226832, -15.6925020932136]], [[-54.6315372679717, -16.4735970754426], [-54.6275482957144, -16.4706900692429], [-54.6283292758825, -16.4657927847848], [-54.6330991126883, -16.4638026677056], [-54.6370878990416, -16.4667097584254], [-54.636307034499, -16.4716068816983], [-54.6315372679717, -16.4735970754426]]]}}