{"type": "Feature", "geometry": {"type": "MultiPolygon", "coordinates": [[[[17.21068502947498, -22.555053417329713], [17.21366444149093, -22.5516347827451], [17.22652296280707, -22.549339312488605], [17.23171361322061, -22.549896297370044], [17.23787298263817, -22.545109964168333], [17.244381098166627, -22.549189317953513], [17.247447021443513, -22.54917332474713], [17.25183486369695, -22.54217737820842], [17.258351590775476, -22.540915091029017], [17.263383789503727, -22.534005903500404], [17.266725115216467, -22.532550191552627], [17.272025583038136, -22.532708164918315], [17.27935540393897, -22.537491909794856], [17.286207050905503, -22.535521302927965], [17.290629137508926, -22.5316346984099], [17.295881690418486, -22.5306451111765], [17.300394537826534, -22.531519668015125], [17.3098855572165, -22.530045580107814], [17.314996300344777, -22.53200284593996], [17.316782974423656, -22.534549112046275], [17.314684539479494, -22.544436792289503], [17.298735403932795, -22.55105297190923], [17.29908198245316, -22.559371961437506], [17.296073649052083, -22.562384611082155], [17.284734833721593, -22.56441715519613], [17.274547787551096, -22.562848034779705], [17.272878761677234, -22.558737579624175], [17.276684205197665, -22.551593828383528], [17.272275100383386, -22.54568950200625], [17.267791722484983, -22.546641947435976], [17.26272430061576, -22.55202374324192], [17.246938476290143, -22.55048811319079], [17.24369748504964, -22.556098189420712], [17.236682281099633, -22.560626393191516], [17.23902275877097, -22.569789195068687], [17.236040398707768, -22.57458521137828], [17.23517643544728, -22.580767757021242], [17.22540498938916, -22.586090661694417], [17.220274025125462, -22.586688366968684], [17.217573002875348, -22.58456564189603], [17.21068502947498, -22.555053417329713]]], [[[16.988192955145166, -22.520700387487043], [16.985925616265842, -22.515582500308323], [16.989116054196675, -22.503185487916646], [16.992096928674446, -22.499678678952485], [16.998547850598268, -22.498411709262463], [17.001947395660878, -22.49163355738643], [16.995308746516873, -22.481387736500338], [16.990900036842657, -22.47803196505507], [16.990639713921663, -22.47521549883595], [16.99247869132672, -22.472827277613757], [17.005909940643896, -22.47222993850188], [17.00886997408121, -22.478059904128912], [17.009439755025948, -22.485175917320582], [17.012934940856805, -22.487424297613106], [17.02164134645558, -22.482853063834337], [17.02900143089745, -22.486682029678622], [17.035556724698864, -22.484025817034027], [17.049152789914185, -22.48511083655163], [17.05531514395574, -22.47755834721375], [17.064795843089126, -22.477199376274815], [17.069621837091265, -22.472656448072676], [17.073256793897592, -22.46085015717845], [17.07138085052288, -22.45835189747985], [17.065990097232483, -22.4569485220225], [17.064263690351424, -22.452952776702624], [17.066178732443085, -22.449268944255813], [17.070899800176598, -22.446769507050497], [17.071759400921245, -22.443442011989617], [17.066532718356783, -22.437956429178662], [17.06261489694323, -22.416761562517753], [17.054134434821034, -22.411850619615446], [17.05640919663195, -22.399364252128542], [17.052389216125974, -22.39445784352221], [17.051368303993886, -22.389582565669265], [17.05364366709168, -22.386690082093963], [17.060841548453087, -22.385013643125184], [17.062777756876166, -22.378976895667837], [17.06508060081952, -22.37701050765412], [17.07266931757563, -22.375005694493655], [17.089821880200002, -22.37569975775543], [17.092246923354818, -22.378989809015465], [17.091015684200464, -22.384729757985436], [17.084901473292277, -22.387095861500978], [17.076952858871266, -22.393037738246907], [17.075778033477064, -22.395914461829484], [17.077016995012734, -22.398764150863496], [17.08677160580504, -22.406971932252258], [17.088431152359654, -22.41487313811222], [17.085017529868843, -22.422907666073748], [17.088560121107356, -22.427930913222596], [17.0907183128681, -22.440648222023544], [17.08766488390975, -22.450194827858116], [17.080029023620824, -22.45496233629188], [17.07870414798809, -22.457784118368565], [17.082073893385456, -22.468517970038196], [17.086419043987842, -22.47383534685269], [17.085512226241, -22.477411312720257], [17.080737684579084, -22.48094476998597], [17.08057356536139, -22.486511231429912], [17.085541745626585, -22.490712173191348], [17.087802202028826, -22.49699299158418], [17.092558737265104, -22.502230792778267], [17.091926842581408, -22.50893612670116], [17.08489658974283, -22.51493084896887], [17.084940892469564, -22.52554231166882], [17.08814996239975, -22.52850659716975], [17.097621631542452, -22.526920869071475], [17.10200926568589, -22.528221504101], [17.103232411679322, -22.532812812108276], [17.10118671440742, -22.54052761497388], [17.10551745974324, -22.55102349277136], [17.11186678326086, -22.552888554321772], [17.118646020322455, -22.560513645577064], [17.12791174715713, -22.564269104131352], [17.130078740226505, -22.567685819143595], [17.128703814577886, -22.57506611398405], [17.130308411723398, -22.578117849158208], [17.137965764388127, -22.579217922386224], [17.14226412270776, -22.582540356111192], [17.14839959313574, -22.582363227943553], [17.152393158242496, -22.58587363541646], [17.15269457372888, -22.589327353629887], [17.143050660702148, -22.596025262250784], [17.140232606609025, -22.59493640238557], [17.134419232341273, -22.587958625376125], [17.119881872443205, -22.590798342635793], [17.118218833905527, -22.595179755738894], [17.123108952981816, -22.60280963187304], [17.122141473641214, -22.606593311378873], [17.116860417808933, -22.611429550806665], [17.120165961777865, -22.61940615924004], [17.11917006400988, -22.62363514382799], [17.11517399023304, -22.62525042448197], [17.10974146427778, -22.625040518336213], [17.099472473194616, -22.63325065034325], [17.09037631717185, -22.63502922447779], [17.081582560330396, -22.640034305590564], [17.073859706784905, -22.64036839167511], [17.071003494498243, -22.63820880588418], [17.065277749178456, -22.625828641015087], [17.057485992115478, -22.62192659013328], [17.052436523999184, -22.613957863062225], [17.04853468089181, -22.611472275620077], [17.04447685058519, -22.60588974323008], [17.04399625913016, -22.59987211677581], [17.048516646837445, -22.595413552209973], [17.048998038656435, -22.59196412334352], [17.046401503161608, -22.589173208081565], [17.039811305762473, -22.590193953278472], [17.036683957954132, -22.58814216645441], [17.03672888096019, -22.573023184163365], [17.032908698609177, -22.565333806186533], [17.029301723940485, -22.564465937186572], [17.021464434494376, -22.567822057825563], [17.011011756852646, -22.5697972125876], [17.00600206987929, -22.573495949038524], [17.002201364323952, -22.57311868824351], [16.99993826480098, -22.57094618067055], [17.00179174194494, -22.560052334003686], [17.005674716605448, -22.553609433761196], [17.005776969429068, -22.54933626814976], [17.003321917851906, -22.54494325664812], [17.00395210464279, -22.54223779588389], [17.010711219272117, -22.538005107222137], [17.019904362942363, -22.540181204442252], [17.026563316095913, -22.53476505973855], [17.026536776433947, -22.5303370230481], [17.02215751228836, -22.528151677614147], [17.014111939134196, -22.530970985926665], [17.009066032168892, -22.528035532714217], [16.99825380370394, -22.53028572834218], [16.992584911713912, -22.526353354686787], [16.988192955145166, -22.520700387487043]], [[17.08382986865506, -22.6150790236137], [17.09067323416891, -22.614165765471075], [17.091946589195746, -22.611420183835637], [17.090924783322237, -22.60841581611126], [17.082847666637168, -22.606459077709705], [17.079950562880903, -22.60752094835585], [17.078885406545467, -22.612719163869475], [17.08382986865506, -22.6150790236137]], [[17.074707294111448, -22.488951339825903], [17.071100391905322, -22.48872938388931], [17.06879237318905, -22.49120500954864], [17.06589063029975, -22.50558607555756], [17.06867855792628, -22.50941927131914], [17.073420771577588, -22.508297930132297], [17.075759773571406, -22.503404102818088], [17.077561426409073, -22.49246721247477], [17.074707294111448, -22.488951339825903]]], [[[17.100074880898728, -22.695738632907712], [17.1182524524323, -22.678646839015112], [17.12213047121538, -22.679348872032573], [17.127349278910497, -22.68622895713016], [17.126561479046302, -22.690932067631344], [17.11992865561314, -22.69744568114533], [17.115514846546684, -22.699411078806776], [17.113537599118608, -22.704176451230644], [17.108776330738497, -22.708540866420396], [17.102452928700693, -22.709789208605457], [17.09917871645148, -22.707915395209803], [17.095920506488987, -22.70060956553787], [17.100074880898728, -22.695738632907712]]], [[[17.052649381202528, -22.69566983785877], [17.0561868159627, -22.692089728140672], [17.067788965653445, -22.69062947570642], [17.07079643446572, -22.69286371683689], [17.07185060667246, -22.69853607779071], [17.06701568103731, -22.703403244308713], [17.05653516493163, -22.70473548230391], [17.051248645632725, -22.700903229506004], [17.052649381202528, -22.69566983785877]]], [[[17.037936590287263, -22.355781146891687], [17.034380999756028, -22.35400514907877], [17.033141851807386, -22.348486789041765], [17.03394595673345, -22.339983331853766], [17.037475125066123, -22.337418605947164], [17.047629178966726, -22.340869149616765], [17.05173739391308, -22.34430461132802], [17.05508654948149, -22.356098086396354], [17.053813632426184, -22.358943510438984], [17.050884292301237, -22.36000921313889], [17.043195713950684, -22.355758890955755], [17.037936590287263, -22.355781146891687]]]]}, "properties": {}}