{"type": "FeatureCollection", "features": [{"type": "Feature", "properties": {"threshold": 70}, "geometry": {"type": "MultiPolygon", "coordinates": [[[[98.89948411490795, 18.700953972295355], [98.90245761630666, 18.711052671201884], [98.91086553997405, 18.711022857564096], [98.9143077159554, 18.70517081676576], [98.9181475706232, 18.70824504325954], [98.91645926838423, 18.716319180179212], [98.9080965244145, 18.717925652000428], [98.90780025932793, 18.722874767555112], [98.90120939796077, 18.733525570508462], [98.90541288627921, 18.736323834632525], [98.91109673028947, 18.730248050831968], [98.9212076340948, 18.731726010685144], [98.92246917836098, 18.73827519410586], [98.92587029510167, 18.74136441479074], [98.92600774430292, 18.74824001334823], [98.93381507391273, 18.749463483590098], [98.93967190396211, 18.755080796728897], [98.93179950841935, 18.766591750118696], [98.94781826708173, 18.78170498769571], [98.94899345705778, 18.789319061877748], [98.94372898189226, 18.8006748774997], [98.95128008330282, 18.805229681971287], [98.94970380349939, 18.810435937926584], [98.95252942530668, 18.815644207029408], [98.94799303450593, 18.819381534864547], [98.95467032179549, 18.833014948139827], [98.95410555400468, 18.838459294109175], [98.95883601904798, 18.842038749627772], [98.96952876846665, 18.84143600058182], [98.9760825753654, 18.84532585803167], [98.98268625390762, 18.841765874227583], [98.98594319449919, 18.847634027745244], [98.99316616489645, 18.848580372740013], [99.01391693644626, 18.845000054490388], [99.02183968205051, 18.850113988537696], [99.02334026725553, 18.837892880319355], [99.02801745422498, 18.836145803815267], [99.03020502107368, 18.83074231749207], [99.03296195082261, 18.83177667217553], [99.03377599034029, 18.83624562468912], [99.0425945130918, 18.83852395079071], [99.03933010542325, 18.819883262374017], [99.03179490594826, 18.809852827891156], [99.03164039552529, 18.80280586190462], [99.0291708664407, 18.800389670983744], [99.0351834900766, 18.795170622693696], [99.04644334618506, 18.798120478763988], [99.05164125394771, 18.788784162361843], [99.06608158617257, 18.78652487568069], [99.06462745468036, 18.794245649381104], [99.0520482212989, 18.797925991849755], [99.0504781169548, 18.814343429981818], [99.05670440303156, 18.823126845431375], [99.06334855599314, 18.82580482425435], [99.06577985272595, 18.825300806525163], [99.06583848142802, 18.820031589803698], [99.06162553547226, 18.81609221835702], [99.06258569325462, 18.812819802133966], [99.06852482202865, 18.81316616830171], [99.07088561323704, 18.817662487911498], [99.07858582462144, 18.813909957960128], [99.0773444367119, 18.808819327871657], [99.07006364956861, 18.809794095367703], [99.06930497219128, 18.804994755362717], [99.07342105280536, 18.80259804297754], [99.07833502677408, 18.788507892996147], [99.08366105326532, 18.787141413332023], [99.08218440785983, 18.781929033521788], [99.08492533333032, 18.778033681024297], [99.08800846921129, 18.7783076745648], [99.0899132189116, 18.782503920408804], [99.08920522676921, 18.793076219522785], [99.09831395381872, 18.792558478058908], [99.10130080254477, 18.796411423261745], [99.10822020831398, 18.79794584521295], [99.10838512094298, 18.793616033433057], [99.1000059765732, 18.785311018377246], [99.10162171267056, 18.775867760401823], [99.09657734959346, 18.773166558640042], [99.09739853191118, 18.769384027927078], [99.10247100739566, 18.768354686525594], [99.10246621223418, 18.760414940473755], [99.09675567898822, 18.7634671425169], [99.09564071921848, 18.768386675661983], [99.09139128948955, 18.768814482006086], [99.08932433874014, 18.76394479548986], [99.09141542881065, 18.759759400277666], [99.08848188154256, 18.755157399016905], [99.09660193478571, 18.74831663690304], [99.10500609419698, 18.75095739468991], [99.11869703474261, 18.749930492361635], [99.12369580702807, 18.754499308732534], [99.12231627220632, 18.759536751272176], [99.12761992248956, 18.762271509158452], [99.13326754725493, 18.758205890937628], [99.1322619794911, 18.75131003870258], [99.12699135228259, 18.749380862683967], [99.127816070625, 18.745392018092158], [99.13451194801418, 18.74515374524846], [99.14006757881417, 18.739591987789257], [99.14859861622622, 18.738893541282152], [99.13800360886547, 18.730715973893417], [99.13635380807179, 18.72299749509219], [99.13983003388283, 18.720899808309873], [99.15356207615507, 18.725700391427193], [99.15798805133193, 18.724981366436133], [99.15124196502094, 18.715968217715837], [99.13205613109649, 18.71685378734401], [99.13184361753578, 18.723762776221132], [99.12948669754577, 18.725608500393832], [99.1231522495154, 18.724058923379445], [99.11941795640378, 18.718450542106122], [99.10067653157832, 18.719352820509595], [99.09295248325655, 18.71601786459811], [99.09230821944996, 18.72274119220468], [99.0952830460547, 18.72484570361061], [99.11252289220468, 18.72294141669121], [99.11716276309724, 18.729063156248873], [99.11171140867341, 18.735533789491548], [99.10289872327351, 18.733212665611283], [99.099492376345, 18.740146567387043], [99.09443816226064, 18.740495804915945], [99.09149472234165, 18.744595067976906], [99.08369295273322, 18.74241416839339], [99.08329081650862, 18.734329660967006], [99.08627720948928, 18.728857034244328], [99.07583476048366, 18.726775341926928], [99.07670488389272, 18.715492628998703], [99.06369908075432, 18.71688045384958], [99.06663584404329, 18.706906303921787], [99.06022574170913, 18.699845595523783], [99.05746070235367, 18.700047046468644], [99.05562749401885, 18.705571414164186], [99.05146924462912, 18.703522656102102], [99.05298748860397, 18.691536834978915], [99.0496049579379, 18.68892239342369], [99.04949822455038, 18.68391329897883], [99.05630040975298, 18.678171363404893], [99.05725408757623, 18.668782983523585], [99.0530691843565, 18.663157911214217], [99.0439816913968, 18.66654609245638], [99.04146902769853, 18.6699195808178], [99.03296067723424, 18.667320758119487], [99.03562776005755, 18.67422880005965], [99.03363307309333, 18.67793293479721], [99.02241647762172, 18.67815955746963], [99.02807917833101, 18.68753668222089], [99.03255641778937, 18.67955797341395], [99.0388395188024, 18.68192744735061], [99.0367791752235, 18.688426877191315], [99.03847376455676, 18.697049201535357], [99.02937260148485, 18.7119994384318], [99.01786253710634, 18.71877810290261], [99.00921689456825, 18.71689608751231], [99.00707699840619, 18.707907904935283], [99.00283974807955, 18.70818871422719], [98.99633188588679, 18.719391787430354], [98.9852183227305, 18.711888181554393], [98.98479851050529, 18.693236971603223], [98.98721118825384, 18.682339965214325], [98.99069630219995, 18.678670766550184], [98.9840360881174, 18.671309315594602], [98.9791312905503, 18.6714298323806], [98.97704306976031, 18.676229720411584], [98.97889536722882, 18.682313282612892], [98.98368580822181, 18.685837331039263], [98.98379704132994, 18.691508545059865], [98.97374551847017, 18.705310402445466], [98.96473045414513, 18.703926331569242], [98.96162225959866, 18.698794615217242], [98.9616121965702, 18.689683132497045], [98.9555778648169, 18.687128065374736], [98.9549388474622, 18.67942582802072], [98.93945094147077, 18.68549367244996], [98.92771346175067, 18.68105556679993], [98.92223133511929, 18.68264380765654], [98.91527636481054, 18.678656608396803], [98.90962530401043, 18.68434226984482], [98.91428707608614, 18.703037431426498], [98.91133743449674, 18.703961276273276], [98.90287286928358, 18.69973833170909], [98.89948411490795, 18.700953972295355]], [[99.11157837150834, 18.741354883832834], [99.11247794708979, 18.736468099746098], [99.11811603630883, 18.738505466396276], [99.11582873495816, 18.742612220552992], [99.11157837150834, 18.741354883832834]], [[99.06913500290443, 18.7814916307582], [99.0726482074071, 18.77611694982529], [99.07638045882688, 18.776714826927297], [99.07493966631654, 18.783912094371168], [99.06913500290443, 18.7814916307582]], [[99.06471559698613, 18.739360181433103], [99.06747002520022, 18.737939908559465], [99.07099988005926, 18.74002002812212], [99.07149019905295, 18.744022378484566], [99.06575248778414, 18.743236814538413], [99.06471559698613, 18.739360181433103]], [[99.04829203663947, 18.715099619330918], [99.0514306485427, 18.71550784744896], [99.0593617234127, 18.726446220919296], [99.06515098224375, 18.725941159374315], [99.0695363409439, 18.72904032940782], [99.06670216281486, 18.73616362174464], [99.05458946037217, 18.736160890914768], [99.05246193565094, 18.727105924403187], [99.04235103249181, 18.726117474134284], [99.04202047093253, 18.71896531368325], [99.04829203663947, 18.715099619330918]], [[99.0620563639617, 18.76893908529346], [99.05898952553078, 18.76739653944913], [99.0597432763423, 18.762271471288503], [99.06861954515716, 18.76321632384035], [99.06845437680873, 18.768289706887515], [99.0620563639617, 18.76893908529346]], [[99.05214353132628, 18.708791198146596], [99.0557417641494, 18.706982802337116], [99.05699231441237, 18.71104918864893], [99.0532264767866, 18.71240178733382], [99.05214353132628, 18.708791198146596]], [[99.0084237327974, 18.83690802493331], [99.01202810514482, 18.828887067268518], [99.02024361858494, 18.8274138606348], [99.01533894927064, 18.843474898835012], [99.0083695367982, 18.842141564956087], [99.0084237327974, 18.83690802493331]], [[99.0009337480794, 18.730757205310802], [99.00347508330279, 18.723452890048847], [99.01138343646541, 18.727360326030706], [99.00643013457545, 18.73697820338184], [99.00032682621944, 18.734614279906687], [99.0009337480794, 18.730757205310802]], [[98.99143380412384, 18.827050126610708], [98.99186353550454, 18.824059665554465], [98.99531248725873, 18.823663784374467], [98.99635932148396, 18.829743215078484], [98.99284801698589, 18.83067517257501], [98.99143380412384, 18.827050126610708]], [[98.96057196156626, 18.731234357986487], [98.96678729793229, 18.72016532555227], [98.96208099794559, 18.71063418552325], [98.97328123487064, 18.711408505138422], [98.98041213259724, 18.725423836841262], [98.97643485160813, 18.72683394180611], [98.97128833657973, 18.73561689957821], [98.96745807937057, 18.737574902214856], [98.96085299545761, 18.734559887955132], [98.96057196156626, 18.731234357986487]], [[98.96472881353309, 18.835725302857437], [98.9690948215816, 18.826562073214674], [98.97324053737817, 18.826423888329764], [98.97209208114698, 18.838130541958417], [98.96897958446615, 18.83889353655851], [98.96472881353309, 18.835725302857437]], [[98.95824555277207, 18.77457426382473], [98.95480022184051, 18.766152479874727], [98.96365610831256, 18.764150031384954], [98.96306634964633, 18.773285567428015], [98.95824555277207, 18.77457426382473]], [[98.9326596219625, 18.70938428720743], [98.93688571189948, 18.705674267953864], [98.93608912887395, 18.69756950671564], [98.93853620474013, 18.693634300152745], [98.95538513425426, 18.697651412768536], [98.95655923254809, 18.709477178410005], [98.9517848156368, 18.717354680917698], [98.9409311543769, 18.714251579484728], [98.93887726541205, 18.711170547807797], [98.93411574344577, 18.711818722300578], [98.9326596219625, 18.70938428720743]], [[98.94860917867241, 18.76179284051679], [98.94695365616958, 18.758057436574372], [98.95227017746858, 18.75634009851602], [98.95281911570488, 18.760608438798087], [98.94860917867241, 18.76179284051679]]], [[[98.8362765798087, 18.641128372278594], [98.83993540155446, 18.647397564084688], [98.84419511088143, 18.648416886390187], [98.85058090634853, 18.644907529843003], [98.85039426936213, 18.6402924342583], [98.85606797980259, 18.635805728837465], [98.85891050673982, 18.641861381937453], [98.865687767083, 18.640261591479298], [98.86815490559484, 18.64421971178371], [98.87141943103572, 18.644390343034654], [98.88437819849715, 18.641912767707826], [98.88584411945304, 18.638465652870636], [98.8898971137204, 18.637220990728803], [98.89469358412, 18.638631654853278], [98.896837340334, 18.631253737159774], [98.89056164586643, 18.628219734029816], [98.88649349394537, 18.634216623792693], [98.87452164855607, 18.639167943536332], [98.87210758849844, 18.63702630089089], [98.87329543854048, 18.630648779287693], [98.86077928846814, 18.631426435399113], [98.85744339612053, 18.63578623468981], [98.85062362814068, 18.63058603002229], [98.84809461152207, 18.633720021395032], [98.83489025018075, 18.634807710286776], [98.8362765798087, 18.641128372278594]]], [[[98.81243522987269, 18.606245056866936], [98.8126752887299, 18.60914766659478], [98.81750357269584, 18.61100527059703], [98.81805756851689, 18.6199014156398], [98.82263560331548, 18.619494464547028], [98.82558311996695, 18.611734381796552], [98.83056157873082, 18.613219664446593], [98.82615947846931, 18.62413883219531], [98.8175917625836, 18.62534853062974], [98.81777247656001, 18.628671692558207], [98.82340684735341, 18.630537093080733], [98.82993507054546, 18.629597149094188], [98.83327947784626, 18.624163160691733], [98.84614980419322, 18.623104763794498], [98.85007348866621, 18.61726211650569], [98.85737534420511, 18.61487988870976], [98.8584769900815, 18.61032067045356], [98.85617601057413, 18.605397565228447], [98.84039983274383, 18.608888141060625], [98.83593144966859, 18.60385610450924], [98.83040521831049, 18.60289840389053], [98.82722005258002, 18.61054667164286], [98.82390061086987, 18.611118151898108], [98.82267748537127, 18.604640200066715], [98.82522000096512, 18.600374352664325], [98.82190788065112, 18.59151128045317], [98.814293448334, 18.592673468985588], [98.81243522987269, 18.606245056866936]]]]}}, {"type": "Feature", "properties": {"threshold": 80}, "geometry": {"type": "MultiPolygon", "coordinates": [[[[98.89948411490795, 18.700953972295355], [98.90238219247286, 18.711018631416433], [98.91071148689778, 18.711083575441958], [98.91447645795738, 18.70750424910633], [98.91715835569597, 18.709822658483084], [98.9147932033233, 18.716246179686227], [98.9080467729576, 18.717989501446052], [98.90780025932793, 18.722874767555112], [98.9011665267655, 18.733457338434878], [98.90541288627921, 18.736323834632525], [98.91133725184733, 18.73017866020087], [98.9217914589315, 18.732207581069073], [98.92591516171777, 18.748107893906383], [98.93313998490643, 18.750009329101616], [98.93653763916969, 18.756703633336272], [98.93188352205962, 18.766815682988554], [98.9477453651205, 18.781475842255087], [98.94899345705778, 18.789319061877748], [98.94372898189226, 18.8006748774997], [98.95120716669072, 18.80500053839712], [98.94970380349939, 18.810435937926584], [98.95252942530668, 18.815644207029408], [98.94799303450593, 18.819381534864547], [98.95481683330283, 18.833717221576123], [98.95313015680999, 18.845140110752396], [98.94975347529797, 18.84745718865126], [98.94798176815226, 18.85597898507301], [98.95184274267858, 18.862308170916304], [98.96218010316407, 18.862570173561977], [98.95908218865716, 18.875341488049184], [98.96069908290069, 18.88029405845441], [98.96480213282358, 18.87924816846895], [98.97358027774543, 18.86907543423163], [98.97276074863392, 18.861861376998416], [98.97556729474714, 18.85322105992076], [98.96400962377183, 18.847205616821412], [98.96781049282173, 18.84159684269533], [98.9748977079932, 18.844606650865916], [98.97676262778145, 18.852083331462186], [98.9842065786393, 18.847346836176243], [98.98966663591719, 18.85019509510189], [98.99838390899009, 18.84954323409455], [99.0068541854624, 18.855093422529688], [99.01030373369785, 18.851140115939703], [99.022040387242, 18.850785582685866], [99.02335352652517, 18.839490007104732], [99.0275828627546, 18.836594332426056], [99.03133280588358, 18.835761826161075], [99.04014536834111, 18.840443409529072], [99.04515696745854, 18.83852334749201], [99.04100967375517, 18.81818146956068], [99.0334433559403, 18.808046529162933], [99.0328839692671, 18.799008425534918], [99.03629356100419, 18.795217631014516], [99.04644334618506, 18.798120478763988], [99.05164125394771, 18.788784162361843], [99.06608158617257, 18.78652487568069], [99.06462745468036, 18.794245649381104], [99.0520482212989, 18.797925991849755], [99.0504781169548, 18.814343429981818], [99.05499625606882, 18.82312735699646], [99.06334855599314, 18.82580482425435], [99.06577985272595, 18.825300806525163], [99.06583848142802, 18.820031589803698], [99.06162553547226, 18.81609221835702], [99.06258569325462, 18.812819802133966], [99.06852482202865, 18.81316616830171], [99.07088561323704, 18.817662487911498], [99.07858582462144, 18.813909957960128], [99.0773444367119, 18.808819327871657], [99.07006364956861, 18.809794095367703], [99.06930497219128, 18.804994755362717], [99.07342105280536, 18.80259804297754], [99.07833502677408, 18.788507892996147], [99.08366105326532, 18.787141413332023], [99.08218440785983, 18.781929033521788], [99.08492533333032, 18.778033681024297], [99.08800846921129, 18.7783076745648], [99.0899132189116, 18.782503920408804], [99.08920522676921, 18.793076219522785], [99.09831395381872, 18.792558478058908], [99.10130080254477, 18.796411423261745], [99.10822020831398, 18.79794584521295], [99.10838512094298, 18.793616033433057], [99.1000059765732, 18.785311018377246], [99.10162171267056, 18.775867760401823], [99.09657734959346, 18.773166558640042], [99.09739853191118, 18.769384027927078], [99.10247100739566, 18.768354686525594], [99.10246621223418, 18.760414940473755], [99.09675567898822, 18.7634671425169], [99.09564071921848, 18.768386675661983], [99.09139128948955, 18.768814482006086], [99.08932433874014, 18.76394479548986], [99.09141542881065, 18.759759400277666], [99.08848188154256, 18.755157399016905], [99.09660193478571, 18.74831663690304], [99.10500609419698, 18.75095739468991], [99.11869703474261, 18.749930492361635], [99.12369580702807, 18.754499308732534], [99.12231627220632, 18.759536751272176], [99.12761992248956, 18.762271509158452], [99.13326754725493, 18.758205890937628], [99.1322619794911, 18.75131003870258], [99.12699135228259, 18.749380862683967], [99.127816070625, 18.745392018092158], [99.13451194801418, 18.74515374524846], [99.14006757881417, 18.739591987789257], [99.14859861622622, 18.738893541282152], [99.13800360886547, 18.730715973893417], [99.13635380807179, 18.72299749509219], [99.13983003388283, 18.720899808309873], [99.15356207615507, 18.725700391427193], [99.15798805133193, 18.724981366436133], [99.15124196502094, 18.715968217715837], [99.13205613109649, 18.71685378734401], [99.13184361753578, 18.723762776221132], [99.12948669754577, 18.725608500393832], [99.1231522495154, 18.724058923379445], [99.11941795640378, 18.718450542106122], [99.10067653157832, 18.719352820509595], [99.09295248325655, 18.71601786459811], [99.09230821944996, 18.72274119220468], [99.0952830460547, 18.72484570361061], [99.11252289220468, 18.72294141669121], [99.11716276309724, 18.729063156248873], [99.11171140867341, 18.735533789491548], [99.10289872327351, 18.733212665611283], [99.099492376345, 18.740146567387043], [99.09443816226064, 18.740495804915945], [99.09149472234165, 18.744595067976906], [99.08369295273322, 18.74241416839339], [99.08329081650862, 18.734329660967006], [99.08627720948928, 18.728857034244328], [99.07583476048366, 18.726775341926928], [99.07670488389272, 18.715492628998703], [99.06369908075432, 18.71688045384958], [99.06663584404329, 18.706906303921787], [99.06022574170913, 18.699845595523783], [99.05746070235367, 18.700047046468644], [99.05562749401885, 18.705571414164186], [99.05146924462912, 18.703522656102102], [99.05298748860397, 18.691536834978915], [99.0496049579379, 18.68892239342369], [99.04949822455038, 18.68391329897883], [99.05630040975298, 18.678171363404893], [99.0572469531274, 18.668922309276763], [99.05392168305112, 18.660717792544215], [99.04732648269304, 18.66171290053925], [99.04196296895257, 18.6697902164516], [99.03282211362111, 18.667409038417482], [99.03562776005755, 18.67422880005965], [99.0330524221571, 18.678387268025382], [99.02237358959162, 18.678227772576626], [99.02807917833101, 18.68753668222089], [99.03255641778937, 18.67955797341395], [99.0388395188024, 18.68192744735061], [99.0367791752235, 18.688426877191315], [99.03847376455676, 18.697049201535357], [99.02937260148485, 18.7119994384318], [99.01786253710634, 18.71877810290261], [99.00921689456825, 18.71689608751231], [99.00707699840619, 18.707907904935283], [99.00283974807955, 18.70818871422719], [98.99633188588679, 18.719391787430354], [98.98518419596627, 18.711837182200483], [98.98479851050529, 18.693236971603223], [98.98721118825384, 18.682339965214325], [98.99069630219995, 18.678670766550184], [98.98411702251676, 18.67132864512249], [98.9791312905503, 18.6714298323806], [98.9770502700294, 18.676090397724504], [98.97889536722882, 18.682313282612892], [98.98385720961612, 18.686511613124495], [98.98012833428724, 18.698613534907906], [98.97397767572677, 18.705218806209267], [98.96548924612227, 18.704845313807024], [98.96162225959866, 18.698794615217242], [98.96157653503548, 18.68961123659217], [98.95524718978878, 18.68601246398743], [98.95599256049897, 18.680742099314838], [98.96324376749476, 18.674177962776955], [98.96335111888222, 18.67105267287707], [98.96089423651921, 18.668847534933885], [98.95457252556177, 18.671138670790235], [98.95246495526236, 18.666424228894723], [98.94553967319139, 18.66934689400804], [98.94651996624725, 18.673424527394122], [98.95190298587802, 18.67607798291569], [98.95097769153669, 18.68011308261835], [98.94558687145945, 18.683920617146438], [98.93832149768107, 18.684023292215855], [98.92771587522725, 18.67536253538025], [98.92299523544118, 18.682081094409728], [98.91527636481054, 18.678656608396803], [98.90963255972491, 18.684202950111647], [98.91333322174972, 18.69596504363058], [98.90641403882796, 18.700938993750338], [98.89948411490795, 18.700953972295355]], [[99.11157837150834, 18.741354883832834], [99.11247794708979, 18.736468099746098], [99.11811603630883, 18.738505466396276], [99.11582873495816, 18.742612220552992], [99.11157837150834, 18.741354883832834]], [[99.06913500290443, 18.7814916307582], [99.0726482074071, 18.77611694982529], [99.07638045882688, 18.776714826927297], [99.07493966631654, 18.783912094371168], [99.06913500290443, 18.7814916307582]], [[99.06471559698613, 18.739360181433103], [99.06747002520022, 18.737939908559465], [99.07099988005926, 18.74002002812212], [99.07149019905295, 18.744022378484566], [99.06575248778414, 18.743236814538413], [99.06471559698613, 18.739360181433103]], [[99.04829203663947, 18.715099619330918], [99.0514306485427, 18.71550784744896], [99.0593617234127, 18.726446220919296], [99.06515098224375, 18.725941159374315], [99.0695363409439, 18.72904032940782], [99.06670216281486, 18.73616362174464], [99.05458946037217, 18.736160890914768], [99.05246193565094, 18.727105924403187], [99.04235103249181, 18.726117474134284], [99.04202047093253, 18.71896531368325], [99.04829203663947, 18.715099619330918]], [[99.0620563639617, 18.76893908529346], [99.05898952553078, 18.76739653944913], [99.0597432763423, 18.762271471288503], [99.06861954515716, 18.76321632384035], [99.06845437680873, 18.768289706887515], [99.0620563639617, 18.76893908529346]], [[99.05214353132628, 18.708791198146596], [99.0557417641494, 18.706982802337116], [99.05699231441237, 18.71104918864893], [99.0532264767866, 18.71240178733382], [99.05214353132628, 18.708791198146596]], [[99.0084237327974, 18.83690802493331], [99.01192888820368, 18.831164867087665], [99.01842420018589, 18.83064711481537], [99.01866392872097, 18.834209022617816], [99.01389607208044, 18.837564031855553], [99.01261109523415, 18.84248279616098], [99.00820044703997, 18.841955458715827], [99.0084237327974, 18.83690802493331]], [[99.0009337480794, 18.730757205310802], [99.00347508330279, 18.723452890048847], [99.01138343646541, 18.727360326030706], [99.00643013457545, 18.73697820338184], [99.00032682621944, 18.734614279906687], [99.0009337480794, 18.730757205310802]], [[98.96459842247259, 18.7094473569588], [98.97339622803997, 18.712001988377118], [98.97663144708903, 18.718937907940884], [98.9671618861071, 18.727487357570215], [98.96423278308956, 18.72507240185964], [98.96675546948816, 18.716597512567265], [98.96168821453345, 18.71230761830529], [98.96459842247259, 18.7094473569588]], [[98.96661897059067, 18.833463257815676], [98.9690948215816, 18.826562073214674], [98.97324053737817, 18.826423888329764], [98.97123289868846, 18.83558463265701], [98.96823860005472, 18.83615123762191], [98.96661897059067, 18.833463257815676]], [[98.95993356779312, 18.857529064044098], [98.9630741885711, 18.85510337272039], [98.96583613693933, 18.85823349710452], [98.96206772218574, 18.861041867216024], [98.95993356779312, 18.857529064044098]], [[98.9326596219625, 18.70938428720743], [98.93682186163996, 18.705821009866412], [98.93784456676504, 18.70002173803676], [98.94408014287588, 18.70131025260218], [98.94762505718688, 18.69606960240863], [98.95538513425426, 18.697651412768536], [98.95580564920478, 18.709944535568273], [98.9517848156368, 18.717354680917698], [98.9409311543769, 18.714251579484728], [98.93887726541205, 18.711170547807797], [98.93411574344577, 18.711818722300578], [98.9326596219625, 18.70938428720743]]], [[[98.99156324811825, 18.581126022603836], [98.99285944899111, 18.584983428134883], [99.00359179335945, 18.585256595374705], [99.01325785566424, 18.59551509298869], [99.01956898355938, 18.596063213685554], [99.02062237298733, 18.60491032546835], [99.02388350162865, 18.607032877596325], [99.0314469088867, 18.602672912103248], [99.0333607733615, 18.59660057439141], [99.04605926515296, 18.599709085689486], [99.0533662805817, 18.59798877908897], [99.0640422657422, 18.585964041230696], [99.06165421590649, 18.57939753188516], [99.04669014297005, 18.583349352534324], [99.03744297495173, 18.580217192865344], [99.02666924214454, 18.588696588972127], [99.02688945452115, 18.59506017647326], [99.01966860721203, 18.595964399101018], [99.0135060388495, 18.57852667262549], [99.01707151209253, 18.570945217548836], [99.00698859128772, 18.564756412517585], [98.99260371858392, 18.57155516993813], [98.99403633231981, 18.576025783093048], [98.99156324811825, 18.581126022603836]]], [[[98.8362765798087, 18.641128372278594], [98.83993540155446, 18.647397564084688], [98.84419511088143, 18.648416886390187], [98.85058090634853, 18.644907529843003], [98.85039426936213, 18.6402924342583], [98.85606797980259, 18.635805728837465], [98.85891050673982, 18.641861381937453], [98.865687767083, 18.640261591479298], [98.86815490559484, 18.64421971178371], [98.87141943103572, 18.644390343034654], [98.88437819849715, 18.641912767707826], [98.88584411945304, 18.638465652870636], [98.8898971137204, 18.637220990728803], [98.89469358412, 18.638631654853278], [98.896837340334, 18.631253737159774], [98.89056164586643, 18.628219734029816], [98.88649349394537, 18.634216623792693], [98.87452164855607, 18.639167943536332], [98.87210758849844, 18.63702630089089], [98.87329543854048, 18.630648779287693], [98.86077928846814, 18.631426435399113], [98.85744339612053, 18.63578623468981], [98.85062362814068, 18.63058603002229], [98.84809461152207, 18.633720021395032], [98.83489025018075, 18.634807710286776], [98.8362765798087, 18.641128372278594]]], [[[98.81243522987269, 18.606245056866936], [98.8126752887299, 18.60914766659478], [98.81734459060145, 18.610898720779474], [98.81798220132666, 18.619867341753466], [98.82286086298242, 18.619608497846905], [98.82533536995672, 18.61293447379978], [98.82979319037727, 18.614674623833547], [98.8253064072444, 18.62413804221004], [98.8175917625836, 18.62534853062974], [98.81777247656001, 18.628671692558207], [98.82340684735341, 18.630537093080733], [98.82993507054546, 18.629597149094188], [98.83363460067743, 18.6241037761198], [98.84614980419322, 18.623104763794498], [98.85007348866621, 18.61726211650569], [98.85737534420511, 18.61487988870976], [98.8584769900815, 18.61032067045356], [98.85609512160299, 18.60537818058351], [98.84039983274383, 18.608888141060625], [98.8357845875002, 18.603781091851925], [98.8272979502427, 18.60300143361862], [98.8228803322605, 18.598273312590287], [98.82190788065112, 18.59151128045317], [98.814293448334, 18.592673468985588], [98.81243522987269, 18.606245056866936]]]]}}, {"type": "Feature", "properties": {"threshold": 90}, "geometry": {"type": "MultiPolygon", "coordinates": [[[[98.89948411490795, 18.700953972295355], [98.90238219247286, 18.711018631416433], [98.91071148689778, 18.711083575441958], [98.91447645795738, 18.70750424910633], [98.91715835569597, 18.709822658483084], [98.9147932033233, 18.716246179686227], [98.9080467729576, 18.717989501446052], [98.90780025932793, 18.722874767555112], [98.9011665267655, 18.733457338434878], [98.90541288627921, 18.736323834632525], [98.91133725184733, 18.73017866020087], [98.9217914589315, 18.732207581069073], [98.92591516171777, 18.748107893906383], [98.93313998490643, 18.750009329101616], [98.93653763916969, 18.756703633336272], [98.93188352205962, 18.766815682988554], [98.9477453651205, 18.781475842255087], [98.94899345705778, 18.789319061877748], [98.94372898189226, 18.8006748774997], [98.95120716669072, 18.80500053839712], [98.94970380349939, 18.810435937926584], [98.95252942530668, 18.815644207029408], [98.94799303450593, 18.819381534864547], [98.95481683330283, 18.833717221576123], [98.94798076544132, 18.859232084806656], [98.95207790663414, 18.86238834423346], [98.96218010316407, 18.862570173561977], [98.95908218865716, 18.875341488049184], [98.96069908290069, 18.88029405845441], [98.96794320485576, 18.880237667186602], [98.9743065721131, 18.87506056208977], [98.97662007173558, 18.853664163442197], [98.9806983884525, 18.850798701630204], [98.98624932939197, 18.85588780367184], [98.99539518148143, 18.853961974801113], [98.99862708863222, 18.85973291187271], [99.00228210048853, 18.860125077990133], [99.00386827261038, 18.857427484406923], [99.01065985573085, 18.856655169055003], [99.02379852315073, 18.848988351855205], [99.03045327177324, 18.849258620922736], [99.02928455478921, 18.841352130887767], [99.03194465995972, 18.839272800392962], [99.04098867737501, 18.843202728683043], [99.03883691614469, 18.850022966056752], [99.05150288303808, 18.85344136324693], [99.0490234378584, 18.843285919974164], [99.05289236738997, 18.83632487990648], [99.05807999381624, 18.833647128820157], [99.06634828141968, 18.839079856447643], [99.06887268002666, 18.84928926001569], [99.07387064287948, 18.84932134506914], [99.07834025732272, 18.845598946863173], [99.08269454127624, 18.85015770228219], [99.0877516771544, 18.848379793633875], [99.09024215164764, 18.838945683202937], [99.07573209889638, 18.841062922183905], [99.06632299351921, 18.83163623998637], [99.05982181956279, 18.833319465313835], [99.05630744917066, 18.827989129664356], [99.0587656508359, 18.825113520766116], [99.06577985272595, 18.825300806525163], [99.0657777133531, 18.8198009361737], [99.06154673660764, 18.8158578588609], [99.06279469948548, 18.812686709366787], [99.06852482202865, 18.81316616830171], [99.07088561323704, 18.817662487911498], [99.07855015423141, 18.81398186045819], [99.0773444367119, 18.808819327871657], [99.07006364956861, 18.809794095367703], [99.06930497219128, 18.804994755362717], [99.07342105280536, 18.80259804297754], [99.07833502677408, 18.788507892996147], [99.08366105326532, 18.787141413332023], [99.08218440785983, 18.781929033521788], [99.08492533333032, 18.778033681024297], [99.08800846921129, 18.7783076745648], [99.0899132189116, 18.782503920408804], [99.08920522676921, 18.793076219522785], [99.09806129157963, 18.792495923345506], [99.10137630444574, 18.796445382615847], [99.10931973530651, 18.796815629146106], [99.10007908590872, 18.785540103944882], [99.10158597362332, 18.775795891613726], [99.0966143681658, 18.773403383032516], [99.09739853191118, 18.769384027927078], [99.10247100739566, 18.768354686525594], [99.10243047645218, 18.760343072360502], [99.09675567898822, 18.7634671425169], [99.09564071921848, 18.768386675661983], [99.09139128948955, 18.768814482006086], [99.08932433874014, 18.76394479548986], [99.09141542881065, 18.759759400277666], [99.08834318921059, 18.755368027008434], [99.09660193478571, 18.74831663690304], [99.10500609419698, 18.75095739468991], [99.11869703474261, 18.749930492361635], [99.12369580702807, 18.754499308732534], [99.12231627220632, 18.759536751272176], [99.12761992248956, 18.762271509158452], [99.13326754725493, 18.758205890937628], [99.1322619794911, 18.75131003870258], [99.12699135228259, 18.749380862683967], [99.127816070625, 18.745392018092158], [99.13451194801418, 18.74515374524846], [99.14006757881417, 18.739591987789257], [99.14859861622622, 18.738893541282152], [99.13800360886547, 18.730715973893417], [99.13635380807179, 18.72299749509219], [99.13983003388283, 18.720899808309873], [99.15356207615507, 18.725700391427193], [99.15798805133193, 18.724981366436133], [99.15124196502094, 18.715968217715837], [99.13205613109649, 18.71685378734401], [99.13184361753578, 18.723762776221132], [99.12948669754577, 18.725608500393832], [99.1231522495154, 18.724058923379445], [99.11941795640378, 18.718450542106122], [99.10067653157832, 18.719352820509595], [99.09295248325655, 18.71601786459811], [99.09230821944996, 18.72274119220468], [99.0952830460547, 18.72484570361061], [99.11252289220468, 18.72294141669121], [99.11716276309724, 18.729063156248873], [99.11171140867341, 18.735533789491548], [99.10289872327351, 18.733212665611283], [99.099492376345, 18.740146567387043], [99.09443816226064, 18.740495804915945], [99.09149472234165, 18.744595067976906], [99.08348886204652, 18.742266061680873], [99.08329081650862, 18.734329660967006], [99.08627720948928, 18.728857034244328], [99.07583476048366, 18.726775341926928], [99.07670488389272, 18.715492628998703], [99.06410237288407, 18.717165237205993], [99.06329661561145, 18.71297054917435], [99.06664812018298, 18.70698496264938], [99.0621895002135, 18.70085882651953], [99.0576455522561, 18.699887289651436], [99.05462227890968, 18.70573389192309], [99.05049355418967, 18.700552844088442], [99.05298748860397, 18.691536834978915], [99.0496049579379, 18.68892239342369], [99.04949822455038, 18.68391329897883], [99.05636414674332, 18.678024580470197], [99.05612411428352, 18.654609967734018], [99.05980086416086, 18.651842380047512], [99.0573289782221, 18.643637635191595], [99.03567009998417, 18.64611386406272], [99.03175539284157, 18.65138778649283], [99.03179904379266, 18.655473153879544], [99.03738411416933, 18.660021395840968], [99.04395104899027, 18.65262750143516], [99.04685587508206, 18.653934702205564], [99.04739141187967, 18.65855200630684], [99.0421972842451, 18.66969088555827], [99.03743247653354, 18.668152470465262], [99.0361627970811, 18.663848652792222], [99.03180099739129, 18.66595883291462], [99.0356030860445, 18.673990519858588], [99.0334554601709, 18.67810227454182], [99.02233792363316, 18.67829966552484], [99.02807917833101, 18.68753668222089], [99.03255641778937, 18.67955797341395], [99.0388395188024, 18.68192744735061], [99.0367791752235, 18.688426877191315], [99.03847376455676, 18.697049201535357], [99.02937260148485, 18.7119994384318], [99.01810389556942, 18.718708529457015], [99.00921689456825, 18.71689608751231], [99.00707699840619, 18.707907904935283], [99.00283974807955, 18.70818871422719], [98.99633188588679, 18.719391787430354], [98.98518419596627, 18.711837182200483], [98.98479851050529, 18.693236971603223], [98.98721118825384, 18.682339965214325], [98.99069630219995, 18.678670766550184], [98.98411702251676, 18.67132864512249], [98.9791312905503, 18.6714298323806], [98.9770502700294, 18.676090397724504], [98.97889536722882, 18.682313282612892], [98.98385720961612, 18.686511613124495], [98.98012833428724, 18.698613534907906], [98.97397767572677, 18.705218806209267], [98.96548924612227, 18.704845313807024], [98.96162225959866, 18.698794615217242], [98.96157653503548, 18.68961123659217], [98.95524718978878, 18.68601246398743], [98.95599256049897, 18.680742099314838], [98.96324376749476, 18.674177962776955], [98.96335111888222, 18.67105267287707], [98.96089423651921, 18.668847534933885], [98.95457252556177, 18.671138670790235], [98.95246495526236, 18.666424228894723], [98.94553967319139, 18.66934689400804], [98.94651996624725, 18.673424527394122], [98.95190298587802, 18.67607798291569], [98.95097769153669, 18.68011308261835], [98.94558687145945, 18.683920617146438], [98.93832149768107, 18.684023292215855], [98.92771587522725, 18.67536253538025], [98.92299523544118, 18.682081094409728], [98.91527636481054, 18.678656608396803], [98.90963255972491, 18.684202950111647], [98.91333322174972, 18.69596504363058], [98.90641403882796, 18.700938993750338], [98.89948411490795, 18.700953972295355]], [[99.11157837150834, 18.741354883832834], [99.11247794708979, 18.736468099746098], [99.11811603630883, 18.738505466396276], [99.11582873495816, 18.742612220552992], [99.11157837150834, 18.741354883832834]], [[99.06913500290443, 18.7814916307582], [99.0726482074071, 18.77611694982529], [99.07638045882688, 18.776714826927297], [99.07493966631654, 18.783912094371168], [99.06913500290443, 18.7814916307582]], [[99.06471559698613, 18.739360181433103], [99.06747002520022, 18.737939908559465], [99.07099988005926, 18.74002002812212], [99.07149019905295, 18.744022378484566], [99.06575248778414, 18.743236814538413], [99.06471559698613, 18.739360181433103]], [[99.04829203663947, 18.715099619330918], [99.0514306485427, 18.71550784744896], [99.0593617234127, 18.726446220919296], [99.06515098224375, 18.725941159374315], [99.0695363409439, 18.72904032940782], [99.06670216281486, 18.73616362174464], [99.05458946037217, 18.736160890914768], [99.05246193565094, 18.727105924403187], [99.04235103249181, 18.726117474134284], [99.04202047093253, 18.71896531368325], [99.04829203663947, 18.715099619330918]], [[99.0620563639617, 18.76893908529346], [99.05898952553078, 18.76739653944913], [99.0597432763423, 18.762271471288503], [99.06861954515716, 18.76321632384035], [99.06845437680873, 18.768289706887515], [99.0620563639617, 18.76893908529346]], [[99.03647069742732, 18.808887019449852], [99.0398297324256, 18.79990459994038], [99.04857025676229, 18.797020484499143], [99.05144282484734, 18.788918651909476], [99.06608158617257, 18.78652487568069], [99.06444440214285, 18.794393450938415], [99.05963663980478, 18.797290742149418], [99.05067174152151, 18.797784309009955], [99.05216151151254, 18.803586142553634], [99.0494765651297, 18.815906144033082], [99.03647069742732, 18.808887019449852]], [[99.05214353132628, 18.708791198146596], [99.0557417641494, 18.706982802337116], [99.05699231441237, 18.71104918864893], [99.0532264767866, 18.71240178733382], [99.05214353132628, 18.708791198146596]], [[99.0009337480794, 18.730757205310802], [99.00347508330279, 18.723452890048847], [99.01138343646541, 18.727360326030706], [99.00643013457545, 18.73697820338184], [99.00032682621944, 18.734614279906687], [99.0009337480794, 18.730757205310802]], [[98.96475494433909, 18.847963382360224], [98.96414991315208, 18.844497917017122], [98.96976939952208, 18.841505543640437], [98.97503739137986, 18.84480575124215], [98.9769089642887, 18.8517339834349], [98.97285827655999, 18.853359961597967], [98.96980474499634, 18.848724403372742], [98.96475494433909, 18.847963382360224]], [[98.96459842247259, 18.7094473569588], [98.97339622803997, 18.712001988377118], [98.97663144708903, 18.718937907940884], [98.9671618861071, 18.727487357570215], [98.96423278308956, 18.72507240185964], [98.96675546948816, 18.716597512567265], [98.96168821453345, 18.71230761830529], [98.96459842247259, 18.7094473569588]], [[98.96661897059067, 18.833463257815676], [98.9690948215816, 18.826562073214674], [98.97324053737817, 18.826423888329764], [98.97123289868846, 18.83558463265701], [98.96823860005472, 18.83615123762191], [98.96661897059067, 18.833463257815676]], [[98.95993356779312, 18.857529064044098], [98.9630741885711, 18.85510337272039], [98.96583613693933, 18.85823349710452], [98.96206772218574, 18.861041867216024], [98.95993356779312, 18.857529064044098]], [[98.9326596219625, 18.70938428720743], [98.93682186163996, 18.705821009866412], [98.93784456676504, 18.70002173803676], [98.94408014287588, 18.70131025260218], [98.94762505718688, 18.69606960240863], [98.95538513425426, 18.697651412768536], [98.95580564920478, 18.709944535568273], [98.9517848156368, 18.717354680917698], [98.9409311543769, 18.714251579484728], [98.93887726541205, 18.711170547807797], [98.93411574344577, 18.711818722300578], [98.9326596219625, 18.70938428720743]]], [[[99.0038642232317, 18.863074368313754], [98.99924833774821, 18.87395695237472], [99.00938604696259, 18.876551278405334], [99.00692565789714, 18.888517081425544], [99.0114631840976, 18.890142716868425], [99.01216966549073, 18.894635795459884], [98.99435438837666, 18.90169033274649], [98.99325433332373, 18.909662150699287], [98.99564453496643, 18.911190824700896], [99.00739242233107, 18.91106973379525], [99.01536019085415, 18.902644759353958], [99.01502182569699, 18.896499691183823], [99.0248422504779, 18.89347384578402], [99.02482069409251, 18.884947810281254], [99.02079630553938, 18.88208026896846], [99.01803621080745, 18.871119025744697], [99.02539805456641, 18.868730609349804], [99.02727371745038, 18.864400654858414], [99.01863022051735, 18.86326320281268], [99.01708647636556, 18.867551348747877], [99.01093798002482, 18.868907151844134], [99.00745742431661, 18.863413029878124], [99.0038642232317, 18.863074368313754]]], [[[98.98942632792314, 18.589857699484917], [98.99777104740393, 18.5907374330019], [99.0033736306432, 18.58617663780581], [99.01142331001894, 18.597041031179277], [99.01806236157292, 18.598677819109596], [99.01984794850662, 18.605050508212273], [99.02380099721691, 18.607021219394074], [99.03132941889649, 18.604411855075714], [99.03646358225295, 18.597991643612268], [99.04248484991857, 18.60293212340341], [99.04666811568396, 18.600810265720977], [99.05104146449209, 18.60260826926931], [99.05158443682352, 18.60733567278988], [99.04311404046636, 18.609615703552766], [99.0401826825079, 18.61509048655689], [99.04122567066362, 18.619750251840845], [99.04543177280273, 18.621610280227433], [99.04445146536625, 18.629074407574905], [99.04675747402267, 18.63139646859406], [99.05124992951018, 18.62996463695833], [99.0487601068338, 18.62213924001429], [99.05116115153767, 18.61425528602974], [99.0633728414462, 18.614331727658364], [99.06657827811632, 18.61133118366393], [99.06380478620746, 18.60564412462518], [99.05508594098559, 18.600033775952], [99.05618685110238, 18.596448055549722], [99.06134724030025, 18.59365540107999], [99.06400982385999, 18.586119857460428], [99.06202758170998, 18.579565781202355], [99.05783008537404, 18.57860476733312], [99.05311091276454, 18.582790858668435], [99.04643905230135, 18.583349414536432], [99.03395049966177, 18.579423877599954], [99.02159909643645, 18.59279306405332], [99.01735536254158, 18.587312383399333], [99.01715190626992, 18.58159651423288], [99.02300606652402, 18.57493919707998], [99.01334690143548, 18.565702038228704], [99.00544634983213, 18.56316085341265], [98.99080545303941, 18.57331377639764], [98.99235520958118, 18.57741403425918], [98.98901510907095, 18.584110480154937], [98.98942632792314, 18.589857699484917]]], [[[98.93001533480177, 18.91191383860066], [98.92926019766412, 18.914830983687242], [98.93428203780354, 18.919330461002687], [98.93004381624492, 18.931763170788933], [98.9376651254946, 18.93930534936828], [98.93431057500202, 18.94803008319122], [98.94100341198404, 18.951989991075102], [98.94120408570942, 18.970950604704278], [98.94733079657426, 18.97297242499606], [98.94878802281247, 18.966425120891415], [98.94600054577619, 18.962216983440452], [98.94538116171918, 18.950611628006314], [98.9487857078317, 18.93381578269761], [98.94684506450008, 18.928520725142715], [98.93932151071435, 18.924673650049385], [98.94165358143296, 18.92041689396515], [98.95379067081218, 18.918159995083215], [98.95649530163399, 18.912096990228473], [98.95499427255062, 18.905847620072926], [98.95794257997186, 18.897457760802396], [98.9632744608718, 18.8952504338899], [98.9631971978543, 18.888797219093327], [98.95984316673804, 18.88681374716513], [98.94749105127396, 18.890196421938434], [98.94676147556248, 18.895641398466456], [98.93785274523813, 18.90342936269273], [98.93720520823038, 18.90869176293816], [98.93001533480177, 18.91191383860066]]], [[[98.8362765798087, 18.641128372278594], [98.83993540155446, 18.647397564084688], [98.84419511088143, 18.648416886390187], [98.85058090634853, 18.644907529843003], [98.85039426936213, 18.6402924342583], [98.85606797980259, 18.635805728837465], [98.85891050673982, 18.641861381937453], [98.865687767083, 18.640261591479298], [98.86815490559484, 18.64421971178371], [98.87141943103572, 18.644390343034654], [98.88437819849715, 18.641912767707826], [98.88584411945304, 18.638465652870636], [98.8898971137204, 18.637220990728803], [98.89469358412, 18.638631654853278], [98.896837340334, 18.631253737159774], [98.89056164586643, 18.628219734029816], [98.88649349394537, 18.634216623792693], [98.87452164855607, 18.639167943536332], [98.87210758849844, 18.63702630089089], [98.87329543854048, 18.630648779287693], [98.86077928846814, 18.631426435399113], [98.85744339612053, 18.63578623468981], [98.85062362814068, 18.63058603002229], [98.84809461152207, 18.633720021395032], [98.83489025018075, 18.634807710286776], [98.8362765798087, 18.641128372278594]]], [[[98.81243522987269, 18.606245056866936], [98.8126752887299, 18.60914766659478], [98.81734459060145, 18.610898720779474], [98.81798220132666, 18.619867341753466], [98.82286086298242, 18.619608497846905], [98.82533536995672, 18.61293447379978], [98.82979319037727, 18.614674623833547], [98.8253064072444, 18.62413804221004], [98.8175917625836, 18.62534853062974], [98.81777247656001, 18.628671692558207], [98.82340684735341, 18.630537093080733], [98.82993507054546, 18.629597149094188], [98.83363460067743, 18.6241037761198], [98.84614980419322, 18.623104763794498], [98.85007348866621, 18.61726211650569], [98.85737534420511, 18.61487988870976], [98.8584769900815, 18.61032067045356], [98.85609512160299, 18.60537818058351], [98.84039983274383, 18.608888141060625], [98.8357845875002, 18.603781091851925], [98.8272979502427, 18.60300143361862], [98.8228803322605, 18.598273312590287], [98.82190788065112, 18.59151128045317], [98.814293448334, 18.592673468985588], [98.81243522987269, 18.606245056866936]]]]}}, {"type": "Feature", "properties": {"threshold": 95}, "geometry": {"type": "MultiPolygon", "coordinates": [[[[98.89948411490795, 18.700953972295355], [98.90238219247286, 18.711018631416433], [98.91071148689778, 18.711083575441958], [98.91447645795738, 18.70750424910633], [98.91715835569597, 18.709822658483084], [98.9147932033233, 18.716246179686227], [98.9080467729576, 18.717989501446052], [98.90780025932793, 18.722874767555112], [98.9011665267655, 18.733457338434878], [98.90541288627921, 18.736323834632525], [98.91133725184733, 18.73017866020087], [98.92161421054018, 18.732028590441328], [98.92591516171777, 18.748107893906383], [98.93313998490643, 18.750009329101616], [98.93653763916969, 18.756703633336272], [98.93188352205962, 18.766815682988554], [98.9470253868027, 18.779422490605906], [98.94904257227653, 18.78908424113708], [98.94372898189226, 18.8006748774997], [98.95120716669072, 18.80500053839712], [98.94970380349939, 18.810435937926584], [98.95252942530668, 18.815644207029408], [98.94799303450593, 18.819381534864547], [98.95481683330283, 18.833717221576123], [98.94799299748736, 18.85931074960308], [98.95199688441213, 18.862369001013818], [98.96010551602956, 18.861307541031305], [98.96244372744931, 18.863256525587307], [98.95907440162208, 18.87780083832028], [98.96306094076272, 18.88162422433956], [98.96299974809133, 18.88558980872681], [98.94742393265076, 18.89024377420646], [98.94676147556248, 18.895641398466456], [98.93785274523813, 18.90342936269273], [98.93720520823038, 18.90869176293816], [98.92916429672417, 18.91355626562608], [98.93422964235185, 18.918838808125955], [98.93001131473487, 18.931607358803472], [98.93761612452953, 18.939070502513523], [98.93427806648904, 18.94787427254614], [98.94100341198404, 18.951989991075102], [98.94114024122999, 18.970803825413512], [98.94810454408794, 18.97299196536368], [98.95306129859526, 18.96902490020968], [98.95281680646569, 18.96593263121349], [98.94592693716238, 18.961743854765984], [98.95049282007786, 18.941135658442207], [98.94695092262839, 18.928643549496183], [98.94039866800284, 18.927031585659847], [98.93942735318876, 18.924198765642988], [98.94144239951592, 18.920532702235533], [98.95340846334149, 18.918458350592676], [98.95720992554294, 18.914094464588235], [98.95484732115195, 18.906549816198737], [98.95811155827717, 18.897280391490547], [98.96526039919458, 18.892934324628953], [98.97314270186159, 18.89403012514851], [98.98118303883656, 18.885565728226656], [98.98075844618779, 18.881995231123934], [98.97393875245777, 18.883427729102447], [98.97152947640436, 18.88134849138809], [98.97785095432803, 18.87558218300714], [98.97430751539794, 18.869170825380504], [98.97704770537051, 18.852803642861293], [98.98221277899678, 18.85089631664482], [98.98868264894595, 18.857648405350147], [98.98389156928819, 18.864616925246207], [98.9849019087751, 18.87024595240531], [98.99530558090677, 18.87026230728449], [98.99600779446195, 18.877565986830877], [98.9999171497406, 18.880286542021462], [99.00650344781758, 18.879254943083925], [99.00698637048744, 18.888747752644694], [99.01203276338778, 18.89145134055161], [99.01000162658296, 18.89669020361894], [99.00567361270625, 18.89626322338472], [99.00272995132681, 18.892510970386827], [98.98531065935265, 18.89498121695029], [98.98224302244165, 18.901018002914373], [98.99265806216492, 18.899206215141945], [98.99356149763472, 18.910209127660387], [99.0040420931026, 18.910081622903334], [99.01196329613042, 18.914455240497063], [99.01800837691808, 18.90811351985529], [99.01470380960929, 18.896882751838817], [99.0248422504779, 18.89347384578402], [99.02396561362488, 18.880068284518412], [99.01803621080745, 18.871119025744697], [99.02820692156052, 18.86597408758641], [99.02536065222918, 18.860704104915477], [99.03081627248278, 18.855249087245664], [99.03068426403298, 18.840031996571508], [99.03462583692203, 18.839801570978054], [99.03885640055576, 18.843289348163733], [99.03682201036563, 18.852729508059426], [99.03998577213719, 18.857491246284265], [99.05289864744316, 18.853096406031586], [99.0495156861779, 18.84276811182857], [99.05402074986019, 18.83934291972776], [99.05791994345279, 18.84284757065687], [99.065918131081, 18.843308520750654], [99.0677119050398, 18.849025232566973], [99.07073560445865, 18.850162627815067], [99.07834025732272, 18.845598946863173], [99.08269454127624, 18.85015770228219], [99.08920578944823, 18.848713294883296], [99.0960121008774, 18.858894886281035], [99.10484427099493, 18.86219662174246], [99.10086802594512, 18.84897519030114], [99.10665671929728, 18.83990998492377], [99.09790964128852, 18.83890093001329], [99.09700672052004, 18.848431288771145], [99.09005935044664, 18.848967662088537], [99.09030926015294, 18.83899302202862], [99.07584613103516, 18.840515203186463], [99.0741969424195, 18.8358593542498], [99.06514577253618, 18.828923240821503], [99.06582619736996, 18.81995293244463], [99.06170003186942, 18.813957836051433], [99.06809692700524, 18.8129601155003], [99.07103192129202, 18.817669276660848], [99.0785072547168, 18.814050087303976], [99.07754507016274, 18.808960903382584], [99.07070703984331, 18.810214953240028], [99.06930497219128, 18.804994755362717], [99.07342105280536, 18.80259804297754], [99.07833502677408, 18.788507892996147], [99.08366105326532, 18.787141413332023], [99.08218440785983, 18.781929033521788], [99.08537916763295, 18.777828977507458], [99.0899132189116, 18.782503920408804], [99.08920522676921, 18.793076219522785], [99.09806129157963, 18.792495923345506], [99.10137630444574, 18.796445382615847], [99.10928408164685, 18.796887537414605], [99.10007908590872, 18.785540103944882], [99.10158597362332, 18.775795891613726], [99.0966143681658, 18.773403383032516], [99.09739853191118, 18.769384027927078], [99.10247100739566, 18.768354686525594], [99.10238751778257, 18.760274886812184], [99.09675567898822, 18.7634671425169], [99.09543179340413, 18.768519805443738], [99.089847778552, 18.767259090791462], [99.09141542881065, 18.759759400277666], [99.08807099022195, 18.756064661076532], [99.09474134825658, 18.749076139678206], [99.12008850009944, 18.7503217678756], [99.12382911494016, 18.754937912483726], [99.12231627220632, 18.759536751272176], [99.12761992248956, 18.762271509158452], [99.13326754725493, 18.758205890937628], [99.1322619794911, 18.75131003870258], [99.12699135228259, 18.749380862683967], [99.127816070625, 18.745392018092158], [99.13451194801418, 18.74515374524846], [99.14006757881417, 18.739591987789257], [99.14859861622622, 18.738893541282152], [99.13800360886547, 18.730715973893417], [99.13635380807179, 18.72299749509219], [99.14008013549545, 18.72092309026215], [99.15671360131594, 18.725752812798902], [99.15797407313603, 18.72311729240592], [99.15254673173742, 18.720114318553463], [99.15124196502094, 18.715968217715837], [99.13205613109649, 18.71685378734401], [99.13184361753578, 18.723762776221132], [99.12948669754577, 18.725608500393832], [99.1231522495154, 18.724058923379445], [99.11941795640378, 18.718450542106122], [99.10067653157832, 18.719352820509595], [99.09287153613387, 18.716037227364456], [99.09230821944996, 18.72274119220468], [99.0952830460547, 18.72484570361061], [99.11252289220468, 18.72294141669121], [99.11716276309724, 18.729063156248873], [99.11171140867341, 18.735533789491548], [99.10289872327351, 18.733212665611283], [99.099492376345, 18.740146567387043], [99.09443816226064, 18.740495804915945], [99.09149472234165, 18.744595067976906], [99.08348886204652, 18.742266061680873], [99.08329081650862, 18.734329660967006], [99.08627720948928, 18.728857034244328], [99.07583476048366, 18.726775341926928], [99.07670488389272, 18.715492628998703], [99.06410237288407, 18.717165237205993], [99.06329661561145, 18.71297054917435], [99.06664812018298, 18.70698496264938], [99.0621895002135, 18.70085882651953], [99.0576455522561, 18.699887289651436], [99.05462227890968, 18.70573389192309], [99.05049355418967, 18.700552844088442], [99.05298748860397, 18.691536834978915], [99.0496049579379, 18.68892239342369], [99.04949822455038, 18.68391329897883], [99.05636414674332, 18.678024580470197], [99.05612411428352, 18.654609967734018], [99.06150582561612, 18.647775365182728], [99.05818215030783, 18.643637373113084], [99.03567009998417, 18.64611386406272], [99.03090218181279, 18.651387928712296], [99.02825966820241, 18.658434775019693], [99.03555427292356, 18.674941373783064], [99.03283087860117, 18.67850017702922], [99.0229575176016, 18.677814919788187], [99.02228981294037, 18.68039445042186], [99.0281617218333, 18.687548338382637], [99.03255641778937, 18.67955797341395], [99.03868009467531, 18.68174239243888], [99.0367791752235, 18.688426877191315], [99.03843152492225, 18.697302548296175], [99.02937260148485, 18.7119994384318], [99.01810389556942, 18.718708529457015], [99.00921689456825, 18.71689608751231], [99.00707699840619, 18.707907904935283], [99.00283974807955, 18.70818871422719], [98.99633188588679, 18.719391787430354], [98.98518419596627, 18.711837182200483], [98.98479851050529, 18.693236971603223], [98.98721118825384, 18.682339965214325], [98.99069630219995, 18.678670766550184], [98.98411702251676, 18.67132864512249], [98.9791312905503, 18.6714298323806], [98.9770502700294, 18.676090397724504], [98.97889536722882, 18.682313282612892], [98.98385720961612, 18.686511613124495], [98.98012833428724, 18.698613534907906], [98.97397767572677, 18.705218806209267], [98.96548924612227, 18.704845313807024], [98.96162225959866, 18.698794615217242], [98.96157653503548, 18.68961123659217], [98.95524718978878, 18.68601246398743], [98.95599256049897, 18.680742099314838], [98.96324376749476, 18.674177962776955], [98.96335111888222, 18.67105267287707], [98.96089423651921, 18.668847534933885], [98.95457252556177, 18.671138670790235], [98.95246495526236, 18.666424228894723], [98.94553967319139, 18.66934689400804], [98.94651996624725, 18.673424527394122], [98.95190298587802, 18.67607798291569], [98.95097769153669, 18.68011308261835], [98.94558687145945, 18.683920617146438], [98.93832149768107, 18.684023292215855], [98.92771587522725, 18.67536253538025], [98.92299523544118, 18.682081094409728], [98.91527636481054, 18.678656608396803], [98.90963255972491, 18.684202950111647], [98.91333322174972, 18.69596504363058], [98.90641403882796, 18.700938993750338], [98.89948411490795, 18.700953972295355]], [[99.11157837150834, 18.741354883832834], [99.11247794708979, 18.736468099746098], [99.11811603630883, 18.738505466396276], [99.11582873495816, 18.742612220552992], [99.11157837150834, 18.741354883832834]], [[99.06913500290443, 18.7814916307582], [99.0726482074071, 18.77611694982529], [99.07638045882688, 18.776714826927297], [99.07493966631654, 18.783912094371168], [99.06913500290443, 18.7814916307582]], [[99.06471559698613, 18.739360181433103], [99.06747002520022, 18.737939908559465], [99.07099988005926, 18.74002002812212], [99.07149019905295, 18.744022378484566], [99.06575248778414, 18.743236814538413], [99.06471559698613, 18.739360181433103]], [[99.04829203663947, 18.715099619330918], [99.0514306485427, 18.71550784744896], [99.0593617234127, 18.726446220919296], [99.06515098224375, 18.725941159374315], [99.0695363409439, 18.72904032940782], [99.06670216281486, 18.73616362174464], [99.05458946037217, 18.736160890914768], [99.05246193565094, 18.727105924403187], [99.04235103249181, 18.726117474134284], [99.04202047093253, 18.71896531368325], [99.04829203663947, 18.715099619330918]], [[99.0620563639617, 18.76893908529346], [99.05898952553078, 18.76739653944913], [99.0597432763423, 18.762271471288503], [99.06861954515716, 18.76321632384035], [99.06845437680873, 18.768289706887515], [99.0620563639617, 18.76893908529346]], [[99.06222676780412, 18.786462363931573], [99.06657194797569, 18.78737680281452], [99.06444440214285, 18.794393450938415], [99.05937863263485, 18.79732869924573], [99.04832851172362, 18.79648432498312], [99.05144282484734, 18.788918651909476], [99.06222676780412, 18.786462363931573]], [[99.05214353132628, 18.708791198146596], [99.0557417641494, 18.706982802337116], [99.05699231441237, 18.71104918864893], [99.0532264767866, 18.71240178733382], [99.05214353132628, 18.708791198146596]], [[99.0437380932082, 18.810361032505973], [99.03915024250138, 18.80775199019778], [99.04041429430816, 18.80047915073943], [99.04871862087491, 18.79784441943263], [99.05112124836583, 18.812415152490622], [99.0479242815601, 18.81376940536918], [99.0437380932082, 18.810361032505973]], [[99.0386275087013, 18.66640775898586], [99.04219330833617, 18.653870750446437], [99.04580027838745, 18.652884158335322], [99.04739141187967, 18.65855200630684], [99.04273536640824, 18.66347434947486], [99.04331075502807, 18.668642494207724], [99.0399290075916, 18.669711633527573], [99.0386275087013, 18.66640775898586]], [[99.01685971605392, 18.85327494142661], [99.02174331266913, 18.853448456900264], [99.02453690048804, 18.86095011159577], [99.01551144113432, 18.86488127991412], [99.00744567997923, 18.858840852993982], [99.01685971605392, 18.85327494142661]], [[99.0009337480794, 18.730757205310802], [99.00347508330279, 18.723452890048847], [99.01138343646541, 18.727360326030706], [99.00643013457545, 18.73697820338184], [99.00032682621944, 18.734614279906687], [99.0009337480794, 18.730757205310802]], [[98.99881737550876, 18.862309747419534], [99.00291858862201, 18.86330501847718], [99.00352976201899, 18.86783374478711], [98.99821006854945, 18.871004832019963], [98.99496931429066, 18.864179161782857], [98.99881737550876, 18.862309747419534]], [[98.96475494433909, 18.847963382360224], [98.96414991315208, 18.844497917017122], [98.96976939952208, 18.841505543640437], [98.97503739137986, 18.84480575124215], [98.9769089642887, 18.8517339834349], [98.97285827655999, 18.853359961597967], [98.96980474499634, 18.848724403372742], [98.96475494433909, 18.847963382360224]], [[98.96459842247259, 18.7094473569588], [98.97339622803997, 18.712001988377118], [98.97663144708903, 18.718937907940884], [98.9671618861071, 18.727487357570215], [98.96423278308956, 18.72507240185964], [98.96675546948816, 18.716597512567265], [98.96168821453345, 18.71230761830529], [98.96459842247259, 18.7094473569588]], [[98.96661897059067, 18.833463257815676], [98.9690948215816, 18.826562073214674], [98.97324053737817, 18.826423888329764], [98.97123289868846, 18.83558463265701], [98.96823860005472, 18.83615123762191], [98.96661897059067, 18.833463257815676]], [[98.95993356779312, 18.857529064044098], [98.9630741885711, 18.85510337272039], [98.96583613693933, 18.85823349710452], [98.96206772218574, 18.861041867216024], [98.95993356779312, 18.857529064044098]], [[98.9326596219625, 18.70938428720743], [98.93682186163996, 18.705821009866412], [98.93784456676504, 18.70002173803676], [98.94408014287588, 18.70131025260218], [98.94762505718688, 18.69606960240863], [98.95538513425426, 18.697651412768536], [98.95580564920478, 18.709944535568273], [98.9517848156368, 18.717354680917698], [98.9409311543769, 18.714251579484728], [98.93887726541205, 18.711170547807797], [98.93411574344577, 18.711818722300578], [98.9326596219625, 18.70938428720743]]], [[[98.98995820380158, 18.57410672229116], [98.9892473263526, 18.589721386917393], [98.99769014860019, 18.59075675496596], [99.00288842608276, 18.58683443318103], [99.01057036976954, 18.597041080788014], [99.01705946624108, 18.598648023096498], [99.0198976401643, 18.605114377795246], [99.02356615218731, 18.60694113389112], [99.03126243651175, 18.604459238896382], [99.03646358225295, 18.597991643612268], [99.04240631519157, 18.60290535014838], [99.04666811568396, 18.600810265720977], [99.05032582861234, 18.602770663938195], [99.04987869166628, 18.608149428935114], [99.04304705931824, 18.609663091536426], [99.0401826825079, 18.61509048655689], [99.04122567066362, 18.619750251840845], [99.04543177280273, 18.621610280227433], [99.04445146536625, 18.629074407574905], [99.0466035073708, 18.63133571476751], [99.05122968409813, 18.630041783156095], [99.0487601068338, 18.62213924001429], [99.05119114803793, 18.614747078993165], [99.06166708302874, 18.615145590116633], [99.06651457471585, 18.6114779708197], [99.06380478620746, 18.60564412462518], [99.05508594098559, 18.600033775952], [99.05650226963438, 18.59616762672626], [99.06230730592982, 18.595066706280697], [99.0615050870754, 18.588783078120464], [99.06404852459785, 18.58350461062218], [99.06188904090168, 18.579477570211687], [99.05783008537404, 18.57860476733312], [99.05311091276454, 18.582790858668435], [99.04643905230135, 18.583349414536432], [99.0341138757934, 18.579392856567278], [99.03175903556134, 18.583890583829337], [99.02568246434576, 18.58413198509442], [99.02285749336458, 18.574748205761725], [99.01334690143548, 18.565702038228704], [99.00528298215832, 18.563129866536475], [98.98995820380158, 18.57410672229116]]], [[[98.81243522987269, 18.606245056866936], [98.8126752887299, 18.60914766659478], [98.81734459060145, 18.610898720779474], [98.81798220132666, 18.619867341753466], [98.82286086298242, 18.619608497846905], [98.82533536995672, 18.61293447379978], [98.82979319037727, 18.614674623833547], [98.8253064072444, 18.62413804221004], [98.8175917625836, 18.62534853062974], [98.81777247656001, 18.628671692558207], [98.82340684735341, 18.630537093080733], [98.82993507054546, 18.629597149094188], [98.83363460067743, 18.6241037761198], [98.84614980419322, 18.623104763794498], [98.85007348866621, 18.61726211650569], [98.85737534420511, 18.61487988870976], [98.8584769900815, 18.61032067045356], [98.85609512160299, 18.60537818058351], [98.84039983274383, 18.608888141060625], [98.8357845875002, 18.603781091851925], [98.8272979502427, 18.60300143361862], [98.8228803322605, 18.598273312590287], [98.82190788065112, 18.59151128045317], [98.814293448334, 18.592673468985588], [98.81243522987269, 18.606245056866936]]]]}}]}