{"type": "FeatureCollection", "features": [{"type": "Feature", "properties": {"threshold": 70}, "geometry": {"type": "MultiPolygon", "coordinates": [[[[-92.75793117764687, 18.15140551515293], [-92.75650300049814, 18.155188182329006], [-92.74984061085492, 18.152494760629978], [-92.7470497689063, 18.14880717926234], [-92.7481463528693, 18.142356713252052], [-92.75276869593118, 18.141545899221736], [-92.75793117764687, 18.15140551515293]]], [[[-92.78953081153202, 18.163107582461983], [-92.78748904431836, 18.167418995354073], [-92.77966972499216, 18.167174593301528], [-92.77980759608252, 18.151326798577347], [-92.78953864896764, 18.160435394362516], [-92.78953081153202, 18.163107582461983]]], [[[-92.88106516292491, 18.137755311889215], [-92.88164493939412, 18.141286853889607], [-92.87427829811702, 18.140324797777602], [-92.87145702491974, 18.145316802112283], [-92.86719714499642, 18.146324288513508], [-92.86485627891919, 18.161330830036533], [-92.86011100718488, 18.1624619158836], [-92.8529766347177, 18.143917794198906], [-92.85476162253094, 18.133745802331582], [-92.86094943808104, 18.12989867263228], [-92.86152153346977, 18.12647073163523], [-92.85384929790692, 18.121864523610576], [-92.85679665221733, 18.117862629259506], [-92.86205128566888, 18.11650329618752], [-92.8628561611926, 18.107207389677146], [-92.87263105338027, 18.111040339550886], [-92.87245195396505, 18.114165747997212], [-92.86658510387717, 18.118160380350368], [-92.87007164030567, 18.123369848071757], [-92.86875742421688, 18.133365025624087], [-92.88106516292491, 18.137755311889215]]], [[[-92.87695145987625, 18.068018354808416], [-92.87936389607097, 18.072448408411077], [-92.87649301886135, 18.075979470597076], [-92.87049443878945, 18.076751297165025], [-92.87026769317255, 18.065820467560656], [-92.87720134772668, 18.063864701801133], [-92.87695145987625, 18.068018354808416]]], [[[-92.89818808719205, 17.833246592078435], [-92.88060555605223, 17.83756046965413], [-92.87797185855649, 17.836011814714926], [-92.88268451669465, 17.8311329551579], [-92.89238416393563, 17.82941267816151], [-92.89805605200434, 17.83036580404948], [-92.89818808719205, 17.833246592078435]]], [[[-92.98541410510212, 17.951864087275116], [-92.98095223821821, 17.967178995275233], [-92.97187457936705, 17.96809157589589], [-92.97684018888305, 17.97459425975854], [-92.97577362714472, 17.97867318956643], [-92.95840064226196, 17.978922907665908], [-92.95614937347689, 17.98081761795984], [-92.96403285689098, 17.995829807897344], [-92.96452276727723, 18.0036155991782], [-92.97685619811494, 18.0073447978232], [-92.97478653921206, 18.011447325202973], [-92.96501706211183, 18.014296491501433], [-92.96552239637839, 18.022780221696742], [-92.96315007490858, 18.02465476391655], [-92.95498975934035, 18.022831695997134], [-92.93440493102621, 18.000565127623886], [-92.9291534610203, 18.004217829175598], [-92.90824755249241, 18.002683088761756], [-92.90641687318737, 18.005179416149776], [-92.90872083777131, 18.014135820601915], [-92.91423788317242, 18.015841908688216], [-92.91451065654896, 18.019157882223894], [-92.90329213647864, 18.04305635509198], [-92.89686037614933, 18.042359540783945], [-92.89149593536331, 18.036143138962412], [-92.89408105347233, 18.017119105630474], [-92.89661114144961, 18.01436907091687], [-92.8940864216134, 18.008134048941884], [-92.9051477359676, 18.004894417685342], [-92.90177691704767, 17.995068906413277], [-92.9090492811236, 17.989605080138105], [-92.90272150221581, 17.982542604354848], [-92.90212812766906, 17.976333834689733], [-92.89671655179524, 17.972665378983887], [-92.89690757603465, 17.96115977312356], [-92.90310398710214, 17.957794435921393], [-92.90570938824693, 17.96417013224168], [-92.91191144584143, 17.967076794851256], [-92.91283408776265, 17.973786265174915], [-92.92357950643229, 17.974956963177505], [-92.92612899657512, 17.9820505639677], [-92.9292399055798, 17.983424199271006], [-92.93163064519042, 17.975403971056124], [-92.92741604220176, 17.97097043590519], [-92.92783200311607, 17.963481940313137], [-92.93696697813019, 17.96327709669942], [-92.93892838528933, 17.96021843420327], [-92.94389824518974, 17.95932126487851], [-92.94739362845934, 17.95291051140725], [-92.95664142164678, 17.95364900720851], [-92.96361049086569, 17.944745927118458], [-92.97170314658828, 17.94484808386443], [-92.97671854712041, 17.939725432134324], [-92.9818580503342, 17.9417057133468], [-92.98193240922816, 17.947397489211465], [-92.98541410510212, 17.951864087275116]], [[-92.95584053305491, 18.010767224293943], [-92.95803037245122, 18.007045081600463], [-92.95157718735665, 18.003636664182693], [-92.94990676245307, 18.00985471629211], [-92.95584053305491, 18.010767224293943]], [[-92.97542075734901, 17.95383016864829], [-92.97384545467119, 17.949672638211123], [-92.968212307783, 17.951076167955435], [-92.97081082808745, 17.95668427713836], [-92.97542075734901, 17.95383016864829]]], [[[-92.939048716554, 18.05707504060172], [-92.9364080491935, 18.058889436150345], [-92.92680328723708, 18.05222868471137], [-92.92583397561674, 18.04618195097086], [-92.93215532794547, 18.044437813702647], [-92.93919399803495, 18.05285384159808], [-92.939048716554, 18.05707504060172]]], [[[-92.93934327877356, 17.910196770754105], [-92.93959194490363, 17.91352223262799], [-92.93134096340329, 17.912675756182168], [-92.92584182230158, 17.908289815907626], [-92.9257649388602, 17.904258830188052], [-92.93199626148957, 17.900553304635675], [-92.93306893286528, 17.905269647429794], [-92.93934327877356, 17.910196770754105]]], [[[-92.98635425675066, 18.16759800053834], [-92.98051928181118, 18.170829625606412], [-92.97262148804427, 18.171102912297993], [-92.97489912396863, 18.16355366865138], [-92.98657982975145, 18.16439855726414], [-92.98635425675066, 18.16759800053834]]], [[[-93.02936826740935, 18.167505943610944], [-93.02707363500373, 18.178734308670766], [-93.02036564392489, 18.178088262982175], [-93.0169531336614, 18.182303216477518], [-93.0128899271293, 18.181938875438757], [-93.0101505223855, 18.172285018351097], [-92.99907080056936, 18.16835802106586], [-93.00138704927431, 18.1651889258363], [-93.01007628732208, 18.16479518653657], [-93.01280463324531, 18.15943282030958], [-93.02937814314714, 18.165247740915223], [-93.02936826740935, 18.167505943610944]]]]}}, {"type": "Feature", "properties": {"threshold": 80}, "geometry": {"type": "MultiPolygon", "coordinates": [[[[-92.75793117764687, 18.15140551515293], [-92.75658452498378, 18.15599337313006], [-92.74990243509983, 18.152548476681254], [-92.74706995613234, 18.148884679845384], [-92.74723582991322, 18.14241469782467], [-92.7527068742636, 18.1414921837551], [-92.75793117764687, 18.15140551515293]]], [[[-92.7909848309778, 18.15677605495142], [-92.787765461604, 18.167242880029573], [-92.77972575915204, 18.167233835542593], [-92.7806020502412, 18.14974772555158], [-92.78424019808605, 18.149650627082718], [-92.7909848309778, 18.15677605495142]]], [[[-92.88106516292491, 18.137755311889215], [-92.88164493939412, 18.141286853889607], [-92.87427829811702, 18.140324797777602], [-92.87145702491974, 18.145316802112283], [-92.86719714499642, 18.146324288513508], [-92.86485627891919, 18.161330830036533], [-92.86011100718488, 18.1624619158836], [-92.8529766347177, 18.143917794198906], [-92.85476162253094, 18.133745802331582], [-92.86094943808104, 18.12989867263228], [-92.86152153346977, 18.12647073163523], [-92.85384929790692, 18.121864523610576], [-92.85679665221733, 18.117862629259506], [-92.86191921370722, 18.116699061960585], [-92.86238792308741, 18.110951889215954], [-92.85069811631537, 18.106041158737536], [-92.85076447741095, 18.100752528541136], [-92.85760914929551, 18.100634917645564], [-92.87245565689159, 18.109049062879873], [-92.87011636754897, 18.132636412990248], [-92.87357568077007, 18.136256852043143], [-92.88106516292491, 18.137755311889215]]], [[[-92.87695145987625, 18.068018354808416], [-92.87951074033984, 18.071936186638204], [-92.87684087166892, 18.078096035540348], [-92.87141887099129, 18.078426610737168], [-92.87022471441037, 18.065888944422568], [-92.87720134772668, 18.063864701801133], [-92.87695145987625, 18.068018354808416]]], [[[-92.89321149602097, 17.829002196155507], [-92.89824073262623, 17.830526297577606], [-92.89812043246185, 17.834939052545145], [-92.87806790130038, 17.8363157617901], [-92.88268451669465, 17.8311329551579], [-92.89321149602097, 17.829002196155507]]], [[[-92.98957495620127, 17.954823670421163], [-92.9903909400712, 17.958130421785654], [-92.98406351169763, 17.960785318291663], [-92.98083434450639, 17.967291800355227], [-92.97207459222923, 17.967640127282824], [-92.97684018888305, 17.97459425975854], [-92.97571177917867, 17.97872681918104], [-92.95621557941479, 17.980590620705186], [-92.96488649435058, 17.99582996443307], [-92.96452276727723, 18.0036155991782], [-92.97378682141265, 18.00430079141842], [-92.97770978836523, 18.008161723069946], [-92.97471493324377, 18.011488376998937], [-92.96501706211183, 18.014296491501433], [-92.96381452819354, 18.02441355748136], [-92.95520364627194, 18.02377135699568], [-92.95113768341659, 18.01856185672809], [-92.94645356802454, 18.017928580190638], [-92.94151022376744, 18.00623633223241], [-92.9346370889352, 18.00065723315148], [-92.9291534610203, 18.004217829175598], [-92.91743254786411, 18.003087411504126], [-92.91274629913968, 18.004935735944674], [-92.90955875995382, 18.01051268984746], [-92.91444871719551, 18.01527065220792], [-92.91453097784513, 18.019080415569945], [-92.90329213647864, 18.04305635509198], [-92.89884353918774, 18.043353833547386], [-92.89344690220867, 18.039090405370754], [-92.89149703435298, 18.03434995056171], [-92.89634880233169, 18.012311099609], [-92.89410675055866, 18.008056584379617], [-92.9033087353375, 18.004895694194822], [-92.90179724108725, 17.994991440915534], [-92.90904609957501, 17.98935889964305], [-92.90186657569528, 17.984992652237995], [-92.90155021208913, 17.975585572036845], [-92.89159639977181, 17.97102893184064], [-92.8955655644354, 17.967655969894686], [-92.89664206309136, 17.96148695802245], [-92.88822618660878, 17.958029980823632], [-92.88923398039822, 17.948903121313872], [-92.89385064855165, 17.94808886996856], [-92.89460396411843, 17.952575015418358], [-92.90323279367306, 17.957895715787412], [-92.90691857717555, 17.964909473503543], [-92.91203028943113, 17.96579266646028], [-92.91666705996552, 17.9594343879327], [-92.92200807266819, 17.959537822448674], [-92.92211015703909, 17.96791697613284], [-92.91347603811252, 17.965136882849215], [-92.91213361829003, 17.9727322967571], [-92.92357950643229, 17.974956963177505], [-92.9289826489889, 17.983427270390678], [-92.9315242556509, 17.9817071809111], [-92.93163064519042, 17.975403971056124], [-92.92741604220176, 17.97097043590519], [-92.9275760958597, 17.96204964488307], [-92.93565252476998, 17.963130700608563], [-92.95017976270675, 17.95199229906501], [-92.95664142164678, 17.95364900720851], [-92.96368207218875, 17.944704879262783], [-92.97170314658828, 17.94484808386443], [-92.97671854712041, 17.939725432134324], [-92.98574342965858, 17.94058944872178], [-92.98957495620127, 17.954823670421163]], [[-92.95564313897403, 18.00463663416794], [-92.95069691893079, 18.004478488830355], [-92.95136226735673, 18.01124808027091], [-92.95807294067342, 18.009518795459805], [-92.95564313897403, 18.00463663416794]], [[-92.97542075734901, 17.95383016864829], [-92.97384545467119, 17.949672638211123], [-92.968212307783, 17.951076167955435], [-92.97081082808745, 17.95668427713836], [-92.97542075734901, 17.95383016864829]]], [[[-92.9414740011572, 17.912639536400455], [-92.93414236368383, 17.913551590718082], [-92.92118173207976, 17.910248315944447], [-92.9180576455959, 17.905147772855116], [-92.93191772433056, 17.900526369753095], [-92.93340401937743, 17.9056068385909], [-92.94171031248455, 17.90896039633115], [-92.9414740011572, 17.912639536400455]]], [[[-92.93995248399645, 18.043143179617488], [-92.935902123995, 18.04814850132386], [-92.9392902607757, 18.053157752600598], [-92.93656764664588, 18.058935802271677], [-92.92480247707508, 18.048172728848957], [-92.93272510680663, 18.04349438200365], [-92.9339324324597, 18.03857098151249], [-92.93813442526772, 18.038722065789248], [-92.93995248399645, 18.043143179617488]]], [[[-92.98635425675066, 18.16759800053834], [-92.98051928181118, 18.170829625606412], [-92.97262148804427, 18.171102912297993], [-92.97489912396863, 18.16355366865138], [-92.98401661975257, 18.162764737354202], [-92.98704055109381, 18.16483904522001], [-92.98635425675066, 18.16759800053834]]], [[[-93.02936826740935, 18.167505943610944], [-93.02707363500373, 18.178734308670766], [-93.02036564392489, 18.178088262982175], [-93.0169531336614, 18.182303216477518], [-93.0128899271293, 18.181938875438757], [-93.0101505223855, 18.172285018351097], [-92.99907080056936, 18.16835802106586], [-93.00138704927431, 18.1651889258363], [-93.01007628732208, 18.16479518653657], [-93.01280463324531, 18.15943282030958], [-93.02937814314714, 18.165247740915223], [-93.02936826740935, 18.167505943610944]]], [[[-93.07552549459764, 17.87089753657369], [-93.0757834739294, 17.88364346234914], [-93.06955477315208, 17.884903088466572], [-93.06567713108117, 17.87077167854483], [-93.07492904277959, 17.868629292767565], [-93.07552549459764, 17.87089753657369]]]]}}, {"type": "Feature", "properties": {"threshold": 90}, "geometry": {"type": "MultiPolygon", "coordinates": [[[[-92.75878362094628, 18.15385884464461], [-92.75539795480599, 18.155991867776102], [-92.74984061085492, 18.152494760629978], [-92.74643767800298, 18.142354469693906], [-92.75276869593118, 18.141545899221736], [-92.75878362094628, 18.15385884464461]]], [[[-92.7909848309778, 18.15677605495142], [-92.787765461604, 18.167242880029573], [-92.77972575915204, 18.167233835542593], [-92.7806020502412, 18.14974772555158], [-92.78424019808605, 18.149650627082718], [-92.7909848309778, 18.15677605495142]]], [[[-92.88106516292491, 18.137755311889215], [-92.88164493939412, 18.141286853889607], [-92.87427829811702, 18.140324797777602], [-92.87145702491974, 18.145316802112283], [-92.86719714499642, 18.146324288513508], [-92.86485627891919, 18.161330830036533], [-92.86011100718488, 18.1624619158836], [-92.8529766347177, 18.143917794198906], [-92.85476162253094, 18.133745802331582], [-92.86094943808104, 18.12989867263228], [-92.86152153346977, 18.12647073163523], [-92.85384929790692, 18.121864523610576], [-92.85679665221733, 18.117862629259506], [-92.86191921370722, 18.116699061960585], [-92.86235120923159, 18.11071399064558], [-92.85075995586256, 18.10609484311648], [-92.84991033611415, 18.100751865790468], [-92.85760914929551, 18.100634917645564], [-92.87245565689159, 18.109049062879873], [-92.87011636754897, 18.132636412990248], [-92.87357568077007, 18.136256852043143], [-92.88106516292491, 18.137755311889215]]], [[[-92.87695145987625, 18.068018354808416], [-92.87951074033984, 18.071936186638204], [-92.87684087166892, 18.078096035540348], [-92.87141887099129, 18.078426610737168], [-92.87022471441037, 18.065888944422568], [-92.87720134772668, 18.063864701801133], [-92.87695145987625, 18.068018354808416]]], [[[-92.99864030944242, 17.99923225995435], [-92.99371821057802, 18.006092614986557], [-92.99650333449478, 18.00987562899732], [-92.99465645238108, 18.01694211900041], [-92.98508614677561, 18.018058198093932], [-92.98285082816997, 18.014098953972727], [-92.98579371052384, 18.011042273247682], [-92.98613212288468, 17.991696441258632], [-92.98212544337754, 17.987608490657124], [-92.9743995788561, 17.99090615782411], [-92.97155890083204, 17.99740045292766], [-92.96500821687596, 17.999072951094472], [-92.96412274773579, 18.002714967732146], [-92.9664702925702, 18.00467169092243], [-92.978130767631, 18.003518653604345], [-92.97939666367547, 18.01019059172502], [-92.96600449732425, 18.0132678682797], [-92.96575528910337, 18.022363549073876], [-92.96329633522134, 18.02464791742959], [-92.95520364627194, 18.02377135699568], [-92.95113768341659, 18.01856185672809], [-92.94645356802454, 18.017928580190638], [-92.94151022376744, 18.00623633223241], [-92.9346370889352, 18.00065723315148], [-92.92923603507278, 18.004206140073382], [-92.9169586580348, 18.00325099415682], [-92.90944619597605, 18.011015859042356], [-92.91444871719551, 18.01527065220792], [-92.91448249679294, 18.019233070063283], [-92.90329213647864, 18.04305635509198], [-92.89876808374771, 18.043319645752234], [-92.89149593536331, 18.036143138962412], [-92.89634880233169, 18.012311099609], [-92.8940864216134, 18.008134048941884], [-92.9033087353375, 18.004895694194822], [-92.90179724108725, 17.994991440915534], [-92.90904609957501, 17.98935889964305], [-92.90186657569528, 17.984992652237995], [-92.90155021208913, 17.975585572036845], [-92.89163203828475, 17.97110115303006], [-92.8955655644354, 17.967655969894686], [-92.89664206309136, 17.96148695802245], [-92.88822618660878, 17.958029980823632], [-92.88908521200923, 17.949094874614616], [-92.89385064855165, 17.94808886996856], [-92.89460396411843, 17.952575015418358], [-92.90323279367306, 17.957895715787412], [-92.90691857717555, 17.964909473503543], [-92.91203028943113, 17.96579266646028], [-92.91666705996552, 17.9594343879327], [-92.92194626264475, 17.959484160501695], [-92.92211015703909, 17.96791697613284], [-92.91347603811252, 17.965136882849215], [-92.91213361829003, 17.9727322967571], [-92.92357950643229, 17.974956963177505], [-92.92612899657512, 17.9820505639677], [-92.9292399055798, 17.983424199271006], [-92.93163064519042, 17.975403971056124], [-92.92741604220176, 17.97097043590519], [-92.92769402042366, 17.961936871575023], [-92.93521334818347, 17.963292666845987], [-92.93971108906028, 17.957809253300336], [-92.94507636602464, 17.957622608233827], [-92.94754066428624, 17.95283534084751], [-92.95664142164678, 17.95364900720851], [-92.96361049086569, 17.944745927118458], [-92.97170314658828, 17.94484808386443], [-92.97655903474326, 17.93977172701029], [-92.98581885834544, 17.940623602975528], [-92.9905180329791, 17.9558858261763], [-92.98961578815128, 17.962890648371825], [-92.98364128387627, 17.96244820899236], [-92.98076730714209, 17.967339372142987], [-92.97364260031, 17.96645448647271], [-92.97181250366842, 17.969715974487507], [-92.97592309487847, 17.972813089716293], [-92.97602666192817, 17.97987941203335], [-92.98104584131436, 17.98587079583316], [-92.98959907784744, 17.98300676799964], [-92.99460772193586, 17.984117437147123], [-92.99565014617345, 17.988797686085025], [-92.99320660593406, 17.993513311918168], [-92.99881950172154, 17.995493902094527], [-92.99864030944242, 17.99923225995435]], [[-92.9573501054238, 18.006270667718585], [-92.95179886882717, 18.003523358812966], [-92.94978834376073, 18.009642602989906], [-92.9570256750701, 18.01048937824625], [-92.9573501054238, 18.006270667718585]], [[-92.97012046078586, 17.981827962389914], [-92.96796146296714, 17.978790636287513], [-92.9646542315912, 17.980970455466743], [-92.96669158466912, 17.98376891277548], [-92.97012046078586, 17.981827962389914]], [[-92.97542075734901, 17.95383016864829], [-92.97384545467119, 17.949672638211123], [-92.968212307783, 17.951076167955435], [-92.97081082808745, 17.95668427713836], [-92.97542075734901, 17.95383016864829]]], [[[-92.9414740011572, 17.912639536400455], [-92.93414236368383, 17.913551590718082], [-92.92118173207976, 17.910248315944447], [-92.9180576455959, 17.905147772855116], [-92.93191772433056, 17.900526369753095], [-92.93340401937743, 17.9056068385909], [-92.94171031248455, 17.90896039633115], [-92.9414740011572, 17.912639536400455]]], [[[-92.93995248399645, 18.043143179617488], [-92.935902123995, 18.04814850132386], [-92.9392902607757, 18.053157752600598], [-92.93656764664588, 18.058935802271677], [-92.92480247707508, 18.048172728848957], [-92.93272510680663, 18.04349438200365], [-92.9339324324597, 18.03857098151249], [-92.93813442526772, 18.038722065789248], [-92.93995248399645, 18.043143179617488]]], [[[-93.02936826740935, 18.167505943610944], [-93.02707363500373, 18.178734308670766], [-93.02036564392489, 18.178088262982175], [-93.0169531336614, 18.182303216477518], [-93.0128899271293, 18.181938875438757], [-93.0101505223855, 18.172285018351097], [-92.99907080056936, 18.16835802106586], [-93.00138704927431, 18.1651889258363], [-93.01007628732208, 18.16479518653657], [-93.01280463324531, 18.15943282030958], [-93.02937814314714, 18.165247740915223], [-93.02936826740935, 18.167505943610944]]], [[[-93.07552549459764, 17.87089753657369], [-93.0757834739294, 17.88364346234914], [-93.06955477315208, 17.884903088466572], [-93.06567713108117, 17.87077167854483], [-93.07492904277959, 17.868629292767565], [-93.07552549459764, 17.87089753657369]]], [[[-93.16368853915385, 17.852142237905134], [-93.16440093576385, 17.855140366212535], [-93.15948171187638, 17.857360952695423], [-93.1567335938318, 17.86576553068602], [-93.15214494365925, 17.86844421674188], [-93.1500527563362, 17.862111434529915], [-93.1527520437699, 17.85506233292326], [-93.15576773603357, 17.85146593937875], [-93.16368853915385, 17.852142237905134]]]]}}, {"type": "Feature", "properties": {"threshold": 95}, "geometry": {"type": "MultiPolygon", "coordinates": [[[[-92.75878362094628, 18.15385884464461], [-92.75539795480599, 18.155991867776102], [-92.74984061085492, 18.152494760629978], [-92.74643767800298, 18.142354469693906], [-92.75276869593118, 18.141545899221736], [-92.75878362094628, 18.15385884464461]]], [[[-92.7909848309778, 18.15677605495142], [-92.787765461604, 18.167242880029573], [-92.77972575915204, 18.167233835542593], [-92.7806020502412, 18.14974772555158], [-92.78424019808605, 18.149650627082718], [-92.7909848309778, 18.15677605495142]]], [[[-92.88106516292491, 18.137755311889215], [-92.88164493939412, 18.141286853889607], [-92.87427829811702, 18.140324797777602], [-92.87145702491974, 18.145316802112283], [-92.86719714499642, 18.146324288513508], [-92.86485627891919, 18.161330830036533], [-92.86011100718488, 18.1624619158836], [-92.8529766347177, 18.143917794198906], [-92.85476162253094, 18.133745802331582], [-92.86094943808104, 18.12989867263228], [-92.86152153346977, 18.12647073163523], [-92.85384929790692, 18.121864523610576], [-92.85679665221733, 18.117862629259506], [-92.86191921370722, 18.116699061960585], [-92.86235120923159, 18.11071399064558], [-92.85075995586256, 18.10609484311648], [-92.84991033611415, 18.100751865790468], [-92.85760914929551, 18.100634917645564], [-92.87245565689159, 18.109049062879873], [-92.87011636754897, 18.132636412990248], [-92.87357568077007, 18.136256852043143], [-92.88106516292491, 18.137755311889215]]], [[[-92.87695145987625, 18.068018354808416], [-92.87951074033984, 18.071936186638204], [-92.87684087166892, 18.078096035540348], [-92.87141887099129, 18.078426610737168], [-92.87022471441037, 18.065888944422568], [-92.87720134772668, 18.063864701801133], [-92.87695145987625, 18.068018354808416]]], [[[-92.99864030944242, 17.99923225995435], [-92.99371821057802, 18.006092614986557], [-92.99650333449478, 18.00987562899732], [-92.99465645238108, 18.01694211900041], [-92.98508614677561, 18.018058198093932], [-92.98285082816997, 18.014098953972727], [-92.98579371052384, 18.011042273247682], [-92.98613212288468, 17.991696441258632], [-92.98212544337754, 17.987608490657124], [-92.9743995788561, 17.99090615782411], [-92.97155890083204, 17.99740045292766], [-92.96500821687596, 17.999072951094472], [-92.96412274773579, 18.002714967732146], [-92.9664702925702, 18.00467169092243], [-92.978130767631, 18.003518653604345], [-92.97939666367547, 18.01019059172502], [-92.96600449732425, 18.0132678682797], [-92.96575528910337, 18.022363549073876], [-92.96329633522134, 18.02464791742959], [-92.95520364627194, 18.02377135699568], [-92.95113768341659, 18.01856185672809], [-92.94645356802454, 18.017928580190638], [-92.94151022376744, 18.00623633223241], [-92.9346370889352, 18.00065723315148], [-92.92923603507278, 18.004206140073382], [-92.9169586580348, 18.00325099415682], [-92.90944619597605, 18.011015859042356], [-92.91444871719551, 18.01527065220792], [-92.91448249679294, 18.019233070063283], [-92.90329213647864, 18.04305635509198], [-92.89876808374771, 18.043319645752234], [-92.89149593536331, 18.036143138962412], [-92.89634880233169, 18.012311099609], [-92.8940864216134, 18.008134048941884], [-92.9033087353375, 18.004895694194822], [-92.90179724108725, 17.994991440915534], [-92.90904609957501, 17.98935889964305], [-92.90186657569528, 17.984992652237995], [-92.90155021208913, 17.975585572036845], [-92.89163203828475, 17.97110115303006], [-92.8955655644354, 17.967655969894686], [-92.89664206309136, 17.96148695802245], [-92.88822618660878, 17.958029980823632], [-92.88908521200923, 17.949094874614616], [-92.89385064855165, 17.94808886996856], [-92.89460396411843, 17.952575015418358], [-92.90323279367306, 17.957895715787412], [-92.90691857717555, 17.964909473503543], [-92.91203028943113, 17.96579266646028], [-92.91666705996552, 17.9594343879327], [-92.92194626264475, 17.959484160501695], [-92.92211015703909, 17.96791697613284], [-92.91347603811252, 17.965136882849215], [-92.91213361829003, 17.9727322967571], [-92.92357950643229, 17.974956963177505], [-92.92612899657512, 17.9820505639677], [-92.9292399055798, 17.983424199271006], [-92.93163064519042, 17.975403971056124], [-92.92741604220176, 17.97097043590519], [-92.92769402042366, 17.961936871575023], [-92.93521334818347, 17.963292666845987], [-92.93971108906028, 17.957809253300336], [-92.94507636602464, 17.957622608233827], [-92.94754066428624, 17.95283534084751], [-92.95664142164678, 17.95364900720851], [-92.96361049086569, 17.944745927118458], [-92.97170314658828, 17.94484808386443], [-92.97655903474326, 17.93977172701029], [-92.98581885834544, 17.940623602975528], [-92.9905180329791, 17.9558858261763], [-92.98961578815128, 17.962890648371825], [-92.98364128387627, 17.96244820899236], [-92.98076730714209, 17.967339372142987], [-92.97364260031, 17.96645448647271], [-92.97181250366842, 17.969715974487507], [-92.97592309487847, 17.972813089716293], [-92.97602666192817, 17.97987941203335], [-92.98104584131436, 17.98587079583316], [-92.98959907784744, 17.98300676799964], [-92.99460772193586, 17.984117437147123], [-92.99565014617345, 17.988797686085025], [-92.99320660593406, 17.993513311918168], [-92.99881950172154, 17.995493902094527], [-92.99864030944242, 17.99923225995435]], [[-92.9573501054238, 18.006270667718585], [-92.95179886882717, 18.003523358812966], [-92.94978834376073, 18.009642602989906], [-92.9570256750701, 18.01048937824625], [-92.9573501054238, 18.006270667718585]], [[-92.97012046078586, 17.981827962389914], [-92.96796146296714, 17.978790636287513], [-92.9646542315912, 17.980970455466743], [-92.96669158466912, 17.98376891277548], [-92.97012046078586, 17.981827962389914]], [[-92.97542075734901, 17.95383016864829], [-92.97384545467119, 17.949672638211123], [-92.968212307783, 17.951076167955435], [-92.97081082808745, 17.95668427713836], [-92.97542075734901, 17.95383016864829]]], [[[-92.9414740011572, 17.912639536400455], [-92.93414236368383, 17.913551590718082], [-92.92118173207976, 17.910248315944447], [-92.9180576455959, 17.905147772855116], [-92.93191772433056, 17.900526369753095], [-92.93340401937743, 17.9056068385909], [-92.94171031248455, 17.90896039633115], [-92.9414740011572, 17.912639536400455]]], [[[-92.93995248399645, 18.043143179617488], [-92.935902123995, 18.04814850132386], [-92.9392902607757, 18.053157752600598], [-92.93656764664588, 18.058935802271677], [-92.92480247707508, 18.048172728848957], [-92.93272510680663, 18.04349438200365], [-92.9339324324597, 18.03857098151249], [-92.93813442526772, 18.038722065789248], [-92.93995248399645, 18.043143179617488]]], [[[-93.02936826740935, 18.167505943610944], [-93.02707363500373, 18.178734308670766], [-93.02036564392489, 18.178088262982175], [-93.0169531336614, 18.182303216477518], [-93.0128899271293, 18.181938875438757], [-93.0101505223855, 18.172285018351097], [-92.99907080056936, 18.16835802106586], [-93.00138704927431, 18.1651889258363], [-93.01007628732208, 18.16479518653657], [-93.01280463324531, 18.15943282030958], [-93.02937814314714, 18.165247740915223], [-93.02936826740935, 18.167505943610944]]], [[[-93.07552549459764, 17.87089753657369], [-93.0757834739294, 17.88364346234914], [-93.06955477315208, 17.884903088466572], [-93.06567713108117, 17.87077167854483], [-93.07492904277959, 17.868629292767565], [-93.07552549459764, 17.87089753657369]]], [[[-93.12852423876313, 17.85990884474995], [-93.12571988769773, 17.86687043447292], [-93.11689228019308, 17.866541807491696], [-93.12149942837951, 17.856452357255357], [-93.12485902623285, 17.855633400101343], [-93.12852423876313, 17.85990884474995]]], [[[-93.1695590130702, 17.858363900104717], [-93.1700721045836, 17.861935794112412], [-93.16094656198214, 17.86273837747838], [-93.15627962403718, 17.87262723601994], [-93.15129606685167, 17.873345883124966], [-93.14583094152118, 17.866374912331256], [-93.15019110545146, 17.85261381380947], [-93.15917442450636, 17.84574533923957], [-93.16434286412222, 17.846003571750146], [-93.1695590130702, 17.858363900104717]]]]}}]}