{"type": "FeatureCollection", "features": [{"type": "Feature", "properties": {"threshold": 70}, "geometry": {"type": "MultiPolygon", "coordinates": [[[[73.10721846124098, 31.968338525080267], [73.10716120903349, 31.970820196882226], [73.10979229795628, 31.97112113839288], [73.11566357891648, 31.967210120994885], [73.12305978450999, 31.961075126526495], [73.12211095413033, 31.956379080661065], [73.11768990844939, 31.955366514795884], [73.11280890889958, 31.95851605249617], [73.11281323776858, 31.962471878707532], [73.10721846124098, 31.968338525080267]]], [[[72.95558020273194, 31.716139242407095], [72.96976676244186, 31.734475007309115], [72.97074440528478, 31.739328505736616], [72.96527373124087, 31.74409248762525], [72.96480305404017, 31.748955685702043], [72.97241310457252, 31.749077054653366], [72.97549648687244, 31.746662416526508], [72.97629661478818, 31.73948382733182], [72.98946499083146, 31.74024763958582], [72.9913509387798, 31.736904509747934], [72.99848283815088, 31.737331413647755], [73.00043374243481, 31.73267464916367], [73.00890379955119, 31.73019114707142], [73.00722676457846, 31.722250818830613], [73.00920830528622, 31.71693779707246], [73.00331968241629, 31.711771282020106], [73.00417974102159, 31.703209452983216], [72.99934389287601, 31.69345821610291], [72.98873878880987, 31.694946962604668], [72.98705290642437, 31.70082747032395], [72.98330118293931, 31.70327729326304], [72.9745743282526, 31.696953488765445], [72.9720219630639, 31.700949302988906], [72.96630019468576, 31.701520528216662], [72.96560850879291, 31.707209490813117], [72.95997045164428, 31.70970583290737], [72.95558020273194, 31.716139242407095]]], [[[72.89832389072255, 31.761943773448273], [72.89738888761754, 31.765756347130548], [72.90533489546914, 31.772256878450367], [72.92056833209504, 31.762119876584645], [72.9395917846816, 31.75907172898311], [72.94348535882595, 31.756587714273202], [72.9436482171431, 31.75222335631617], [72.94142730199125, 31.74943386656171], [72.93656812234897, 31.749301363720665], [72.92038318008487, 31.754071475788557], [72.91130033414811, 31.747426798608544], [72.90272255133988, 31.747260868961153], [72.90487445528174, 31.754674806538763], [72.8993364919697, 31.758124378416163], [72.89832389072255, 31.761943773448273]]], [[[72.91839961515102, 32.048622440216334], [72.9185868323942, 32.05441434354254], [72.92643903317061, 32.05470006625931], [72.93444630954318, 32.04635978910442], [72.92811149701112, 32.04414623579366], [72.91891413878282, 32.046345019496], [72.91839961515102, 32.048622440216334]]], [[[72.767770094463, 31.88038773795995], [72.77500817968817, 31.886722305263632], [72.77994216112837, 31.881091994840347], [72.77910372038238, 31.874372294922722], [72.76981440246588, 31.87703416970077], [72.767770094463, 31.88038773795995]]], [[[72.72284064516518, 32.04466951792497], [72.72656037933011, 32.051986567473755], [72.74018729840122, 32.051821483624785], [72.73976898016731, 32.04931049250038], [72.73081466264902, 32.047923448882145], [72.72570004800217, 32.04223476102231], [72.72284064516518, 32.04466951792497]]], [[[72.73147215262983, 31.94333334372516], [72.73161889320247, 31.948888595213553], [72.74085247848048, 31.94884484377606], [72.74165248267019, 31.942503542845685], [72.73666970901488, 31.940774643429418], [72.73147215262983, 31.94333334372516]]], [[[72.63342876768044, 32.05992637072783], [72.63772874504313, 32.07006047041473], [72.63378521191757, 32.07407155961508], [72.63972651297378, 32.079537997864996], [72.63511624311377, 32.091534921113364], [72.63671555224388, 32.09361369155479], [72.64090999007077, 32.09222838775001], [72.65415044091927, 32.09419701541353], [72.65496076361148, 32.10261355328186], [72.64722237361534, 32.10435646916581], [72.64888212970422, 32.111574222255726], [72.65183261827576, 32.11348442556952], [72.66526675717824, 32.111496469214124], [72.67848102690658, 32.10199618569408], [72.68570992625034, 32.10360634415354], [72.69239329392975, 32.101296764302454], [72.69454070777421, 32.09776487632046], [72.70302560644355, 32.09778135556313], [72.70722213484774, 32.09051464141094], [72.70746761374774, 32.08119910343751], [72.70129787904126, 32.07593021641279], [72.71496921727784, 32.0635006660568], [72.71531322333252, 32.05169712143153], [72.7085618502392, 32.04796677779479], [72.70214210804367, 32.047815245013986], [72.69810536874024, 32.051375099454795], [72.69228591441114, 32.05132265027534], [72.68971192818745, 32.043426990456844], [72.69481798004526, 32.03778522039798], [72.70303400579222, 32.03693744632511], [72.7114982733618, 32.022607235060384], [72.70645984423997, 32.01832937139628], [72.6994671830154, 32.02156794207084], [72.68696268562073, 32.01976412846494], [72.68814013754024, 32.03052528759072], [72.68201433631161, 32.03571934031248], [72.66946822985602, 32.06181685651708], [72.66005218619955, 32.06451547287919], [72.64481133052608, 32.05661919276348], [72.63923363480326, 32.05874349170152], [72.63383807497827, 32.05723316349627], [72.63342876768044, 32.05992637072783]]], [[[72.68208879307534, 31.895319874811868], [72.68292762312777, 31.899388813082908], [72.69018590054657, 31.902647864196968], [72.69474175210385, 31.89189876667719], [72.69964008950717, 31.889721090722027], [72.70155054406978, 31.88436682803144], [72.6959246821613, 31.882540036527267], [72.69207458860555, 31.88984897526732], [72.68208879307534, 31.895319874811868]]]]}}, {"type": "Feature", "properties": {"threshold": 80}, "geometry": {"type": "MultiPolygon", "coordinates": [[[[73.10632476380943, 31.968540043651338], [73.11101197015743, 31.97401555317461], [73.1164950518377, 31.965948539784215], [73.12302893273731, 31.96259129728001], [73.12305740481152, 31.95644802003338], [73.11519333795546, 31.955300570951977], [73.11111148301971, 31.957682696041005], [73.1117487830441, 31.962075889903623], [73.10632476380943, 31.968540043651338]]], [[[72.95558020273194, 31.716139242407095], [72.96976676244186, 31.734475007309115], [72.97074440528478, 31.739328505736616], [72.96527373124087, 31.74409248762525], [72.96480305404017, 31.748955685702043], [72.97241310457252, 31.749077054653366], [72.97549648687244, 31.746662416526508], [72.97629661478818, 31.73948382733182], [72.98946499083146, 31.74024763958582], [72.9913509387798, 31.736904509747934], [72.99848283815088, 31.737331413647755], [73.00043374243481, 31.73267464916367], [73.00890379955119, 31.73019114707142], [73.00920830528622, 31.71693779707246], [73.00331968241629, 31.711771282020106], [73.00417974102159, 31.703209452983216], [72.99934389287601, 31.69345821610291], [72.98873878880987, 31.694946962604668], [72.98705290642437, 31.70082747032395], [72.98330118293931, 31.70327729326304], [72.9745743282526, 31.696953488765445], [72.9720219630639, 31.700949302988906], [72.96630019468576, 31.701520528216662], [72.96560850879291, 31.707209490813117], [72.95997045164428, 31.70970583290737], [72.95558020273194, 31.716139242407095]]], [[[72.89832389072255, 31.761943773448273], [72.89738888761754, 31.765756347130548], [72.90533489546914, 31.772256878450367], [72.92056833209504, 31.762119876584645], [72.9395917846816, 31.75907172898311], [72.94348535882595, 31.756587714273202], [72.9436482171431, 31.75222335631617], [72.94142730199125, 31.74943386656171], [72.93656812234897, 31.749301363720665], [72.92038318008487, 31.754071475788557], [72.91130033414811, 31.747426798608544], [72.90272255133988, 31.747260868961153], [72.90487445528174, 31.754674806538763], [72.8993364919697, 31.758124378416163], [72.89832389072255, 31.761943773448273]]], [[[72.91839961515102, 32.048622440216334], [72.9185868323942, 32.05441434354254], [72.92643903317061, 32.05470006625931], [72.93444630954318, 32.04635978910442], [72.92811149701112, 32.04414623579366], [72.91891413878282, 32.046345019496], [72.91839961515102, 32.048622440216334]]], [[[72.767770094463, 31.88038773795995], [72.77500817968817, 31.886722305263632], [72.77994216112837, 31.881091994840347], [72.77910372038238, 31.874372294922722], [72.76981440246588, 31.87703416970077], [72.767770094463, 31.88038773795995]]], [[[72.72275965067763, 32.0440213003218], [72.72470274845422, 32.05192152344707], [72.74012981160926, 32.05264570272687], [72.73830287432608, 32.045607192846575], [72.72931096596845, 32.04532842360936], [72.72852216894893, 32.03928418963629], [72.72569460317864, 32.03936554564467], [72.72275965067763, 32.0440213003218]]], [[[72.63342876768044, 32.05992637072783], [72.63772874504313, 32.07006047041473], [72.63281702377266, 32.077086250312824], [72.63918488985695, 32.080286098761874], [72.63509671087832, 32.09229275119105], [72.6375862651807, 32.09438813667871], [72.65415044091927, 32.09419701541353], [72.65496076361148, 32.10261355328186], [72.64722237361534, 32.10435646916581], [72.64888212970422, 32.111574222255726], [72.65190632208366, 32.11352390693652], [72.66526675717824, 32.111496469214124], [72.67853925880546, 32.10208042969], [72.68569080229899, 32.104364200128295], [72.696447763853, 32.09917216013928], [72.69948221014221, 32.102297970407236], [72.70612082279943, 32.10323051634848], [72.71048217710874, 32.09912270738655], [72.7054272172044, 32.09379764969563], [72.70625418014798, 32.07855873059457], [72.71081229572036, 32.07005135007002], [72.71856375782971, 32.064718732552784], [72.71512229032943, 32.06212795217628], [72.71523075283065, 32.051486892094786], [72.70921653882023, 32.04914532073258], [72.71159165357429, 32.02289100044767], [72.70678864821988, 32.018420887540984], [72.68696268562073, 32.01976412846494], [72.68482020432064, 32.02634403979776], [72.68769723715594, 32.0309064154359], [72.67939158533075, 32.03560775182856], [72.67597653276292, 32.050176110541095], [72.66597832827094, 32.05817016648374], [72.65357335836087, 32.06184333294854], [72.6449636095838, 32.056628404519316], [72.63923363480326, 32.05874349170152], [72.63383807497827, 32.05723316349627], [72.63342876768044, 32.05992637072783]], [[72.69225427770401, 32.04263679524017], [72.69676094211717, 32.037667048248245], [72.70169421216055, 32.03836917153934], [72.7048131421652, 32.042989642579855], [72.70028647143099, 32.0498625229935], [72.69474077896857, 32.05112102957192], [72.69209742528543, 32.049249822984244], [72.69225427770401, 32.04263679524017]]], [[[72.68208879307534, 31.895319874811868], [72.68574118911286, 31.901846850657254], [72.69302546740911, 31.901089059665882], [72.69472006888637, 31.891931052748472], [72.70155155438974, 31.888797034609016], [72.7006681004203, 31.87968699029651], [72.6977765792949, 31.87954068093556], [72.69297283177502, 31.884211372589366], [72.69189483684565, 31.890011110141163], [72.68208879307534, 31.895319874811868]]]]}}, {"type": "Feature", "properties": {"threshold": 90}, "geometry": {"type": "MultiPolygon", "coordinates": [[[[73.10524185165988, 31.96814034089205], [73.10708339269851, 31.974610582517045], [73.11099643802909, 31.974773631617566], [73.11400630224175, 31.968542967436683], [73.12302893273731, 31.96259129728001], [73.12305740481152, 31.95644802003338], [73.11421794851124, 31.95529696323055], [73.10484047237429, 31.95986414689776], [73.10524185165988, 31.96814034089205]]], [[[72.95558020273194, 31.716139242407095], [72.96976676244186, 31.734475007309115], [72.97074440528478, 31.739328505736616], [72.96527373124087, 31.74409248762525], [72.96480305404017, 31.748955685702043], [72.97241310457252, 31.749077054653366], [72.97549648687244, 31.746662416526508], [72.97629661478818, 31.73948382733182], [72.98946499083146, 31.74024763958582], [72.9913509387798, 31.736904509747934], [72.99848283815088, 31.737331413647755], [73.00043374243481, 31.73267464916367], [73.00890379955119, 31.73019114707142], [73.00920830528622, 31.71693779707246], [73.00331968241629, 31.711771282020106], [73.00417974102159, 31.703209452983216], [72.99934389287601, 31.69345821610291], [72.98873878880987, 31.694946962604668], [72.98705290642437, 31.70082747032395], [72.98330118293931, 31.70327729326304], [72.9745743282526, 31.696953488765445], [72.9720219630639, 31.700949302988906], [72.96630019468576, 31.701520528216662], [72.96560850879291, 31.707209490813117], [72.95997045164428, 31.70970583290737], [72.95558020273194, 31.716139242407095]]], [[[72.89832389072255, 31.761943773448273], [72.89738888761754, 31.765756347130548], [72.90533489546914, 31.772256878450367], [72.92056833209504, 31.762119876584645], [72.9395917846816, 31.75907172898311], [72.94348535882595, 31.756587714273202], [72.9436482171431, 31.75222335631617], [72.94142730199125, 31.74943386656171], [72.93656812234897, 31.749301363720665], [72.92038318008487, 31.754071475788557], [72.91130033414811, 31.747426798608544], [72.90272255133988, 31.747260868961153], [72.90487445528174, 31.754674806538763], [72.8993364919697, 31.758124378416163], [72.89832389072255, 31.761943773448273]]], [[[72.91839961515102, 32.048622440216334], [72.9185868323942, 32.05441434354254], [72.92643903317061, 32.05470006625931], [72.93444630954318, 32.04635978910442], [72.92811149701112, 32.04414623579366], [72.91891413878282, 32.046345019496], [72.91839961515102, 32.048622440216334]]], [[[72.767770094463, 31.88038773795995], [72.77500817968817, 31.886722305263632], [72.77994216112837, 31.881091994840347], [72.77910372038238, 31.874372294922722], [72.76981440246588, 31.87703416970077], [72.767770094463, 31.88038773795995]]], [[[72.72275965067763, 32.0440213003218], [72.72470274845422, 32.05192152344707], [72.74012981160926, 32.05264570272687], [72.74016558682665, 32.04726159643493], [72.73696028409424, 32.044657150623635], [72.73011667751622, 32.04609598738854], [72.72852216894893, 32.03928418963629], [72.72569460317864, 32.03936554564467], [72.72275965067763, 32.0440213003218]]], [[[72.63342876768044, 32.05992637072783], [72.63772874504313, 32.07006047041473], [72.63281702377266, 32.077086250312824], [72.63918488985695, 32.080286098761874], [72.63509671087832, 32.09229275119105], [72.6401595029674, 32.09822710386193], [72.64693136566822, 32.0932100949767], [72.65415044091927, 32.09419701541353], [72.65496076361148, 32.10261355328186], [72.64722237361534, 32.10435646916581], [72.64888212970422, 32.111574222255726], [72.65190632208366, 32.11352390693652], [72.66526675717824, 32.111496469214124], [72.67853925880546, 32.10208042969], [72.68469250496776, 32.10436320412442], [72.69606776017278, 32.10117762527754], [72.70612082279943, 32.10323051634848], [72.71048217710874, 32.09912270738655], [72.70577506495871, 32.09334806467201], [72.7074410055979, 32.084619974520436], [72.71644769340192, 32.07565878574859], [72.71856375782971, 32.064718732552784], [72.71512229032943, 32.06212795217628], [72.71523075283065, 32.051486892094786], [72.70921653882023, 32.04914532073258], [72.71159165357429, 32.02289100044767], [72.70678864821988, 32.018420887540984], [72.68696268562073, 32.01976412846494], [72.68173453926647, 32.0325923833905], [72.67751505862293, 32.03501558124202], [72.67597653276292, 32.050176110541095], [72.66899903065904, 32.05591139986244], [72.65383465624349, 32.061826292709284], [72.6449636095838, 32.056628404519316], [72.63923363480326, 32.05874349170152], [72.63383807497827, 32.05723316349627], [72.63342876768044, 32.05992637072783]], [[72.69400835417795, 32.03986499959702], [72.70041652810495, 32.037990459397], [72.7045871300859, 32.041901398825495], [72.70359112651086, 32.04670378777819], [72.69896797751741, 32.0505921122407], [72.6950342679374, 32.049379547863076], [72.69400835417795, 32.03986499959702]]], [[[72.68208879307534, 31.895319874811868], [72.6856676335267, 31.901807395289914], [72.69211814275513, 31.90183080534253], [72.69472006888637, 31.891931052748472], [72.70155155438974, 31.888797034609016], [72.70153747498222, 31.880460950155115], [72.69675193427261, 31.87961606732487], [72.69199954783188, 31.884324310710834], [72.69207458860555, 31.88984897526732], [72.68208879307534, 31.895319874811868]]]]}}, {"type": "Feature", "properties": {"threshold": 95}, "geometry": {"type": "MultiPolygon", "coordinates": [[[[73.06421298482094, 31.983071669333434], [73.06553677990205, 31.98637850921999], [73.07592869589587, 31.985703548159226], [73.07850082684644, 31.977061046384645], [73.07261125269314, 31.976737488462103], [73.07030710675019, 31.980106475421103], [73.0643158922644, 31.98053479053672], [73.06421298482094, 31.983071669333434]]], [[[73.08199807462213, 31.975031977012645], [73.0861829464983, 31.97759200681327], [73.09372837775076, 31.97768757867931], [73.09795559272342, 31.97131112546288], [73.10213884788398, 31.976297044453013], [73.11085031567079, 31.974853745527188], [73.11400630224175, 31.968542967436683], [73.12302893273731, 31.96259129728001], [73.12315139106411, 31.956572565094433], [73.11397162878967, 31.955368002112156], [73.09575780819836, 31.965844459064602], [73.0947090112488, 31.97126982821331], [73.08345732424786, 31.97232025269424], [73.08199807462213, 31.975031977012645]]], [[[72.95558020273194, 31.716139242407095], [72.96976676244186, 31.734475007309115], [72.97074440528478, 31.739328505736616], [72.96527373124087, 31.74409248762525], [72.96480305404017, 31.748955685702043], [72.97241310457252, 31.749077054653366], [72.97549648687244, 31.746662416526508], [72.97629661478818, 31.73948382733182], [72.98946499083146, 31.74024763958582], [72.9913509387798, 31.736904509747934], [72.99848283815088, 31.737331413647755], [73.00043374243481, 31.73267464916367], [73.00890379955119, 31.73019114707142], [73.00920830528622, 31.71693779707246], [73.00331968241629, 31.711771282020106], [73.00417974102159, 31.703209452983216], [72.99934389287601, 31.69345821610291], [72.98873878880987, 31.694946962604668], [72.98705290642437, 31.70082747032395], [72.98330118293931, 31.70327729326304], [72.9745743282526, 31.696953488765445], [72.9720219630639, 31.700949302988906], [72.96630019468576, 31.701520528216662], [72.96560850879291, 31.707209490813117], [72.95997045164428, 31.70970583290737], [72.95558020273194, 31.716139242407095]]], [[[72.89832389072255, 31.761943773448273], [72.89738888761754, 31.765756347130548], [72.90533489546914, 31.772256878450367], [72.92056833209504, 31.762119876584645], [72.9395917846816, 31.75907172898311], [72.94348535882595, 31.756587714273202], [72.9436482171431, 31.75222335631617], [72.94142730199125, 31.74943386656171], [72.93656812234897, 31.749301363720665], [72.92038318008487, 31.754071475788557], [72.91130033414811, 31.747426798608544], [72.90272255133988, 31.747260868961153], [72.90487445528174, 31.754674806538763], [72.8993364919697, 31.758124378416163], [72.89832389072255, 31.761943773448273]]], [[[72.91839961515102, 32.048622440216334], [72.9185868323942, 32.05441434354254], [72.92643903317061, 32.05470006625931], [72.93444630954318, 32.04635978910442], [72.92811149701112, 32.04414623579366], [72.91891413878282, 32.046345019496], [72.91839961515102, 32.048622440216334]]], [[[72.767770094463, 31.88038773795995], [72.77500817968817, 31.886722305263632], [72.77994216112837, 31.881091994840347], [72.77910372038238, 31.874372294922722], [72.76981440246588, 31.87703416970077], [72.767770094463, 31.88038773795995]]], [[[72.72275965067763, 32.0440213003218], [72.72470274845422, 32.05192152344707], [72.74012981160926, 32.05264570272687], [72.74016558682665, 32.04726159643493], [72.73696028409424, 32.044657150623635], [72.73011667751622, 32.04609598738854], [72.72852216894893, 32.03928418963629], [72.72569460317864, 32.03936554564467], [72.72275965067763, 32.0440213003218]]], [[[72.63342876768044, 32.05992637072783], [72.63772874504313, 32.07006047041473], [72.63281702377266, 32.077086250312824], [72.63918488985695, 32.080286098761874], [72.63509671087832, 32.09229275119105], [72.6401595029674, 32.09822710386193], [72.64693136566822, 32.0932100949767], [72.65415044091927, 32.09419701541353], [72.65496076361148, 32.10261355328186], [72.64722237361534, 32.10435646916581], [72.64888212970422, 32.111574222255726], [72.65190632208366, 32.11352390693652], [72.66526675717824, 32.111496469214124], [72.67853925880546, 32.10208042969], [72.68469250496776, 32.10436320412442], [72.69606776017278, 32.10117762527754], [72.70612082279943, 32.10323051634848], [72.71048217710874, 32.09912270738655], [72.70577506495871, 32.09334806467201], [72.7074410055979, 32.084619974520436], [72.71644769340192, 32.07565878574859], [72.71856375782971, 32.064718732552784], [72.71512229032943, 32.06212795217628], [72.71523075283065, 32.051486892094786], [72.70921653882023, 32.04914532073258], [72.71159165357429, 32.02289100044767], [72.70678864821988, 32.018420887540984], [72.68696268562073, 32.01976412846494], [72.68173453926647, 32.0325923833905], [72.67751505862293, 32.03501558124202], [72.67597653276292, 32.050176110541095], [72.66899903065904, 32.05591139986244], [72.65383465624349, 32.061826292709284], [72.6449636095838, 32.056628404519316], [72.63923363480326, 32.05874349170152], [72.63383807497827, 32.05723316349627], [72.63342876768044, 32.05992637072783]], [[72.69400835417795, 32.03986499959702], [72.70041652810495, 32.037990459397], [72.7045871300859, 32.041901398825495], [72.70359112651086, 32.04670378777819], [72.69896797751741, 32.0505921122407], [72.6950342679374, 32.049379547863076], [72.69400835417795, 32.03986499959702]]], [[[72.68208879307534, 31.895319874811868], [72.6856676335267, 31.901807395289914], [72.69211814275513, 31.90183080534253], [72.69472006888637, 31.891931052748472], [72.70155155438974, 31.888797034609016], [72.70153747498222, 31.880460950155115], [72.69675193427261, 31.87961606732487], [72.69199954783188, 31.884324310710834], [72.69207458860555, 31.88984897526732], [72.68208879307534, 31.895319874811868]]]]}}]}