{"type": "Feature", "properties": {"city": "Salvador", "country": "Brazil", "real_area": 220.94}, "geometry": {"type": "MultiLineString", "coordinates": [[[-38.3361746398362, -12.9208609157246], [-38.332104537878, -12.9175140461735], [-38.3330358469432, -12.9124616697834], [-38.3380372131673, -12.910756124519], [-38.3421073574865, -12.9141030100594], [-38.3411760932328, -12.9191554248646], [-38.3361746398362, -12.9208609157246]], [[-38.4919342314333, -12.915057152974], [-38.4928647021845, -12.9100032712382], [-38.4978673876644, -12.9082943575068], [-38.5019396880678, -12.911639378225], [-38.5010092629901, -12.9166932963983], [-38.505081654422, -12.9200381712461], [-38.5100845108239, -12.918329144203], [-38.5141570330985, -12.9216738893199], [-38.5132266591484, -12.9267276451198], [-38.5172992723647, -12.9300722440026], [-38.516368903826, -12.9351258009036], [-38.5113658763003, -12.936834722737], [-38.5104354674027, -12.9418880444015], [-38.5054324393387, -12.9435967473508], [-38.5045019901016, -12.9486498335816], [-38.5085746146618, -12.9519942530605], [-38.5076441708191, -12.9570471399023], [-38.5117168863699, -12.9603914126119], [-38.5107864479279, -12.9654440998596], [-38.5148592544483, -12.9687882255896], [-38.5198625391648, -12.9670796806709], [-38.5239354763306, -12.9704236758775], [-38.5230050890956, -12.9754761993259], [-38.5270781171442, -12.9788200471894], [-38.5261477353407, -12.9838723705715], [-38.5302208542511, -12.9872160708817], [-38.5292904778856, -12.9922681939926], [-38.533363687637, -12.9956117465394], [-38.5324333167158, -13.0006636691742], [-38.5365066172874, -13.0040070737476], [-38.5355762518168, -13.0090587957017], [-38.5305725398904, -13.010767077343], [-38.5296421339869, -13.0158185627244], [-38.5246384211744, -13.0175266246332], [-38.520565199722, -13.0141832538801], [-38.5155615716322, -13.0158911487048], [-38.5114884808275, -13.0125476467628], [-38.5064849377089, -13.0142553745125], [-38.5024119777512, -13.0109117415078], [-38.4974085198523, -13.0126193021917], [-38.4964779362536, -13.0176704428742], [-38.4914744780691, -13.019377783415], [-38.4874016892493, -13.0160340363498], [-38.4823983166974, -13.0177412097528], [-38.4783256592565, -13.0143973318511], [-38.4733223725855, -13.0161043381256], [-38.4692498467228, -13.0127603295139], [-38.4642466461811, -13.0144671686692], [-38.4601742520958, -13.011123029474], [-38.4551711379319, -13.0128297015194], [-38.4510988758231, -13.0094854318673], [-38.4520296872416, -13.0044344734106], [-38.4479575165511, -13.0010900566852], [-38.4429545751873, -13.0027966151695], [-38.4388825367383, -12.9994520682668], [-38.4398133988383, -12.9944009462044], [-38.4357414518943, -12.9910562525918], [-38.430738683774, -12.9927626977111], [-38.4266668693367, -12.989417874201], [-38.4275977820265, -12.9843665889798], [-38.4235260591808, -12.9810216191233], [-38.4185234647473, -12.9827279510737], [-38.4144518746733, -12.9793828515994], [-38.4153828378612, -12.9743314036666], [-38.4113113394655, -12.9709861582095], [-38.4063089191619, -12.9726923771872], [-38.4022375538027, -12.9693470023922], [-38.4031685673973, -12.9642953921951], [-38.399097293803, -12.960949871781], [-38.3940950480724, -12.9626559779822], [-38.3900239077794, -12.9593103285101], [-38.390954971689, -12.9542585564962], [-38.3959571307743, -12.9525523963657], [-38.400028312583, -12.9558980621887], [-38.4050305597908, -12.9541917355392], [-38.4091018747678, -12.9575372723309], [-38.4081709011665, -12.9625891193843], [-38.4122423078633, -12.9659345106139], [-38.417244729423, -12.9642280711839], [-38.4213162690232, -12.9675733331023], [-38.4263187781254, -12.9658667270436], [-38.4272496612215, -12.9608148054195], [-38.4322521713083, -12.9591079791559], [-38.4331830143293, -12.9540558209814], [-38.4291113925841, -12.9507105262324], [-38.4241089688342, -12.9524174060682], [-38.4200374797262, -12.9490719820611], [-38.4150351434384, -12.95077869544], [-38.4109637871667, -12.9474331423014], [-38.4118947259638, -12.942380859478], [-38.4078234613875, -12.9390351610451], [-38.4028212993416, -12.9407417617355], [-38.3987501678664, -12.9373959344512], [-38.3937480938627, -12.9391023687943], [-38.3896770956874, -12.9357564127853], [-38.3906081299855, -12.9307040062375], [-38.3956101173465, -12.9289975180394], [-38.3996811570398, -12.9323434902543], [-38.4046832325268, -12.9306368357996], [-38.4056141817224, -12.9255841553704], [-38.401543100599, -12.9222381669804], [-38.4024740549843, -12.9171852880562], [-38.3984030656185, -12.9138391550036], [-38.3934011633303, -12.9155459170032], [-38.3893303072631, -12.9121996555592], [-38.3902613119515, -12.9071466160651], [-38.3861905477284, -12.9038002103224], [-38.3811888204579, -12.9055068601181], [-38.380257770699, -12.9105598617749], [-38.3752560452465, -12.9122662916335], [-38.3743249555953, -12.917319057234], [-38.3783956364239, -12.920665430878], [-38.3774645519083, -12.9257179981715], [-38.3815353246712, -12.9290642274023], [-38.3806042452976, -12.9341165961837], [-38.3846751099741, -12.9374626807906], [-38.3837440357488, -12.9425148508546], [-38.3878149923181, -12.9458607906271], [-38.3868839232475, -12.9509127617686], [-38.3818818525329, -12.9526187553897], [-38.3809507435429, -12.9576704897082], [-38.3759486746338, -12.959376262719], [-38.3718778015401, -12.9560303555115], [-38.3668758214139, -12.9577359619415], [-38.3628050822181, -12.9543899260565], [-38.3578031911227, -12.9560953659153], [-38.3537325860236, -12.9527492014796], [-38.3546638299597, -12.9476975809504], [-38.3505933169752, -12.9443512718726], [-38.3515245660003, -12.9392994524667], [-38.3565262831073, -12.9375939040188], [-38.3574574923181, -12.932541847769], [-38.353387029331, -12.9291953781291], [-38.354318243636, -12.92414312335], [-38.3502478727598, -12.9207965095465], [-38.3511790921527, -12.9157440564434], [-38.3471088134081, -12.9123972986868], [-38.3480400378826, -12.907344647465], [-38.3439698512903, -12.9039977459661], [-38.3389684824844, -12.9057035116578], [-38.3348984303833, -12.9023564825287], [-38.3298971513588, -12.9040620822029], [-38.3258272339474, -12.9007149255703], [-38.3208260449521, -12.9024203592368], [-38.3167562624291, -12.8990730752278], [-38.3117551637106, -12.9007783428964], [-38.3076855162746, -12.897430931638], [-38.3086169248278, -12.8923782368996], [-38.3045473698275, -12.8890306827237], [-38.2995464491114, -12.8907358390914], [-38.2954770294621, -12.8873881579466], [-38.296408487622, -12.8823353047064], [-38.3014093208334, -12.8806300936458], [-38.3023407393738, -12.8755770041991], [-38.2982713693068, -12.8722291648208], [-38.2992027928311, -12.8671758783282], [-38.3042035418117, -12.8654703922403], [-38.3082729547306, -12.8688182472681], [-38.3073415758292, -12.8738715727242], [-38.3114110811801, -12.8772192853137], [-38.3164120081636, -12.875513688113], [-38.3204816485999, -12.8788612737866], [-38.3254826658636, -12.8771555108502], [-38.3264139553712, -12.8721021078187], [-38.3314149754435, -12.8703961247959], [-38.3354847932199, -12.8737435991558], [-38.3345535484829, -12.8787970407991], [-38.3386234584942, -12.88214437226], [-38.3436246555752, -12.8804382778229], [-38.3445558554924, -12.875384797685], [-38.3495570550538, -12.8736784833236], [-38.3536271417422, -12.8770257032699], [-38.3586284306765, -12.8753192232246], [-38.362698651523, -12.8786663157737], [-38.3617675413929, -12.883719872549], [-38.3658378542772, -12.8870668217386], [-38.3649067492574, -12.8921201810283], [-38.3689771541588, -12.8954669866477], [-38.3680460542555, -12.9005201482464], [-38.3721165511533, -12.9038668100847], [-38.3771181897981, -12.9021603262642], [-38.378049244698, -12.8971071266482], [-38.3830508852174, -12.8954004229759], [-38.3839819002173, -12.8903469876434], [-38.3889835425041, -12.8886400642858], [-38.3930542564729, -12.8919866300622], [-38.3980559870569, -12.8902795408917], [-38.3989869170226, -12.8852258322489], [-38.4039886491024, -12.8835185236407], [-38.404919539098, -12.8784645797304], [-38.4099212725663, -12.876757051851], [-38.4139922025235, -12.8801035214222], [-38.4189940237128, -12.8783958278829], [-38.4230650865024, -12.8817421693225], [-38.4280669951646, -12.8800343101139], [-38.4321381905876, -12.8833805232952], [-38.4371401864747, -12.881672498408], [-38.4412115143321, -12.8850185832044], [-38.440280805412, -12.8900726768868], [-38.4443522247353, -12.8934186171538], [-38.4493543937604, -12.8917104797459], [-38.4534259452533, -12.8950562913479], [-38.458428200923, -12.8933479881521], [-38.4624998843863, -12.8966936709624], [-38.4675022264524, -12.8949852019693], [-38.4715740416871, -12.8983307558615], [-38.4765764699015, -12.8966221210619], [-38.4775069969598, -12.8915678794851], [-38.473435141355, -12.8882223094952], [-38.4684327990499, -12.8899309971901], [-38.4643610750834, -12.8865852983086], [-38.4652916529946, -12.8815308957022], [-38.4612200203171, -12.8781850520421], [-38.4621506035358, -12.8731304518138], [-38.4580790621681, -12.8697844635858], [-38.453076978163, -12.8714930915526], [-38.4490055687644, -12.8681469748664], [-38.4499362027202, -12.8630922143247], [-38.4549382006507, -12.8613835333561], [-38.4558687944652, -12.8563285385006], [-38.4517974357793, -12.8529822617693], [-38.4467955239506, -12.8546909957449], [-38.4458648847181, -12.8597459534347], [-38.44086297352, -12.8614544689689], [-38.4399322941774, -12.8665091922903], [-38.4349303837172, -12.868217489216], [-38.4308592388541, -12.8648711159933], [-38.4317899635343, -12.8598164300096], [-38.4367917877521, -12.8581080799007], [-38.4377224723533, -12.8530531594939], [-38.4427242973658, -12.8513445908621], [-38.4436549418686, -12.8462894362298], [-38.4486567675684, -12.8445806492419], [-38.4495873719533, -12.8395252605818], [-38.4545891982332, -12.8378162554047], [-38.4555197624808, -12.8327606329146], [-38.4605215892333, -12.8310514097154], [-38.4614521133241, -12.825995553593], [-38.4664539404419, -12.8242861125387], [-38.4705253294151, -12.8276325803729], [-38.4755272426924, -12.8259229743009], [-38.4764576810828, -12.8208668477348], [-38.4814595944538, -12.8191570240565], [-38.4823899926175, -12.8141006643087], [-38.4873919059749, -12.8123906231913], [-38.4914635069172, -12.8157369943257], [-38.490533154358, -12.8207933909104], [-38.4855311552399, -12.822503379534], [-38.4846007624229, -12.8275595429918], [-38.4795987632343, -12.8292693140906], [-38.478668330179, -12.8343252442236], [-38.4736663310273, -12.8360347976306], [-38.472735857753, -12.8410904942409], [-38.4768074291786, -12.8444366743383], [-38.4758769612341, -12.8494921741667], [-38.4799486238547, -12.8528382100793], [-38.4790181612463, -12.8578935129202], [-38.4830899150412, -12.8612394044372], [-38.4821594577752, -12.8662945100849], [-38.4771572011368, -12.8680036874124], [-38.4762267036363, -12.8730585589106], [-38.4802985083453, -12.8764042898422], [-38.4853008508063, -12.8746951652444], [-38.4893727868872, -12.8780407673379], [-38.4884423403252, -12.8830954779825], [-38.492514367518, -12.8864409350482], [-38.4915839263175, -12.891495447883], [-38.4956560446013, -12.8948407597101], [-38.4947256087687, -12.8998950745298], [-38.4897230090028, -12.9016040409698], [-38.488792532889, -12.9066581210688], [-38.4837899329767, -12.9083668688847], [-38.4828594166012, -12.9134207140656], [-38.4869315457502, -12.9167658479957], [-38.4919342314333, -12.915057152974]], [[-38.4485394721954, -12.9724880236234], [-38.4535422424356, -12.970780917622], [-38.4544729894054, -12.9657288850208], [-38.4504010115718, -12.9623839952857], [-38.4453983274733, -12.9640911546726], [-38.4444675350789, -12.9691431503987], [-38.4485394721954, -12.9724880236234]], [[-38.3274478191111, -12.9427737526984], [-38.323377709806, -12.9394270591897], [-38.3243090932805, -12.9343753548156], [-38.3293105413049, -12.9326703054789], [-38.3333806931016, -12.9360170150957], [-38.3383822310681, -12.9343117993983], [-38.3424525174904, -12.9376583810249], [-38.3415212235997, -12.942710162204], [-38.336519598458, -12.9444153234228], [-38.3324493543944, -12.9410687579308], [-38.3274478191111, -12.9427737526984]], [[-38.3532816261673, -12.8534627557073], [-38.3492116815584, -12.8501152343455], [-38.3501428120656, -12.8450608896831], [-38.3551438422989, -12.8433540279783], [-38.3592138290096, -12.8467015649457], [-38.3582827433976, -12.8517559480021], [-38.3532816261673, -12.8534627557073]], [[-38.2657191471857, -12.8454432277198], [-38.261650462306, -12.8420945838987], [-38.2625820341562, -12.8370408256618], [-38.2675822464768, -12.8353356717321], [-38.2716509747417, -12.8386843309509], [-38.270719447313, -12.8437381286916], [-38.2657191471857, -12.8454432277198]]]}}