{"type": "Feature", "properties": {"city": "Kolkata", "country": "India", "real_area": 409.02}, "geometry": {"type": "MultiLineString", "coordinates": [[[88.2856117834673, 22.5815793101776], [88.2858909779727, 22.586547037127], [88.2813070428588, 22.5891212223925], [88.2764440880987, 22.5867277286999], [88.2761650629563, 22.581760097806], [88.2807488232105, 22.5791858645377], [88.2856117834673, 22.5815793101776]], [[88.3669986445013, 22.7663937960213], [88.3621302356068, 22.7640038367174], [88.3618495057354, 22.7590422070523], [88.3664370152053, 22.7564704419524], [88.3713054284597, 22.7588603545663], [88.3758930459625, 22.7562882598112], [88.3807617366744, 22.7586779374366], [88.3810428056494, 22.7636397564457], [88.3859117694648, 22.7660292455886], [88.3904996684121, 22.7634568691208], [88.395368909318, 22.765846123057], [88.3956502472372, 22.7708077999748], [88.3910621746944, 22.7733801285351], [88.3861929378274, 22.7709908280735], [88.3816049728165, 22.7735628268839], [88.3767360131661, 22.7711732911657], [88.3721481559321, 22.7737449602002], [88.3672794737451, 22.7713551893096], [88.3669986445013, 22.7663937960213]], [[88.27879535893, 22.5444062361066], [88.2833785755094, 22.5418307793888], [88.2830994680179, 22.5368613746099], [88.2876826199062, 22.5342855423639], [88.2925450540002, 22.5366791627189], [88.2928243308026, 22.5416486635537], [88.2976870387092, 22.5440421004684], [88.2979664146787, 22.5490113699871], [88.2933829134235, 22.5515871066206], [88.2885202108515, 22.5491936215259], [88.2839368194916, 22.5517690303809], [88.2790743962608, 22.5493753135506], [88.2744911150402, 22.5519503946011], [88.269628971396, 22.5495564461196], [88.2693501033867, 22.5445874648789], [88.2739332096996, 22.542012335905], [88.27879535893, 22.5444062361066]], [[88.3156326407071, 22.6108388694838], [88.3159124014248, 22.6158057622571], [88.3113276579964, 22.6183800839982], [88.3064633283398, 22.6159875608629], [88.3061837370144, 22.6110207637394], [88.3107683059527, 22.6084463940899], [88.3156326407071, 22.6108388694838]], [[88.425825294727, 22.384664651424], [88.4261068185508, 22.3896411405243], [88.4215242627889, 22.3922260366686], [88.4166603559433, 22.3898344901562], [88.4163790012375, 22.3848580958127], [88.4209613842587, 22.3822731532133], [88.425825294727, 22.384664651424]], [[88.2957829793038, 22.6783265638977], [88.3003684620369, 22.6757545988237], [88.3052335873867, 22.6781468035612], [88.3055132247641, 22.6831110208152], [88.3009275673219, 22.6856829376949], [88.2960624472109, 22.6832906855034], [88.2914768995683, 22.6858622732806], [88.2866120588546, 22.6834697876955], [88.2863327604193, 22.6785057618486], [88.2909181332253, 22.6759341258165], [88.2957829793038, 22.6783265638977]], [[88.2144904317539, 22.493394276703], [88.2147682674095, 22.4983646778095], [88.2101865463616, 22.5009391122022], [88.205327165369, 22.4985431936404], [88.2050494989846, 22.4935728895856], [88.2096310443211, 22.4909984070295], [88.2144904317539, 22.493394276703]], [[88.5296604090977, 22.5468569937516], [88.5299439475586, 22.5518283003319], [88.5253577106095, 22.5544118492772], [88.5204881067222, 22.5520241379731], [88.5202047375437, 22.547052924641], [88.5247908029694, 22.5444693293533], [88.5296604090977, 22.5468569937516]], [[88.253803752615, 22.6045614018696], [88.2540823977773, 22.6095279514613], [88.2494984901523, 22.6121003506725], [88.2446361126792, 22.6097062485608], [88.24435763691, 22.6047397953553], [88.2489413692204, 22.6021673478638], [88.253803752615, 22.6045614018696]], [[88.271980845292, 22.5072232699894], [88.2722597255175, 22.5121936941721], [88.2771213378655, 22.5145878636481], [88.2774003172215, 22.5195580572815], [88.2728175149422, 22.5221339851731], [88.2679559082016, 22.519739767255], [88.2676770981334, 22.5147696698989], [88.262815765479, 22.5123752692749], [88.2625370545336, 22.5074049414432], [88.267119506962, 22.504828917873], [88.271980845292, 22.5072232699894]], [[88.420361234999, 22.7057351069136], [88.4206429644373, 22.7106993333569], [88.4160555293338, 22.713274349558], [88.4111865379787, 22.7108851868595], [88.4109049780242, 22.705921054666], [88.4154922399404, 22.7033459909097], [88.420361234999, 22.7057351069136]], [[88.516645470033, 22.7336327565718], [88.5169289531015, 22.7385967864079], [88.5123399840628, 22.741174246106], [88.5074677038706, 22.7387877229945], [88.5071843902998, 22.7338237862295], [88.5117731874229, 22.7312462794932], [88.516645470033, 22.7336327565718]], [[88.4387275723895, 22.3619763206175], [88.4390093060198, 22.3669537807821], [88.4344269495693, 22.3695397931006], [88.4295630320282, 22.3671483915391], [88.429281467488, 22.3621710260184], [88.4338636513982, 22.3595849674036], [88.4387275723895, 22.3619763206175]], [[88.3954555562141, 22.6838586302707], [88.395736818093, 22.6888234684474], [88.4006049914215, 22.6912131946328], [88.4051919067796, 22.6886380357403], [88.4100603566762, 22.6910275274712], [88.4146473790149, 22.6884520397036], [88.4195161052329, 22.690841296896], [88.4197978053973, 22.6958060886191], [88.4152106098771, 22.6983815288746], [88.4103418873735, 22.6959922249077], [88.4057547987059, 22.6985673362277], [88.4060362592927, 22.7035317039394], [88.4014491043459, 22.7061064386732], [88.3965806621882, 22.703716853308], [88.3919936144557, 22.7062912589929], [88.3922748354367, 22.7112552023557], [88.3876877215919, 22.713829231229], [88.3879688724377, 22.7187928445232], [88.3928373066258, 22.7211825234629], [88.3931185568348, 22.7261459010793], [88.38853120335, 22.7287195052234], [88.3836627732333, 22.7263297795189], [88.3790755273136, 22.7289030543539], [88.3742073743961, 22.7265130939447], [88.3696202362865, 22.7290860394445], [88.3647523608148, 22.7266958444148], [88.3644716191296, 22.7217327507617], [88.3690585834059, 22.7191597573619], [88.3739264632013, 22.7215499055268], [88.3785135354155, 22.7189765828522], [88.3782325540683, 22.7140130641757], [88.3733646700068, 22.7116229628905], [88.3687777715591, 22.7141963334135], [88.3639101649376, 22.7118059976918], [88.3636294524297, 22.7068423384033], [88.3682161770501, 22.7042689200232], [88.3679353943868, 22.6993049307095], [88.3725220531956, 22.6967311353961], [88.3722412003847, 22.6917668162106], [88.3673738582405, 22.6893763871658], [88.3670931047564, 22.6844118330641], [88.3716795239493, 22.6818376131937], [88.3713987003238, 22.6768727294907], [88.3665316269638, 22.6744821605223], [88.3662509026544, 22.6695170422106], [88.3613841024184, 22.6671262864783], [88.3611034774161, 22.6621609337485], [88.3562369503557, 22.6597699914514], [88.3516510527914, 22.6623443546603], [88.3519315083497, 22.6673096123668], [88.356798030917, 22.6697006018991], [88.3570785857749, 22.6746656252613], [88.3524924486128, 22.6772395640427], [88.3527729333185, 22.6822042578837], [88.3481867305457, 22.6847778198873], [88.3484671450913, 22.6897421840535], [88.3438808767578, 22.6923153691407], [88.3390143680159, 22.6899242379938], [88.3387341229419, 22.6849599689609], [88.3433202171376, 22.6823867359301], [88.3430399018945, 22.6774221371858], [88.3381736619191, 22.6750308666678], [88.3378934459693, 22.6700660335359], [88.3424793005394, 22.6674923757401], [88.3421990144266, 22.6625272131673], [88.3373330431903, 22.6601358036228], [88.3370528563603, 22.6551704069702], [88.3321871585916, 22.6527788113286], [88.3319070710351, 22.6478131807869], [88.3364925118164, 22.6452390505941], [88.3362123541016, 22.6402730909992], [88.3407977294899, 22.6376985843746], [88.3405175016246, 22.6327322958806], [88.3451028115699, 22.6301574129629], [88.3448225135617, 22.6251907957236], [88.339957075012, 22.6227991566719], [88.3353719391802, 22.6253740873598], [88.3305067787737, 22.6229822152292], [88.3302267494222, 22.6180154599984], [88.3348117110799, 22.6154404815316], [88.3396768762638, 22.6178323060859], [88.3442619466697, 22.6152569992957], [88.3439816777849, 22.6102898202359], [88.3391165078811, 22.6078980432731], [88.3345316115825, 22.6104733977901], [88.329666719816, 22.6080813879327], [88.3293867195603, 22.6031140712266], [88.3339714416909, 22.6005386689745], [88.3336913712956, 22.5955710240293], [88.3288267481415, 22.5931788767905], [88.3242422002397, 22.5957543267863], [88.3193778554627, 22.5933619469215], [88.3147934166918, 22.5959370687754], [88.3099293505377, 22.5935444563688], [88.3096497181043, 22.5885767699573], [88.3047859256421, 22.5861839729807], [88.3002017707907, 22.5887588145397], [88.295338257317, 22.58636578524], [88.2950588934502, 22.5813979623457], [88.2996428736966, 22.5788230729052], [88.2993634396673, 22.5738549220507], [88.3039473550053, 22.5712796567339], [88.3036678508213, 22.5663111780734], [88.2988046006417, 22.5639180605897], [88.2942208599024, 22.5664933737442], [88.2893578888249, 22.5641000242561], [88.2847742579703, 22.5666750094849], [88.2850534234666, 22.571643296292], [88.2804697278873, 22.57421790561], [88.2756070416646, 22.5718242760683], [88.2753280455144, 22.5668560853536], [88.2799115662402, 22.5642814280767], [88.2796324999154, 22.5593129096002], [88.2842159559833, 22.5567378764647], [88.2890786531631, 22.5591314097239], [88.293662219243, 22.5565560487233], [88.2985251956445, 22.5589493501124], [88.3031088714924, 22.5563736612728], [88.3028293963466, 22.5514046232618], [88.3074130072531, 22.5488285588762], [88.3071334619664, 22.5438591934861], [88.3022704750899, 22.5414659883414], [88.301991028978, 22.5364963915613], [88.3065744004343, 22.5339199040799], [88.3114373924619, 22.5363130610792], [88.316020873336, 22.5337362460195], [88.3157411877907, 22.5287662263352], [88.3108781906696, 22.5263731174967], [88.3105986042961, 22.5214028666582], [88.3057358807314, 22.5190095743762], [88.3011527487024, 22.5215864847177], [88.2962903039757, 22.5191929609001], [88.2917072816193, 22.5217695437847], [88.2868451159759, 22.5193757885159], [88.2865659673335, 22.514405498716], [88.2911488150491, 22.5118288681176], [88.2908695962676, 22.5068582515649], [88.2954523792091, 22.5042812459086], [88.2951730902963, 22.499310302758], [88.2903111877095, 22.496916461345], [88.2900319979319, 22.4919452878075], [88.2851703691073, 22.4895512637509], [88.2805879354955, 22.4921283647546], [88.2808669560127, 22.4970994421257], [88.2762844577601, 22.4996761681765], [88.2714231138122, 22.4972818645833], [88.2711442625569, 22.4923108834895], [88.2757265859871, 22.4897341097002], [88.2754476645884, 22.4847628022078], [88.2800299234447, 22.4821856535181], [88.2797509319102, 22.4772140197822], [88.2843331261427, 22.4746364963317], [88.2840540644801, 22.4696645365076], [88.2886361940389, 22.4670866384359], [88.2934975598829, 22.4694807477807], [88.2980797992735, 22.4669025227558], [88.2978004982651, 22.4619301408694], [88.3023826728155, 22.4593515414503], [88.3021033017035, 22.4543788338234], [88.2972419252569, 22.4519848216964], [88.296962653256, 22.4470118845396], [88.2921015504015, 22.4446176904321], [88.2918223775025, 22.4396445239376], [88.2964041382584, 22.4370654554102], [88.3012652463961, 22.4394596008197], [88.3015445884943, 22.4444328634432], [88.306405970156, 22.446826826938], [88.3066854113638, 22.4517998601499], [88.311547066498, 22.4541936415297], [88.3161292855131, 22.4516143411041], [88.3209912190894, 22.4540078916525], [88.3255735472153, 22.4514282645014], [88.3304357589883, 22.4538215841342], [88.3307156377396, 22.4587945793726], [88.3355781226943, 22.4611877164215], [88.3401607336666, 22.4586078098048], [88.3450234964527, 22.4610007157197], [88.3496062159207, 22.4584204823705], [88.3544692562924, 22.4608131570672], [88.3590520840119, 22.4582325970125], [88.3587716976356, 22.4532593151608], [88.3633544597655, 22.4506783813764], [88.3682177818692, 22.4530707765064], [88.3728006518898, 22.4504895161312], [88.372520026277, 22.4455158136389], [88.3771028305416, 22.4429341797619], [88.3819664338222, 22.4453262953266], [88.3865493456168, 22.4427443349736], [88.3862684807955, 22.4377702121822], [88.3908513266677, 22.4351878785558], [88.3905703918397, 22.4302134307886], [88.3951531717396, 22.4276307240293], [88.3948721669126, 22.4226559514424], [88.3900085513514, 22.4202639806587], [88.3897276456902, 22.4152889784261], [88.3943101864326, 22.4127058519476], [88.3991738059723, 22.4150977744403], [88.4037564537783, 22.4125143218374], [88.4086203494111, 22.4149060131631], [88.4132031040366, 22.4123222344632], [88.4129217900889, 22.4073467178355], [88.4080578906611, 22.4049550747656], [88.4077766758836, 22.3999793286559], [88.4123591913968, 22.3973951307728], [88.4172230945623, 22.3997867255716], [88.4218057166618, 22.3972022017678], [88.4266698954225, 22.3995935654173], [88.4269514484713, 22.4045695010795], [88.4223686536253, 22.4071539783831], [88.422650136717, 22.412129589769], [88.4180672755163, 22.4147136945383], [88.4183486886431, 22.4196889814916], [88.4137657611374, 22.4222727135856], [88.4140471042916, 22.4272476759501], [88.4189115441129, 22.4296390009542], [88.4191929864569, 22.4346137333334], [88.4240576982947, 22.4370048748765], [88.4286409713779, 22.4344212359708], [88.4335059587018, 22.4368121458607], [88.4380893379769, 22.434228180704], [88.4429546005406, 22.4366188588569], [88.4432364804331, 22.4415935500967], [88.4386529285885, 22.4441774687315], [88.4337876694204, 22.4417867426369], [88.4292042236398, 22.4443703349602], [88.4243392398375, 22.441979377078], [88.4197559003654, 22.4445626430621], [88.4200373719309, 22.4495368202816], [88.4154539661198, 22.4521197132033], [88.4105892616345, 22.4497284755897], [88.4060059624928, 22.4523110420567], [88.4011415339917, 22.4499195727722], [88.3965583417639, 22.4525018127572], [88.39683940495, 22.4574754752064], [88.4017038295627, 22.4598669925537], [88.4062871948771, 22.4572847993776], [88.4111518955999, 22.4596760850037], [88.4157353677003, 22.4570935652849], [88.4206003442871, 22.459484619106], [88.4208818450786, 22.4644582405808], [88.4162982000802, 22.4670407135592], [88.4165796308806, 22.4720140096219], [88.4214448758911, 22.4744049273312], [88.4217264059131, 22.4793779924768], [88.4171425217045, 22.4819600452739], [88.4174239817292, 22.4869327847335], [88.4128400311972, 22.4895144639415], [88.4131214212167, 22.4944868775593], [88.4179869310061, 22.496877706595], [88.4182684202594, 22.5018498888674], [88.4136842304772, 22.5044311474638], [88.4139656497191, 22.5094030036209], [88.418831427998, 22.5117936957711], [88.4191129464844, 22.5167653202727], [88.4239789969308, 22.519155827568], [88.4242606146706, 22.5241272202226], [88.4196760126938, 22.526708011052], [88.414809965898, 22.5243174561335], [88.4145285174291, 22.5193461580205], [88.4096627428692, 22.5169554181815], [88.4050784205554, 22.5195359287934], [88.4053596997515, 22.5245071322539], [88.4102254705348, 22.5268979197665], [88.4105068489785, 22.5318688913356], [88.4059222873573, 22.5344489807138], [88.406203595768, 22.5394196255839], [88.4016189679387, 22.5419993405674], [88.4019002063087, 22.5469696585833], [88.4067662418073, 22.5493603562805], [88.4113510427588, 22.5467806883725], [88.4162173544017, 22.5491711532406], [88.4208022620725, 22.5465911579006], [88.4256688496131, 22.5489813898558], [88.4259505258537, 22.5539516646014], [88.4213654452497, 22.5565316129346], [88.421647051462, 22.5615015606277], [88.4170619044491, 22.5640811344093], [88.4173434406254, 22.5690507548949], [88.4222102931365, 22.5714408960428], [88.4267956130886, 22.5688613693121], [88.426513907591, 22.5638916543942], [88.4310991610673, 22.5613117530597], [88.4359662928531, 22.5637016136451], [88.4362481676702, 22.5686714228844], [88.4411155715005, 22.5710610974855], [88.4457011038787, 22.5684809155551], [88.445419059744, 22.5635110121052], [88.450004525413, 22.5609304557463], [88.4548722077723, 22.5633198497183], [88.4594577791703, 22.560738965888], [88.4643257364463, 22.563128126428], [88.4689114133285, 22.5605469151537], [88.4737796452742, 22.5629358421782], [88.4783654273957, 22.5603543034873], [88.4832339337642, 22.5627429969126], [88.48781982088, 22.5601611308326], [88.4875370295242, 22.5551905247027], [88.4921228494138, 22.5526082846854], [88.4969916326353, 22.5549966973852], [88.4972745932894, 22.5599673971338], [88.5021436477624, 22.5623556231107], [88.5067297441316, 22.5597731023351], [88.5115990722861, 22.5621610944628], [88.5161852729145, 22.559578246381], [88.5210548745032, 22.561966004576], [88.5213382731066, 22.5669366577174], [88.5167519008207, 22.5695194593523], [88.5170352294837, 22.5744897855415], [88.5124487896041, 22.5770722133106], [88.5075791927852, 22.5746843613781], [88.5029928571531, 22.5772664616926], [88.5032759465476, 22.5822363673767], [88.5081455408951, 22.5846242661557], [88.5084287296537, 22.5895939379754], [88.5038421547358, 22.5921756175924], [88.4989725629172, 22.5897876719816], [88.4943860924804, 22.592369023968], [88.494669041936, 22.597338274898], [88.4900825041716, 22.5999192525103], [88.4852131890049, 22.5975310258971], [88.4806267560836, 22.6001116757635], [88.4757577152295, 22.5977232150482], [88.4711713873965, 22.6003035371413], [88.4663026211021, 22.5979148424073], [88.4660201796763, 22.5929458725603], [88.4611516850973, 22.5905569909101], [88.4565656350362, 22.5931370320997], [88.4568479071147, 22.5981059080307], [88.4522617901931, 22.6006855744953], [88.4525439922529, 22.6056541226682], [88.4574124805916, 22.6080430983412], [88.4576947819909, 22.6130114125916], [88.4625635421821, 22.6154002012178], [88.4671500040537, 22.6128206286433], [88.4668675332903, 22.6078522205134], [88.4714539281676, 22.6052722731097], [88.4763229661252, 22.6076607807282], [88.4809094662075, 22.6050805054635], [88.4857787786039, 22.6074687789293], [88.4860615880894, 22.6124373744859], [88.4814749158191, 22.6150176029304], [88.481757655308, 22.6199858705684], [88.4866272364352, 22.6223740033578], [88.4912140808322, 22.6197938217252], [88.4909311719759, 22.6148254605029], [88.4955179490778, 22.6122449041644], [88.500387807035, 22.6146327558113], [88.5006708852566, 22.6196012105071], [88.4960839361564, 22.6221817200941], [88.4963669443924, 22.6271498467911], [88.4917799279299, 22.6297299816201], [88.4920628661725, 22.6346977801638], [88.4874757823978, 22.6372775400952], [88.4826059325123, 22.6348895483269], [88.4780189536746, 22.6374689801286], [88.4783016525221, 22.6424363567795], [88.4737146065388, 22.6450154134563], [88.4688450340351, 22.6426271404386], [88.4642580933507, 22.645205868871], [88.4645405527747, 22.6501728232897], [88.4599535451114, 22.6527511763703], [88.4550842505467, 22.6503626221008], [88.4548019605298, 22.6453957615257], [88.4499329379192, 22.6430070196151], [88.4496507472647, 22.6380399243839], [88.4447819966603, 22.6356509950312], [88.4401954400218, 22.6382291140423], [88.4404774612747, 22.6431961152455], [88.4453462085683, 22.6455850914772], [88.4456283291761, 22.6505518580979], [88.4410415330799, 22.6531295544334], [88.4413235836332, 22.6580959922895], [88.4461925997018, 22.6604848278128], [88.4464747496207, 22.6654510307785], [88.4513440377805, 22.6678396785303], [88.451626287074, 22.6728056464148], [88.456495847273, 22.6751941061959], [88.4610831613406, 22.6726165514123], [88.4659529966206, 22.6750047764202], [88.4662355147385, 22.6799706028035], [88.4711056218846, 22.6823586395076], [88.4713882394026, 22.687324230355], [88.4762586183626, 22.6897120785563], [88.4765413352897, 22.6946774336774], [88.4719535038018, 22.6972548469855], [88.472236150684, 22.7022198726401], [88.4771067985177, 22.7046075785477], [88.4773895448196, 22.7095723681687], [88.4822604644314, 22.7119598851105], [88.4868486405598, 22.7093825660767], [88.4917198346478, 22.7117698475756], [88.4963081156558, 22.7091921996731], [88.5011795839726, 22.7115792456456], [88.5014627686566, 22.7165439857368], [88.4968743155489, 22.7191215865753], [88.4971574302024, 22.7240859968867], [88.4925689096788, 22.7266632216807], [88.487697446668, 22.7242760832672], [88.4831090310124, 22.726852979045], [88.4833919061331, 22.7318169660574], [88.4788034232286, 22.7343934855645], [88.4739322375652, 22.7320060652752], [88.4736495319411, 22.7270421717392], [88.4687786181409, 22.7246545621552], [88.4684960119488, 22.7196904321619], [88.463625370064, 22.717302633482], [88.4633428632948, 22.7123382672216], [88.467930828928, 22.7097616060059], [88.4676482520984, 22.7047969099715], [88.4627778791094, 22.7024089688385], [88.4581900860225, 22.7049856773076], [88.4533199881253, 22.7025975010329], [88.4487323007822, 22.7051738806129], [88.4438624782241, 22.7027854692802], [88.4392748968701, 22.7053615199443], [88.4344053498981, 22.7029728736374], [88.4298178747783, 22.7055485953588], [88.4249486036395, 22.7031597141615], [88.4246668041016, 22.6981951579135], [88.4292541062292, 22.6956193887489], [88.4341233808875, 22.698008223287], [88.4387107893774, 22.6954321252401], [88.4384287502844, 22.6904671452756], [88.4335594721643, 22.6880783574118], [88.4332775324507, 22.6831131420153], [88.4378647014026, 22.6805366204424], [88.4375826916128, 22.6755710757024], [88.432713682317, 22.6731821466258], [88.4281266862844, 22.6757587155468], [88.4232579528106, 22.6733695519482], [88.4229762118286, 22.6684038662597], [88.4181077507561, 22.6660145150925], [88.4135210343338, 22.6685908027559], [88.4138026058749, 22.6735563941579], [88.4092158230908, 22.6761323057032], [88.4043476420016, 22.6737426733121], [88.4040662399033, 22.6687771763071], [88.3991983314565, 22.6663873566156], [88.3946118290287, 22.6689629869708], [88.3897441972648, 22.6665729331429], [88.3851578022015, 22.6691482348042], [88.3854388654088, 22.6741135426835], [88.3808524043342, 22.6766884679658], [88.3811333974172, 22.6816534464341], [88.3860010210309, 22.6840435942868], [88.3905876556651, 22.6814687166546], [88.3954555562141, 22.6838586302707]], [[88.4097453837045, 22.4348056728476], [88.4094641105307, 22.4298310352279], [88.4045999465621, 22.4274394787884], [88.4000170596095, 22.4300225118207], [88.4002981636113, 22.4349970545696], [88.4051623237382, 22.4373886591684], [88.4097453837045, 22.4348056728476]], [[88.3559564246513, 22.6548044044944], [88.360542256572, 22.6522296648365], [88.3602616607293, 22.6472637487828], [88.3648474269564, 22.6446886328147], [88.3645667609831, 22.6397223878182], [88.3597004982, 22.6373313538016], [88.355114905837, 22.6399065174624], [88.3553954023924, 22.6448726674356], [88.3508097444027, 22.6474474548382], [88.3510901708183, 22.6524132758317], [88.3559564246513, 22.6548044044944]], [[88.3748615370105, 22.6544361529467], [88.3699947280981, 22.6520454915997], [88.3654087880678, 22.6546205598834], [88.3656894832069, 22.6595862418269], [88.3705562878099, 22.6619769503741], [88.3751424015826, 22.6594019297661], [88.3748615370105, 22.6544361529467]], [[88.3269725905938, 22.4762916122228], [88.3315553321295, 22.4737124538359], [88.3312754243097, 22.4687400142884], [88.326412944182, 22.4663468288393], [88.3218303767592, 22.4689260345644], [88.3221101153507, 22.4738983783889], [88.3269725905938, 22.4762916122228]], [[88.3363152481136, 22.5582155131521], [88.3408993605922, 22.5556385132197], [88.3406192081566, 22.5506690926819], [88.3452032552271, 22.5480917175515], [88.3449230326873, 22.5431219697822], [88.3400589323874, 22.5407296925605], [88.335475059333, 22.54330711519], [88.3357551125618, 22.5482767675305], [88.331171174166, 22.5508538150143], [88.3263073566845, 22.5484612577058], [88.3217235272076, 22.5510379775166], [88.3220033410014, 22.5560072070124], [88.3268671535944, 22.5583998122852], [88.3314511572816, 22.5558231400865], [88.3363152481136, 22.5582155131521]], [[88.3534321305097, 22.6101056814662], [88.3537125687804, 22.6150729557338], [88.3585782897526, 22.6174643141462], [88.3588588272893, 22.6224313551107], [88.3542734744609, 22.6250069425403], [88.3545539418717, 22.6299736549504], [88.3594199315125, 22.6323648750028], [88.364005458199, 22.6297893352225], [88.3637248213871, 22.6248225277521], [88.3683102823471, 22.6222466119913], [88.3680295754186, 22.6172794760033], [88.3726149706022, 22.6147031844009], [88.3723341935648, 22.6097357200496], [88.3674681907259, 22.6073446422758], [88.3628829692666, 22.6099209814234], [88.3580172438266, 22.6075296705024], [88.3577367354362, 22.602562067952], [88.3528712831051, 22.6001705715248], [88.348286343701, 22.6027466301027], [88.3485666827148, 22.6077141374823], [88.3534321305097, 22.6101056814662]], [[88.3932058118616, 22.6441331560929], [88.3886197223901, 22.6467092575988], [88.3889008265039, 22.65167545817], [88.3937681895101, 22.654065651865], [88.3983544524013, 22.651489597862], [88.3980731788672, 22.6465233026727], [88.3932058118616, 22.6441331560929]], [[88.2199058642878, 22.5057305372254], [88.2196279295588, 22.5007603659155], [88.2242097623668, 22.498185604065], [88.2239317574413, 22.4932151060174], [88.2285135263082, 22.4906399686932], [88.2333734755585, 22.49303537747], [88.2336516497526, 22.4980059723481], [88.2385118734813, 22.5004011992882], [88.2387901467643, 22.5053715642221], [88.2342080270426, 22.5079466054707], [88.2293478094348, 22.5055513298076], [88.2247658011027, 22.5081260435636], [88.2250438349141, 22.513095984885], [88.2204617626243, 22.5156703229757], [88.2156018321135, 22.5132747678803], [88.2153239675888, 22.5083049234629], [88.2199058642878, 22.5057305372254]]]}}