{"type": "Feature", "geometry": {"type": "MultiPolygon", "coordinates": [[[[55.386174369301244, 45.20259045510017], [55.38484236732461, 45.2060000250182], [55.386163631812764, 45.209250837128735], [55.39703992068152, 45.217307840020446], [55.40631306163762, 45.2135882599989], [55.40933958132416, 45.20904601072099], [55.406307859339066, 45.20070463575131], [55.399383146979226, 45.1972919280789], [55.39157800741245, 45.199229704327294], [55.386174369301244, 45.20259045510017]]], [[[55.299884654385764, 45.40559871184107], [55.302804294211995, 45.40498448636687], [55.304794307439685, 45.40215725039204], [55.3041417929256, 45.399118106532995], [55.30150337949266, 45.39740513506778], [55.29847081285337, 45.398018689160494], [55.29652231708932, 45.400756823775836], [55.297166424835225, 45.403880016533016], [55.299884654385764, 45.40559871184107]]], [[[55.151519067883136, 45.305894729146374], [55.15995222302418, 45.33582155033001], [55.16280756158683, 45.340074986582785], [55.17534684918464, 45.344079877439455], [55.181386839058746, 45.34350311485372], [55.194453929599966, 45.352497304935405], [55.197226947697075, 45.35177870381514], [55.201161436728285, 45.34736497747483], [55.20649614026119, 45.34702550546457], [55.20907141759674, 45.345022445990224], [55.20981930900337, 45.33603256664349], [55.20606268733446, 45.32970363377901], [55.21472451437592, 45.31988509988468], [55.210350065576435, 45.31138386345118], [55.211963272497165, 45.30277803029367], [55.17886741264258, 45.22923756490673], [55.17624941368194, 45.22721509178082], [55.17098359080928, 45.22799853816518], [55.16850718476068, 45.2268760836245], [55.167298487909086, 45.22403430600309], [55.168100338259784, 45.218888854908386], [55.16389168084374, 45.21439306778458], [55.15222297328132, 45.21701923985426], [55.14977863320021, 45.22077955138512], [55.15307047238696, 45.226153268568936], [55.1639031443522, 45.22518835780927], [55.16732629684701, 45.22814544680419], [55.1662683901384, 45.29515324163139], [55.1631140180632, 45.29867231387261], [55.15720728769602, 45.296542236853426], [55.151833314147886, 45.29760008736578], [55.15023779923541, 45.30063608610159], [55.151519067883136, 45.305894729146374]]], [[[55.142829614635836, 45.37745411562651], [55.14450087841294, 45.380450556002515], [55.14936722649681, 45.381902568470316], [55.15347156594691, 45.37845684412207], [55.1542611669949, 45.375348394960966], [55.15238784424392, 45.37258117762394], [55.147481221057824, 45.371175440116524], [55.14370273976466, 45.37422354795085], [55.142829614635836, 45.37745411562651]]], [[[55.13685931890832, 45.19032267462512], [55.13716196341774, 45.19413683475659], [55.141108161118574, 45.196328901792924], [55.144303347961994, 45.19532484523094], [55.14650747699391, 45.19177281242981], [55.14546492665506, 45.18846949323895], [55.14196155801634, 45.18683103196762], [55.139306540280906, 45.1874203037253], [55.13685931890832, 45.19032267462512]]], [[[55.083113935421956, 45.46486671588601], [55.08351616466338, 45.46213747866175], [55.08180915391027, 45.45962198624026], [55.076172102854486, 45.456785829769146], [55.069344332493934, 45.4557400904783], [55.06163710919933, 45.45735286390929], [55.054722483108435, 45.46533447135837], [55.05394802895635, 45.46827054873054], [55.05649883454559, 45.47342780791019], [55.05974060529934, 45.47535151426349], [55.07270298766051, 45.47589281002959], [55.083113935421956, 45.46486671588601]]]]}, "properties": {}}