{"type": "Feature", "properties": {"city": "Beyneu", "country": "Kazakhstan", "real_area": 26.81}, "geometry": {"type": "MultiLineString", "coordinates": [[[55.205162606401, 45.3183977437557], [55.2027127838924, 45.3232568169377], [55.1956283507645, 45.3241929679106], [55.1931775390249, 45.3290517218781], [55.1978119246857, 45.3329747134278], [55.1953608878049, 45.3378335365455], [55.1882747008706, 45.3387689794681], [55.1858226742731, 45.3436274829001], [55.1787359064437, 45.3445622200512], [55.1741023385361, 45.3406384566351], [55.1670161635694, 45.3415724908841], [55.162383952513, 45.337648413564], [55.164837506766, 45.3327906877889], [55.1602062426427, 45.3288666826083], [55.162659570784, 45.3240090258482], [55.1580292532343, 45.32008509305], [55.1604823552721, 45.3152275055096], [55.1558529839365, 45.3113036453367], [55.158305859879, 45.3064461272204], [55.1653873446836, 45.3055120803046], [55.1678392322398, 45.3006542428306], [55.1632103974368, 45.2967308412498], [55.1656620592345, 45.291873073586], [55.1727417935093, 45.2909383186158], [55.175192467405, 45.2860802320654], [55.1705641693231, 45.2821572893777], [55.1730146177963, 45.2772992730236], [55.1683872649457, 45.2733764036592], [55.1708374880045, 45.2685184577059], [55.1662110800266, 45.2645956619075], [55.1686610776792, 45.2597377865595], [55.1757367217715, 45.2588023181617], [55.1781857326615, 45.2539441247613], [55.1852607980947, 45.2530079525636], [55.1898880221709, 45.2569299765625], [55.1874397731365, 45.261788558694], [55.1920679421788, 45.2657106562286], [55.1896194683854, 45.2705693091239], [55.1942485827525, 45.2744914799515], [55.1917998841924, 45.279350203406], [55.196429944243, 45.2832724472837], [55.2035091105091, 45.28233558162], [55.2081405241582, 45.2862575122118], [55.2056923641308, 45.2911166945514], [55.2103247242278, 45.2950386976923], [55.2078763397388, 45.2998979501588], [55.2125096466431, 45.3038200256057], [55.2100610376851, 45.3086793479945], [55.214695291756, 45.3126014955043], [55.2122464583215, 45.3174608876108], [55.205162606401, 45.3183977437557]], [[55.1272404976592, 45.3286721894495], [55.1296963396962, 45.3238156311438], [55.1367795602822, 45.3228837003994], [55.1414081115176, 45.3268083317844], [55.1389530315821, 45.3316652793777], [55.1318686381637, 45.3325972063073], [55.1272404976592, 45.3286721894495]]]}}