{"type": "Feature", "geometry": {"type": "MultiPolygon", "coordinates": [[[[-79.72360430977274, 8.976229354205882], [-79.72234333446808, 8.981094452549048], [-79.71591880526518, 8.985925418000296], [-79.7100921053468, 8.985559749944102], [-79.7022720773136, 8.9793057245539], [-79.6861483908708, 8.983979705048894], [-79.67306426390262, 8.984048173659202], [-79.65639495683894, 8.978384501204232], [-79.65139545646015, 8.978901704357531], [-79.6472336351434, 8.976920919596607], [-79.64132955486117, 8.976778622922659], [-79.6358163324026, 8.969800639490389], [-79.63805627824115, 8.96229927018191], [-79.6349001816414, 8.95865302229942], [-79.62634633227364, 8.959628289463025], [-79.62103377516961, 8.962656953061982], [-79.59852369869104, 8.962865434029583], [-79.59257472510458, 8.965196411255128], [-79.58692456459073, 8.96249609057676], [-79.58157244956233, 8.963091895868935], [-79.5746447475294, 8.96630309473078], [-79.5735685646291, 8.97103416052166], [-79.5804884798478, 8.975190122345941], [-79.58157962506424, 8.982686811372764], [-79.58721777175145, 8.989181828720453], [-79.59245133293226, 8.99228842409793], [-79.59655723838887, 9.001423881515898], [-79.59413037037527, 9.009671041521406], [-79.58677720665138, 9.015244685540056], [-79.58736078201491, 9.022800799536517], [-79.5908203786704, 9.027304561497527], [-79.59077070579116, 9.030654060646562], [-79.57906195425818, 9.037391044669326], [-79.57181603340982, 9.03296901157324], [-79.57016225317359, 9.029106499236793], [-79.57117583540754, 9.022030926440792], [-79.56366857385179, 9.017973752034635], [-79.55857333079553, 9.008491417746422], [-79.56141010299811, 8.99915544966631], [-79.56527193033638, 8.997670648343695], [-79.57155943097929, 8.998884594476152], [-79.57546482332494, 8.9934015240693], [-79.5684710120715, 8.980621641141392], [-79.56912191841322, 8.971766932855425], [-79.56575637081811, 8.970126584545342], [-79.55912798759265, 8.971906909685151], [-79.55686151971722, 8.980748049734354], [-79.55229262813218, 8.983629620387015], [-79.54957825845959, 8.989454644258169], [-79.54418215332242, 8.990841939886279], [-79.54218941732074, 8.993217868012907], [-79.54287305561719, 9.001944226524696], [-79.54994681474477, 9.005163818397117], [-79.55205784842774, 9.008468068250515], [-79.54825555929042, 9.01582578441322], [-79.5431207949802, 9.019322809500903], [-79.5421387441565, 9.022190664070562], [-79.54372697391527, 9.028982692494548], [-79.5491194963389, 9.03570448798057], [-79.56816372210709, 9.043492373999076], [-79.56879969397883, 9.046622603499502], [-79.56633855851992, 9.052163875782544], [-79.56648966418223, 9.056400162161314], [-79.56956565525002, 9.059982190072544], [-79.57205758334234, 9.067507962904992], [-79.57806167734894, 9.071011843570508], [-79.58285441036024, 9.080735165223313], [-79.58290499754428, 9.085983740229487], [-79.58710717178235, 9.092711058486357], [-79.58681687635294, 9.097715117661535], [-79.5809434705525, 9.103953532519567], [-79.58001503146043, 9.110310346807818], [-79.57206537171047, 9.120582146383466], [-79.5522703580818, 9.113270643003032], [-79.55017116867153, 9.111059198555775], [-79.55028656055453, 9.107800920660162], [-79.55711205109205, 9.095971112489718], [-79.56296871140246, 9.09387141691768], [-79.5649445570983, 9.091122919240377], [-79.56227753906292, 9.083715675765863], [-79.55544602901138, 9.078287901446242], [-79.54477677486494, 9.083422606453935], [-79.53566193001846, 9.082254024022832], [-79.53257065714625, 9.084502036395714], [-79.5324995516351, 9.090249300623583], [-79.52828463043882, 9.095774873794383], [-79.527213029932, 9.10183010836565], [-79.5354115058792, 9.114981540498844], [-79.53187243398907, 9.120576385341412], [-79.53073559943145, 9.128008338094661], [-79.52566000151629, 9.133649684842949], [-79.52240601932404, 9.133473973551867], [-79.51931920018237, 9.130615139257731], [-79.51811322260346, 9.120523616419506], [-79.51658906195955, 9.118285200430412], [-79.50619585669287, 9.115711558702827], [-79.50244690850319, 9.108534189480595], [-79.49584193628343, 9.108515207855449], [-79.48573911550729, 9.102945007560818], [-79.48440594692453, 9.099709569850837], [-79.48646561848062, 9.092786011510372], [-79.49251384068369, 9.086235204881298], [-79.50039332279748, 9.085604407630601], [-79.50535714550963, 9.081775247517077], [-79.51047708076885, 9.080837796099733], [-79.5122754689262, 9.078299922688256], [-79.5106143549736, 9.067897927145635], [-79.50197158352913, 9.063794569643163], [-79.4995659498286, 9.057977058777306], [-79.4973788482273, 9.056351092056126], [-79.49465782769029, 9.056503500815392], [-79.48753012770977, 9.060940197278242], [-79.48410942302435, 9.066370656148969], [-79.47827742364956, 9.067031954585316], [-79.47396057195274, 9.07055543101399], [-79.473626786849, 9.090032753071092], [-79.47003824655759, 9.094440404225702], [-79.46328765813503, 9.092879638179216], [-79.45663176864005, 9.0942168662682], [-79.44956118298481, 9.087108389963888], [-79.445245756572, 9.085635061161243], [-79.44202047913623, 9.082455425296809], [-79.4488318761397, 9.06088158919993], [-79.44333478937641, 9.048059993679267], [-79.44850972749468, 9.04062042213833], [-79.45074099716426, 9.033739233610092], [-79.44925133007723, 9.030648217789073], [-79.44386172241806, 9.029073929349897], [-79.44126547447256, 9.026421367147009], [-79.4409893921662, 9.02345255059618], [-79.44351379488327, 9.01892551819756], [-79.45070046201161, 9.015950334195214], [-79.45256190285733, 9.010051081957506], [-79.45589759106024, 9.007601141916448], [-79.47618686006503, 9.00493817482133], [-79.48262202733895, 9.001971446044005], [-79.48722789227286, 9.002225949906215], [-79.4916123942859, 9.000450343324587], [-79.49437724138292, 8.988517937450366], [-79.50034600496468, 8.98486193893894], [-79.50517620774389, 8.973840974620472], [-79.51522634265906, 8.968178268180466], [-79.52109889945974, 8.972114000006039], [-79.52411918579595, 8.972281286955079], [-79.53015355111991, 8.965202818308137], [-79.5325899870777, 8.959739493390519], [-79.52801289002724, 8.951467136900934], [-79.52980474899867, 8.947276186160675], [-79.54497936985558, 8.944328915307853], [-79.55583368870379, 8.937552294084078], [-79.56510557479066, 8.941165047708385], [-79.57071538775516, 8.936879038354665], [-79.57794283134372, 8.935956345703618], [-79.5794503687445, 8.928586219440339], [-79.58277712681627, 8.922830151002504], [-79.5790075849622, 8.918006528274715], [-79.5765429142564, 8.910557030261671], [-79.57060956433095, 8.905157818286032], [-79.56947191851975, 8.898821611436105], [-79.57218441347882, 8.895497086982314], [-79.57867997550281, 8.897564019474917], [-79.59160696611679, 8.898215389174085], [-79.60001539861457, 8.903525810772566], [-79.60379196456361, 8.903822423214736], [-79.60661137281942, 8.901787182060266], [-79.60700951376091, 8.895719012739226], [-79.61147072274606, 8.889818811332184], [-79.62130308061869, 8.883902564795074], [-79.6350948019074, 8.882481146833788], [-79.63710245673767, 8.8876125506642], [-79.63157861558204, 8.903701843475728], [-79.62756181703685, 8.908011361389054], [-79.6283994103593, 8.91204977550988], [-79.63959248710947, 8.918417866490241], [-79.64729532682793, 8.919700939898698], [-79.65245216328898, 8.918538322525846], [-79.6556127143525, 8.920515221733933], [-79.65836751962028, 8.925408559416177], [-79.658246281159, 8.934556587771867], [-79.66227704567976, 8.94115672120995], [-79.66936434887772, 8.942200845372284], [-79.6792977342772, 8.947486675840926], [-79.68425752343067, 8.953067022634823], [-79.6832407812276, 8.963241355062767], [-79.68540595754357, 8.969987326046272], [-79.70090589508025, 8.97061262585786], [-79.70633818403678, 8.965153826421737], [-79.70883474517267, 8.960038687360585], [-79.7123943592959, 8.958856013243391], [-79.72067565598906, 8.962509898446617], [-79.72360430977274, 8.976229354205882]], [[-79.52773051778583, 9.058660344166695], [-79.52983783321133, 9.055183061653624], [-79.5281397924548, 9.051864887355075], [-79.52198035841741, 9.050366890398372], [-79.51857813769409, 9.052150004305675], [-79.51704000585006, 9.056483691093108], [-79.51973313716941, 9.061137478906605], [-79.52352750808546, 9.061766988609262], [-79.52773051778583, 9.058660344166695]], [[-79.54405856744955, 9.055457318513184], [-79.54610612791258, 9.052742742637266], [-79.54532518186477, 9.049433430124632], [-79.54172808426769, 9.047417017918509], [-79.53875949088953, 9.048173000926846], [-79.53686499575576, 9.051393586386183], [-79.5375894720557, 9.054335468909176], [-79.54110307023842, 9.056120597374594], [-79.54405856744955, 9.055457318513184]], [[-79.62510697104894, 8.940282703789816], [-79.62409740137954, 8.93383856010997], [-79.6206613401323, 8.926819802095249], [-79.6169484347193, 8.924181585909652], [-79.61353731530599, 8.925677334358298], [-79.61060908140276, 8.932794031304136], [-79.60627246918433, 8.9337850481199], [-79.59921475786531, 8.931840152242069], [-79.59516366857301, 8.937264265164565], [-79.59614330674086, 8.946032442689924], [-79.5994204880838, 8.948657763912026], [-79.6037996799277, 8.947969697022748], [-79.60681762762664, 8.943827271294683], [-79.60962878779529, 8.942770117636146], [-79.61584948186916, 8.945594721779232], [-79.62314505287226, 8.946569553221604], [-79.62580168445841, 8.943872398727525], [-79.62510697104894, 8.940282703789816]], [[-79.62323906769582, 8.914631100639099], [-79.6262183592006, 8.911307180830041], [-79.62426443431404, 8.907293853244958], [-79.61939704980864, 8.90582820104025], [-79.61376991395313, 8.909606741979646], [-79.61336817803283, 8.914040305650863], [-79.61537283042716, 8.916816827306786], [-79.61841956304029, 8.917152991092488], [-79.62323906769582, 8.914631100639099]]], [[[-79.56173176951015, 8.79903227546992], [-79.56110932794837, 8.803479170565847], [-79.55915924359935, 8.805531594909734], [-79.55607418190202, 8.805801381575824], [-79.55234929221837, 8.803507597082513], [-79.55063720784996, 8.796997475244995], [-79.54632298624729, 8.79166089656181], [-79.54825832067752, 8.784938310049945], [-79.55195258902445, 8.783727224318215], [-79.55761752199224, 8.78632652537277], [-79.56173176951015, 8.79903227546992]]], [[[-79.62928142979932, 9.140000710413005], [-79.62894737078807, 9.144765346655545], [-79.62564674305138, 9.148624919002359], [-79.62187954177975, 9.14956157963155], [-79.61925466198683, 9.147884216251743], [-79.61542754448669, 9.142207260530997], [-79.61365481564832, 9.135818283261145], [-79.60641111334316, 9.127483516404691], [-79.6007107131144, 9.127201562702309], [-79.59495177168844, 9.135450987534696], [-79.58903714500688, 9.133918913230008], [-79.58646525545824, 9.126270024055113], [-79.58897304504482, 9.122098326134598], [-79.59019384135816, 9.112087502899874], [-79.59372667380016, 9.10526594717266], [-79.59984777087803, 9.101294807933096], [-79.60381656371845, 9.102134772347899], [-79.61330517538903, 9.113480461073017], [-79.62928142979932, 9.140000710413005]]], [[[-79.63297307308854, 9.034138632952747], [-79.63049144582418, 9.038660279014293], [-79.62389851080985, 9.037910644684752], [-79.61553246853632, 9.027326940968196], [-79.60912399780621, 9.02708845865419], [-79.60438998530746, 9.0241659831608], [-79.60416854978884, 9.01474543237417], [-79.60760856405255, 9.012989691094852], [-79.61860883019023, 9.014742707878588], [-79.62174866694127, 9.02089239277686], [-79.6307781573043, 9.026267598390392], [-79.63297307308854, 9.034138632952747]]], [[[-79.68659078490134, 8.880286966730466], [-79.68734092135246, 8.886948172667719], [-79.67926502111621, 8.891210631496605], [-79.6773851357312, 8.900450582386862], [-79.6727231536288, 8.90260571787655], [-79.66444674287033, 8.898738947284615], [-79.66285281573133, 8.89574980553261], [-79.66356062428652, 8.889623281827165], [-79.6677809708821, 8.882280827696668], [-79.66614941394091, 8.869258310674539], [-79.66349291166935, 8.864274546291941], [-79.66492894646841, 8.859798992304249], [-79.668068406521, 8.858497315782424], [-79.67706485992873, 8.860207494193494], [-79.68256122950595, 8.866722213240541], [-79.6829255437476, 8.87596254632942], [-79.68659078490134, 8.880286966730466]]], [[[-79.77877547209182, 8.873523365064129], [-79.7729212631927, 8.879590315779467], [-79.77366849083862, 8.882527504302454], [-79.7778107901357, 8.886880360840527], [-79.77647741062314, 8.891438163074197], [-79.76739165445731, 8.897168759567913], [-79.76014742161938, 8.89838465182691], [-79.75428802583107, 8.903106395028374], [-79.74776685546058, 8.913132881547945], [-79.73837210560896, 8.916023694310235], [-79.73905974994796, 8.923417031353472], [-79.73652843710462, 8.928814663795192], [-79.73613101505735, 8.934717672823869], [-79.73411268395631, 8.937071044815369], [-79.72714049868286, 8.936971913838208], [-79.72227452127211, 8.931654983358591], [-79.71385470631188, 8.93066403595337], [-79.70901078339871, 8.932649991415614], [-79.70742837839549, 8.94051896795435], [-79.70293722859039, 8.942564969359003], [-79.69814092034736, 8.937443592296814], [-79.69472189546427, 8.927145681858681], [-79.68864018584698, 8.92688323907035], [-79.68267306575221, 8.929665595059381], [-79.67870054974202, 8.927084148345967], [-79.6790810083874, 8.922130139849056], [-79.69065687113024, 8.912585577674207], [-79.70237126416433, 8.915697866740963], [-79.70728559158655, 8.915011423928052], [-79.71846888797059, 8.919994446902786], [-79.72151123687978, 8.9199383008118], [-79.723471004246, 8.91811241531032], [-79.72592399375958, 8.910349240544223], [-79.73051973053535, 8.907779357949778], [-79.73301825594945, 8.904022858318866], [-79.73224373313998, 8.899419362661739], [-79.72268844194474, 8.893709065657585], [-79.72102922203678, 8.886484213565117], [-79.71455453556831, 8.884757323821582], [-79.7122308383342, 8.882482335891163], [-79.70686161690111, 8.87067302636356], [-79.70814702879298, 8.865204974662772], [-79.70729835695599, 8.86007172787674], [-79.7100747281764, 8.856837928378905], [-79.71479814309563, 8.857323203473117], [-79.71932939023496, 8.86114781114833], [-79.72477375752041, 8.86084854525926], [-79.73091977398745, 8.863674246012351], [-79.73403846219792, 8.861001110315511], [-79.73400900411232, 8.854061692258163], [-79.7361363826263, 8.850224137998822], [-79.74279885581095, 8.84879040330342], [-79.74883978779349, 8.85123872163504], [-79.75486961225828, 8.849178449412559], [-79.76841649029356, 8.856408671312757], [-79.77162908867106, 8.865445668212805], [-79.7778513809227, 8.869242884940498], [-79.77877547209182, 8.873523365064129]], [[-79.72753197936169, 8.885493716954372], [-79.73231663484243, 8.88660211683513], [-79.73516652382328, 8.884816871259314], [-79.73587510963667, 8.878507396081611], [-79.73400053362685, 8.875630475689738], [-79.73058606315419, 8.87526702342465], [-79.72426909915194, 8.87918970132579], [-79.7239301244244, 8.883230040651116], [-79.72753197936169, 8.885493716954372]], [[-79.7541947707882, 8.876246865329216], [-79.75371122096387, 8.872555655778749], [-79.7503945973514, 8.870307215092229], [-79.74743323769773, 8.87097269995706], [-79.74455804816188, 8.874664081033067], [-79.74675902074465, 8.879905164049648], [-79.74939821645994, 8.881412716746084], [-79.75290580523871, 8.880100938445898], [-79.7541947707882, 8.876246865329216]]], [[[-79.70931639549092, 9.117723975906687], [-79.7085862888138, 9.122261798722269], [-79.70541077396655, 9.124609680722127], [-79.69142742679536, 9.123693348398216], [-79.68872205589443, 9.12043034707898], [-79.68918275798448, 9.110874452054727], [-79.69173469800438, 9.10774489309553], [-79.69533345362426, 9.107569993089133], [-79.70931639549092, 9.117723975906687]]], [[[-79.7640086081587, 9.032187410394492], [-79.76400890914276, 9.036125775524349], [-79.76170564466953, 9.039259389453695], [-79.75361423460924, 9.045268080401032], [-79.74931834427638, 9.044517372475502], [-79.7408417634528, 9.030124136740273], [-79.73528650670934, 9.027845847589619], [-79.73160816144932, 9.023513877054613], [-79.7311368010559, 9.020605126871162], [-79.73309216129013, 9.016486812284404], [-79.73220551644718, 9.013451534593868], [-79.72357756030831, 9.010146891061298], [-79.71846038868179, 9.006283213807855], [-79.71816351673898, 9.00340432333468], [-79.72218121776368, 8.992599407338822], [-79.72779024650676, 8.990856290910159], [-79.73532068647403, 8.99635789194012], [-79.74300572833339, 9.010640941181403], [-79.75632331027136, 9.024268463071895], [-79.76077775595256, 9.026380466253034], [-79.7640086081587, 9.032187410394492]]], [[[-79.76779116595341, 8.966590223663923], [-79.7660610881692, 8.973807383623944], [-79.76125386418515, 8.977224288272113], [-79.75657505100402, 8.977010229514459], [-79.75178557004614, 8.971640424643446], [-79.75132412636212, 8.965179265297753], [-79.75598341918356, 8.959823442804957], [-79.76429184295564, 8.9604787272908], [-79.76745448126252, 8.963627976177941], [-79.76779116595341, 8.966590223663923]]], [[[-79.8151598570506, 8.835481137494696], [-79.80546833654809, 8.835671590068944], [-79.80317955119524, 8.842571557660255], [-79.80103455653776, 8.844442710723275], [-79.79432536237616, 8.844906154093433], [-79.78915436662467, 8.848147317427717], [-79.78533441925896, 8.846423812034148], [-79.78431901691009, 8.832050432608222], [-79.78615657379774, 8.826867283424372], [-79.78581547184287, 8.819108552147968], [-79.79115368917081, 8.814860721145829], [-79.79264304347342, 8.810186092805013], [-79.79523456074838, 8.807760768092578], [-79.80507721111941, 8.80782811291022], [-79.80856844684982, 8.812618307112443], [-79.81178577955913, 8.821508245179515], [-79.82129402720048, 8.824447389649679], [-79.8213277633204, 8.833198711487514], [-79.81870584699678, 8.835275528737228], [-79.8151598570506, 8.835481137494696]]], [[[-79.86074002208015, 8.838422067627267], [-79.85896521446416, 8.840775477672375], [-79.85850329026638, 8.846918828483759], [-79.84712148527379, 8.858804882163918], [-79.83634835577467, 8.859030752200725], [-79.83138364967584, 8.855175955646828], [-79.83237147993539, 8.841867338183185], [-79.82995172749109, 8.836515082965274], [-79.83217581291629, 8.83132643836131], [-79.83743274100995, 8.831207246401728], [-79.84405616647611, 8.833570787097507], [-79.84847169040472, 8.831336545827504], [-79.85170907224038, 8.82651194338699], [-79.85501026849731, 8.82582900160518], [-79.86327568507322, 8.832658687783779], [-79.86329878405641, 8.8359302173116], [-79.86074002208015, 8.838422067627267]]], [[[-79.85499318290633, 9.016468219872515], [-79.85444476657347, 9.022740540506339], [-79.85003957645947, 9.02588730930634], [-79.84573522778227, 9.025180231212367], [-79.84075204276917, 9.020031515853374], [-79.83972624255152, 9.015514910369152], [-79.84608327808782, 9.003793524230622], [-79.85032082856806, 9.00299109713233], [-79.85347099460621, 9.004816853420602], [-79.85499318290633, 9.016468219872515]]], [[[-79.87930953235657, 8.78851203104989], [-79.87751176310003, 8.79230521679303], [-79.87072244695752, 8.79399692913934], [-79.86413945472458, 8.790335086660276], [-79.86424779505191, 8.776806729428626], [-79.86606889998059, 8.773457394380998], [-79.8713265609482, 8.771135339976883], [-79.87880622993156, 8.773551088683885], [-79.87930953235657, 8.78851203104989]]], [[[-79.88817417048594, 8.854982851415206], [-79.88661832029493, 8.862202474113493], [-79.8835214759105, 8.866595910191645], [-79.87596035358033, 8.867169282244747], [-79.87010947702639, 8.86449760296562], [-79.8686648344076, 8.85994487946051], [-79.86996440086035, 8.853919934209305], [-79.87645208329666, 8.851230058763258], [-79.87950198839836, 8.847947548227673], [-79.88728901112546, 8.849669064328774], [-79.88876413039068, 8.852179851631185], [-79.88817417048594, 8.854982851415206]]], [[[-79.90471369932919, 8.915304680609061], [-79.90026221050847, 8.924398208174294], [-79.89542892875042, 8.925409806583174], [-79.8930161120336, 8.923618267017943], [-79.89139265159693, 8.919188125504391], [-79.88718612846513, 8.916469436182103], [-79.87907608460584, 8.91588198608927], [-79.87577038819742, 8.912682391611899], [-79.87475721250532, 8.908127612097779], [-79.88283194716529, 8.896393131183215], [-79.89262808124928, 8.893479819524181], [-79.89800865335712, 8.896639288196505], [-79.89762095012779, 8.904170342711161], [-79.90354953104428, 8.908695019614305], [-79.90471369932919, 8.915304680609061]]], [[[-79.9172594382551, 9.025961066878216], [-79.91677354339316, 9.030930669301448], [-79.90952080830694, 9.03725601387209], [-79.90335054957974, 9.037469350139057], [-79.89773950639062, 9.033223840746906], [-79.90087759625358, 9.024686581641102], [-79.8988690763579, 9.017155540161124], [-79.90471077499556, 9.01169230231914], [-79.9121405153104, 9.013501107519], [-79.91290370986826, 9.020448810811109], [-79.9172594382551, 9.025961066878216]]]]}, "properties": {}}