{"type": "Feature", "properties": {"city": "Sousse", "country": "Tunisia", "real_area": 71.58}, "geometry": {"type": "MultiLineString", "coordinates": [[[10.5990109608013, 35.8951635346689], [10.6006501889417, 35.9001020407216], [10.5962790212762, 35.9036320316], [10.5902688174553, 35.9022233394719], [10.5858974203941, 35.9057527947786], [10.58753603501, 35.9106911190847], [10.5831642164788, 35.9142202155684], [10.5848028103393, 35.9191583944799], [10.5804305702788, 35.9226871319519], [10.5744199287941, 35.9212775137118], [10.5700474597102, 35.9248057152491], [10.5716854395157, 35.9297437117446], [10.5673125488826, 35.9332715539429], [10.5613018712331, 35.9318612229487], [10.5596644847837, 35.9269232634284], [10.5640371825976, 35.9233955979109], [10.5623997751126, 35.9184574927137], [10.5667720514761, 35.9149294679071], [10.5727819280753, 35.9163393715832], [10.5771539756693, 35.9128108108955], [10.5755159540728, 35.9078725233284], [10.5695064779635, 35.9064628333202], [10.5678690285142, 35.9015244373526], [10.5722404621547, 35.8979956945335], [10.5706029917767, 35.8930571534727], [10.5645946806873, 35.8916473921627], [10.5629577822533, 35.8867087431073], [10.5673286020416, 35.8831798184417], [10.5733365128734, 35.884589365971], [10.5749740041444, 35.8895280519304], [10.5809826793446, 35.8909373145848], [10.5853534628245, 35.8874076775778], [10.5837153788086, 35.8824689548629], [10.5777071040276, 35.8810599058943], [10.5760695918992, 35.876121075231], [10.5700620813014, 35.8747117414882], [10.565691682628, 35.8782410246384], [10.5596845362031, 35.8768311924929], [10.5580481885304, 35.8718922911009], [10.5520418065507, 35.8704821745982], [10.5504060305023, 35.8655431658726], [10.5547760437489, 35.8620142365647], [10.5607820258648, 35.8634241390794], [10.565151810945, 35.8598946746066], [10.5711581572957, 35.8613040789715], [10.5727951185615, 35.8662431616861], [10.5788022289488, 35.8676522816364], [10.5831719778535, 35.8641221050575], [10.5815344241171, 35.859182985571], [10.5755277139166, 35.8577740794191], [10.5738907317782, 35.852834852541], [10.5782598674616, 35.8493044950709], [10.5766228644861, 35.8443651242243], [10.5809915792911, 35.8408344090256], [10.579354555514, 35.8358948944056], [10.5733494090984, 35.8344861317559], [10.5717129566299, 35.8295465103011], [10.5657085737345, 35.828137463798], [10.5613402435678, 35.8316678247541], [10.5629761038698, 35.8366074093167], [10.5586073530217, 35.8401374126443], [10.5526029344915, 35.8387276543272], [10.5509676664479, 35.8337881068054], [10.5553362246461, 35.8302582805436], [10.5537009355063, 35.8253185895058], [10.5476976803664, 35.8239087618585], [10.5460629622721, 35.8189689646006], [10.5504309071815, 35.8154389578729], [10.5564337629211, 35.8168485713069], [10.5608014800126, 35.8133180300776], [10.5668046997875, 35.8147271460571], [10.5684406020026, 35.8196670173681], [10.5744445851515, 35.8210758498536], [10.5760810584724, 35.826015614736], [10.5820858049568, 35.8274241634688], [10.5864536781825, 35.8238927333803], [10.584816612909, 35.8189529317984], [10.5891840654337, 35.8154211445488], [10.5875469794653, 35.8104811997787], [10.5815430327727, 35.8090730788972], [10.5799065178537, 35.8041330277451], [10.5739033341271, 35.8027246233125], [10.5722673901412, 35.7977844660336], [10.5766340381728, 35.7942526764557], [10.5749980733547, 35.7893123764857], [10.5793643010001, 35.7857802302257], [10.5853666853984, 35.7871882065819], [10.5870032417735, 35.7921285432229], [10.5930063887684, 35.7935362362296], [10.5973725795447, 35.7900033786331], [10.6033760890996, 35.7914105741868], [10.6077420508097, 35.7878771827099], [10.61374592254, 35.7892838807479], [10.6181116548918, 35.7857499554766], [10.6241158884129, 35.7871561559367], [10.6257547898721, 35.7920964953067], [10.6213888665301, 35.7956305981117], [10.623027747731, 35.8005707948168], [10.6290331436436, 35.80197692475], [10.6333992578206, 35.798442644408], [10.6394050150764, 35.799848276448], [10.6437708990961, 35.7963134622913], [10.6497770173099, 35.797718596376], [10.65414267088, 35.794183248491], [10.6525020159384, 35.7892429441808], [10.656867248692, 35.7857072403506], [10.6628733264922, 35.7871116631502], [10.6645145724952, 35.7920520030316], [10.6601491496669, 35.7955878845584], [10.6617903758641, 35.8005280817567], [10.6574245321213, 35.8040636072884], [10.6590657384773, 35.8090036616084], [10.6546994737606, 35.8125388309552], [10.6486921929284, 35.8111337683692], [10.6443256975474, 35.8146684037949], [10.6459662925996, 35.8196082793371], [10.6415993762242, 35.8231425582487], [10.6432399512425, 35.8280822904776], [10.6492480342159, 35.8294877795594], [10.6508891808364, 35.8344274040724], [10.6465216528423, 35.8379615037273], [10.6405131687624, 35.8365558014062], [10.6361454102203, 35.8400893667213], [10.6377859450647, 35.8450288117382], [10.6334177653502, 35.8485620199709], [10.6274092416781, 35.8471556058268], [10.6230408317472, 35.8506882794941], [10.624680754443, 35.855627544583], [10.6203119233195, 35.8591598608392], [10.6219518257176, 35.8640989817903], [10.617582573342, 35.8676309404463], [10.619222455407, 35.8725699170646], [10.6148527817202, 35.8761015179314], [10.6088434174039, 35.8746939650229], [10.6044735139106, 35.8782250308205], [10.6061127831393, 35.8831638266011], [10.6017424583146, 35.8866945342812], [10.6033817070168, 35.8916331852952], [10.5990109608013, 35.8951635346689]], [[10.5908175773178, 35.8704697384766], [10.5864476362845, 35.8740000920857], [10.5880857410356, 35.8789389594604], [10.5940943793806, 35.8803475098053], [10.5984645123872, 35.8768169791625], [10.5968258151057, 35.8718780752247], [10.5908175773178, 35.8704697384766]], [[10.6284813911141, 35.7836216969572], [10.6268424694321, 35.7786812151177], [10.620838636207, 35.7772752283183], [10.619200285404, 35.7723346402372], [10.6235651767294, 35.7688000029068], [10.6295686096822, 35.7702057760399], [10.6312075515516, 35.7751464001534], [10.6372117460222, 35.7765518894078], [10.6388512587999, 35.7814924071755], [10.6344859860415, 35.7850273997769], [10.6284813911141, 35.7836216969572]], [[10.5411004361092, 35.9043488945882], [10.5394647448848, 35.8994104648167], [10.5438364421565, 35.8958829701792], [10.5498440238682, 35.8972937286103], [10.5514803082357, 35.9022321956267], [10.5471084177784, 35.9057598669835], [10.5411004361092, 35.9043488945882]]]}}