{"type": "Feature", "properties": {"city": "Cuenca", "country": "Ecuador", "real_area": 82.61}, "geometry": {"type": "MultiLineString", "coordinates": [[[-79.9176579796427, -3.27649691617637], [-79.921929047259, -3.27943237737695], [-79.9214778137561, -3.28459681611828], [-79.916755382408, -3.286825720008], [-79.912484317587, -3.28389012912407], [-79.9129356813113, -3.27872576404497], [-79.9176579796427, -3.27649691617637]], [[-79.0587344511084, -2.92057849395184], [-79.054022139426, -2.92279990792828], [-79.0535588647079, -2.92795060310983], [-79.0488464833999, -2.93017199854281], [-79.0483831243148, -2.93532281073068], [-79.0526322736605, -2.93825231334717], [-79.05216895733, -2.94340332824103], [-79.047456364527, -2.9456247546089], [-79.0432072300066, -2.94269511639165], [-79.043670673456, -2.93754418741816], [-79.0394217236671, -2.93461470221855], [-79.0398852098522, -2.92946397600588], [-79.0356364448173, -2.92653464402181], [-79.0309242085899, -2.92875590255363], [-79.0266756433836, -2.92582658821254], [-79.0219634800389, -2.9280477782436], [-79.0177151148588, -2.92511848163644], [-79.0130030246251, -2.92733960313331], [-79.0125391573236, -2.9324900706739], [-79.0078269980803, -2.93471117297027], [-79.0035788484952, -2.93178175834809], [-79.0040428427742, -2.92663137728031], [-78.9997948782392, -2.9237021164139], [-78.995082934912, -2.92592310074215], [-78.9908351709958, -2.92299385788254], [-78.9912993348526, -2.91784376665221], [-78.9870517560827, -2.91491467788104], [-78.9823400291181, -2.91713554436034], [-78.9780926512384, -2.91420647382185], [-78.9785569845943, -2.90905667286827], [-78.9743097919573, -2.90612775675073], [-78.9695982818013, -2.90834850550025], [-78.9653512903256, -2.90541960784119], [-78.965815793102, -2.90027009760345], [-78.9615689869652, -2.89734135469771], [-78.9568576940639, -2.89956198583659], [-78.9526110893594, -2.89663326161504], [-78.9530757614775, -2.89148404253201], [-78.9488293422081, -2.888555473396], [-78.9492940568602, -2.88340645853917], [-78.9450478230482, -2.88047804468604], [-78.9455125802242, -2.87532923426076], [-78.9502234444792, -2.87310875038028], [-78.9544696944648, -2.87603702784173], [-78.9591806335279, -2.87381647574165], [-78.9596451797433, -2.86866769537341], [-78.9553989136561, -2.86573955432224], [-78.9558635024134, -2.86059097868716], [-78.9605742305013, -2.85837045693425], [-78.9610387350449, -2.85322199902493], [-78.9657493949369, -2.8510014586386], [-78.9699956930111, -2.85392932681349], [-78.9695313152436, -2.85907787181129], [-78.9737777985698, -2.86200589551917], [-78.9784886755053, -2.85978523781495], [-78.9789529264659, -2.85463660585284], [-78.983663734935, -2.85241592974246], [-78.9841279016557, -2.84726741586587], [-78.9798813867336, -2.84433966498344], [-78.9803455960419, -2.83919135623769], [-78.9850561934497, -2.83697071153857], [-78.9893027240617, -2.83989832598049], [-78.9888386415838, -2.84504672155119], [-78.9930853572712, -2.8479744915164], [-78.9926213173999, -2.85312309216343], [-78.9968682181403, -2.85605101745469], [-78.9964042208855, -2.86119982297283], [-78.9916931960143, -2.86342061649465], [-78.991229114499, -2.86856954001725], [-78.9954761847343, -2.87149775669023], [-79.0001873520284, -2.86927691357681], [-79.0006513066565, -2.86412790339286], [-79.0053624051537, -2.8619070420124], [-79.0096096913449, -2.86483514115492], [-79.0091458636347, -2.86998423787598], [-79.0133933347602, -2.87291249181511], [-79.0129295497056, -2.87806179294203], [-79.0171772057428, -2.88099020148033], [-79.0218886620797, -2.87876917277855], [-79.0261365181919, -2.88169759967885], [-79.0308480475128, -2.87947650302489], [-79.0313115786019, -2.87432702930585], [-79.0270637073759, -2.87139873846381], [-79.0275272811585, -2.86624946904136], [-79.0322385991649, -2.86402840428585], [-79.0364864854324, -2.86695655905111], [-79.0411978761524, -2.8647354265709], [-79.0454459620504, -2.86766359969547], [-79.044982642318, -2.87281304132208], [-79.0492309128542, -2.87574136870375], [-79.0539425179251, -2.87352011845933], [-79.05819098782, -2.87644846397455], [-79.062902665055, -2.87422714599222], [-79.067151334111, -2.87715550955016], [-79.071863083282, -2.87493412386347], [-79.0761119513013, -2.87786250537328], [-79.0756490556617, -2.88301240839657], [-79.0709371648439, -2.88523384430887], [-79.0666883113204, -2.88230532696138], [-79.0619764923455, -2.88452669508905], [-79.0577278379089, -2.88159819564928], [-79.0530160910052, -2.88381949595879], [-79.0525528567455, -2.88896934575436], [-79.0568014964905, -2.89189798105744], [-79.0563383049822, -2.89704803462914], [-79.0516263466238, -2.89926936703286], [-79.0511630707607, -2.90441953835401], [-79.0554118803642, -2.90734846310339], [-79.0601239805508, -2.90512708073863], [-79.0643729894144, -2.9080560231724], [-79.0639098834387, -2.9132064836794], [-79.0681590768277, -2.91613557938184], [-79.0676960136334, -2.92128624304787], [-79.0629836298884, -2.9235077253109], [-79.0587344511084, -2.92057849395184]], [[-78.939872049441, -2.88784743681714], [-78.9441182670072, -2.89077598704335], [-78.943653468141, -2.89592511881371], [-78.9389423249836, -2.89814561293184], [-78.9346961237352, -2.8952169263512], [-78.9351610493187, -2.89006788201769], [-78.939872049441, -2.88784743681714]], [[-78.9729165807698, -2.92157718926733], [-78.9771639428562, -2.92450639584054], [-78.9766995678288, -2.92965651674381], [-78.9719877038525, -2.93187734411459], [-78.9677403576315, -2.92894800152535], [-78.9682048595136, -2.92379796759221], [-78.9729165807698, -2.92157718926733]], [[-78.9337046336401, -2.85624791963633], [-78.9379503109457, -2.85917586645741], [-78.9374854687519, -2.86432426740374], [-78.9327748225725, -2.86654463400926], [-78.9285291616666, -2.86361655062755], [-78.9289941305325, -2.85846823721178], [-78.9337046336401, -2.85624791963633]], [[-78.5565909381895, -0.292697437592396], [-78.5607953535204, -0.295569516339513], [-78.560328815723, -0.30064945918801], [-78.5556577391463, -0.302857230573838], [-78.5514533450706, -0.299985000085813], [-78.5519200063085, -0.294905149963817], [-78.5565909381895, -0.292697437592396]], [[-79.8906773792326, -2.1384492678133], [-79.89493320977, -2.14136423615689], [-79.8944831395158, -2.14650322767732], [-79.8897771094768, -2.14872717640713], [-79.8855212820882, -2.14581207185747], [-79.8808153026877, -2.14803596567517], [-79.8765596552726, -2.14512088075117], [-79.8770099839782, -2.13998203827205], [-79.8817158308948, -2.13775820612265], [-79.8859714815825, -2.14067315479537], [-79.8906773792326, -2.1384492678133]]]}}