{"type": "Feature", "geometry": {"type": "Polygon", "coordinates": [[[-4.225267727229463, 5.329019416844981], [-4.225886816828031, 5.335325158175087], [-4.221862363831765, 5.343956760505857], [-4.214091481408174, 5.346778943130266], [-4.207838173574598, 5.345423123365086], [-4.204857888233553, 5.3464482537514835], [-4.196896212353211, 5.354212054528543], [-4.197695169493095, 5.3655523388111135], [-4.190299821332499, 5.371674358060798], [-4.187152269755813, 5.371984711485411], [-4.181526327711663, 5.368626343228097], [-4.176839680033342, 5.3600238856518505], [-4.173819077191858, 5.358410527564324], [-4.168514487899293, 5.361284615580381], [-4.162495063158876, 5.362274421602352], [-4.158091928611037, 5.370050992729481], [-4.152727783794587, 5.372240989211325], [-4.148027736759395, 5.377695386356554], [-4.1409771806402755, 5.374383490114512], [-4.137949030826134, 5.368057990595775], [-4.130909415669635, 5.3662088717809], [-4.126134025169681, 5.370885575435965], [-4.12826405065307, 5.3842790084705054], [-4.127135218171105, 5.389118452785874], [-4.12422605529238, 5.390759179903745], [-4.121073608389343, 5.390090770219295], [-4.117536761464847, 5.381421295533755], [-4.112935571329665, 5.380141963328078], [-4.103110428603456, 5.396667524253669], [-4.100105180662628, 5.399272401080978], [-4.100407415184211, 5.405744442431533], [-4.097796343495315, 5.411234073179662], [-4.098137586599967, 5.416965839795936], [-4.093550377555587, 5.422380567093794], [-4.094479990373238, 5.4338921213508415], [-4.097391742605295, 5.4362633093118715], [-4.110109448620159, 5.436555722360326], [-4.115768966774193, 5.4402882621934845], [-4.124527392104926, 5.433282811644593], [-4.133556119905147, 5.432970599172625], [-4.136178999693275, 5.43075497348784], [-4.136852931218866, 5.4254711810896605], [-4.132675639715527, 5.420976814814101], [-4.130860177761011, 5.412622448079682], [-4.134548713403029, 5.39562457376952], [-4.140283840053487, 5.389200059201568], [-4.154996140504814, 5.387482396191672], [-4.157225233254912, 5.389701057434288], [-4.160982378345061, 5.400938530525344], [-4.16951615678106, 5.400578394840636], [-4.178642613049496, 5.402804358413993], [-4.180187611791847, 5.405360897702511], [-4.179726417631438, 5.409629813181024], [-4.1717684111911, 5.413389859169366], [-4.168293006346294, 5.417445180172398], [-4.167357229879426, 5.421634729468804], [-4.171661248055036, 5.428960707646205], [-4.18025285291385, 5.431287005516505], [-4.183499545098311, 5.4406231315133065], [-4.188596980496758, 5.4452437364006006], [-4.18947844996941, 5.45723113978432], [-4.1958398647361905, 5.465581984227037], [-4.196968802878882, 5.474114080361487], [-4.193655137335104, 5.477856098178404], [-4.18574070755254, 5.479260745625407], [-4.179070914671461, 5.48304920519341], [-4.175392437613429, 5.488410036758937], [-4.161114202242929, 5.493063076633462], [-4.1551675078467865, 5.496986938005755], [-4.151493172272957, 5.495981490312269], [-4.147679399955407, 5.491240944815056], [-4.139180728222483, 5.471697257043589], [-4.129226218903606, 5.471647145687025], [-4.120248352101288, 5.469223457880048], [-4.1172589941350575, 5.470069904539086], [-4.1128257421656675, 5.480574146490024], [-4.10945466688114, 5.484155839691311], [-4.108698612909745, 5.491414582382809], [-4.101959715896876, 5.496520194861118], [-4.102720813645942, 5.505312400991432], [-4.098987624784216, 5.509989011549822], [-4.097008949535985, 5.5172390697270925], [-4.097478519050661, 5.520214948058743], [-4.103525146040188, 5.5275347302679645], [-4.103708843917875, 5.532117665550441], [-4.096732348540376, 5.538666610565774], [-4.085246956006212, 5.54122562018802], [-4.076500324713, 5.5489006809462165], [-4.077641623582603, 5.554256216245309], [-4.0817187610843355, 5.560071614387646], [-4.091594021660991, 5.566577238167942], [-4.091173375333468, 5.570306651630433], [-4.085629841271431, 5.575177150750144], [-4.087615427684204, 5.583499321045942], [-4.080166531973006, 5.589428301602486], [-4.073579658503765, 5.586704568748401], [-4.067666799918919, 5.587244056831112], [-4.063279445429105, 5.582286950275712], [-4.056730709429675, 5.579180482796378], [-4.056297315205211, 5.575438432660643], [-4.059222051266173, 5.5694632391566925], [-4.055830019862497, 5.562720491860873], [-4.051884435158643, 5.561881292159418], [-4.0490256749400615, 5.563431651344133], [-4.048915080838741, 5.571361412755417], [-4.047042641612673, 5.574027656429323], [-4.043344266490732, 5.574379720165838], [-4.040614096471986, 5.571836651739749], [-4.038931979689099, 5.562544548544903], [-4.035806004301744, 5.556553996567546], [-4.0371543570618895, 5.552845046395872], [-4.041242268151334, 5.5494501643128675], [-4.042258182105291, 5.541548942658509], [-4.034748317692506, 5.529849963619036], [-4.024746515878783, 5.524340299288142], [-4.022918649077233, 5.518769920200244], [-4.019102971446335, 5.515162230680969], [-4.015985924739199, 5.515052274416942], [-4.011414911439672, 5.518159650719002], [-4.006954351946668, 5.517188787031312], [-4.001263917020316, 5.507444109381865], [-3.9978990288315517, 5.5075723032631485], [-3.9934548793880587, 5.511259723675401], [-3.985974642617369, 5.510641639783135], [-3.981195321962541, 5.515616781652312], [-3.9707976118797625, 5.5174188836683165], [-3.9668927594880583, 5.514753708025321], [-3.966106893919577, 5.50729740490834], [-3.960540431133095, 5.504593808485983], [-3.955494983466082, 5.5071422603701885], [-3.9500360362061566, 5.507153627903914], [-3.9394154553889305, 5.51249126479067], [-3.936306641206337, 5.517882452471312], [-3.9354327653093306, 5.525131183698784], [-3.9331828087844496, 5.5273639112627855], [-3.922693496188447, 5.524696979893163], [-3.915336228716247, 5.527837737412137], [-3.9104962416631617, 5.525227450716721], [-3.909871827494057, 5.520907322776956], [-3.9168663003517183, 5.51417750156261], [-3.9188155902888844, 5.506533370557519], [-3.9314158082514674, 5.504731587408035], [-3.9356120950666567, 5.498085473295582], [-3.9398269912264734, 5.49473605643677], [-3.93950867085942, 5.488503346273581], [-3.9416482912263775, 5.484182822431805], [-3.950157008169624, 5.481451790623012], [-3.9532624369117864, 5.476712356176371], [-3.9512440858082876, 5.472805986304968], [-3.9433106474111144, 5.472286591968085], [-3.9351377560704393, 5.467487712476949], [-3.9333797777194435, 5.458572203759391], [-3.924124858956009, 5.448380393844793], [-3.914391831131653, 5.432455518613494], [-3.9141993437465357, 5.428785480490607], [-3.9174639213311977, 5.4242821870617615], [-3.91738886981945, 5.417979326371337], [-3.9217202931594732, 5.4134731027026595], [-3.9217833605311, 5.409670413389264], [-3.915627343240445, 5.4049464972304175], [-3.9079680739975533, 5.405878661982168], [-3.9047949180978385, 5.410658255034179], [-3.904162911590274, 5.418977509332621], [-3.8989973850179562, 5.4211458403198804], [-3.8888879849838234, 5.418284164893762], [-3.8840155578756272, 5.414862891284104], [-3.8821325075504154, 5.405821934856613], [-3.8746678707104945, 5.403451825054623], [-3.870505983531633, 5.395910397356219], [-3.867311820272853, 5.393670969403325], [-3.8627227459596383, 5.394153601021458], [-3.8557803495488367, 5.401806751960282], [-3.8491803763572583, 5.401504442091203], [-3.846803379203165, 5.394177617550107], [-3.8408943798139394, 5.389660332294398], [-3.8396468114808586, 5.383238368048333], [-3.8321618231004857, 5.380214843640751], [-3.829291395142753, 5.376957932161424], [-3.829112161015868, 5.37255379149215], [-3.8349587253396153, 5.366855915262716], [-3.8354056343612206, 5.3631547099581995], [-3.832192951561785, 5.360318104652373], [-3.8223856625289185, 5.357952702128236], [-3.8188672682530194, 5.354219618528811], [-3.816245182229405, 5.345522822593219], [-3.816409608733292, 5.333593869929606], [-3.8126446021884566, 5.3282299061601295], [-3.817062935501045, 5.318477491021482], [-3.8132001003709295, 5.303401154476914], [-3.81486368179223, 5.299224858435872], [-3.829208092413755, 5.29608042858911], [-3.840870813968924, 5.304102540839539], [-3.846393024488198, 5.302449517262715], [-3.84997340560496, 5.299494211838841], [-3.8493044734239157, 5.29505628803031], [-3.8428894822474615, 5.293053650814374], [-3.840941863675213, 5.28986737961506], [-3.8405040234997654, 5.281124647109863], [-3.8429542100202965, 5.276549893761522], [-3.8431993339338333, 5.269270298534853], [-3.845743873613429, 5.26686825215177], [-3.8530369483636524, 5.267166505826919], [-3.856009345187227, 5.272119184492544], [-3.860942528793794, 5.276007551236881], [-3.867394724204391, 5.275129191821321], [-3.8726514819161793, 5.277682308629591], [-3.8733947327452825, 5.281036473181841], [-3.8692034132988486, 5.287330002680578], [-3.8694490073938703, 5.2914768603483315], [-3.8621957897716728, 5.298496363310555], [-3.8612644683389474, 5.301748859193427], [-3.8628363709698776, 5.304336482850029], [-3.8684313251766698, 5.306877852563756], [-3.874704425763574, 5.308194116973908], [-3.8775380199967895, 5.307179811399482], [-3.878862410831051, 5.304477208765919], [-3.87828529684871, 5.30040480308281], [-3.8747861575269757, 5.293155697134458], [-3.8818105865687316, 5.288914753783887], [-3.88359808834443, 5.285274732822818], [-3.8807643289520257, 5.274060841263823], [-3.881478900830745, 5.266827488776538], [-3.8765282161209136, 5.263432239473935], [-3.8728714960818618, 5.2573722474099265], [-3.8604051885165585, 5.255397032325196], [-3.852402346213093, 5.2516658066129915], [-3.8465160451977027, 5.253042836210464], [-3.837214326230385, 5.251105589089103], [-3.835287349388317, 5.247816408931469], [-3.8367694848162044, 5.240690084099083], [-3.8346995817568743, 5.237917899613815], [-3.815336049167267, 5.236598532402543], [-3.8066489540583612, 5.2296136392243975], [-3.801328241575194, 5.228141677774891], [-3.7974706415635135, 5.2296905427854234], [-3.793232474176882, 5.238157331592286], [-3.7863421928129397, 5.237322121831201], [-3.7834825488833888, 5.238536507060826], [-3.7814171283907996, 5.245875950650699], [-3.7779210650791715, 5.250845712095672], [-3.761620645028822, 5.246184651108212], [-3.7557706162469384, 5.249854639733156], [-3.7505706291535, 5.249268349501235], [-3.746207040813472, 5.245805929561099], [-3.742196523752734, 5.238660662139076], [-3.7432301736812157, 5.2323172442960635], [-3.7419293328012206, 5.229482452712377], [-3.7235440360606242, 5.225964057496093], [-3.7189670404567883, 5.222494064782351], [-3.7192318719251034, 5.218486932920319], [-3.726411311276826, 5.210809192574333], [-3.720023750544052, 5.192319813771887], [-3.7215698130067927, 5.18905776752719], [-3.7247260607180603, 5.18800435679724], [-3.761840846844382, 5.194862091170796], [-3.7668275559261506, 5.198022750485722], [-3.7721237405206662, 5.196974596580167], [-3.7903142710716184, 5.200743121877827], [-3.7931421185126095, 5.202920573385587], [-3.792880890142553, 5.209434995616539], [-3.7957855783989145, 5.2123276467562825], [-3.7997261727040805, 5.212653481517039], [-3.8052841887350795, 5.208634037931763], [-3.8099765588926635, 5.20875103779038], [-3.8168581857157053, 5.212780231581162], [-3.8252651330774796, 5.211086881017924], [-3.872280960761021, 5.22876969064236], [-3.8780742846671736, 5.232280060214742], [-3.955237667747176, 5.244320724323077], [-3.9738620608201725, 5.250983885199], [-3.9942274281068775, 5.250475550325995], [-4.002037086842569, 5.247220866683072], [-4.007754523400254, 5.24791566430532], [-4.013871965728754, 5.243138904222053], [-4.026713321986725, 5.24417888717366], [-4.031256737521571, 5.2416952253053095], [-4.050176239206471, 5.23920246583018], [-4.052547693055981, 5.24099168103356], [-4.054161641055036, 5.245350895673412], [-4.053170785502854, 5.251968106385107], [-4.055124185408742, 5.255166661618195], [-4.060401669124446, 5.255987899533007], [-4.064046739073638, 5.259875788956971], [-4.066727186149608, 5.260464812397058], [-4.071496239529529, 5.2575554314717605], [-4.085312712968722, 5.255589335276557], [-4.089134856657195, 5.251788667867232], [-4.092956875451375, 5.2510919985262845], [-4.096444153207638, 5.253334104657674], [-4.098484376996579, 5.258349984126336], [-4.105211026077585, 5.2634982913782], [-4.106622932232465, 5.269848531644431], [-4.104375212405726, 5.271882226492283], [-4.094956314690411, 5.274015901057345], [-4.088802743399154, 5.279738231896641], [-4.072935834692215, 5.28187559271079], [-4.063370753201012, 5.274939689612442], [-4.059336480987969, 5.269903937541532], [-4.050431932446264, 5.270180164357143], [-4.044849225896293, 5.26537415206403], [-4.033888338713547, 5.264357840123803], [-4.024650653415977, 5.2679951352946865], [-4.021316304440448, 5.272501982613594], [-4.021927154910339, 5.284577961889437], [-4.019973141532231, 5.293055912363844], [-4.02203622641681, 5.29659169927452], [-4.02704021952104, 5.297330724203541], [-4.034471147922008, 5.301950149764965], [-4.043135481199894, 5.301011031117499], [-4.062215158430022, 5.3058799211995025], [-4.0695303061057535, 5.301361369154687], [-4.072775292681162, 5.29675369883169], [-4.081694616565466, 5.296061289524394], [-4.0905456256250305, 5.2999479471207245], [-4.094783616331379, 5.304183036750513], [-4.108703823304093, 5.303477826615342], [-4.121342376844028, 5.310122097424024], [-4.123876294355552, 5.309214160038209], [-4.128639935133341, 5.303572279875399], [-4.13660140074216, 5.306713694519167], [-4.1427998410206825, 5.304021839086278], [-4.151569668516046, 5.302862523180857], [-4.163903187092517, 5.308342885378725], [-4.1732034482386196, 5.30319457998395], [-4.179670366632166, 5.303545547453283], [-4.184010411933041, 5.300628725741068], [-4.187149254447684, 5.300505666057134], [-4.199016765226284, 5.308720249458004], [-4.2074716713826845, 5.3071621328792355], [-4.220699835277508, 5.311802510137169], [-4.223127666925232, 5.316293205155851], [-4.225267727229463, 5.329019416844981]], [[-3.922757126206594, 5.3140610231345], [-3.9251766410399163, 5.311919415032724], [-3.9271473094848717, 5.303830908277798], [-3.9253930839581304, 5.301277075437895], [-3.9188883370579406, 5.298603061210342], [-3.9019494046278083, 5.3024711631090735], [-3.896879942527063, 5.305083373141078], [-3.888734847148802, 5.3047212383375175], [-3.884259664902938, 5.306783269877021], [-3.8828376193958514, 5.309540931030579], [-3.8840917487685465, 5.3127719095207695], [-3.900880660613274, 5.326729729450223], [-3.9115780164551723, 5.321284422992115], [-3.917065234412529, 5.320319939928892], [-3.922757126206594, 5.3140610231345]], [[-3.955374283778734, 5.427465740601423], [-3.954176692121894, 5.423331934811393], [-3.941673105985352, 5.416281854720931], [-3.93319003193502, 5.419208276898382], [-3.931029993091794, 5.425646963224325], [-3.932040247051955, 5.429505330555411], [-3.937389848005814, 5.434310001404988], [-3.9438881402048978, 5.434958553449916], [-3.9503473262714586, 5.438868651035681], [-3.9541077349669242, 5.436525482798015], [-3.955374283778734, 5.427465740601423]], [[-3.9806174188368173, 5.323714739547135], [-3.983612426526857, 5.323450251227603], [-3.985605827030733, 5.3210732079668475], [-3.9853004209263103, 5.3179860235953305], [-3.9827036487006016, 5.315905665348482], [-3.9795512909372874, 5.3162931295357], [-3.9776278164572316, 5.318700934535586], [-3.9779818029863274, 5.321752235181202], [-3.9806174188368173, 5.323714739547135]], [[-4.079657205338003, 5.402384091610516], [-4.079916992294563, 5.399079097096023], [-4.076878738517731, 5.3947102761881025], [-4.0709407421573065, 5.390697555011507], [-4.069362111840748, 5.3790870736589715], [-4.059959358216766, 5.371204779901784], [-4.055681063514806, 5.363564443915226], [-4.052196994813009, 5.362318294579592], [-4.044824868468568, 5.365338900310522], [-4.040337555528752, 5.364806942640173], [-4.036784500040415, 5.3664262428173615], [-4.034106190579446, 5.37101960820528], [-4.035613925808992, 5.379056076471587], [-4.031159527552111, 5.384701576068856], [-4.026522548230105, 5.396221058184809], [-4.027292148226673, 5.39916600711841], [-4.033047921987565, 5.405735305306654], [-4.04267246144394, 5.408514442422], [-4.050142821618505, 5.414684576825862], [-4.05630580231155, 5.4149721946633305], [-4.06717251176344, 5.422015743864831], [-4.07013598746187, 5.4202829546640645], [-4.079657205338003, 5.402384091610516]], [[-4.081661599544684, 5.485660046863055], [-4.0852893204427305, 5.483697762333759], [-4.085032780218165, 5.479248316094341], [-4.081773096359928, 5.47742771273018], [-4.0763195311780045, 5.478361753192349], [-4.074560949222897, 5.481526821198874], [-4.075211038781298, 5.484463418066031], [-4.077723450819193, 5.486116900254017], [-4.081661599544684, 5.485660046863055]], [[-4.161982265167042, 5.43707375749028], [-4.15585719686058, 5.437618238434692], [-4.151700241929345, 5.441956552196837], [-4.145735861787439, 5.443315023154245], [-4.140042403391252, 5.440571805084791], [-4.13704582261356, 5.440825179752187], [-4.131752695713307, 5.450514055285171], [-4.1320397126285835, 5.4539560669531975], [-4.139538323286763, 5.45725122531689], [-4.143544889431156, 5.4658769848726765], [-4.147914876803069, 5.4660149799507], [-4.165348126376718, 5.452957416724835], [-4.166644050901028, 5.440576019806049], [-4.161982265167042, 5.43707375749028]]]}, "properties": {}}