{"type": "Feature", "geometry": {"type": "Polygon", "coordinates": [[[71.32149168653417, 33.99918300131389], [71.3204621328758, 34.00226887600642], [71.3220634194409, 34.00509906820406], [71.33198524016247, 34.011831391498795], [71.3375913921445, 34.013251536249435], [71.34172506873573, 34.01707168923433], [71.34807075069818, 34.01857273488714], [71.35207368755411, 34.03012253824315], [71.36095515324894, 34.0301833358503], [71.36506187761405, 34.033702044946324], [71.36664137660942, 34.04095340388145], [71.37589977697829, 34.043483184813674], [71.37909484600252, 34.054223118512496], [71.38876306535711, 34.05448161053234], [71.39360887900264, 34.059393885241796], [71.40142159849253, 34.05963103086018], [71.40583053486985, 34.067105540988486], [71.41556811635692, 34.067872086368254], [71.42011697514222, 34.070467426426745], [71.42329666188142, 34.076266800429906], [71.43220534463443, 34.07710359779005], [71.4396367669732, 34.08100060946535], [71.44047186494761, 34.0863874494287], [71.4389903730924, 34.0891185885541], [71.4322659198332, 34.092355468256706], [71.4275780431138, 34.09186050476649], [71.42120387031922, 34.09357981326046], [71.4150984049336, 34.09971985645538], [71.40651714559237, 34.10362303581065], [71.40294102498763, 34.10922699638855], [71.40473701421345, 34.1127242363372], [71.41212975330362, 34.114921172114634], [71.4237606290948, 34.10964243149174], [71.43264017689066, 34.10905729905038], [71.44606766795248, 34.11373136900376], [71.44564570632348, 34.119731125115756], [71.43843282979643, 34.123113110265436], [71.43233294872954, 34.12965751849664], [71.43416400405138, 34.137314417707294], [71.43159277297974, 34.14858921674978], [71.43304324773926, 34.15758874032411], [71.43542460974838, 34.16006763799472], [71.45057285379856, 34.15976908324178], [71.45478755548365, 34.15622738554432], [71.45657000563986, 34.14624234266429], [71.45949001627538, 34.143807275402054], [71.4647355656763, 34.14550242991148], [71.4675663010256, 34.15241327983197], [71.47029421403795, 34.15426993384448], [71.47516778636067, 34.153250158840216], [71.48348489384675, 34.14849458970425], [71.48471662752165, 34.14556833893092], [71.48214977591984, 34.135305875674476], [71.48271427291628, 34.130382089114406], [71.4775623587261, 34.121359791420254], [71.48397915327914, 34.111999985897604], [71.48951621345051, 34.108423877192436], [71.49353522077959, 34.109469449282045], [71.50586522510011, 34.124858621141044], [71.51842918111544, 34.127883625301834], [71.52584043603152, 34.124881060197545], [71.52818128534234, 34.11873823881944], [71.53834345239747, 34.11082169358334], [71.5495298323955, 34.114656430788564], [71.55375943371058, 34.12136654194588], [71.55680078102499, 34.1228111558283], [71.58508074432672, 34.11024481274626], [71.59157413730925, 34.11116061740059], [71.59601755490243, 34.115248865865034], [71.59879016935639, 34.12227847655953], [71.59542675659439, 34.12874365978708], [71.5916400691772, 34.130306798119165], [71.58400084929252, 34.12917413772425], [71.57853592279697, 34.134076178727376], [71.5714016934846, 34.133050190401654], [71.5636563578874, 34.13817439198027], [71.55308850975831, 34.139386798651536], [71.54467673695301, 34.13846998785891], [71.54220273864269, 34.14144731400969], [71.54135926880735, 34.14771960394379], [71.5339327359281, 34.1505048449725], [71.53180539590069, 34.15766671441635], [71.52537581690962, 34.16213523943791], [71.52511772958712, 34.16730117489574], [71.52899172467052, 34.17075535243555], [71.53627439688472, 34.169164794565766], [71.5436945135945, 34.17187641165065], [71.55062039064534, 34.167711710855734], [71.56613207237521, 34.170624625959256], [71.57418828429232, 34.164648714222885], [71.57996690902482, 34.1693779263949], [71.57579794807326, 34.176857693909646], [71.57705430244182, 34.181318400450536], [71.57629432470257, 34.186224239344924], [71.57896305587583, 34.19078872411995], [71.57808422837651, 34.19577864717077], [71.56916048600978, 34.200076629037724], [71.56652481166459, 34.20390673561655], [71.56343635668595, 34.205313110166756], [71.55609508550816, 34.2008478435486], [71.55109669223646, 34.200569605725065], [71.54686613838648, 34.20230602978178], [71.53971169825861, 34.20132719117894], [71.5363697825831, 34.20670414351063], [71.54035334499385, 34.214100508087014], [71.53723053871595, 34.219238418743366], [71.5371825893487, 34.22218088728675], [71.54180844253133, 34.226241802948024], [71.54278255752122, 34.23109500830581], [71.54475591993925, 34.23316192793366], [71.55453192934932, 34.23061501130761], [71.55971866692063, 34.23494071955331], [71.56738117408686, 34.236268195634295], [71.57466769532648, 34.231066154619924], [71.58186325288861, 34.234025500658746], [71.5863571074282, 34.232982354692254], [71.58960619724886, 34.223938191165125], [71.59192463661665, 34.22186497965634], [71.59466273140715, 34.2219172150265], [71.5997807950624, 34.225203297945896], [71.60688792427405, 34.22394811126468], [71.60974376500913, 34.226466823063326], [71.61034190256294, 34.2368102585177], [71.61226182009418, 34.23950189599642], [71.61619042763621, 34.239819045135484], [71.62028244880307, 34.23580799665954], [71.62289309921375, 34.23523975099018], [71.62942713875022, 34.237013277389146], [71.63627167525597, 34.24203560000001], [71.64040050746189, 34.24162437411058], [71.64269945757107, 34.23938923596501], [71.64066025112523, 34.2286093993103], [71.64477749163113, 34.221047956342595], [71.65596994607935, 34.21748348871782], [71.66133213499042, 34.20727424427119], [71.66527619161307, 34.20341058537535], [71.66628226645193, 34.19910930450388], [71.66484386125425, 34.192793839296826], [71.66674327839449, 34.18335406877691], [71.6731692684704, 34.17859127999111], [71.67319215401236, 34.17083461697222], [71.67757993551696, 34.16603478479094], [71.6783823031245, 34.160225524778625], [71.68094186201893, 34.15841270736698], [71.68778902889956, 34.15794078006485], [71.69065396512993, 34.16175697793478], [71.68455337420846, 34.17135980202489], [71.68544331776215, 34.178343166107354], [71.6807667437917, 34.185782008842814], [71.68026200678601, 34.19649022537721], [71.68223653978606, 34.19979259884052], [71.69595979235203, 34.20216397721789], [71.70219283295953, 34.20024347048131], [71.71112095228696, 34.20397647301126], [71.71515212575046, 34.20274363265258], [71.71674341994905, 34.19937753253775], [71.71466041567085, 34.19229695612078], [71.7235272022743, 34.18490776773324], [71.7230129157511, 34.169023742116856], [71.72473061425282, 34.16645478496298], [71.72776634707706, 34.16587655039023], [71.7356344045092, 34.170756688209984], [71.7340716720345, 34.17880211889385], [71.73660681636768, 34.18379638787371], [71.7477119359479, 34.18714086425804], [71.750990843953, 34.19887618376241], [71.75928372798985, 34.19971183048963], [71.76179751063357, 34.2014590744992], [71.76088000592253, 34.20851658933494], [71.76234350354079, 34.21702910828261], [71.76570909135869, 34.218944650525216], [71.77038612110817, 34.2173712556174], [71.771882894963, 34.213505706801264], [71.77671986174934, 34.20900598499944], [71.77876944748009, 34.19958294596813], [71.7750271370958, 34.19323255466146], [71.77599180123659, 34.1833587749083], [71.7728181267055, 34.17780064198038], [71.77512920969194, 34.16971692682788], [71.77021253110972, 34.16123060159433], [71.76181089080245, 34.158957829605285], [71.76121173780383, 34.15416880177958], [71.76534636663794, 34.14637349676113], [71.77414286227223, 34.14361167268764], [71.7775590856183, 34.14429494124751], [71.78003884344196, 34.1486316097886], [71.78275040144472, 34.14992676670275], [71.79926613004118, 34.1460014115957], [71.80223338434034, 34.13731867547587], [71.79743278320575, 34.12533337127283], [71.79774420166959, 34.12255522242617], [71.80369740486589, 34.114578220249925], [71.81445422732202, 34.11491497153797], [71.8163235151963, 34.11195861478723], [71.81585888628874, 34.10893510285041], [71.80796570872533, 34.10032279263055], [71.80286227305541, 34.09134587700582], [71.80019312742195, 34.08966084261579], [71.79686880848955, 34.08991151412523], [71.78958581711895, 34.09933018914578], [71.78759689008498, 34.10544723285398], [71.78955883790914, 34.1143393240987], [71.7894718882124, 34.11934193624237], [71.78771193886567, 34.1218162947258], [71.77968154968221, 34.12129112735177], [71.77545871443, 34.11567582462536], [71.77224272056472, 34.1144272279435], [71.7661078727012, 34.11732081287465], [71.7632686323553, 34.126918224397954], [71.75927629994733, 34.12963474130496], [71.74440378173071, 34.12766915627484], [71.73913350613392, 34.12395364568499], [71.73144694102892, 34.12280098034429], [71.72122582341414, 34.129275518864056], [71.72181329074498, 34.137345294371784], [71.7182017980615, 34.14191946279479], [71.70869833760379, 34.14184816852358], [71.69896844910085, 34.1356563154988], [71.69715399585729, 34.12933198512066], [71.69904596594995, 34.122206078726855], [71.70458849893572, 34.11570218396683], [71.70312190901485, 34.10650539083207], [71.6893945258663, 34.09520862102098], [71.6861271751312, 34.08421962703254], [71.67623984726067, 34.07609561712406], [71.67651383316174, 34.06570216127422], [71.68087418053555, 34.06185455179779], [71.69030943204126, 34.06577300211558], [71.69715808422971, 34.060521233738065], [71.69987505211907, 34.0600979707986], [71.71224822273977, 34.06822385368919], [71.71278738911431, 34.07118270038957], [71.7106590719005, 34.07737435360436], [71.71335109902054, 34.08088138627199], [71.71667448934342, 34.08122237209394], [71.72277125192491, 34.07733498098356], [71.73061963003218, 34.07755026076748], [71.73259443577626, 34.07528683484235], [71.733288918677, 34.06994061748997], [71.73694631876744, 34.06627254159131], [71.73890112200188, 34.05939716589715], [71.7462443601252, 34.05460790307327], [71.7474197146295, 34.046454417959474], [71.7508504877879, 34.040905115262525], [71.75710856468879, 34.035627644031585], [71.75523695103406, 34.02426208811544], [71.75680401327672, 34.021139312501035], [71.76137968233225, 34.01925945855542], [71.76561118537629, 34.02308932102754], [71.76906195130879, 34.02874131891446], [71.76827357332829, 34.035945762763674], [71.77025778718517, 34.041279290944736], [71.77273373246112, 34.04333972781645], [71.79356274493396, 34.038887434157495], [71.79588876855841, 34.03631841790168], [71.7955007581725, 34.032033295856884], [71.78452463033135, 34.02795442020969], [71.78311265855906, 34.02529747644982], [71.78395197225267, 34.02240808776836], [71.79018528122882, 34.02019599961934], [71.79776495583887, 34.022311083991085], [71.80704603348926, 34.01955481473421], [71.8145213946949, 34.01959552086005], [71.81638798600927, 34.015262798580984], [71.81247533359436, 34.01004891130697], [71.81271391307092, 34.00384104923836], [71.82715140051542, 33.99940111598951], [71.83574740254332, 33.9889539272806], [71.83139084240844, 33.98347726682843], [71.82531319949354, 33.98125413179767], [71.8108624420222, 33.984356085324755], [71.80848402500365, 33.986175209841484], [71.80350366891473, 33.996702382063674], [71.7881178518985, 33.999892671791784], [71.78347335517233, 34.00623917790571], [71.77323195582315, 34.007518749014395], [71.76708337023769, 34.01035063016284], [71.76399113383954, 34.0072864325015], [71.76364180350669, 33.99377857803881], [71.77230535547312, 33.98444132999652], [71.77329967415747, 33.97949248725469], [71.7691383539511, 33.9746829334813], [71.76028809395883, 33.97424195161528], [71.75118042357089, 33.9784804890817], [71.75115762763737, 33.9855784956978], [71.74902583371052, 33.988467254932964], [71.73197011033963, 33.988439638852086], [71.72351896827905, 33.99210217470793], [71.7202360808128, 34.0001148524515], [71.71100268612919, 34.00211876132097], [71.7019540795471, 33.99494608090308], [71.70329322399444, 33.985631520773865], [71.70689444500775, 33.98148869581777], [71.70680820032072, 33.97814376833161], [71.68892975601317, 33.965323161953876], [71.68879500133058, 33.95307602348403], [71.68599360280402, 33.949016752183525], [71.67620729611816, 33.94738887501202], [71.67102841063755, 33.95188996349594], [71.66312060894046, 33.9546494996986], [71.6583583242049, 33.95406876619518], [71.65574993935206, 33.95082860056299], [71.65770239658227, 33.9404467869505], [71.65531037226017, 33.93583781162205], [71.64467561318926, 33.93335076540717], [71.6383891505533, 33.93554280038332], [71.63039519628443, 33.93195719680374], [71.62721996563826, 33.9331455802092], [71.62287241614116, 33.93917298379012], [71.61412650505102, 33.93971232465456], [71.60855149905758, 33.944882994623285], [71.6054980694936, 33.94425754179711], [71.60217713297732, 33.93973085544853], [71.59652320909835, 33.93633604733569], [71.58994271236995, 33.93933472624786], [71.57908389643005, 33.94067308648002], [71.57704282732398, 33.944463891203334], [71.5789240083946, 33.95249070118196], [71.5885331331475, 33.96235587945492], [71.58952045886626, 33.96519790377561], [71.58729897472861, 33.96857863680745], [71.5779685861229, 33.971334436271434], [71.57485449336639, 33.96906557850104], [71.56923090313349, 33.95967454294887], [71.56006187675126, 33.959958628635505], [71.55520255158612, 33.956706034271484], [71.55485868752471, 33.953355668233385], [71.55862961626632, 33.94725191278572], [71.55779144690854, 33.94241487131592], [71.55914780368096, 33.935706566800704], [71.55533753062315, 33.92464479334836], [71.5464293790477, 33.917512189133845], [71.54064479841973, 33.91800193865398], [71.53757935573387, 33.92025602349621], [71.53514061261203, 33.92940155855446], [71.53789581087564, 33.932440743362726], [71.53697821223156, 33.938061230635874], [71.53898469586055, 33.94358197752353], [71.54898503976831, 33.952179797389725], [71.54975751005122, 33.95580609327297], [71.54601430245702, 33.959807153722004], [71.53616180106656, 33.961162101031775], [71.52336280766204, 33.9513347026581], [71.5184064659769, 33.950549047592915], [71.5161154985139, 33.948438677295265], [71.51603282028745, 33.94532494014826], [71.5187849547936, 33.94083831545557], [71.52813029295753, 33.93737211718554], [71.52959022813187, 33.93205086493907], [71.5206562726946, 33.922874597377984], [71.51721226865018, 33.91689557657725], [71.51053394715045, 33.913812266476974], [71.50994575046467, 33.91018828609232], [71.5118523152602, 33.90390154413986], [71.50631237968548, 33.894370013665565], [71.50898158541675, 33.886237486736135], [71.50711271635639, 33.8837743470521], [71.50355354669973, 33.88313475055579], [71.49270719292824, 33.8850346079758], [71.48708088642717, 33.89132382934228], [71.48713480400312, 33.89913042114044], [71.48363186065299, 33.90270564574325], [71.48053381936913, 33.90279382821279], [71.47453585114147, 33.89906112675943], [71.46568466692989, 33.9021517674447], [71.4609456524559, 33.90628001863686], [71.4510178781186, 33.90716558217412], [71.44898320172226, 33.91459140016204], [71.45223952233239, 33.920238355024686], [71.45175087327631, 33.92365568553817], [71.43368095271785, 33.93200244845904], [71.43619270044424, 33.946339238489124], [71.4460541913298, 33.96544406761905], [71.44177178758724, 33.97448997676417], [71.43246187262018, 33.977488622353086], [71.43101350686104, 33.980930444192566], [71.43195017140535, 33.986179770029416], [71.43895189709829, 33.99227648351018], [71.44145642591259, 33.997219792287396], [71.45035059910664, 33.99774303806208], [71.45421128049311, 34.00074796690084], [71.4550272993392, 34.003363364417304], [71.45173182479482, 34.0087239126569], [71.45129604075561, 34.01961280912589], [71.44620861584374, 34.02435951067596], [71.43695763809991, 34.02626981914419], [71.4347850537713, 34.03321275858509], [71.4273437376716, 34.03929736250726], [71.42705166668448, 34.042408361098225], [71.42948788858995, 34.046923979462505], [71.42761436575877, 34.050515943306785], [71.42164510776485, 34.05051366689854], [71.4155630482207, 34.04657772843414], [71.407700076515, 34.05052713948771], [71.40436233739209, 34.04751801731973], [71.40357380266504, 34.040128880783], [71.40893886502083, 34.0303672873233], [71.40740166993788, 34.02760163300065], [71.40221583884053, 34.02507769101585], [71.40134129275867, 34.0205156602453], [71.41256650434619, 34.01023606488621], [71.41792365157475, 34.001123497281725], [71.41828732002128, 33.9979453749356], [71.41583574466478, 33.994527069576215], [71.41157319000625, 33.99479759820024], [71.40679116606037, 33.99979910983817], [71.39622036572355, 33.998507856344546], [71.38638189737429, 33.99493613620941], [71.38099544179356, 33.98819773153563], [71.37410621950403, 33.98431312046993], [71.37143846071963, 33.9799925919193], [71.36773381617124, 33.977828530919915], [71.36074345224391, 33.97853488471919], [71.35132941296702, 33.97585525783194], [71.34608688493486, 33.977407259254214], [71.34468237205792, 33.981352886066325], [71.34836993795264, 33.98956062638825], [71.35318675088295, 33.98964789513513], [71.35547751328498, 33.991542973587826], [71.35814306028072, 33.998148159407464], [71.35657083189798, 34.00272244951251], [71.35088411302971, 34.00243049373424], [71.34579827877525, 33.99306583942409], [71.34078999832526, 33.993245662100335], [71.33332827874781, 33.99749277961943], [71.32452239273258, 33.99711947034762], [71.32149168653417, 33.99918300131389]], [[71.74199007020925, 34.008290100623626], [71.7405867529355, 34.004863002607024], [71.74235949536244, 34.001903501353674], [71.74757835773909, 34.000687953248786], [71.75085493270065, 34.00262210869421], [71.75191465455504, 34.00691290787396], [71.75012947867394, 34.009771472924314], [71.74495817331075, 34.01041904579212], [71.74199007020925, 34.008290100623626]], [[71.72715257051098, 34.04252837003726], [71.72750614576738, 34.039306649069765], [71.7299086708975, 34.037381359396164], [71.73312400889546, 34.037714660205104], [71.73519845779975, 34.040455350575], [71.7346658597419, 34.044128610448105], [71.73222592344847, 34.04609140095504], [71.72880195134499, 34.04548850802094], [71.72715257051098, 34.04252837003726]], [[71.70464469820698, 34.02873174500702], [71.70716026953876, 34.02563787089101], [71.71140147342949, 34.025321774413925], [71.72016592471529, 34.0346667994359], [71.71273191706331, 34.04752766356023], [71.70533152121915, 34.05222753440027], [71.70254512588944, 34.05107333343416], [71.6982384451065, 34.0449254271067], [71.69655646687684, 34.03604629519268], [71.69775843478598, 34.033204122290826], [71.70256658166214, 34.031455530699674], [71.70464469820698, 34.02873174500702]], [[71.64185735938561, 33.993523526753215], [71.64331419671797, 33.988481215722565], [71.64674796889773, 33.9864608857199], [71.65271034206772, 33.987817990815785], [71.65833770838331, 33.98685779459499], [71.66069682115452, 33.98979715317797], [71.66060285306403, 33.99264981818111], [71.6663247275415, 33.99109551552916], [71.68027638476474, 33.98181915273225], [71.69003686336002, 33.98570381756105], [71.69173966906622, 33.99581156348872], [71.68747720633779, 34.000741078029826], [71.68566315959383, 34.01073592707893], [71.6869493120847, 34.01538174133837], [71.69039943468412, 34.019805656998976], [71.68885336934937, 34.025705757458795], [71.68956018598847, 34.03072014624813], [71.68753612127533, 34.03350669784466], [71.67969015759626, 34.03577907745499], [71.677938246338, 34.03868269647788], [71.68285738995013, 34.05402058027023], [71.68104291033069, 34.05807086443964], [71.67765245268376, 34.058481296951335], [71.66793175065153, 34.05430580503441], [71.66668962292495, 34.04611644714389], [71.66481888334832, 34.04375236130818], [71.65577800974698, 34.043826214277786], [71.65294548032011, 34.04185601626879], [71.653341355918, 34.03317865382203], [71.66261559837662, 34.03013004951838], [71.66567855203412, 34.02577018133532], [71.65836826650371, 34.01115532139266], [71.65764100761864, 34.005162813697986], [71.66051576472141, 33.999962327333435], [71.65973383464939, 33.993941319908494], [71.64574448521283, 33.997718045231245], [71.64300589025746, 33.99652578272883], [71.64185735938561, 33.993523526753215]], [[71.62087593544378, 34.10694358954033], [71.62350265846693, 34.101233159859746], [71.61960882942392, 34.09595748855617], [71.61976100982041, 34.092592900048764], [71.62567000917593, 34.0883914301416], [71.62785241946493, 34.08259021781411], [71.6339125091904, 34.074282880609445], [71.64099790098642, 34.07400638510616], [71.64413888516552, 34.07155257194384], [71.64517988646318, 34.06666783059782], [71.64237319090687, 34.060716474953544], [71.64381242337082, 34.05804558131462], [71.6466399259296, 34.05696005691981], [71.6529814509774, 34.060602873419164], [71.65688262824524, 34.06967404443425], [71.66180843520628, 34.0713105611738], [71.66854968467825, 34.076632394443116], [71.67010585474532, 34.08635923772495], [71.67498670413487, 34.09171374246627], [71.67582390310831, 34.0975080080681], [71.67910019266554, 34.10099664166809], [71.6852603622517, 34.10314543028148], [71.68668820185755, 34.10750644435585], [71.68552799063318, 34.11047310517074], [71.68007176223452, 34.113821115470074], [71.67645508745214, 34.112650967219984], [71.67378218630869, 34.107103948254895], [71.67004700215007, 34.10614861142608], [71.66363962261852, 34.110090568441805], [71.65476078843365, 34.108118871340146], [71.65076956462538, 34.11166093083813], [71.64406147742726, 34.11432611269262], [71.63959410298057, 34.11899218571851], [71.62759842020078, 34.11605721868865], [71.61534849334893, 34.1183715033885], [71.6121003984487, 34.11581530068724], [71.61197351055658, 34.11203428003959], [71.62087593544378, 34.10694358954033]], [[71.59006000617686, 34.197915625347356], [71.58988106987147, 34.1935146134535], [71.59485995467297, 34.189524909393704], [71.59619450669324, 34.18433993070639], [71.60051462096429, 34.17996592865896], [71.60222859531571, 34.174734556442914], [71.60703526655746, 34.16851275523886], [71.60682245372087, 34.165557261575465], [71.60299947782057, 34.160295290019825], [71.6055806095211, 34.15066272979303], [71.60935590118923, 34.1481457473795], [71.61559841808212, 34.14871657409173], [71.62083575240905, 34.146367419514064], [71.6227232999518, 34.14101297257256], [71.62149682571734, 34.13509806421746], [71.62496613370469, 34.13060678326165], [71.62783233191476, 34.12980066141718], [71.64260077387135, 34.132727341296054], [71.65194035555085, 34.12820341941833], [71.66284602429721, 34.13366308748918], [71.66751088921418, 34.130953490573454], [71.66983812644816, 34.12638415466469], [71.67263174629176, 34.12502722907886], [71.6821103553466, 34.1297729729391], [71.68232473178497, 34.13524727162519], [71.67420361090193, 34.14497002540831], [71.67448646572282, 34.14925793732983], [71.67814929352295, 34.15356932996836], [71.67725401471172, 34.15746830313483], [71.66882883020476, 34.159532031658905], [71.6635124359802, 34.16335224508276], [71.65888968565856, 34.16327128410911], [71.6517740506121, 34.16641287409259], [71.64163499443434, 34.17637363591457], [71.64508400562127, 34.191398954474046], [71.64826573469911, 34.195848033615945], [71.64650206496883, 34.20015088775718], [71.64131889168515, 34.20312935631708], [71.63831468005759, 34.20304016793243], [71.6333752625085, 34.19595733474669], [71.62857479002544, 34.19331852770951], [71.62521893794722, 34.18893282074361], [71.62056626106973, 34.1885302417943], [71.61792658521944, 34.19134893274695], [71.61833798094075, 34.19790461147621], [71.61639908098556, 34.20220838244117], [71.61816143221304, 34.209118084390944], [71.6131164790897, 34.21354068188539], [71.60591778732118, 34.20757623478146], [71.59953979872624, 34.20893322437009], [71.59370603514851, 34.206824951772546], [71.59006000617686, 34.197915625347356]], [[71.64164921980267, 34.05006686703647], [71.6421149909506, 34.04682632300429], [71.6445971682319, 34.04507195899432], [71.64848296463968, 34.04554279044712], [71.65037424061015, 34.04802237765198], [71.64991048688447, 34.051106240486945], [71.64677885259093, 34.0535921824456], [71.64371723907793, 34.053020638048274], [71.64164921980267, 34.05006686703647]], [[71.6116996360175, 34.07003713197111], [71.60706686264514, 34.06697354788136], [71.60628636334869, 34.06367480186316], [71.61528010267001, 34.05145342732041], [71.61883079324963, 34.05009434136048], [71.62796113629358, 34.052478343508504], [71.62911203130277, 34.056801542670094], [71.62529998635401, 34.06068297134876], [71.62187601074065, 34.06899977310015], [71.61591053241986, 34.07175369539102], [71.6116996360175, 34.07003713197111]], [[71.61575130460174, 33.9795529027245], [71.621380323982, 33.978229887123305], [71.62574316259867, 33.98063872727661], [71.6262951757275, 33.98402065337612], [71.62256626279303, 33.99013273765047], [71.61911633050138, 33.9906548465558], [71.61231344173389, 33.986565915363904], [71.6121459419924, 33.98252090581394], [71.61575130460174, 33.9795529027245]], [[71.60082263119145, 34.10256558418069], [71.59325745902395, 34.098971408082704], [71.58368387717213, 34.09693521826385], [71.58178285754526, 34.09454321403504], [71.58212506463663, 34.091507023303386], [71.58950188888845, 34.0862160464584], [71.59484081358563, 34.08779583004409], [71.59909326084936, 34.091268841022796], [71.60842359500687, 34.09200039033886], [71.61059379617261, 34.094728931677764], [71.60996631017419, 34.098117518724266], [71.60524097961192, 34.102661643738685], [71.60082263119145, 34.10256558418069]], [[71.59420843649309, 33.96462042268862], [71.5972088015292, 33.96536138223671], [71.5987855902803, 33.96801937934663], [71.5977567074055, 33.971441835360494], [71.5950723621654, 33.97284939739936], [71.59217160728348, 33.971970442692786], [71.59047147774167, 33.968984008919115], [71.59143281907855, 33.96601065493024], [71.59420843649309, 33.96462042268862]], [[71.51682036329491, 34.091759213810384], [71.51848768259393, 34.087521904390385], [71.52850962398934, 34.081930960160506], [71.53864720611666, 34.0811606858752], [71.54486405191483, 34.075732680984984], [71.54743643857887, 34.07010896384101], [71.55339966903948, 34.069217504662134], [71.55637724983771, 34.0719559729051], [71.55594884135164, 34.07869171722604], [71.55950600216926, 34.08381985012286], [71.55975934065796, 34.089353937762105], [71.56739640141042, 34.09884951121711], [71.56813615890879, 34.10184947399306], [71.56583207482399, 34.10487753906934], [71.55819280597264, 34.10593695979064], [71.55165226328425, 34.09862856685468], [71.54444197331998, 34.099174697811016], [71.5389867412375, 34.09624479806765], [71.53527197118318, 34.09675728688836], [71.5302632002134, 34.10103872136173], [71.5272883517431, 34.10150102370131], [71.52248541365617, 34.096419448102715], [71.5182697491298, 34.09467693240199], [71.51682036329491, 34.091759213810384]], [[71.56005851604203, 34.07048579423151], [71.55693277324005, 34.069508066311286], [71.5555924666564, 34.06636853120099], [71.55677371090339, 34.06115605641617], [71.56003495439587, 34.059316522640145], [71.56314664772786, 34.06067581428127], [71.56612582172549, 34.06660166729621], [71.56438023300309, 34.069894730266604], [71.56005851604203, 34.07048579423151]], [[71.46680940727003, 34.08063237048374], [71.46716464370428, 34.076352799430516], [71.47111014864086, 34.07227140343858], [71.47811208661861, 34.072489632896705], [71.48110395937896, 34.070584419330835], [71.48117383301744, 34.05921332057374], [71.4891216732093, 34.055135558219376], [71.49655470542159, 34.03914241715149], [71.50084408269838, 34.03546644526436], [71.50236010602788, 34.02991420897272], [71.5156771684733, 34.02680443022603], [71.52039051843597, 34.02789026647321], [71.52311968645328, 34.03139575934092], [71.52755142997238, 34.047694199482706], [71.52542311868292, 34.05565355156164], [71.51906950086176, 34.05735921773107], [71.5170174444422, 34.05944074714982], [71.51721750163276, 34.07216178681628], [71.5120483049391, 34.07806269867917], [71.51090868110859, 34.08794679009825], [71.50624024083533, 34.090625044831334], [71.49657206310006, 34.09065205598784], [71.48418927230799, 34.095665240615574], [71.47667790525111, 34.09488039208597], [71.46898690501982, 34.09623558574657], [71.46559503242322, 34.09285204642883], [71.46717956452008, 34.087837793363434], [71.46680940727003, 34.08063237048374]], [[71.45392743515832, 34.09185930316576], [71.45786419674268, 34.09078658537407], [71.46453215843844, 34.09310019176298], [71.46569561189959, 34.09661244360375], [71.46310727647078, 34.10166098208277], [71.46023645947719, 34.102668123343676], [71.45242183157681, 34.10073967945309], [71.45094077930703, 34.0952437117071], [71.45392743515832, 34.09185930316576]], [[71.43287626374392, 34.06410755401279], [71.43004568802476, 34.05687736412406], [71.43370994936339, 34.05329834661404], [71.44638546517965, 34.054668090428514], [71.45480185471041, 34.0630913120082], [71.45128439447005, 34.068751142651735], [71.44626946697116, 34.069990663600976], [71.43598496490709, 34.06675502686384], [71.43287626374392, 34.06410755401279]]]}, "properties": {}}