{"type": "Feature", "properties": {"city": "Peshawar", "country": "Pakistan", "real_area": 118.18}, "geometry": {"type": "MultiLineString", "coordinates": [[[71.4934195125678, 34.0185730698148], [71.4925525237112, 34.0235580963482], [71.4867931888029, 34.0254422225935], [71.4859255956996, 34.0304274568], [71.4801654546172, 34.0323113698197], [71.4752735114856, 34.0292097481616], [71.4695131692506, 34.0310931473407], [71.4646218316378, 34.0279911323631], [71.4588612886678, 34.0298740176772], [71.4539705568694, 34.0267716095575], [71.4482098135821, 34.028653980982], [71.4473391966412, 34.0336390605353], [71.4415776477589, 34.0355212179358], [71.4407064257984, 34.0405065043157], [71.4349440712631, 34.0423884474241], [71.4340722440687, 34.0473739403976], [71.4389635779372, 34.05047761145], [71.4380919519748, 34.0554634320655], [71.4323281854254, 34.0573454603806], [71.4314559539147, 34.0623314872511], [71.4256913813255, 34.0642133006453], [71.4207996468596, 34.0611087874607], [71.4216726851649, 34.0561228819986], [71.4167817583389, 34.0530183967355], [71.4176549975389, 34.0480328188844], [71.4127648781495, 34.044928361784], [71.4136383181074, 34.0399431117243], [71.4087490059515, 34.0368386830278], [71.4096226465304, 34.0318537609397], [71.4153847932202, 34.0299731458826], [71.4162578284369, 34.0249884302396], [71.4220191701705, 34.0231076006291], [71.4269080827539, 34.0262111871097], [71.432669225423, 34.0243298435371], [71.4375587447065, 34.0274330374083], [71.4433196878935, 34.0255511798977], [71.4441905061292, 34.0205664283781], [71.4499506439918, 34.0186843569352], [71.4508208575221, 34.0136998125805], [71.4565801901184, 34.0118175274734], [71.4574497991573, 34.0068331905161], [71.4632083265452, 34.004950692013], [71.464077331307, 33.9999665626857], [71.4591886143536, 33.9968650526236], [71.4534306917835, 33.9987472510228], [71.4485425802225, 33.9956453485491], [71.4427844577371, 33.9975270336921], [71.4419138418284, 34.0025109212275], [71.4361549146175, 34.0043923928895], [71.4312672085807, 34.0012896771836], [71.4255080820841, 34.0031706353887], [71.4206209823562, 34.0000675275768], [71.421493208923, 33.99508388264], [71.4166069153082, 33.9919808039961], [71.4174793423862, 33.9869974878882], [71.4232372580859, 33.9851171289166], [71.4241090807436, 33.9801340202685], [71.4192237925349, 33.977031392108], [71.4200958156672, 33.9720486125741], [71.4152113329961, 33.9689460140766], [71.4094546278291, 33.9708257740575], [71.404570751338, 33.9677227843612], [71.4054437791309, 33.9627404558191], [71.4111998791307, 33.9608609952425], [71.4120723028028, 33.9558788744763], [71.4178275996402, 33.9539992007002], [71.4186994194051, 33.9490172879419], [71.4244539131375, 33.9471374012339], [71.4253251292085, 33.9421556967159], [71.4310788198931, 33.9402755973436], [71.4359618988264, 33.9433769028435], [71.441715390609, 33.9414962913042], [71.4465990744176, 33.944597205802], [71.4457294664313, 33.9495791527528], [71.4506139550966, 33.9526800969687], [71.4497445479833, 33.9576623734548], [71.4546298417073, 33.9607633471483], [71.4537606356036, 33.9657459529899], [71.4586467345886, 33.9688469559206], [71.4644018390991, 33.9669649321071], [71.4692885427602, 33.9700655431788], [71.4750434469236, 33.9681830067906], [71.4759110435114, 33.9632001596203], [71.4816651432396, 33.9613174110903], [71.4865522500135, 33.9644172093553], [71.4923061487666, 33.9625339484517], [71.4971938593009, 33.9656333545532], [71.496327872715, 33.9706164422461], [71.4905733704951, 33.9725000037101], [71.4897067807019, 33.9774833001942], [71.4945954983882, 33.980583155333], [71.50035060414, 33.978699293248], [71.5012163886356, 33.9737158766783], [71.506970689259, 33.9718318027135], [71.5118598086758, 33.9749308445788], [71.5109948295991, 33.9799143810324], [71.5158847546351, 33.9830134507608], [71.5216394563673, 33.9811285633954], [71.5225036299041, 33.9761449072596], [71.5282575260853, 33.974259808368], [71.5291210967596, 33.9692763614038], [71.5242315767152, 33.9661781328534], [71.5250953500506, 33.9611950147214], [71.5308478381584, 33.9593100056781], [71.5357371554746, 33.9624078136933], [71.5348741874489, 33.9673910512539], [71.5397643100724, 33.970488886934], [71.5389015449438, 33.9754724532518], [71.5437924730763, 33.9785703163559], [71.5429299109819, 33.9835542112508], [71.5478216448252, 33.9866521015378], [71.5535757374035, 33.9847656764403], [71.5544374935957, 33.9797816624687], [71.5601907799903, 33.977895026376], [71.5610519336661, 33.9729112219564], [71.5561606067717, 33.9698141725463], [71.5570219638162, 33.9648306967338], [71.5627738421217, 33.9629441514749], [71.5676649653099, 33.9660407805004], [71.5668044139365, 33.9710243751362], [71.5716963425225, 33.9741210311467], [71.5708359947536, 33.9791049543144], [71.5650829124542, 33.9809921027567], [71.5642219622845, 33.9859762356031], [71.5691149005195, 33.9890733387133], [71.5682541539934, 33.9940577998064], [71.5731478982011, 33.9971549294051], [71.5789021847512, 33.9952671775362], [71.5837965307401, 33.9983639130552], [71.58293679461, 34.0033488207369], [71.5878319468033, 34.0064455822763], [71.5935866304445, 34.0045570158245], [71.5944455598397, 33.9995719898226], [71.600199436125, 33.9976832127259], [71.6050949847862, 34.0007791595569], [71.6042368622459, 34.005764303677], [71.6091332171705, 34.0088602760748], [71.6148874893001, 34.0069706841443], [71.6197844451447, 34.0100662617071], [71.6255385108932, 34.0081761570765], [71.6304360673605, 34.0112713396284], [71.6295797639884, 34.016257046887], [71.6238250967812, 34.0181474539887], [71.6229681910799, 34.0231333710125], [71.6278667601148, 34.0262289985306], [71.6336220288442, 34.024338288897], [71.6385211985599, 34.0274335209503], [71.6376653058005, 34.0324198826839], [71.6319094354852, 34.0343108949104], [71.6310529402004, 34.0392974661988], [71.625296261026, 34.0411882677734], [71.6203966790306, 34.038092195524], [71.6146397930639, 34.0399824837667], [71.6097408124029, 34.0368860159506], [71.6039837200615, 34.038775790835], [71.5990853410327, 34.0356789276283], [71.593328042734, 34.0375681891284], [71.5884302656348, 34.0344709307074], [71.5826727617965, 34.036359678797], [71.5777755869243, 34.033262025338], [71.5720178779637, 34.0351502599913], [71.5671213056157, 34.0320522116708], [71.5613633919504, 34.0339399328619], [71.5564674224236, 34.0308414898564], [71.5507093044711, 34.0327286975598], [71.5458139380624, 34.0296298600458], [71.5400556162402, 34.0315165542359], [71.5391920572898, 34.036502387257], [71.5440876273177, 34.0396016452778], [71.5432242717923, 34.044587805658], [71.5374645388913, 34.046474588767], [71.5325687653993, 34.0433749102033], [71.5268088290516, 34.0452611794445], [71.525944062117, 34.0502474283841], [71.5201833184175, 34.0521334847483], [71.5193179471688, 34.0571199412984], [71.5135563960582, 34.0590057845172], [71.5086608208282, 34.0559048702278], [71.5095269994964, 34.0509185334175], [71.5152879460132, 34.0490329911236], [71.5161535202518, 34.0440468617967], [71.5112589551945, 34.0409463945455], [71.5121247322857, 34.0359605926226], [71.5178842674047, 34.0340751382298], [71.5187494403802, 34.0290895441284], [71.5245081686893, 34.0272038770409], [71.5253727377635, 34.0222184909936], [71.5311306593218, 34.0203326114798], [71.5319946247094, 34.0153474337189], [71.5271014751767, 34.0122482549476], [71.5213441572698, 34.0141338333846], [71.5164516113872, 34.0110342609123], [71.5106940908572, 34.0129193260891], [71.5058021489208, 34.0098193600927], [71.5000444261848, 34.0117039119844], [71.4991780413606, 34.0166887306123], [71.4934195125678, 34.0185730698148]], [[71.4790633599966, 33.9762664020229], [71.4733078518916, 33.9781492387283], [71.4684203427358, 33.9750485988866], [71.462664634079, 33.9769309228653], [71.4617958304044, 33.9819141868784], [71.4666835405177, 33.9850152475619], [71.4724398533862, 33.9831326233573], [71.4773281682387, 33.9862332917282], [71.4830842803507, 33.9843501546449], [71.4839514735652, 33.9793666496017], [71.4790633599966, 33.9762664020229]], [[71.4712507747717, 34.0211230402033], [71.4721193762089, 34.0161382543555], [71.4672290465714, 34.0130366880133], [71.4614699143001, 34.014919486681], [71.4606005067554, 34.0199041518832], [71.4654910375513, 34.0230061390963], [71.4712507747717, 34.0211230402033]], [[71.5083990907759, 33.994866065191], [71.5132900240673, 33.9979655831702], [71.5190461348661, 33.9960806067044], [71.5199107088789, 33.991096413187], [71.5150199780218, 33.9879973158364], [71.5092644706797, 33.9898819914077], [71.5083990907759, 33.994866065191]], [[71.6549308840628, 34.0267453991933], [71.6557853667065, 34.0217591300885], [71.6615394116468, 34.0198671845912], [71.6623932923118, 34.0148811256317], [71.6681465283662, 34.0129889704651], [71.6730464843478, 34.0160825712155], [71.67219341149, 34.0210687470039], [71.6664395748062, 34.0229612052463], [71.6655859000869, 34.0279475913067], [71.6598312542465, 34.0298398397896], [71.6549308840628, 34.0267453991933]]]}}