{"type": "Feature", "geometry": {"type": "MultiPolygon", "coordinates": [[[[73.95870617942658, 32.53250238754727], [73.96032616025268, 32.535658132931324], [73.96831696000457, 32.54238560811427], [73.97479564848393, 32.54450938510131], [73.9818842679202, 32.544224375543926], [73.98492093229927, 32.55059440216489], [73.99028007802056, 32.555221508760496], [74.00513209626001, 32.55540086211085], [74.00877767491517, 32.559066924870315], [74.0093090993125, 32.56516422369651], [74.01310040861276, 32.569323245732], [74.0173010574986, 32.570511192528436], [74.02020479106008, 32.56858879936493], [74.02128020953316, 32.56096725058661], [74.0168607061377, 32.55441202750265], [74.01990494712993, 32.54427378963203], [74.01799678802358, 32.54052159272024], [74.01157013119311, 32.53927209770046], [73.99804409375083, 32.53268249576475], [73.99162012028904, 32.532698675928145], [73.98427485432417, 32.52113158716982], [73.97706029816376, 32.52083334706989], [73.97196873869815, 32.518002920152675], [73.9687113892281, 32.51857943056666], [73.9584597918072, 32.52571825181807], [73.95739811885099, 32.52864606873362], [73.95870617942658, 32.53250238754727]]], [[[73.96885056368191, 32.48798494835659], [73.9693580717935, 32.49278868375482], [73.97350243073694, 32.49582136660268], [73.97838238142256, 32.49667732273295], [73.98383051574464, 32.49471772325238], [73.98730868525305, 32.47347535498771], [73.98593778713997, 32.4698003089974], [73.9820606783596, 32.468766925105946], [73.976248812624, 32.471176522020414], [73.96885056368191, 32.48798494835659]]], [[[73.95363093850769, 32.67487009741899], [73.95488804303508, 32.689455100961844], [73.95881258807924, 32.69246073462785], [73.96403426113073, 32.69225063043332], [73.97565345776917, 32.68599269462563], [73.98288016964008, 32.684778953852394], [73.98563173906152, 32.68113634130425], [73.98520319356767, 32.67043144929282], [73.9782962259549, 32.66665219599019], [73.97367462249201, 32.666953737284466], [73.96870126675144, 32.672846530704994], [73.95683391378024, 32.670074474322334], [73.95423684539956, 32.67182725181829], [73.95363093850769, 32.67487009741899]]], [[[73.89091706494865, 32.758527173307506], [73.89025846435561, 32.76302743940603], [73.89335858345515, 32.76596979800635], [73.90516186356638, 32.76875764625806], [73.91117238663931, 32.768260331347065], [73.91544840775465, 32.76375686219965], [73.91501677292311, 32.75981942023529], [73.91098797874349, 32.754315711547484], [73.9123272259689, 32.749564087357214], [73.91560256780114, 32.74757847371796], [73.92145294637704, 32.74883690084582], [73.92568531417547, 32.754358065803665], [73.93127957313803, 32.75492966963672], [73.93354189450444, 32.75693731726701], [73.9318892156523, 32.76967903292308], [73.93472599261865, 32.778137931610715], [73.93956555157536, 32.78185307192796], [73.94427958094327, 32.78228017889504], [73.9478594939398, 32.77890197611499], [73.94546656045674, 32.77078801828206], [73.94604953829479, 32.768111655113536], [73.95243402397615, 32.764795675289385], [73.95440217785301, 32.76106658347728], [73.95973063386646, 32.75732492317795], [73.9608323467268, 32.75320463577648], [73.95872055874212, 32.747657780502834], [73.94651440643291, 32.743792846251964], [73.94647222399149, 32.73691106256745], [73.94150366588254, 32.72926761605296], [73.94186423872706, 32.719337978604734], [73.9376084699036, 32.716406545680705], [73.92717939177116, 32.722683433157954], [73.92395654666693, 32.73086001290792], [73.91649443969735, 32.7326441451942], [73.91098167775387, 32.740250744557414], [73.90172466349478, 32.74125522112812], [73.89746072341138, 32.74414365356675], [73.8960860922753, 32.75370158923885], [73.89091706494865, 32.758527173307506]]], [[[73.91911328829569, 32.65319996814116], [73.92002369897764, 32.65879193689669], [73.9241473264119, 32.66247380583547], [73.92789641552892, 32.662807445630385], [73.93585866082239, 32.656029756885864], [73.94402999277324, 32.65441492317192], [73.94601029402789, 32.64743278168338], [73.94305103368217, 32.64435053849698], [73.93710518440326, 32.644986027423876], [73.93008851859933, 32.64341680579066], [73.92084930151256, 32.64991794942486], [73.91911328829569, 32.65319996814116]]], [[[73.89416283338034, 32.53842225408323], [73.89646857235599, 32.54333265954541], [73.90340905991462, 32.54478236770598], [73.90738669522918, 32.548284936950886], [73.91108126527178, 32.547948388094696], [73.92109842905188, 32.53769951827919], [73.92802068485513, 32.5351740714932], [73.930719921221, 32.52623265354006], [73.91945044082188, 32.51939839880336], [73.9104177650034, 32.520074404745614], [73.90793561836907, 32.52259313127727], [73.90728763973098, 32.529724678287], [73.90448405253294, 32.531637617806915], [73.89789486056712, 32.53186328443352], [73.89455656871691, 32.535176566845394], [73.89416283338034, 32.53842225408323]]], [[[73.87925653268654, 32.48177003786699], [73.87818781860797, 32.48596903274777], [73.88201000112775, 32.49806076274387], [73.88762071128322, 32.49924766805084], [73.8978205954829, 32.505072969827694], [73.90567767519349, 32.50117990133256], [73.90668905613151, 32.49567487248591], [73.90416884439367, 32.491513687331754], [73.90437921154314, 32.48573876481751], [73.90187700766836, 32.480428571591176], [73.89809840426709, 32.47973384096207], [73.89204291070574, 32.482960930371185], [73.88323920319147, 32.48003862025118], [73.87925653268654, 32.48177003786699]]], [[[73.85297638635436, 32.760968285307555], [73.85565293698538, 32.77073912032287], [73.86561908000995, 32.77435693090615], [73.86844697437192, 32.78345980544702], [73.87607707734922, 32.78450604747776], [73.8838791570727, 32.79171322099297], [73.89214258665659, 32.79097317207421], [73.89469597505372, 32.789317014735744], [73.89534289594964, 32.786343104382695], [73.89281926123678, 32.7792296514588], [73.88399716743987, 32.77327905725121], [73.87533925517175, 32.77046644072123], [73.8722276816534, 32.761006171021705], [73.86724327353137, 32.75987088733523], [73.85866026200046, 32.75483779784117], [73.85518011099055, 32.756198947715674], [73.85297638635436, 32.760968285307555]]], [[[73.8596971353943, 32.723655143942565], [73.86143058977164, 32.72770707686599], [73.86417223313485, 32.7292967360091], [73.87178534689151, 32.72798180828029], [73.87702995220012, 32.72428823009548], [73.88488183307223, 32.72781888925535], [73.88922204609496, 32.72473779359317], [73.89009085251148, 32.72088768430507], [73.8872972082982, 32.71688216323568], [73.88230093708313, 32.71560819417574], [73.87586326715385, 32.71097147765221], [73.8612150276782, 32.71720904892048], [73.85888278833109, 32.72020615951368], [73.8596971353943, 32.723655143942565]]], [[[73.85806131950703, 32.656375142676055], [73.85744740943801, 32.661485999850825], [73.86432986747882, 32.66881987712265], [73.87407304414174, 32.672402041745585], [73.88075312096662, 32.66917241023499], [73.88087353265601, 32.665096221707415], [73.87707127102364, 32.659523268175015], [73.88165735000958, 32.65274467771648], [73.87928375867462, 32.646837849484946], [73.87504821502984, 32.64646868613322], [73.87011686334333, 32.64952222570961], [73.86290650819016, 32.648892414155455], [73.85806131950703, 32.656375142676055]]], [[[73.8257399512048, 32.72320063437663], [73.82668001106322, 32.72775456301474], [73.82987933253345, 32.72972567272903], [73.84341827858151, 32.729351778536575], [73.84651459309528, 32.72487379424209], [73.84490752600897, 32.71826226172138], [73.83745199703917, 32.71227005362234], [73.8274970623653, 32.71622439345489], [73.8257399512048, 32.72320063437663]]], [[[73.7891707799746, 32.72494336549453], [73.79196370980218, 32.73283942970184], [73.80133617032017, 32.7329116920981], [73.80531218790796, 32.72893543498512], [73.80456069956224, 32.72319980452152], [73.80831222976676, 32.716525297941025], [73.80787903058653, 32.713228164550785], [73.80117493037514, 32.70930892821772], [73.79616768078071, 32.71079117536414], [73.79355470663755, 32.71624220175849], [73.78889283043051, 32.71991810028217], [73.7891707799746, 32.72494336549453]]], [[[73.75842380268043, 32.709373325266746], [73.75752495688498, 32.715493310934775], [73.76112708467745, 32.72097557354629], [73.76629584304234, 32.721458322796536], [73.77153999883024, 32.72420576764082], [73.77706819248525, 32.72001525614882], [73.77679438045168, 32.71575300195575], [73.76988651515308, 32.70972832715534], [73.7695082057207, 32.70368893077455], [73.7669287994628, 32.6991767820397], [73.76198473032004, 32.69817391955337], [73.75913113061112, 32.699622779886596], [73.75842380268043, 32.709373325266746]]], [[[73.7298884617226, 32.50434643063053], [73.7329193079353, 32.51698084185253], [73.73981963950233, 32.52103083576928], [73.7449359134098, 32.52943919678039], [73.74910105350936, 32.53105260788041], [73.75261189068004, 32.53002394396301], [73.75701302077753, 32.52181606187968], [73.75615991210276, 32.51769137107326], [73.75209596337817, 32.51434286689091], [73.7440595955255, 32.513574261331186], [73.74026188793516, 32.508381532495676], [73.73966031762521, 32.503227011559666], [73.73760162074534, 32.50092931195878], [73.7331928741068, 32.50092517846761], [73.7298884617226, 32.50434643063053]]], [[[73.70549684586523, 32.64158910276344], [73.7076837975377, 32.662312834853665], [73.71480783399204, 32.66410438423869], [73.72060264546387, 32.66297747004907], [73.72688511687392, 32.668861041675626], [73.72976404509492, 32.66964206541012], [73.74022061950298, 32.663959489221014], [73.73979033254778, 32.6472615903702], [73.74164870847378, 32.64489670813122], [73.74652357455489, 32.64328850983451], [73.74779971584063, 32.640185287344266], [73.745703463729, 32.633215413819656], [73.73826189836237, 32.63235599114114], [73.73241768642744, 32.62899504977304], [73.73079271974225, 32.626396386906436], [73.73087767811616, 32.619745551601056], [73.72337468361734, 32.61645222301951], [73.71655564876085, 32.6199311800869], [73.71017818317401, 32.625965712246085], [73.70816234645328, 32.63183058495336], [73.70439824359322, 32.63596096956572], [73.70549684586523, 32.64158910276344]]], [[[73.70793852918531, 32.4576902264195], [73.70969447009809, 32.46269752082529], [73.7137974845889, 32.46524962348683], [73.71666116136949, 32.464605856374014], [73.72002695391534, 32.46096805598967], [73.7294467552964, 32.458529196678526], [73.73156252867997, 32.449978842892925], [73.72803650479554, 32.44261293673516], [73.72528026544309, 32.441103945752886], [73.71921277254077, 32.441733336915505], [73.71446885033392, 32.44923777787826], [73.70866532570409, 32.45277704371348], [73.70793852918531, 32.4576902264195]]], [[[73.69300739635668, 32.69264801698097], [73.69320175550176, 32.69605573839713], [73.69622447446869, 32.6986791783838], [73.70236936453712, 32.697104481256325], [73.70712988649643, 32.697827141295036], [73.71336272110455, 32.69168738543972], [73.71407614049211, 32.688679380724764], [73.70852550971134, 32.680128003221895], [73.70367734033563, 32.67895112101719], [73.69683035526675, 32.68373348269535], [73.69588561219238, 32.68893533232179], [73.69300739635668, 32.69264801698097]]], [[[73.62833332321057, 32.5757614896305], [73.62853109008311, 32.578927231743464], [73.62514140230354, 32.58355972528641], [73.62564348978385, 32.58658022208357], [73.63176356802455, 32.590273198773296], [73.63704553423725, 32.59000209877494], [73.64041191208574, 32.5860408372978], [73.6427112407438, 32.575192014849506], [73.64119278026956, 32.56897181721552], [73.63859981206757, 32.56715286068826], [73.63042114486424, 32.56675893363875], [73.62837478940328, 32.56951520286461], [73.62833332321057, 32.5757614896305]]], [[[73.60288389375533, 32.43174405732625], [73.59767251750343, 32.44019954148665], [73.60548249766227, 32.44873482434066], [73.61069507917348, 32.45018948472694], [73.61750176510608, 32.44813163725387], [73.622880635893, 32.441833996827434], [73.622270956592, 32.43552939569518], [73.61834396849314, 32.4295393175834], [73.60992587697623, 32.42884260897024], [73.60288389375533, 32.43174405732625]]], [[[73.59766741938009, 32.6626976067353], [73.60257459636443, 32.66670096542344], [73.61195052322184, 32.66499116626674], [73.6154350367092, 32.660324297588424], [73.61471690028182, 32.65372591430483], [73.60413655590446, 32.64830631299872], [73.59857174502952, 32.64944746699448], [73.59405326719579, 32.65706674781559], [73.59766741938009, 32.6626976067353]]]]}, "properties": {}}