{"type": "Feature", "properties": {"city": "Annaba", "country": "Algeria", "real_area": 62.86}, "geometry": {"type": "MultiLineString", "coordinates": [[[7.74715801872215, 36.8055851293079], [7.7486366365078, 36.8105014618053], [7.74419622028509, 36.8138699467366], [7.73827744811723, 36.8123219406153], [7.73679944873384, 36.8074056851131], [7.73088150268133, 36.8058574324488], [7.7294040673628, 36.8009410890328], [7.73384395973334, 36.7975729211658], [7.73236647006157, 36.792656412881], [7.73680595184645, 36.7892878445613], [7.7427231852027, 36.7908356259632], [7.74420129309695, 36.7957522113067], [7.75011935219188, 36.7972997463459], [7.7515980241351, 36.8022162438158], [7.74715801872215, 36.8055851293079]], [[7.52960317239351, 36.8797973771964], [7.528137160325, 36.8748832770246], [7.53258172594535, 36.8715271953144], [7.5384925705168, 36.8730850567703], [7.53995920256331, 36.8779992368429], [7.53551437008133, 36.8813554755748], [7.52960317239351, 36.8797973771964]], [[7.71016626638612, 36.8094944565586], [7.7086900679279, 36.804578267775], [7.71313025680923, 36.801211218119], [7.71904690664012, 36.8027601988738], [7.72052372355789, 36.8076764650459], [7.72644119967465, 36.8092251996919], [7.72791858059676, 36.8141413780544], [7.7338368830084, 36.8156898663296], [7.73531482807162, 36.8206059566342], [7.73087385216406, 36.8239734814994], [7.73235174286394, 36.8288894064217], [7.72791035610713, 36.8322565302668], [7.72938819240046, 36.8371722896223], [7.72494639474389, 36.8405390122762], [7.71902702321108, 36.8389898172494], [7.71754980573741, 36.8340741351552], [7.71163126106477, 36.8325246934874], [7.71015460782411, 36.8276089231512], [7.70423689000249, 36.8260592351046], [7.70276080085789, 36.8211433767746], [7.70720181081507, 36.8177771290057], [7.70572566699205, 36.8128611053566], [7.71016626638612, 36.8094944565586]], [[7.6775855756889, 36.8462495091807], [7.67611083408084, 36.8413341375768], [7.68055296012495, 36.8379698117199], [7.68647009119709, 36.8395206994466], [7.68794545185935, 36.8444361488899], [7.68350306241668, 36.8478006327832], [7.6775855756889, 36.8462495091807]], [[7.51485180681354, 36.8668521629738], [7.51338692100442, 36.861937890024], [7.51783095252424, 36.8585821223133], [7.52374013698721, 36.860140470576], [7.52520564264908, 36.8650548236346], [7.52076134401615, 36.8684107483377], [7.51485180681354, 36.8668521629738]], [[7.81969600862544, 36.8290556874002], [7.81821265899624, 36.8241394045896], [7.8226531074737, 36.8207676475959], [7.82857716574789, 36.8223120144952], [7.83006113372125, 36.8272283731609], [7.82562042509817, 36.8306002890883], [7.81969600862544, 36.8290556874002]], [[7.77676025259668, 36.8676702426807], [7.77527897371993, 36.8627548521836], [7.77972152022243, 36.8593863765212], [7.78564560693974, 36.8609331328568], [7.7871275048194, 36.8658485998047], [7.78268469700059, 36.8692172339824], [7.77676025259668, 36.8676702426807]], [[7.65983571506274, 36.8415946828508], [7.65836215649536, 36.8366793015093], [7.66280416572588, 36.8333156933494], [7.66871999731074, 36.8348673085932], [7.67019417492944, 36.8397827680226], [7.66575190193334, 36.8431465341364], [7.65983571506274, 36.8415946828508]], [[7.52818402601914, 36.8567841425273], [7.52671846360886, 36.8518696232788], [7.53116194308956, 36.8485128920545], [7.53707125176309, 36.850070522979], [7.53853743385068, 36.8549851221517], [7.53409368760838, 36.8583420104919], [7.52818402601914, 36.8567841425273]], [[7.70863030411846, 36.8951365777467], [7.7071528498819, 36.8902219825217], [7.70123133991113, 36.8886713743585], [7.69678692776694, 36.8920351259615], [7.69086588954542, 36.8904840350523], [7.68938961973232, 36.8855694281212], [7.69383376852345, 36.8822058344355], [7.69975445050225, 36.8837566897797], [7.70419845150553, 36.8803925358447], [7.70272150731092, 36.8754776845526], [7.70716509722376, 36.8721131284559], [7.70568809828677, 36.8671981106349], [7.71013127715965, 36.8638331525471], [7.70865422352357, 36.8589179683812], [7.70273461023012, 36.8573678198139], [7.69829169437296, 36.8607326198226], [7.69237255246338, 36.8591819889106], [7.69089668246514, 36.8542667937019], [7.69533933517885, 36.850902151758], [7.70125812105573, 36.8524525469741], [7.70570062603579, 36.8490873451989], [7.71161988311511, 36.8506372581467], [7.713096991407, 36.855552608473], [7.71901707572358, 36.8571022745997], [7.72345969533121, 36.8537363548407], [7.72938025031006, 36.8552855384308], [7.73382272133988, 36.8519190588696], [7.73234437498947, 36.8470035540038], [7.73678643495677, 36.8436366730267], [7.73530803423293, 36.8387210022655], [7.73974968318826, 36.8353537200433], [7.74566999495949, 36.8369019502072], [7.74714901450454, 36.8418176979809], [7.75307015278544, 36.8433656808971], [7.75454973695825, 36.8482813397241], [7.75010756399019, 36.8516489387427], [7.75158709398557, 36.8565644315707], [7.75750941591266, 36.8581124022002], [7.75898951074906, 36.8630278056891], [7.75454666461838, 36.8663951617203], [7.74862398555585, 36.864846955881], [7.74418099006436, 36.8682137520229], [7.74566041157528, 36.8731289122997], [7.75158344778068, 36.8746773533354], [7.75602670531063, 36.8713103988818], [7.76195021127726, 36.8728583567684], [7.76343081702385, 36.8777735041985], [7.75898729758384, 36.8811406169779], [7.76046784921962, 36.8860555977523], [7.75602391821735, 36.8894223087294], [7.75750441569912, 36.8943371226638], [7.76342946362673, 36.8958853023537], [7.76787365652285, 36.8925184330905], [7.77379917403214, 36.89406612921], [7.77528085634049, 36.8989809294889], [7.77083640167912, 36.9023479570525], [7.77231802998666, 36.9072625902036], [7.77824473251978, 36.9088102723149], [7.77972692644564, 36.9137248147018], [7.77528179819782, 36.9170915984458], [7.77676393815635, 36.9220059733769], [7.77231839790776, 36.9253723548163], [7.76639097954005, 36.9238242031012], [7.76194528921346, 36.927190023912], [7.76342675525917, 36.9321041545751], [7.76935453155552, 36.9336525410718], [7.77083656344968, 36.9385665805392], [7.77676516762845, 36.9401147175821], [7.77824776550816, 36.9450286656055], [7.77380113914827, 36.9483944000384], [7.77528368300767, 36.9533081799102], [7.7812134733917, 36.9548563018245], [7.78269658345055, 36.9597699898602], [7.77824928288412, 36.9631354794986], [7.7723191341778, 36.9615871230101], [7.770836644382, 36.9566735114736], [7.76490732394484, 36.9551249050883], [7.76342540028814, 36.9502112018203], [7.75749690811189, 36.9486623458009], [7.75601555045707, 36.9437485510496], [7.75008788653329, 36.9421994456588], [7.74860709474316, 36.9372855596724], [7.74268025906334, 36.9357362051729], [7.74120003300068, 36.9308222281997], [7.74564602257491, 36.9274575287927], [7.74416574214187, 36.9225433840593], [7.73824009207357, 36.9209940157385], [7.73676037715419, 36.9160797804104], [7.73083555512333, 36.9145301635961], [7.72639009084631, 36.9178945470111], [7.72046573984586, 36.9163444467608], [7.71898721014225, 36.9114301983166], [7.72343241157822, 36.9080659728762], [7.72195382727465, 36.9031515571032], [7.71603066129203, 36.9016014440895], [7.71455264209056, 36.8966869384664], [7.70863030411846, 36.8951365777467]]]}}