{"type": "Feature", "properties": {"city": "Barranquilla", "country": "Colombia", "real_area": 111.72}, "geometry": {"type": "MultiLineString", "coordinates": [[[-74.7773208990077, 10.8876119484145], [-74.7812801766889, 10.8851722889442], [-74.7807812048112, 10.8806316189695], [-74.7763228535164, 10.8785307251541], [-74.7723636420732, 10.8809705781047], [-74.7728627156785, 10.8855111313797], [-74.7773208990077, 10.8876119484145]], [[-74.8467144632157, 10.9805408431924], [-74.8506746617402, 10.9781038904615], [-74.8501766874415, 10.9735679313092], [-74.8457184126793, 10.9714690406048], [-74.8452203670905, 10.9669327441284], [-74.8491806982044, 10.9644952226266], [-74.8536391402501, 10.9665941908183], [-74.8575997346115, 10.9641564870259], [-74.8620583378561, 10.966255388618], [-74.8660191953156, 10.9638175025661], [-74.8655213843421, 10.9592805217636], [-74.8610626139017, 10.9571815426341], [-74.8605647316051, 10.9526442245563], [-74.8561059550529, 10.9505451013904], [-74.8521452280486, 10.9529833738001], [-74.8476866127422, 10.9508841841821], [-74.8437261490358, 10.9533222743882], [-74.8442242352692, 10.9578593609851], [-74.840263969552, 10.9602970757121], [-74.8358056830515, 10.9581978970757], [-74.8353074948983, 10.9536609263365], [-74.8392676951571, 10.9512230183652], [-74.838769537635, 10.9466855947604], [-74.8343110779404, 10.9445861950431], [-74.8338128491348, 10.940048434559], [-74.8293543836915, 10.9379488912952], [-74.8288560836078, 10.9334107940606], [-74.832816350868, 10.9309721240914], [-74.8323180814057, 10.9264335741781], [-74.836278546758, 10.9239945288246], [-74.8357803079259, 10.9194555263006], [-74.8313215018212, 10.9173556851677], [-74.8273611020365, 10.9197949238045], [-74.8278594427807, 10.9243338102802], [-74.8238992411262, 10.9267726735417], [-74.8194407643866, 10.9246728436281], [-74.8189423217625, 10.9201340732789], [-74.8229024577497, 10.9176950167061], [-74.8224040457287, 10.9131557937971], [-74.8179453958471, 10.9110557436461], [-74.8174469125547, 10.9065161844327], [-74.821407181019, 10.9040765591724], [-74.8209087283293, 10.8995365475272], [-74.8164499052983, 10.8974362773879], [-74.812489702587, 10.8998760959882], [-74.8080310417172, 10.8977757601757], [-74.807532415898, 10.8932355287408], [-74.8030737496348, 10.8911350503195], [-74.7991138769354, 10.8935748803264], [-74.7996126045763, 10.898114995357], [-74.795652930209, 10.9005544499657], [-74.7911945942068, 10.8984539829478], [-74.7872351842353, 10.9008932555139], [-74.7827770109395, 10.8987927229639], [-74.778817865513, 10.9012318134564], [-74.7743598551054, 10.8991312154215], [-74.770400974373, 10.9015701238093], [-74.7709000377878, 10.9061094367417], [-74.7669413555467, 10.9085479694862], [-74.7674404494564, 10.9130868299344], [-74.7634819657179, 10.9155249869678], [-74.7639810901137, 10.9200633948635], [-74.7600228048889, 10.9225011761179], [-74.760521959762, 10.9270391313931], [-74.7649792982157, 10.929139422098], [-74.765478381923, 10.9336770413665], [-74.7615202288192, 10.9361142532588], [-74.7620193430042, 10.9406514197792], [-74.7664765086524, 10.9427514910307], [-74.7669755516754, 10.9472883213561], [-74.7714327124895, 10.9493882498396], [-74.7719316843452, 10.9539247438413], [-74.7679735970406, 10.9563611928185], [-74.7684725993837, 10.9608972338854], [-74.7729295873797, 10.962996942468], [-74.7734285185593, 10.9675326470231], [-74.7778855016342, 10.9696322124918], [-74.778384361645, 10.9741675804064], [-74.7744263402459, 10.9766032664419], [-74.7749252307538, 10.9811381812357], [-74.7709674077235, 10.9835734911777], [-74.7714663287197, 10.9881079527831], [-74.7759229711011, 10.9902072208175], [-74.7764218209415, 10.9947413455358], [-74.7808784583621, 10.9968404700604], [-74.7813772370414, 11.0013742577631], [-74.7858338694341, 11.0034732386303], [-74.7863325769471, 11.0080066891892], [-74.7823747537397, 11.0104410426616], [-74.7828734917597, 11.0149740397877], [-74.7873299513164, 11.0170727996128], [-74.7912878405861, 11.0146386395383], [-74.795744462722, 11.0167373326485], [-74.796243027886, 11.0212701085349], [-74.7922850726158, 11.0237040752306], [-74.7927836683053, 11.0282363975667], [-74.7972401175655, 11.0303348692396], [-74.8011981387747, 11.0279010959034], [-74.8056547503856, 11.0299995006672], [-74.809613035586, 11.0275655444501], [-74.8140698093661, 11.0296638822575], [-74.8180283584087, 11.0272297431902], [-74.8224852941764, 11.0293280139941], [-74.8264441069121, 11.0268936921071], [-74.8259459182486, 11.022360906151], [-74.8299049289882, 11.0199262082271], [-74.8343621939393, 11.0220244895182], [-74.8383214681732, 11.019589608864], [-74.8427788946813, 11.0216878231073], [-74.8432768796371, 11.0262208404062], [-74.8477343002777, 11.0283189099168], [-74.8516939031967, 11.0258840397556], [-74.8561514850981, 11.0279820420742], [-74.856649296877, 11.0325148368552], [-74.8611068727295, 11.0346126941967], [-74.8650668039228, 11.0321778344843], [-74.86952454074, 11.0342756244894], [-74.8734847347797, 11.0318405820836], [-74.8729871269319, 11.0273075565659], [-74.8769475186898, 11.0248721384078], [-74.876449941538, 11.0203386593586], [-74.8719918706206, 11.0182407137773], [-74.8714942221562, 11.0137068965758], [-74.8670361449809, 11.0116088060202], [-74.8630758833656, 11.014044610415], [-74.8635736338152, 11.0185783122266], [-74.8596135699944, 11.0210137408866], [-74.8551558209179, 11.01891566088], [-74.8546579685156, 11.0143820745363], [-74.8502002134101, 11.0122838497499], [-74.8462404779375, 11.0147192889559], [-74.8417828841396, 11.0126209971247], [-74.8412848585529, 11.0080871885104], [-74.8452445286617, 11.0056515561015], [-74.8447465337077, 11.0011172941145], [-74.8487064017369, 10.9986812859293], [-74.8482084374243, 10.9941465706371], [-74.8521685033624, 10.9917101867431], [-74.8516705697002, 10.9871750182133], [-74.8472124681643, 10.9850763492338], [-74.8467144632157, 10.9805408431924]], [[-74.8659976932214, 10.9250746950173], [-74.8699592118694, 10.9226349216081], [-74.8694613810108, 10.9180954556737], [-74.865001929454, 10.9159958788729], [-74.8610404759737, 10.9184358454537], [-74.8615384088742, 10.9229751956529], [-74.8659976932214, 10.9250746950173]], [[-74.9576775335101, 10.9897349451992], [-74.9616410086792, 10.9872961916955], [-74.9611444030184, 10.9827595266032], [-74.9566842198324, 10.9806617296547], [-74.9527208087118, 10.9831006759996], [-74.9532175167205, 10.987637226441], [-74.9576775335101, 10.9897349451992]], [[-74.775823810423, 10.8739897196601], [-74.7797832203618, 10.8715494912795], [-74.7792842077891, 10.8670080336348], [-74.7748256835384, 10.8649069211207], [-74.7708663398613, 10.8673473429912], [-74.771365454165, 10.8718886838752], [-74.775823810423, 10.8739897196601]]]}}