{"type": "Feature", "geometry": {"type": "MultiPolygon", "coordinates": [[[[-87.33457766003887, 20.405073377428987], [-87.3245787145552, 20.407430837392166], [-87.31606285714314, 20.405267120866657], [-87.31393415264986, 20.407893095666186], [-87.31378280310939, 20.413465275298687], [-87.31003404601378, 20.416667129567777], [-87.30159286764122, 20.41404101611203], [-87.29913070441322, 20.409070374151966], [-87.29975825169207, 20.405666201832464], [-87.30342782377964, 20.4021811423297], [-87.30740530054113, 20.393502495593513], [-87.31599836940299, 20.388951114822053], [-87.31937261235296, 20.38311301929469], [-87.31891970851356, 20.375629868295594], [-87.32283201075631, 20.37213968982613], [-87.32712765296225, 20.374247979337625], [-87.32938073050589, 20.38319743833693], [-87.32458391239092, 20.395187089235492], [-87.32740534310352, 20.39790163533122], [-87.33440051572256, 20.398757795025244], [-87.33568717642656, 20.401560372075092], [-87.33457766003887, 20.405073377428987]]], [[[-87.34241869081092, 20.361866783524654], [-87.3448154664166, 20.364251042079783], [-87.34483591106373, 20.368638108023763], [-87.34244941125101, 20.37080336172073], [-87.33845786332236, 20.37097088042609], [-87.3362281125191, 20.368327876417087], [-87.33639641448828, 20.36404300977494], [-87.33869736784003, 20.361884698137203], [-87.34241869081092, 20.361866783524654]]], [[[-87.39499480887952, 20.35095046424447], [-87.39322454040465, 20.354669265145787], [-87.38624441056973, 20.356917848092312], [-87.38315501167817, 20.355447195156277], [-87.38159980954607, 20.35126908588407], [-87.38338795959535, 20.347851634854212], [-87.39036808943027, 20.345603051907688], [-87.3933962533464, 20.34700043140162], [-87.39499480887952, 20.35095046424447]]], [[[-87.51501052387701, 20.203578982097785], [-87.51391576243603, 20.206850896174522], [-87.50949445108373, 20.209905384055297], [-87.49994284650519, 20.206410468847963], [-87.49014709940062, 20.211418387665976], [-87.48924610902358, 20.21598662340924], [-87.49244460196728, 20.220600873684283], [-87.49575028291663, 20.23125745590314], [-87.4908398136363, 20.236397603639386], [-87.48957291571789, 20.24330011802434], [-87.48561578960673, 20.245514137559965], [-87.48233484714893, 20.244621600464345], [-87.4809247661942, 20.241623568339293], [-87.4815953173965, 20.237035366383594], [-87.48695623363324, 20.23245114218851], [-87.48486417595277, 20.22694000788312], [-87.46592487843768, 20.226474801216977], [-87.46355610607061, 20.228364155926528], [-87.46197451902971, 20.23386718270118], [-87.4571322652129, 20.235733045819693], [-87.45397265665376, 20.23295891350892], [-87.4540766200748, 20.227749376427052], [-87.45102524714008, 20.22023934049927], [-87.44648476769746, 20.219735919401092], [-87.44080638992423, 20.222565181672547], [-87.43702502078776, 20.219171036157277], [-87.43795191323679, 20.21580382730704], [-87.44316239264688, 20.212277633908347], [-87.44616450684399, 20.203818872094438], [-87.4431796212042, 20.19581787601677], [-87.44395645036674, 20.19216645496127], [-87.44758109463139, 20.190432270889637], [-87.45222340723167, 20.19308845863133], [-87.45525205025042, 20.193050425199836], [-87.4573857516018, 20.19090067088362], [-87.45840682247643, 20.186216722580042], [-87.46182762542524, 20.18435198245807], [-87.46485257754325, 20.18507205758515], [-87.46666808372012, 20.187758676834676], [-87.46618564053476, 20.19584266286847], [-87.47488079251424, 20.20224250258015], [-87.48934070746678, 20.201806920885787], [-87.49539629745918, 20.197381266710092], [-87.50087966023841, 20.19877397249787], [-87.50624215352637, 20.19747887764542], [-87.51311143523688, 20.19835265543964], [-87.51569722037834, 20.196082758882554], [-87.51696554075752, 20.190228389278015], [-87.52184770685759, 20.18929961209272], [-87.52395205894673, 20.191781127096554], [-87.52375472205284, 20.19481912402703], [-87.51605205533335, 20.19814349682206], [-87.51501052387701, 20.203578982097785]]], [[[-87.47043146841908, 20.253355180194948], [-87.46341416015815, 20.255380842400083], [-87.45753271270533, 20.265722131517283], [-87.45272029440333, 20.265926817827328], [-87.45006303902443, 20.263873597771298], [-87.45125251819574, 20.257073240371255], [-87.45587961046574, 20.253054973216894], [-87.46192132618427, 20.25216544191527], [-87.46613725595655, 20.246442750237925], [-87.46910715993296, 20.246057928942886], [-87.47155468042156, 20.247895502509152], [-87.47206602719528, 20.250972136638726], [-87.47043146841908, 20.253355180194948]]]]}, "properties": {}}