{"type": "Feature", "geometry": {"type": "MultiPolygon", "coordinates": [[[[-80.74154689760535, -2.0840666258942577], [-80.74059857563647, -2.0801227075750592], [-80.73837294786617, -2.078050074102681], [-80.73523867438955, -2.078012164494985], [-80.7326713054115, -2.0802988836240677], [-80.73238504381922, -2.0853621639555424], [-80.73593653101047, -2.0901743009552987], [-80.74088636963882, -2.0890546122384563], [-80.74154689760535, -2.0840666258942577]]], [[[-80.78363121762045, -2.3112348316250113], [-80.77025956927187, -2.2994513663280625], [-80.76583969294884, -2.2999749935587053], [-80.76293319082531, -2.302649631627629], [-80.76502032571918, -2.3136254537946277], [-80.76986334022718, -2.31966786384068], [-80.77646388653199, -2.321669085227304], [-80.77938371156128, -2.321079567350282], [-80.78403275716109, -2.315900576474027], [-80.78363121762045, -2.3112348316250113]]], [[[-80.77606921494379, -2.154808625591485], [-80.77934900067937, -2.1540800527915995], [-80.78129429828932, -2.150904444135389], [-80.78045977071025, -2.1478841043429497], [-80.77745869911584, -2.1459823739844945], [-80.77444620986586, -2.146764071975069], [-80.77246677839015, -2.149883700459621], [-80.77320333943737, -2.152877173626818], [-80.77606921494379, -2.154808625591485]]], [[[-80.82522824284817, -2.1643405716691104], [-80.81951842398134, -2.1530255759779817], [-80.80914203285602, -2.152034923725919], [-80.80342894265848, -2.1584690986656447], [-80.79657490749743, -2.156326157482778], [-80.79323913923449, -2.15755664812022], [-80.79230998822672, -2.164076670588278], [-80.78813573877225, -2.168510504967124], [-80.78768142669747, -2.1734164944082637], [-80.79059878524052, -2.1763239554741496], [-80.79825376156896, -2.1759272332815316], [-80.79993838390838, -2.170747113631035], [-80.79866286979461, -2.1641011951056925], [-80.80102473084241, -2.160763424794036], [-80.80438079941594, -2.1600388503327377], [-80.81222178681342, -2.168261875102179], [-80.81048726043618, -2.1773831530759704], [-80.8151748330655, -2.1793573860172675], [-80.81960593957167, -2.1751511009640616], [-80.82533572230896, -2.1728647679997755], [-80.82744894294818, -2.167782914301763], [-80.82522824284817, -2.1643405716691104]]], [[[-80.82894580039331, -2.323673583359913], [-80.82966178855666, -2.3202033726902846], [-80.82682357416594, -2.3109183854212962], [-80.8241316996647, -2.3089240590559497], [-80.8196840938016, -2.3093436471718474], [-80.81803622358713, -2.3115097779323404], [-80.81746974595232, -2.3172843299202808], [-80.81962696673712, -2.3278068080665077], [-80.82249857738186, -2.3297704445544145], [-80.82583771976086, -2.3294539480366905], [-80.82894580039331, -2.323673583359913]]], [[[-80.8518563043994, -2.2416825573305372], [-80.84637138548737, -2.237063575414925], [-80.84476270605228, -2.2296202649421044], [-80.84287009301451, -2.22738288397708], [-80.8333900122679, -2.2270407449506084], [-80.82915474915752, -2.2294515826701504], [-80.82982071667477, -2.234832904821432], [-80.8396796765663, -2.238972406618262], [-80.84280562868668, -2.2473779684142774], [-80.84994618387275, -2.2479509210271056], [-80.8518563043994, -2.2416825573305372]]], [[[-80.85323072165059, -2.302293180558459], [-80.85558583980914, -2.298913488244939], [-80.8559641494654, -2.2892611420384337], [-80.85459048291959, -2.286589641490812], [-80.8509847477479, -2.2857490620301673], [-80.83947180085121, -2.2900242107954614], [-80.83880264869067, -2.2943742878158004], [-80.84485388415371, -2.3019018436803713], [-80.85323072165059, -2.302293180558459]]], [[[-80.86694701012648, -2.2050913826274785], [-80.86855557336528, -2.2011234616963455], [-80.86563804822597, -2.197088522849468], [-80.85534709141305, -2.1936913079765548], [-80.84779787250046, -2.1885234844998758], [-80.84470236926046, -2.188964244137227], [-80.84244335726532, -2.1916813867005818], [-80.84267135632847, -2.1960533309698738], [-80.84983528415478, -2.20113066482611], [-80.8529620284275, -2.205399832407438], [-80.86054667499202, -2.206917099937974], [-80.86694701012648, -2.2050913826274785]]], [[[-80.8627363380835, -2.3169456074164403], [-80.85949605489903, -2.3125547098961174], [-80.85463138888763, -2.3134349939369523], [-80.85085803717615, -2.3235713478276523], [-80.85180954432077, -2.32711430158429], [-80.85485503879445, -2.3284549592652133], [-80.85795624859091, -2.3271793946950075], [-80.8627363380835, -2.3169456074164403]]], [[[-80.98238826854018, -2.20905428819281], [-80.98524780196823, -2.206541822207265], [-80.98581869812327, -2.2036277919728704], [-80.9840106721377, -2.200632378815813], [-80.98078053834709, -2.1998332603393735], [-80.97568175551913, -2.202741638017388], [-80.9721708396938, -2.2077083121440886], [-80.96415527925728, -2.2067904597598256], [-80.95797430274696, -2.2122737209466186], [-80.94946491172891, -2.2128657477422085], [-80.94623231335818, -2.216432598245775], [-80.94069187389557, -2.2181990774212985], [-80.93160416929054, -2.2256234883346178], [-80.92840198497527, -2.224579335003891], [-80.9259931456809, -2.219082356770347], [-80.91993650350223, -2.215296586122821], [-80.91211527978419, -2.217226280721843], [-80.8989937335578, -2.215473317389493], [-80.89265348708655, -2.2095071738843335], [-80.8845552559437, -2.2121297869999004], [-80.88090070818328, -2.218253153942754], [-80.88489323942254, -2.223638069553316], [-80.88689453828562, -2.2311840944460224], [-80.88889913324383, -2.2333363278443326], [-80.91700509297128, -2.2351695406999736], [-80.92673674924339, -2.238184078020644], [-80.93076058895855, -2.2347939135666484], [-80.93806765817145, -2.233827856621383], [-80.9461330411639, -2.2300330383302702], [-80.9550165385337, -2.2232298185147488], [-80.96013758877992, -2.2159297299512635], [-80.96717157120716, -2.216364290865264], [-80.97237282634795, -2.209971724106131], [-80.97894816559364, -2.2109841468920726], [-80.98238826854018, -2.20905428819281]]], [[[-80.92865743164195, -2.245249004123534], [-80.92390856440784, -2.2489804774101163], [-80.9225135356458, -2.2533226516485962], [-80.92653814358528, -2.2591134931422774], [-80.9266342083662, -2.2659697920083386], [-80.93100543782958, -2.268350605363128], [-80.94647571585519, -2.2548736507597362], [-80.94769117539153, -2.251490826774839], [-80.94459706021367, -2.247698779147646], [-80.93660541398415, -2.2500652850065466], [-80.9319744620392, -2.2458907358626656], [-80.92865743164195, -2.245249004123534]]], [[[-80.91153193983996, -2.299909375298254], [-80.90979279184617, -2.295067187411735], [-80.90502758462296, -2.295080570185991], [-80.8949281041764, -2.30775785108799], [-80.89528916500583, -2.312173024668456], [-80.89821638463793, -2.314038302386157], [-80.90139181864876, -2.3133153334502032], [-80.91153193983996, -2.299909375298254]]], [[[-81.00016610889729, -2.1928652257207877], [-80.99960790185202, -2.1891843756533738], [-80.99631974887669, -2.1869565133898354], [-80.99132648506172, -2.1882601840037195], [-80.9894437377126, -2.191053933900705], [-80.99089310515197, -2.19533391223886], [-80.99461137319496, -2.1972102143302115], [-80.99785628937407, -2.196420412306537], [-81.00016610889729, -2.1928652257207877]]]]}, "properties": {}}