{"type": "Feature", "properties": {"city": "Salinas", "country": "Ecuador", "real_area": 68.99}, "geometry": {"type": "MultiLineString", "coordinates": [[[-80.840513380912, -2.22693048538589], [-80.8409496777513, -2.22178416089497], [-80.8456597708562, -2.21955459321983], [-80.8499336892568, -2.22247127988392], [-80.8546438083432, -2.22024166112214], [-80.855079886942, -2.21509542595615], [-80.8597899097959, -2.21286582647166], [-80.860225902369, -2.20771974194979], [-80.8559520043293, -2.20480331786565], [-80.8563880431188, -2.19965744510047], [-80.8610978477115, -2.1974279355118], [-80.8653717354644, -2.20034422828198], [-80.870081565637, -2.19811466795376], [-80.8743556111156, -2.201030970801], [-80.8790654666367, -2.19880135976953], [-80.8833396696363, -2.20171767260391], [-80.8829040276578, -2.20686372767838], [-80.8871783986345, -2.20978018158336], [-80.8918884009359, -2.20755044922883], [-80.8961629291489, -2.2104669128942], [-80.895727465782, -2.21561324001299], [-80.9000021618658, -2.21852984441243], [-80.9047123104843, -2.21629999061781], [-80.9089871635196, -2.21921660455083], [-80.9136973365962, -2.21698670000315], [-80.9179723463782, -2.21990332337978], [-80.9226825436812, -2.21767336811541], [-80.9269577100052, -2.22059000084566], [-80.931667931303, -2.21835999490096], [-80.932102865034, -2.21321342720597], [-80.9368129889568, -2.210983441665], [-80.94108830028, -2.213899952783], [-80.9457984478321, -2.21166991671384], [-80.9462331629779, -2.2065234406708], [-80.9509432129492, -2.20429342532167], [-80.9513778419847, -2.19914710097528], [-80.9560877943032, -2.19691710654669], [-80.9603632384961, -2.19983336517961], [-80.9650732139448, -2.19760332049077], [-80.9693488136909, -2.20051958834833], [-80.974058812038, -2.19828949343566], [-80.9744930898753, -2.19314320213774], [-80.9792029902302, -2.19091312857765], [-80.9834787333999, -2.19382927478716], [-80.9881886562878, -2.19159915115546], [-80.992464554476, -2.19451530645673], [-80.9971744996652, -2.19228513278985], [-81.0014505526667, -2.19520129709296], [-81.0010166726596, -2.20034776573995], [-80.9963066070074, -2.20257801110554], [-80.9958726408437, -2.20772463200947], [-80.9911624768701, -2.20995489887457], [-80.9868863995918, -2.20703847321002], [-80.9821762579551, -2.20926868984477], [-80.9817420730171, -2.21441540366174], [-80.9770318332647, -2.21664564147969], [-80.9727558991417, -2.21372909401901], [-80.9680456820917, -2.21595928145438], [-80.9676112784253, -2.22110608770399], [-80.9718872243849, -2.2240227658526], [-80.9714528671571, -2.22916978296374], [-80.9667424313889, -2.23140006254646], [-80.9624664736634, -2.22848325372589], [-80.9629009634652, -2.22333629600622], [-80.9586251730227, -2.2204196267613], [-80.9539148811306, -2.22264978452874], [-80.9534802587817, -2.22779668273053], [-80.9487698691852, -2.23002686104848], [-80.9483351607112, -2.23517391043499], [-80.9436246734823, -2.23740410910288], [-80.9431898788843, -2.24255130945753], [-80.9384792940951, -2.24478152827476], [-80.9380444133743, -2.24992887938094], [-80.9423202499559, -2.25284607140584], [-80.9418854156243, -2.25799363283998], [-80.9371746121934, -2.2602239424678], [-80.9328987642542, -2.25730661978794], [-80.9281879845603, -2.25953687830196], [-80.9277529315973, -2.26468453026117], [-80.9320287908232, -2.26760198357995], [-80.9315937842336, -2.27274984557132], [-80.9268827859185, -2.27498019432486], [-80.9264476932016, -2.28012820626972], [-80.9217365975524, -2.28235857428506], [-80.9174607159658, -2.27944085973667], [-80.9178959411663, -2.27429290779137], [-80.9226069154767, -2.27206261038324], [-80.9230420545591, -2.26691480832259], [-80.9187663518037, -2.26399736371558], [-80.9192015372417, -2.25884977174469], [-80.914926002199, -2.25593246667237], [-80.9102152706743, -2.25816262284972], [-80.9059398923873, -2.25524532671626], [-80.9063752566016, -2.25009800521296], [-80.9021000461339, -2.24718084895122], [-80.8973894605863, -2.24941088336162], [-80.8931144071592, -2.24649373626578], [-80.8884038463733, -2.24872371949645], [-80.8841289501917, -2.24580658165654], [-80.8845646254693, -2.24065959155028], [-80.8802898972935, -2.23774259405591], [-80.8755794832776, -2.23997245567986], [-80.871304912632, -2.23705546766836], [-80.866594523939, -2.2392852781194], [-80.8661585840241, -2.24443214688153], [-80.8614480989134, -2.24666197635517], [-80.86101207295, -2.25180899510145], [-80.8563014914938, -2.25403884339702], [-80.8520270580419, -2.2511216027878], [-80.8524632162744, -2.24597464497191], [-80.848188951122, -2.24305754505599], [-80.8486251555665, -2.23791079814321], [-80.8443510587399, -2.23499383912037], [-80.839640747405, -2.23722349583493], [-80.8353668089273, -2.23430654665498], [-80.8358031917806, -2.22916007202203], [-80.840513380912, -2.22693048538589]], [[-80.8858715717273, -2.22521934380197], [-80.8905817924238, -2.22298952105656], [-80.8910173418532, -2.21784304301823], [-80.8867428029257, -2.21492644824232], [-80.8820327039183, -2.21715620042186], [-80.8815970221561, -2.22230261793152], [-80.8858715717273, -2.22521934380197]], [[-80.8482768367131, -2.18867936077105], [-80.8525503982925, -2.19159550169378], [-80.8521143132962, -2.19674116249726], [-80.847404534515, -2.19897062131008], [-80.8431309628271, -2.19605434896377], [-80.8435671800221, -2.19090874923985], [-80.8482768367131, -2.18867936077105]], [[-79.8469715806748, -2.17388132468072], [-79.8512270336168, -2.1767969349107], [-79.8507762801836, -2.18193648965084], [-79.8460699446712, -2.18416035911733], [-79.8418144954824, -2.18124461267334], [-79.8422653780454, -2.17610513298816], [-79.8469715806748, -2.17388132468072]], [[-79.9507191039301, -2.17412398920941], [-79.9549765355263, -2.177039673663], [-79.9545272894813, -2.18217990299629], [-79.9498204823755, -2.18440437427364], [-79.9455630530991, -2.18148855408712], [-79.9460124286013, -2.17634839836749], [-79.9507191039301, -2.17412398920941]], [[-81.0113041825683, -2.18559455548847], [-81.0155803778087, -2.18851059804596], [-81.0151467166317, -2.19365697301445], [-81.0104367275352, -2.19588724664234], [-81.0061605199254, -2.19297107342734], [-81.0065943137748, -2.18782475725365], [-81.0113041825683, -2.18559455548847]], [[-79.8906773792326, -2.1384492678133], [-79.89493320977, -2.14136423615689], [-79.8944831395158, -2.14650322767732], [-79.8897771094768, -2.14872717640713], [-79.8855212820882, -2.14581207185747], [-79.8808153026877, -2.14803596567517], [-79.8765596552726, -2.14512088075117], [-79.8770099839782, -2.13998203827205], [-79.8817158308948, -2.13775820612265], [-79.8859714815825, -2.14067315479537], [-79.8906773792326, -2.1384492678133]]]}}