{"type": "Feature", "properties": {"city": "Esmeraldas", "country": "Ecuador", "real_area": 25.08}, "geometry": {"type": "MultiLineString", "coordinates": [[[-79.7094410691938, 0.897173397980643], [-79.7052280254425, 0.900021926305485], [-79.7056766535748, 0.905072646822206], [-79.7103381991655, 0.907274916122103], [-79.7145512484517, 0.904426540047904], [-79.7141027466195, 0.89937574243479], [-79.7183159708032, 0.896527156146054], [-79.7178675120843, 0.891476073216498], [-79.7132057028565, 0.889273653611782], [-79.7089924841569, 0.892122392098806], [-79.7094410691938, 0.897173397980643]], [[-79.6584431131337, 0.926300268896458], [-79.6588923751958, 0.931349822092717], [-79.6635533053447, 0.933551790382388], [-79.6640024842772, 0.938601135062572], [-79.6686633374536, 0.940803047345145], [-79.6728751439314, 0.93795568987961], [-79.6775360522458, 0.940157620986882], [-79.681748039913, 0.937310204777068], [-79.6812991132953, 0.932260704926502], [-79.6855112761003, 0.9294130775509], [-79.6850623925216, 0.92436329156798], [-79.6892747304413, 0.921515453202398], [-79.6939359577541, 0.923717553281562], [-79.6981484765218, 0.920869656499854], [-79.6976997622275, 0.915819507252646], [-79.7019124560129, 0.91297139978054], [-79.7014637847948, 0.907920964808717], [-79.6968022935303, 0.905718714560258], [-79.6963535391263, 0.900668071257788], [-79.691691970392, 0.898465765093588], [-79.6874792880875, 0.90131417724747], [-79.6828177740325, 0.899111890283468], [-79.6786052727424, 0.901960244230315], [-79.6790542796047, 0.907010732750758], [-79.6748419535076, 0.909858875988074], [-79.6752910034018, 0.914909078817833], [-79.6710788525206, 0.917757011169658], [-79.6664176578041, 0.915554893153872], [-79.6622056882789, 0.918402766970331], [-79.6575445488698, 0.916200668078138], [-79.6533327608943, 0.919048483278279], [-79.6537821060838, 0.924098244790366], [-79.6584431131337, 0.926300268896458]], [[-79.6675954342044, 0.978989946014078], [-79.6718067272005, 0.976143528987256], [-79.6713577116423, 0.971095384838064], [-79.6666972769704, 0.968893735354962], [-79.6662481782928, 0.963845381827716], [-79.6704596404081, 0.96099860016949], [-79.6700105847311, 0.95594995979248], [-79.6653499408138, 0.9537481787338], [-79.6649008020112, 0.948699329309532], [-79.6602400811087, 0.946497491974365], [-79.6560286313225, 0.949344579026153], [-79.6513679658718, 0.947142760477456], [-79.6471566977363, 0.949989788499727], [-79.647606088725, 0.955038482324428], [-79.6433949959947, 0.957885298459083], [-79.6438444299396, 0.962933705468034], [-79.6485048305614, 0.965135374260929], [-79.6489541814101, 0.970183572230321], [-79.6447432576873, 0.97303002346307], [-79.6451926514911, 0.978077934306797], [-79.6498528429715, 0.980279471815469], [-79.6503021536852, 0.985327173288913], [-79.6460913989613, 0.98817325933087], [-79.6465407526287, 0.993220673368947], [-79.6512007349814, 0.995422079241852], [-79.6554114960376, 0.992576146109563], [-79.6600715339475, 0.99477757024521], [-79.6642824765154, 0.99193157758546], [-79.6638333749683, 0.986884007934596], [-79.6591732047717, 0.984682508679484], [-79.6587240201219, 0.979634729389196], [-79.6629351317538, 0.976788371643141], [-79.6675954342044, 0.978989946014078]]]}}