{"type": "FeatureCollection", "features": [{"type": "Feature", "properties": {"threshold": 70}, "geometry": {"type": "MultiPolygon", "coordinates": [[[[32.0135699650872, 31.17425925885512], [32.01333906354935, 31.180326649354384], [32.01780473037283, 31.189748799387786], [32.02188232929589, 31.19153920963479], [32.02212579408535, 31.19813769135755], [32.03307129591365, 31.20312635084231], [32.03035226823421, 31.178036984803143], [32.04394736110391, 31.17644805044679], [32.04353373603569, 31.173084365250492], [32.02952646475265, 31.171709227262802], [32.02719622421472, 31.168055978042933], [32.01868866409402, 31.16713954756756], [32.0135699650872, 31.17425925885512]]], [[[31.964495001066062, 31.20948733934612], [31.96622377748902, 31.213323053924118], [31.97247878986507, 31.213334694492346], [31.978285948151562, 31.207137635602006], [31.978185316334788, 31.20237122398751], [31.971329871532582, 31.1996849063618], [31.964507318645335, 31.20052050550058], [31.964495001066062, 31.20948733934612]]], [[[31.981674266434084, 31.209142291819134], [31.98203788393482, 31.214081314469002], [31.99297025825968, 31.21816002939561], [32.00216557945133, 31.21628799684776], [31.989357929988348, 31.20294403488204], [31.984827405846563, 31.203073696702763], [31.981674266434084, 31.209142291819134]]], [[[31.84719392680972, 31.195511167713292], [31.85754132092299, 31.197017650584772], [31.8580299722783, 31.205800886899492], [31.85011196752358, 31.21053984982715], [31.849934715829182, 31.21793562014536], [31.853575677324358, 31.226723105674466], [31.860220260050454, 31.229647181756857], [31.859709103911836, 31.23519756931357], [31.86519494657615, 31.234701442140654], [31.86939097757918, 31.22721949587226], [31.866824673349342, 31.21265570834679], [31.86987562891996, 31.208425149778673], [31.876558649879264, 31.20702420278702], [31.876746903341843, 31.202422872758163], [31.86609299200711, 31.196590521972816], [31.865158608409423, 31.192178312592482], [31.855903754564924, 31.18572673494198], [31.851387304095166, 31.186697955553406], [31.84719392680972, 31.195511167713292]]], [[[31.853357684605683, 31.412140702359352], [31.85895125509664, 31.41456734833509], [31.86268131866351, 31.41400128763544], [31.858498034062283, 31.406943885877986], [31.853357684605683, 31.412140702359352]]], [[[31.797676178870017, 31.49416211869053], [31.80206896236916, 31.50033145095086], [31.81034607773299, 31.504401044291], [31.82306607531211, 31.50423046206594], [31.82900909212782, 31.512227328325736], [31.8325958362766, 31.512145047897622], [31.835584660242954, 31.508047539494477], [31.827036609447692, 31.494170354965984], [31.825547497023624, 31.486293195910076], [31.812304564133516, 31.48686366428745], [31.806213650633094, 31.48455829433144], [31.797684650438505, 31.48931691759679], [31.797676178870017, 31.49416211869053]]], [[[31.779916517429683, 31.397886954671513], [31.780859449381534, 31.405104389599792], [31.789204641179033, 31.40973529426129], [31.785938276268972, 31.414622957609424], [31.788565792600775, 31.417431224338934], [31.789335413495028, 31.436502648332837], [31.79241355608876, 31.439938449171716], [31.80014699988118, 31.440011492411514], [31.80459244354626, 31.452994284606838], [31.81620906912586, 31.453906081617127], [31.814317291042467, 31.432618587711996], [31.817370384745402, 31.421331408446882], [31.827893398415007, 31.410698758241956], [31.826115888168538, 31.40474362519951], [31.817581546550088, 31.400467926655303], [31.81324661666825, 31.392773473566912], [31.807205927700142, 31.3935400520634], [31.80367630043284, 31.396774329134228], [31.794986833132, 31.396487509782354], [31.794359005343335, 31.38828655298176], [31.798726990583038, 31.386005695363536], [31.79814114458433, 31.38113323675333], [31.790190090450594, 31.38203261349117], [31.786777377762913, 31.391739690200836], [31.779916517429683, 31.397886954671513]]], [[[31.816240325832464, 31.133385743331225], [31.81819224606262, 31.13996258180955], [31.82449537075542, 31.14018559399011], [31.827779327200766, 31.129268112090028], [31.816820202734785, 31.130286067255618], [31.816240325832464, 31.133385743331225]]], [[[31.77871507559306, 31.179525757258663], [31.787036981663743, 31.177829712509315], [31.784572185272737, 31.173656459122423], [31.786648143823445, 31.168949045405927], [31.792556852409568, 31.1702503156714], [31.793673166112658, 31.17412497023707], [31.797809555847635, 31.17596973160939], [31.810971280779754, 31.172095304318844], [31.81849691534853, 31.162611034168428], [31.816638599685582, 31.155765124674154], [31.80966761410629, 31.160919403718943], [31.79973511537139, 31.157640821328116], [31.79154109702188, 31.16419687876015], [31.78143619588213, 31.166047303033714], [31.77871507559306, 31.179525757258663]]], [[[31.79472152357296, 31.215750372733375], [31.79781810018483, 31.219513737985466], [31.805423149345984, 31.2202268008057], [31.807547034067106, 31.224962410825068], [31.814095572088753, 31.22470987207894], [31.81299702608769, 31.21218594119934], [31.806462188762808, 31.209742754744624], [31.79373541087114, 31.20963501748396], [31.79472152357296, 31.215750372733375]]], [[[31.79178283403903, 31.239658915702247], [31.79289090346161, 31.245409463354413], [31.80516705977354, 31.24874437660954], [31.8102189731421, 31.246170618433773], [31.81403669917109, 31.2364480959132], [31.805440409490675, 31.238813623945553], [31.79606729038491, 31.23644729631873], [31.79178283403903, 31.239658915702247]]], [[[31.808092028844882, 31.189264448629682], [31.805756991530625, 31.189679410917762], [31.80564750599156, 31.198395876672375], [31.81024464813787, 31.199037701612447], [31.81104860429683, 31.19049385988455], [31.808092028844882, 31.189264448629682]]], [[[31.779329055496188, 31.45873458314328], [31.780800916563347, 31.46996174340361], [31.78368982126561, 31.470497640537438], [31.785658298783655, 31.46522613637232], [31.79238501474461, 31.460259288608942], [31.79250831065392, 31.455852491083718], [31.78863468601632, 31.451576108873503], [31.785205282354006, 31.451447936609156], [31.779313833919396, 31.45552508403676], [31.779329055496188, 31.45873458314328]]], [[[31.76955601203496, 31.373397990963493], [31.77108229946139, 31.37701482883402], [31.78106541671655, 31.37574547263145], [31.78015141977535, 31.370635954174293], [31.776007889633238, 31.367911726928075], [31.76955601203496, 31.373397990963493]]], [[[31.726390021864518, 31.39640691818641], [31.725488017070425, 31.402137691216943], [31.732137384364336, 31.4079742535843], [31.7374443423173, 31.40719075239624], [31.74319142572062, 31.402312491597517], [31.738364669074933, 31.393614499740256], [31.72974747007657, 31.392738782784118], [31.726390021864518, 31.39640691818641]]], [[[31.70538617221261, 31.374476426448624], [31.70634165690109, 31.38076183834309], [31.713672206735797, 31.380762212733803], [31.71736214772522, 31.384890139053507], [31.72833188937377, 31.381429326905746], [31.72761261480171, 31.378145593573194], [31.71394168444116, 31.380300274009155], [31.712093193627243, 31.373567636039898], [31.70538617221261, 31.374476426448624]]], [[[31.65562553502897, 31.429941369038335], [31.656746050253588, 31.43243248782212], [31.66985871659098, 31.43623804240981], [31.66801471430988, 31.45088123441687], [31.680145694213838, 31.453434319973844], [31.691558318777634, 31.45167892502062], [31.691742709051695, 31.446443326255526], [31.687800588394044, 31.440593311160992], [31.690647788645435, 31.435303785870303], [31.68233861525547, 31.43204311088054], [31.670593475742997, 31.432355502004796], [31.666316580934293, 31.428815721984826], [31.656249661600434, 31.427934153912236], [31.65562553502897, 31.429941369038335]]], [[[31.644139929586597, 31.238513511879592], [31.645838992693083, 31.244659618746294], [31.653814893513577, 31.24723018601199], [31.655746957048994, 31.243710893293137], [31.662370442096368, 31.243186299216465], [31.659970984493004, 31.235528711476526], [31.66393287155704, 31.233617620321766], [31.673611964555356, 31.243755740099747], [31.67443342356267, 31.24811420218835], [31.68385272536433, 31.245429390749354], [31.683518042566636, 31.242346784025784], [31.67546463411123, 31.24051967379428], [31.673896234805575, 31.23463824714325], [31.66673601452024, 31.234117170571867], [31.65934456574181, 31.228205502748683], [31.651448901892078, 31.230577656868974], [31.65053498922514, 31.234821743849544], [31.644139929586597, 31.238513511879592]]], [[[31.658106739455423, 31.39799869615632], [31.664240915884516, 31.398099804721202], [31.66744769307161, 31.39465883015423], [31.667559994094464, 31.3887889393257], [31.664401724878157, 31.386742068287692], [31.657849318076725, 31.389382590218876], [31.658106739455423, 31.39799869615632]]], [[[31.61511097026021, 31.392770902774007], [31.61936655074519, 31.39844412890499], [31.627440704411015, 31.39315212745031], [31.64018485563688, 31.39555068136685], [31.648846713469176, 31.389505127523147], [31.643647135293357, 31.388343205871816], [31.64114781694644, 31.384941713923215], [31.631882487323352, 31.38481402022031], [31.62907543092208, 31.39082382360138], [31.622697617847596, 31.390821374095133], [31.618768461266527, 31.386037160084783], [31.61511097026021, 31.392770902774007]]], [[[31.618927006538634, 31.38386260288159], [31.6213079462938, 31.379532571485132], [31.625780866812526, 31.378075115154836], [31.625825796832032, 31.37296997063623], [31.62067059039042, 31.368060941063717], [31.626705950231127, 31.364570243764206], [31.626950479814802, 31.361849217255056], [31.61814338583166, 31.358636671226655], [31.61596964981853, 31.380753442652555], [31.618927006538634, 31.38386260288159]]], [[[31.61506737274375, 31.201136699368437], [31.617146253459936, 31.205412798918097], [31.633902537072384, 31.212167788065496], [31.637579614122863, 31.219478877365344], [31.648605691460887, 31.214589944979146], [31.649312961972903, 31.193699930523085], [31.632293076162682, 31.197273722507447], [31.621140474713965, 31.19184503968078], [31.61506737274375, 31.201136699368437]]], [[[31.610471448241988, 31.42121840907451], [31.61880617395234, 31.420299287930487], [31.617318167111737, 31.414511471320164], [31.62348634993986, 31.411033061448787], [31.62326181855747, 31.40398153642359], [31.616448186060953, 31.403017920879783], [31.609511784579578, 31.405574305115124], [31.60941023342178, 31.40941796933742], [31.61394880004233, 31.412365674920007], [31.610120262716364, 31.41726412181487], [31.610471448241988, 31.42121840907451]]], [[[31.59743509096718, 31.44135035219008], [31.597358744974255, 31.44614965728028], [31.603288061259455, 31.448020377943294], [31.61264289639593, 31.448067676370634], [31.61503853034947, 31.44363683190478], [31.606298774172473, 31.437350606092462], [31.599543284960173, 31.437363306023077], [31.59743509096718, 31.44135035219008]]], [[[31.594758732299347, 31.367477389362925], [31.594964181971992, 31.371170487692837], [31.599330529132914, 31.37142696352565], [31.60278574924648, 31.365975513662846], [31.597290370802636, 31.365316339713008], [31.594758732299347, 31.367477389362925]]], [[[31.58143229244371, 31.423932877812476], [31.578839791489948, 31.427516133586543], [31.584532229808918, 31.42778955588111], [31.587595615123124, 31.425879868347884], [31.58756254776608, 31.420642105477306], [31.584559152157947, 31.419633169085486], [31.58143229244371, 31.423932877812476]]], [[[31.56365948430626, 31.37307002924083], [31.56557138828928, 31.377063076844475], [31.571661873649287, 31.377992138112408], [31.572843237829375, 31.372362790670902], [31.58030181550695, 31.36936266317182], [31.58134939336439, 31.366433002786238], [31.57578623495634, 31.35677390087696], [31.565563164616574, 31.361462757953383], [31.56365948430626, 31.37307002924083]]], [[[31.561038991739096, 31.414751600033448], [31.561619447919036, 31.417680047856276], [31.574445525518104, 31.41861793053014], [31.578002152992873, 31.413231422652366], [31.57221671341436, 31.41152716388053], [31.57004143961199, 31.403273991415347], [31.563068873305625, 31.408123594179948], [31.561038991739096, 31.414751600033448]]]]}}, {"type": "Feature", "properties": {"threshold": 80}, "geometry": {"type": "MultiPolygon", "coordinates": [[[[32.0135699650872, 31.17425925885512], [32.01333906354935, 31.180326649354384], [32.01780473037283, 31.189748799387786], [32.02188232929589, 31.19153920963479], [32.02212579408535, 31.19813769135755], [32.03307129591365, 31.20312635084231], [32.03035226823421, 31.178036984803143], [32.04394736110391, 31.17644805044679], [32.04353373603569, 31.173084365250492], [32.02952646475265, 31.171709227262802], [32.02719622421472, 31.168055978042933], [32.01868866409402, 31.16713954756756], [32.0135699650872, 31.17425925885512]]], [[[31.964495001066062, 31.20948733934612], [31.96622377748902, 31.213323053924118], [31.97247878986507, 31.213334694492346], [31.978285948151562, 31.207137635602006], [31.978185316334788, 31.20237122398751], [31.971329871532582, 31.1996849063618], [31.964507318645335, 31.20052050550058], [31.964495001066062, 31.20948733934612]]], [[[31.981674266434084, 31.209142291819134], [31.98203788393482, 31.214081314469002], [31.99297025825968, 31.21816002939561], [32.00216557945133, 31.21628799684776], [31.989357929988348, 31.20294403488204], [31.984827405846563, 31.203073696702763], [31.981674266434084, 31.209142291819134]]], [[[31.84719392680972, 31.195511167713292], [31.85754132092299, 31.197017650584772], [31.8580299722783, 31.205800886899492], [31.85011196752358, 31.21053984982715], [31.849934715829182, 31.21793562014536], [31.853575677324358, 31.226723105674466], [31.860220260050454, 31.229647181756857], [31.859709103911836, 31.23519756931357], [31.86519494657615, 31.234701442140654], [31.86939097757918, 31.22721949587226], [31.866824673349342, 31.21265570834679], [31.86987562891996, 31.208425149778673], [31.876558649879264, 31.20702420278702], [31.876746903341843, 31.202422872758163], [31.86609299200711, 31.196590521972816], [31.865158608409423, 31.192178312592482], [31.855903754564924, 31.18572673494198], [31.851387304095166, 31.186697955553406], [31.84719392680972, 31.195511167713292]]], [[[31.853357684605683, 31.412140702359352], [31.85895125509664, 31.41456734833509], [31.86268131866351, 31.41400128763544], [31.858498034062283, 31.406943885877986], [31.853357684605683, 31.412140702359352]]], [[[31.797676178870017, 31.49416211869053], [31.80213303531072, 31.500382311617546], [31.81300650114396, 31.505956573846255], [31.82314185180419, 31.5047085700125], [31.82900909212782, 31.512227328325736], [31.8325958362766, 31.512145047897622], [31.835584660242954, 31.508047539494477], [31.827036609447692, 31.494170354965984], [31.825547497023624, 31.486293195910076], [31.812304564133516, 31.48686366428745], [31.806213650633094, 31.48455829433144], [31.797684650438505, 31.48931691759679], [31.797676178870017, 31.49416211869053]]], [[[31.779916517429683, 31.397886954671513], [31.780859449381534, 31.405104389599792], [31.789204641179033, 31.40973529426129], [31.785938276268972, 31.414622957609424], [31.788565792600775, 31.417431224338934], [31.789335413495028, 31.436502648332837], [31.79241355608876, 31.439938449171716], [31.80014699988118, 31.440011492411514], [31.80459244354626, 31.452994284606838], [31.81620906912586, 31.453906081617127], [31.814317291042467, 31.432618587711996], [31.817370384745402, 31.421331408446882], [31.827893398415007, 31.410698758241956], [31.826115888168538, 31.40474362519951], [31.817581546550088, 31.400467926655303], [31.81324661666825, 31.392773473566912], [31.807205927700142, 31.3935400520634], [31.80367630043284, 31.396774329134228], [31.794986833132, 31.396487509782354], [31.794359005343335, 31.38828655298176], [31.798726990583038, 31.386005695363536], [31.79814114458433, 31.38113323675333], [31.790190090450594, 31.38203261349117], [31.786777377762913, 31.391739690200836], [31.779916517429683, 31.397886954671513]]], [[[31.816240325832464, 31.133385743331225], [31.81819224606262, 31.13996258180955], [31.82449537075542, 31.14018559399011], [31.827779327200766, 31.129268112090028], [31.816820202734785, 31.130286067255618], [31.816240325832464, 31.133385743331225]]], [[[31.77871507559306, 31.179525757258663], [31.787036981663743, 31.177829712509315], [31.784572185272737, 31.173656459122423], [31.786648143823445, 31.168949045405927], [31.792556852409568, 31.1702503156714], [31.793673166112658, 31.17412497023707], [31.797809555847635, 31.17596973160939], [31.810971280779754, 31.172095304318844], [31.81849691534853, 31.162611034168428], [31.816638599685582, 31.155765124674154], [31.80966761410629, 31.160919403718943], [31.79973511537139, 31.157640821328116], [31.79154109702188, 31.16419687876015], [31.78143619588213, 31.166047303033714], [31.77871507559306, 31.179525757258663]]], [[[31.79472152357296, 31.215750372733375], [31.79781810018483, 31.219513737985466], [31.805423149345984, 31.2202268008057], [31.807547034067106, 31.224962410825068], [31.814095572088753, 31.22470987207894], [31.81299702608769, 31.21218594119934], [31.806462188762808, 31.209742754744624], [31.79373541087114, 31.20963501748396], [31.79472152357296, 31.215750372733375]]], [[[31.79178283403903, 31.239658915702247], [31.79289090346161, 31.245409463354413], [31.80516705977354, 31.24874437660954], [31.8102189731421, 31.246170618433773], [31.81403669917109, 31.2364480959132], [31.805440409490675, 31.238813623945553], [31.79606729038491, 31.23644729631873], [31.79178283403903, 31.239658915702247]]], [[[31.808092028844882, 31.189264448629682], [31.805756991530625, 31.189679410917762], [31.80564750599156, 31.198395876672375], [31.81024464813787, 31.199037701612447], [31.81104860429683, 31.19049385988455], [31.808092028844882, 31.189264448629682]]], [[[31.779329055496188, 31.45873458314328], [31.780800916563347, 31.46996174340361], [31.78368982126561, 31.470497640537438], [31.785658298783655, 31.46522613637232], [31.79238501474461, 31.460259288608942], [31.79250831065392, 31.455852491083718], [31.78863468601632, 31.451576108873503], [31.785205282354006, 31.451447936609156], [31.779313833919396, 31.45552508403676], [31.779329055496188, 31.45873458314328]]], [[[31.76955601203496, 31.373397990963493], [31.77108229946139, 31.37701482883402], [31.78106541671655, 31.37574547263145], [31.78015141977535, 31.370635954174293], [31.776007889633238, 31.367911726928075], [31.76955601203496, 31.373397990963493]]], [[[31.74667528106933, 31.456984298292994], [31.753115976805358, 31.455354679665042], [31.755991441889808, 31.450515271525656], [31.754761218891478, 31.447424190675527], [31.742761262176067, 31.451344413652784], [31.74268859801633, 31.45678354357816], [31.74667528106933, 31.456984298292994]]], [[[31.726390021864518, 31.39640691818641], [31.725488017070425, 31.402137691216943], [31.732137384364336, 31.4079742535843], [31.7374443423173, 31.40719075239624], [31.74319142572062, 31.402312491597517], [31.738364669074933, 31.393614499740256], [31.72974747007657, 31.392738782784118], [31.726390021864518, 31.39640691818641]]], [[[31.70538617221261, 31.374476426448624], [31.70634165690109, 31.38076183834309], [31.713672206735797, 31.380762212733803], [31.71736214772522, 31.384890139053507], [31.72833188937377, 31.381429326905746], [31.72761261480171, 31.378145593573194], [31.71394168444116, 31.380300274009155], [31.712093193627243, 31.373567636039898], [31.70538617221261, 31.374476426448624]]], [[[31.650261071111945, 31.430652084382576], [31.662503515252123, 31.441590747053535], [31.65964623334816, 31.446276472230902], [31.662405244722056, 31.451377758881623], [31.669087911754335, 31.454815066339275], [31.67753860489676, 31.455025198063094], [31.684555978747014, 31.458831050563024], [31.694641172881614, 31.458114475379862], [31.698646749847676, 31.4540750377894], [31.706090349984304, 31.45750866981121], [31.72113245425611, 31.451775343103975], [31.70812793227654, 31.445335822943555], [31.6955217114965, 31.443916701571183], [31.693652829266252, 31.429421648916033], [31.67722905946954, 31.42052761694073], [31.6638639316867, 31.423414946212205], [31.65788971702867, 31.42035173267096], [31.650261071111945, 31.430652084382576]]], [[[31.697917653800445, 31.422902255982336], [31.70832741300746, 31.424618868391033], [31.710865157990934, 31.420686031835725], [31.6982157627484, 31.420724356538837], [31.697917653800445, 31.422902255982336]]], [[[31.644139929586597, 31.238513511879592], [31.645838992693083, 31.244659618746294], [31.653814893513577, 31.24723018601199], [31.655746957048994, 31.243710893293137], [31.662370442096368, 31.243186299216465], [31.659970984493004, 31.235528711476526], [31.66393287155704, 31.233617620321766], [31.673611964555356, 31.243755740099747], [31.67443342356267, 31.24811420218835], [31.68385272536433, 31.245429390749354], [31.683518042566636, 31.242346784025784], [31.67546463411123, 31.24051967379428], [31.673896234805575, 31.23463824714325], [31.66673601452024, 31.234117170571867], [31.65934456574181, 31.228205502748683], [31.651448901892078, 31.230577656868974], [31.65053498922514, 31.234821743849544], [31.644139929586597, 31.238513511879592]]], [[[31.658106739455423, 31.39799869615632], [31.664240915884516, 31.398099804721202], [31.66744769307161, 31.39465883015423], [31.667559994094464, 31.3887889393257], [31.664401724878157, 31.386742068287692], [31.657849318076725, 31.389382590218876], [31.658106739455423, 31.39799869615632]]], [[[31.61511097026021, 31.392770902774007], [31.61936655074519, 31.39844412890499], [31.627440704411015, 31.39315212745031], [31.64018485563688, 31.39555068136685], [31.648846713469176, 31.389505127523147], [31.643647135293357, 31.388343205871816], [31.64114781694644, 31.384941713923215], [31.631882487323352, 31.38481402022031], [31.62907543092208, 31.39082382360138], [31.622697617847596, 31.390821374095133], [31.618768461266527, 31.386037160084783], [31.61511097026021, 31.392770902774007]]], [[[31.618927006538634, 31.38386260288159], [31.6213079462938, 31.379532571485132], [31.625780866812526, 31.378075115154836], [31.625825796832032, 31.37296997063623], [31.62067059039042, 31.368060941063717], [31.626705950231127, 31.364570243764206], [31.626950479814802, 31.361849217255056], [31.61814338583166, 31.358636671226655], [31.61596964981853, 31.380753442652555], [31.618927006538634, 31.38386260288159]]], [[[31.61506737274375, 31.201136699368437], [31.617146253459936, 31.205412798918097], [31.633902537072384, 31.212167788065496], [31.637579614122863, 31.219478877365344], [31.648605691460887, 31.214589944979146], [31.649312961972903, 31.193699930523085], [31.632293076162682, 31.197273722507447], [31.621140474713965, 31.19184503968078], [31.61506737274375, 31.201136699368437]]], [[[31.610471448241988, 31.42121840907451], [31.61880617395234, 31.420299287930487], [31.617318167111737, 31.414511471320164], [31.62348634993986, 31.411033061448787], [31.62326181855747, 31.40398153642359], [31.616448186060953, 31.403017920879783], [31.609511784579578, 31.405574305115124], [31.60941023342178, 31.40941796933742], [31.61394880004233, 31.412365674920007], [31.610120262716364, 31.41726412181487], [31.610471448241988, 31.42121840907451]]], [[[31.59743509096718, 31.44135035219008], [31.597358744974255, 31.44614965728028], [31.603288061259455, 31.448020377943294], [31.61264289639593, 31.448067676370634], [31.61503853034947, 31.44363683190478], [31.606298774172473, 31.437350606092462], [31.599543284960173, 31.437363306023077], [31.59743509096718, 31.44135035219008]]], [[[31.594758732299347, 31.367477389362925], [31.594964181971992, 31.371170487692837], [31.599330529132914, 31.37142696352565], [31.60278574924648, 31.365975513662846], [31.597290370802636, 31.365316339713008], [31.594758732299347, 31.367477389362925]]], [[[31.58143229244371, 31.423932877812476], [31.578839791489948, 31.427516133586543], [31.584532229808918, 31.42778955588111], [31.587595615123124, 31.425879868347884], [31.58756254776608, 31.420642105477306], [31.584559152157947, 31.419633169085486], [31.58143229244371, 31.423932877812476]]], [[[31.56365948430626, 31.37307002924083], [31.56557138828928, 31.377063076844475], [31.571661873649287, 31.377992138112408], [31.572843237829375, 31.372362790670902], [31.58030181550695, 31.36936266317182], [31.58134939336439, 31.366433002786238], [31.57578623495634, 31.35677390087696], [31.565563164616574, 31.361462757953383], [31.56365948430626, 31.37307002924083]]], [[[31.561038991739096, 31.414751600033448], [31.561619447919036, 31.417680047856276], [31.574445525518104, 31.41861793053014], [31.578002152992873, 31.413231422652366], [31.57221671341436, 31.41152716388053], [31.57004143961199, 31.403273991415347], [31.563068873305625, 31.408123594179948], [31.561038991739096, 31.414751600033448]]]]}}, {"type": "Feature", "properties": {"threshold": 90}, "geometry": {"type": "MultiPolygon", "coordinates": [[[[32.0135699650872, 31.17425925885512], [32.01333906354935, 31.180326649354384], [32.01780473037283, 31.189748799387786], [32.02188232929589, 31.19153920963479], [32.02212579408535, 31.19813769135755], [32.03307129591365, 31.20312635084231], [32.03035226823421, 31.178036984803143], [32.04394736110391, 31.17644805044679], [32.04353373603569, 31.173084365250492], [32.02952646475265, 31.171709227262802], [32.02719622421472, 31.168055978042933], [32.01868866409402, 31.16713954756756], [32.0135699650872, 31.17425925885512]]], [[[31.964495001066062, 31.20948733934612], [31.96622377748902, 31.213323053924118], [31.97247878986507, 31.213334694492346], [31.978285948151562, 31.207137635602006], [31.978185316334788, 31.20237122398751], [31.971329871532582, 31.1996849063618], [31.964507318645335, 31.20052050550058], [31.964495001066062, 31.20948733934612]]], [[[31.981674266434084, 31.209142291819134], [31.98203788393482, 31.214081314469002], [31.99297025825968, 31.21816002939561], [32.00216557945133, 31.21628799684776], [31.989357929988348, 31.20294403488204], [31.984827405846563, 31.203073696702763], [31.981674266434084, 31.209142291819134]]], [[[31.84719392680972, 31.195511167713292], [31.85754132092299, 31.197017650584772], [31.8580299722783, 31.205800886899492], [31.85011196752358, 31.21053984982715], [31.849934715829182, 31.21793562014536], [31.853575677324358, 31.226723105674466], [31.860220260050454, 31.229647181756857], [31.859709103911836, 31.23519756931357], [31.86519494657615, 31.234701442140654], [31.86939097757918, 31.22721949587226], [31.866824673349342, 31.21265570834679], [31.86987562891996, 31.208425149778673], [31.876558649879264, 31.20702420278702], [31.876746903341843, 31.202422872758163], [31.86609299200711, 31.196590521972816], [31.865158608409423, 31.192178312592482], [31.855903754564924, 31.18572673494198], [31.851387304095166, 31.186697955553406], [31.84719392680972, 31.195511167713292]]], [[[31.797676178870017, 31.49416211869053], [31.80213303531072, 31.500382311617546], [31.81300650114396, 31.505956573846255], [31.82314185180419, 31.5047085700125], [31.82900909212782, 31.512227328325736], [31.8325958362766, 31.512145047897622], [31.835584660242954, 31.508047539494477], [31.827036609447692, 31.494170354965984], [31.825547497023624, 31.486293195910076], [31.812304564133516, 31.48686366428745], [31.806213650633094, 31.48455829433144], [31.797684650438505, 31.48931691759679], [31.797676178870017, 31.49416211869053]]], [[[31.779916517429683, 31.397886954671513], [31.780859449381534, 31.405104389599792], [31.789204641179033, 31.40973529426129], [31.785938276268972, 31.414622957609424], [31.788565792600775, 31.417431224338934], [31.789335413495028, 31.436502648332837], [31.79241355608876, 31.439938449171716], [31.80014699988118, 31.440011492411514], [31.80459244354626, 31.452994284606838], [31.81620906912586, 31.453906081617127], [31.814317291042467, 31.432618587711996], [31.817370384745402, 31.421331408446882], [31.827893398415007, 31.410698758241956], [31.826115888168538, 31.40474362519951], [31.817581546550088, 31.400467926655303], [31.81324661666825, 31.392773473566912], [31.807205927700142, 31.3935400520634], [31.80367630043284, 31.396774329134228], [31.794986833132, 31.396487509782354], [31.794359005343335, 31.38828655298176], [31.798726990583038, 31.386005695363536], [31.79814114458433, 31.38113323675333], [31.790190090450594, 31.38203261349117], [31.786777377762913, 31.391739690200836], [31.779916517429683, 31.397886954671513]]], [[[31.816240325832464, 31.133385743331225], [31.81819224606262, 31.13996258180955], [31.82449537075542, 31.14018559399011], [31.827779327200766, 31.129268112090028], [31.816820202734785, 31.130286067255618], [31.816240325832464, 31.133385743331225]]], [[[31.77871507559306, 31.179525757258663], [31.787036981663743, 31.177829712509315], [31.784572185272737, 31.173656459122423], [31.786648143823445, 31.168949045405927], [31.792556852409568, 31.1702503156714], [31.793673166112658, 31.17412497023707], [31.797809555847635, 31.17596973160939], [31.810971280779754, 31.172095304318844], [31.81849691534853, 31.162611034168428], [31.816638599685582, 31.155765124674154], [31.80966761410629, 31.160919403718943], [31.79973511537139, 31.157640821328116], [31.79154109702188, 31.16419687876015], [31.78143619588213, 31.166047303033714], [31.77871507559306, 31.179525757258663]]], [[[31.79472152357296, 31.215750372733375], [31.79781810018483, 31.219513737985466], [31.805423149345984, 31.2202268008057], [31.807547034067106, 31.224962410825068], [31.814095572088753, 31.22470987207894], [31.81299702608769, 31.21218594119934], [31.806462188762808, 31.209742754744624], [31.79373541087114, 31.20963501748396], [31.79472152357296, 31.215750372733375]]], [[[31.79178283403903, 31.239658915702247], [31.79289090346161, 31.245409463354413], [31.80516705977354, 31.24874437660954], [31.8102189731421, 31.246170618433773], [31.81403669917109, 31.2364480959132], [31.805440409490675, 31.238813623945553], [31.79606729038491, 31.23644729631873], [31.79178283403903, 31.239658915702247]]], [[[31.808092028844882, 31.189264448629682], [31.805756991530625, 31.189679410917762], [31.80564750599156, 31.198395876672375], [31.81024464813787, 31.199037701612447], [31.81104860429683, 31.19049385988455], [31.808092028844882, 31.189264448629682]]], [[[31.779329055496188, 31.45873458314328], [31.780800916563347, 31.46996174340361], [31.78368982126561, 31.470497640537438], [31.785658298783655, 31.46522613637232], [31.79238501474461, 31.460259288608942], [31.79250831065392, 31.455852491083718], [31.78863468601632, 31.451576108873503], [31.785205282354006, 31.451447936609156], [31.779313833919396, 31.45552508403676], [31.779329055496188, 31.45873458314328]]], [[[31.76955601203496, 31.373397990963493], [31.77108229946139, 31.37701482883402], [31.78106541671655, 31.37574547263145], [31.78015141977535, 31.370635954174293], [31.776007889633238, 31.367911726928075], [31.76955601203496, 31.373397990963493]]], [[[31.74189556555891, 31.45356642120454], [31.743649590349357, 31.45997017159215], [31.75012845892859, 31.460128417187008], [31.75595915735109, 31.45135296624493], [31.755013961072446, 31.446871649701546], [31.743009483967985, 31.451136438612895], [31.74189556555891, 31.45356642120454]]], [[[31.726390021864518, 31.39640691818641], [31.725488017070425, 31.402137691216943], [31.732137384364336, 31.4079742535843], [31.7374443423173, 31.40719075239624], [31.74319142572062, 31.402312491597517], [31.738364669074933, 31.393614499740256], [31.72974747007657, 31.392738782784118], [31.726390021864518, 31.39640691818641]]], [[[31.70538617221261, 31.374476426448624], [31.70634165690109, 31.38076183834309], [31.713672206735797, 31.380762212733803], [31.71736214772522, 31.384890139053507], [31.72833188937377, 31.381429326905746], [31.72761261480171, 31.378145593573194], [31.71394168444116, 31.380300274009155], [31.712093193627243, 31.373567636039898], [31.70538617221261, 31.374476426448624]]], [[[31.643086521912668, 31.418514208967718], [31.642676551096923, 31.42313143653328], [31.64786502901361, 31.420841496482975], [31.653910903914888, 31.422250557906384], [31.64827089425039, 31.430196342251858], [31.65690290520678, 31.441594255261677], [31.652509725227585, 31.44877552431739], [31.664402238787616, 31.4539183334896], [31.664398779006365, 31.459301413765846], [31.692516562772923, 31.464270378137268], [31.695692603010695, 31.459932372422376], [31.716899035888687, 31.456833838175676], [31.721032648745407, 31.45420868282808], [31.71904328932376, 31.447837355260972], [31.699669012107602, 31.441022213125706], [31.69620621588916, 31.428708657911937], [31.698628526638146, 31.42607958030366], [31.71039254895635, 31.42758742167895], [31.717006908516186, 31.422021369149235], [31.715794774949874, 31.41868091143867], [31.70656054904033, 31.41543359027145], [31.7025695698986, 31.417679747203902], [31.68927051887671, 31.416058928218934], [31.685274476697746, 31.42056300258152], [31.6591228709578, 31.41571142164752], [31.647414214986146, 31.415605797963224], [31.643086521912668, 31.418514208967718]]], [[[31.644139929586597, 31.238513511879592], [31.645838992693083, 31.244659618746294], [31.653814893513577, 31.24723018601199], [31.655746957048994, 31.243710893293137], [31.662370442096368, 31.243186299216465], [31.659970984493004, 31.235528711476526], [31.66393287155704, 31.233617620321766], [31.673611964555356, 31.243755740099747], [31.67443342356267, 31.24811420218835], [31.68385272536433, 31.245429390749354], [31.683518042566636, 31.242346784025784], [31.67546463411123, 31.24051967379428], [31.673896234805575, 31.23463824714325], [31.66673601452024, 31.234117170571867], [31.65934456574181, 31.228205502748683], [31.651448901892078, 31.230577656868974], [31.65053498922514, 31.234821743849544], [31.644139929586597, 31.238513511879592]]], [[[31.658106739455423, 31.39799869615632], [31.664240915884516, 31.398099804721202], [31.66744769307161, 31.39465883015423], [31.667559994094464, 31.3887889393257], [31.664401724878157, 31.386742068287692], [31.657849318076725, 31.389382590218876], [31.658106739455423, 31.39799869615632]]], [[[31.61511097026021, 31.392770902774007], [31.61936655074519, 31.39844412890499], [31.627440704411015, 31.39315212745031], [31.64018485563688, 31.39555068136685], [31.648846713469176, 31.389505127523147], [31.643647135293357, 31.388343205871816], [31.64114781694644, 31.384941713923215], [31.631882487323352, 31.38481402022031], [31.62907543092208, 31.39082382360138], [31.622697617847596, 31.390821374095133], [31.618768461266527, 31.386037160084783], [31.61511097026021, 31.392770902774007]]], [[[31.618927006538634, 31.38386260288159], [31.6213079462938, 31.379532571485132], [31.625780866812526, 31.378075115154836], [31.625825796832032, 31.37296997063623], [31.62067059039042, 31.368060941063717], [31.626705950231127, 31.364570243764206], [31.626950479814802, 31.361849217255056], [31.61814338583166, 31.358636671226655], [31.61596964981853, 31.380753442652555], [31.618927006538634, 31.38386260288159]]], [[[31.61506737274375, 31.201136699368437], [31.617146253459936, 31.205412798918097], [31.633902537072384, 31.212167788065496], [31.637579614122863, 31.219478877365344], [31.648605691460887, 31.214589944979146], [31.649312961972903, 31.193699930523085], [31.632293076162682, 31.197273722507447], [31.621140474713965, 31.19184503968078], [31.61506737274375, 31.201136699368437]]], [[[31.610471448241988, 31.42121840907451], [31.61880617395234, 31.420299287930487], [31.617318167111737, 31.414511471320164], [31.62348634993986, 31.411033061448787], [31.62326181855747, 31.40398153642359], [31.616448186060953, 31.403017920879783], [31.609511784579578, 31.405574305115124], [31.60941023342178, 31.40941796933742], [31.61394880004233, 31.412365674920007], [31.610120262716364, 31.41726412181487], [31.610471448241988, 31.42121840907451]]], [[[31.59743509096718, 31.44135035219008], [31.597358744974255, 31.44614965728028], [31.603288061259455, 31.448020377943294], [31.61264289639593, 31.448067676370634], [31.61503853034947, 31.44363683190478], [31.606298774172473, 31.437350606092462], [31.599543284960173, 31.437363306023077], [31.59743509096718, 31.44135035219008]]], [[[31.58143229244371, 31.423932877812476], [31.578839791489948, 31.427516133586543], [31.584532229808918, 31.42778955588111], [31.587595615123124, 31.425879868347884], [31.58756254776608, 31.420642105477306], [31.584559152157947, 31.419633169085486], [31.58143229244371, 31.423932877812476]]], [[[31.56365948430626, 31.37307002924083], [31.56557138828928, 31.377063076844475], [31.571661873649287, 31.377992138112408], [31.572843237829375, 31.372362790670902], [31.58030181550695, 31.36936266317182], [31.58134939336439, 31.366433002786238], [31.57578623495634, 31.35677390087696], [31.565563164616574, 31.361462757953383], [31.56365948430626, 31.37307002924083]]], [[[31.561038991739096, 31.414751600033448], [31.561619447919036, 31.417680047856276], [31.574445525518104, 31.41861793053014], [31.578002152992873, 31.413231422652366], [31.57221671341436, 31.41152716388053], [31.57004143961199, 31.403273991415347], [31.563068873305625, 31.408123594179948], [31.561038991739096, 31.414751600033448]]]]}}, {"type": "Feature", "properties": {"threshold": 95}, "geometry": {"type": "MultiPolygon", "coordinates": [[[[32.0135699650872, 31.17425925885512], [32.01333906354935, 31.180326649354384], [32.01780473037283, 31.189748799387786], [32.02188232929589, 31.19153920963479], [32.02212579408535, 31.19813769135755], [32.03307129591365, 31.20312635084231], [32.03035226823421, 31.178036984803143], [32.04394736110391, 31.17644805044679], [32.04353373603569, 31.173084365250492], [32.02952646475265, 31.171709227262802], [32.02719622421472, 31.168055978042933], [32.01868866409402, 31.16713954756756], [32.0135699650872, 31.17425925885512]]], [[[31.964495001066062, 31.20948733934612], [31.96622377748902, 31.213323053924118], [31.97247878986507, 31.213334694492346], [31.978285948151562, 31.207137635602006], [31.978185316334788, 31.20237122398751], [31.971329871532582, 31.1996849063618], [31.964507318645335, 31.20052050550058], [31.964495001066062, 31.20948733934612]]], [[[31.981674266434084, 31.209142291819134], [31.98203788393482, 31.214081314469002], [31.99297025825968, 31.21816002939561], [32.00216557945133, 31.21628799684776], [31.989357929988348, 31.20294403488204], [31.984827405846563, 31.203073696702763], [31.981674266434084, 31.209142291819134]]], [[[31.84719392680972, 31.195511167713292], [31.85754132092299, 31.197017650584772], [31.8580299722783, 31.205800886899492], [31.85011196752358, 31.21053984982715], [31.849934715829182, 31.21793562014536], [31.853575677324358, 31.226723105674466], [31.860220260050454, 31.229647181756857], [31.859709103911836, 31.23519756931357], [31.86519494657615, 31.234701442140654], [31.86939097757918, 31.22721949587226], [31.866824673349342, 31.21265570834679], [31.86987562891996, 31.208425149778673], [31.876558649879264, 31.20702420278702], [31.876746903341843, 31.202422872758163], [31.86609299200711, 31.196590521972816], [31.865158608409423, 31.192178312592482], [31.855903754564924, 31.18572673494198], [31.851387304095166, 31.186697955553406], [31.84719392680972, 31.195511167713292]]], [[[31.797676178870017, 31.49416211869053], [31.80213303531072, 31.500382311617546], [31.81300650114396, 31.505956573846255], [31.82314185180419, 31.5047085700125], [31.82900909212782, 31.512227328325736], [31.8325958362766, 31.512145047897622], [31.835584660242954, 31.508047539494477], [31.827036609447692, 31.494170354965984], [31.825547497023624, 31.486293195910076], [31.812304564133516, 31.48686366428745], [31.806213650633094, 31.48455829433144], [31.797684650438505, 31.48931691759679], [31.797676178870017, 31.49416211869053]]], [[[31.779916517429683, 31.397886954671513], [31.780859449381534, 31.405104389599792], [31.789204641179033, 31.40973529426129], [31.785938276268972, 31.414622957609424], [31.788565792600775, 31.417431224338934], [31.789335413495028, 31.436502648332837], [31.79241355608876, 31.439938449171716], [31.80014699988118, 31.440011492411514], [31.80459244354626, 31.452994284606838], [31.81620906912586, 31.453906081617127], [31.814317291042467, 31.432618587711996], [31.817370384745402, 31.421331408446882], [31.827893398415007, 31.410698758241956], [31.826115888168538, 31.40474362519951], [31.817581546550088, 31.400467926655303], [31.81324661666825, 31.392773473566912], [31.807205927700142, 31.3935400520634], [31.80367630043284, 31.396774329134228], [31.794986833132, 31.396487509782354], [31.794359005343335, 31.38828655298176], [31.798726990583038, 31.386005695363536], [31.79814114458433, 31.38113323675333], [31.790190090450594, 31.38203261349117], [31.786777377762913, 31.391739690200836], [31.779916517429683, 31.397886954671513]]], [[[31.816240325832464, 31.133385743331225], [31.81819224606262, 31.13996258180955], [31.82449537075542, 31.14018559399011], [31.827779327200766, 31.129268112090028], [31.816820202734785, 31.130286067255618], [31.816240325832464, 31.133385743331225]]], [[[31.77871507559306, 31.179525757258663], [31.787036981663743, 31.177829712509315], [31.784572185272737, 31.173656459122423], [31.786648143823445, 31.168949045405927], [31.792556852409568, 31.1702503156714], [31.793673166112658, 31.17412497023707], [31.797809555847635, 31.17596973160939], [31.810971280779754, 31.172095304318844], [31.81849691534853, 31.162611034168428], [31.816638599685582, 31.155765124674154], [31.80966761410629, 31.160919403718943], [31.79973511537139, 31.157640821328116], [31.79154109702188, 31.16419687876015], [31.78143619588213, 31.166047303033714], [31.77871507559306, 31.179525757258663]]], [[[31.79472152357296, 31.215750372733375], [31.79781810018483, 31.219513737985466], [31.805423149345984, 31.2202268008057], [31.807547034067106, 31.224962410825068], [31.814095572088753, 31.22470987207894], [31.81299702608769, 31.21218594119934], [31.806462188762808, 31.209742754744624], [31.79373541087114, 31.20963501748396], [31.79472152357296, 31.215750372733375]]], [[[31.79178283403903, 31.239658915702247], [31.79289090346161, 31.245409463354413], [31.80516705977354, 31.24874437660954], [31.8102189731421, 31.246170618433773], [31.81403669917109, 31.2364480959132], [31.805440409490675, 31.238813623945553], [31.79606729038491, 31.23644729631873], [31.79178283403903, 31.239658915702247]]], [[[31.779329055496188, 31.45873458314328], [31.780800916563347, 31.46996174340361], [31.78368982126561, 31.470497640537438], [31.785658298783655, 31.46522613637232], [31.79238501474461, 31.460259288608942], [31.79250831065392, 31.455852491083718], [31.78863468601632, 31.451576108873503], [31.785205282354006, 31.451447936609156], [31.779313833919396, 31.45552508403676], [31.779329055496188, 31.45873458314328]]], [[[31.76955601203496, 31.373397990963493], [31.77108229946139, 31.37701482883402], [31.78106541671655, 31.37574547263145], [31.78015141977535, 31.370635954174293], [31.776007889633238, 31.367911726928075], [31.76955601203496, 31.373397990963493]]], [[[31.73899027574731, 31.470591921686157], [31.741877394199335, 31.474628803947326], [31.744881760388424, 31.473579808101626], [31.74686154616671, 31.467172817040947], [31.744951032855468, 31.46254827954649], [31.754044343183825, 31.456064930250896], [31.754696982508534, 31.446619679749926], [31.742715528140522, 31.451408158559712], [31.741656435999616, 31.457263896720118], [31.744562158659054, 31.462087349063744], [31.73896001173461, 31.465148553126767], [31.73899027574731, 31.470591921686157]]], [[[31.726390021864518, 31.39640691818641], [31.725488017070425, 31.402137691216943], [31.732137384364336, 31.4079742535843], [31.7374443423173, 31.40719075239624], [31.74319142572062, 31.402312491597517], [31.738364669074933, 31.393614499740256], [31.72974747007657, 31.392738782784118], [31.726390021864518, 31.39640691818641]]], [[[31.70538617221261, 31.374476426448624], [31.70634165690109, 31.38076183834309], [31.713672206735797, 31.380762212733803], [31.71736214772522, 31.384890139053507], [31.72833188937377, 31.381429326905746], [31.72761261480171, 31.378145593573194], [31.71394168444116, 31.380300274009155], [31.712093193627243, 31.373567636039898], [31.70538617221261, 31.374476426448624]]], [[[31.63758013460808, 31.44663442079825], [31.655411957000723, 31.450303739305394], [31.664324448711035, 31.45926216257949], [31.67896045670264, 31.46336583493225], [31.69349590608855, 31.46426939347684], [31.696024228003054, 31.46019351250767], [31.703359297389564, 31.46130805326343], [31.712911463046947, 31.45682910993847], [31.71876711634989, 31.456827328762298], [31.72105041139218, 31.449598634901154], [31.69985936996226, 31.441193484817287], [31.697782793640712, 31.430025638526338], [31.699977843946456, 31.42765561256527], [31.71039254895635, 31.42758742167895], [31.717073923657324, 31.41983987035781], [31.70747426812652, 31.415449250729168], [31.69608870045183, 31.417154226132137], [31.692325163303394, 31.413764753307873], [31.684758174932707, 31.41374169767406], [31.683546851887066, 31.417421351155898], [31.67981083873226, 31.418320598048254], [31.647246798363433, 31.415647428753687], [31.643241254759065, 31.41818216003284], [31.642152729111977, 31.422570091695178], [31.648101937098176, 31.424461863906433], [31.64469788327939, 31.43178179986395], [31.651261078828885, 31.436080097080236], [31.65174829317021, 31.43989049027036], [31.639630818963937, 31.443153058354415], [31.63758013460808, 31.44663442079825]]], [[[31.644139929586597, 31.238513511879592], [31.645838992693083, 31.244659618746294], [31.653814893513577, 31.24723018601199], [31.655746957048994, 31.243710893293137], [31.662370442096368, 31.243186299216465], [31.659970984493004, 31.235528711476526], [31.66393287155704, 31.233617620321766], [31.673611964555356, 31.243755740099747], [31.67443342356267, 31.24811420218835], [31.68385272536433, 31.245429390749354], [31.683518042566636, 31.242346784025784], [31.67546463411123, 31.24051967379428], [31.673896234805575, 31.23463824714325], [31.66673601452024, 31.234117170571867], [31.65934456574181, 31.228205502748683], [31.651448901892078, 31.230577656868974], [31.65053498922514, 31.234821743849544], [31.644139929586597, 31.238513511879592]]], [[[31.658106739455423, 31.39799869615632], [31.664240915884516, 31.398099804721202], [31.66744769307161, 31.39465883015423], [31.667559994094464, 31.3887889393257], [31.664401724878157, 31.386742068287692], [31.657849318076725, 31.389382590218876], [31.658106739455423, 31.39799869615632]]], [[[31.61511097026021, 31.392770902774007], [31.61936655074519, 31.39844412890499], [31.627440704411015, 31.39315212745031], [31.64018485563688, 31.39555068136685], [31.648846713469176, 31.389505127523147], [31.643647135293357, 31.388343205871816], [31.64114781694644, 31.384941713923215], [31.631882487323352, 31.38481402022031], [31.62907543092208, 31.39082382360138], [31.622697617847596, 31.390821374095133], [31.618768461266527, 31.386037160084783], [31.61511097026021, 31.392770902774007]]], [[[31.618927006538634, 31.38386260288159], [31.6213079462938, 31.379532571485132], [31.625780866812526, 31.378075115154836], [31.625825796832032, 31.37296997063623], [31.62067059039042, 31.368060941063717], [31.626705950231127, 31.364570243764206], [31.626950479814802, 31.361849217255056], [31.61814338583166, 31.358636671226655], [31.61596964981853, 31.380753442652555], [31.618927006538634, 31.38386260288159]]], [[[31.61506737274375, 31.201136699368437], [31.617146253459936, 31.205412798918097], [31.633902537072384, 31.212167788065496], [31.637579614122863, 31.219478877365344], [31.648605691460887, 31.214589944979146], [31.649312961972903, 31.193699930523085], [31.632293076162682, 31.197273722507447], [31.621140474713965, 31.19184503968078], [31.61506737274375, 31.201136699368437]]], [[[31.610471448241988, 31.42121840907451], [31.61880617395234, 31.420299287930487], [31.617318167111737, 31.414511471320164], [31.62348634993986, 31.411033061448787], [31.62326181855747, 31.40398153642359], [31.616448186060953, 31.403017920879783], [31.609511784579578, 31.405574305115124], [31.60941023342178, 31.40941796933742], [31.61394880004233, 31.412365674920007], [31.610120262716364, 31.41726412181487], [31.610471448241988, 31.42121840907451]]], [[[31.59743509096718, 31.44135035219008], [31.597358744974255, 31.44614965728028], [31.603288061259455, 31.448020377943294], [31.61264289639593, 31.448067676370634], [31.61503853034947, 31.44363683190478], [31.606298774172473, 31.437350606092462], [31.599543284960173, 31.437363306023077], [31.59743509096718, 31.44135035219008]]], [[[31.56365948430626, 31.37307002924083], [31.56557138828928, 31.377063076844475], [31.571661873649287, 31.377992138112408], [31.572843237829375, 31.372362790670902], [31.58030181550695, 31.36936266317182], [31.58134939336439, 31.366433002786238], [31.57578623495634, 31.35677390087696], [31.565563164616574, 31.361462757953383], [31.56365948430626, 31.37307002924083]]], [[[31.561038991739096, 31.414751600033448], [31.561619447919036, 31.417680047856276], [31.574445525518104, 31.41861793053014], [31.578002152992873, 31.413231422652366], [31.57221671341436, 31.41152716388053], [31.57004143961199, 31.403273991415347], [31.563068873305625, 31.408123594179948], [31.561038991739096, 31.414751600033448]]]]}}]}