{"type": "Feature", "geometry": {"type": "MultiPolygon", "coordinates": [[[[-63.702724139052386, -8.802976636099027], [-63.705040226442044, -8.800477131473786], [-63.704725358409156, -8.7959393744536], [-63.70214751439782, -8.79412482008698], [-63.697651950868135, -8.79452066544664], [-63.69584115519275, -8.79709892333901], [-63.69626569736887, -8.8012657348761], [-63.69875432318037, -8.803052431451608], [-63.702724139052386, -8.802976636099027]]], [[[-63.72134141800212, -8.579920358399317], [-63.7174338651019, -8.589230361712332], [-63.719653498278205, -8.59187966922677], [-63.72466047761872, -8.592708238710305], [-63.727164669548806, -8.59063963464303], [-63.73042414314514, -8.581172262867332], [-63.725427426357165, -8.57751545085808], [-63.72134141800212, -8.579920358399317]]], [[[-63.726026582492295, -8.797024899324317], [-63.72378221719385, -8.800421049993291], [-63.724200234458245, -8.83147644142414], [-63.72615608669901, -8.834342749531748], [-63.73076574768777, -8.835224206435383], [-63.739692501685134, -8.826157262810591], [-63.75395900316337, -8.819955438741317], [-63.75548293689016, -8.816313590903823], [-63.753689016430826, -8.809744806197628], [-63.74737746052691, -8.79925659842362], [-63.73996384153543, -8.79672109928308], [-63.726026582492295, -8.797024899324317]]], [[[-63.808261390981116, -8.621198664165389], [-63.806807796611075, -8.618091959312899], [-63.797470730452225, -8.612234814283909], [-63.794485942746434, -8.613687597462333], [-63.78971766820697, -8.621620045376963], [-63.791161841726655, -8.624612940693643], [-63.800881501280664, -8.630738989782442], [-63.803928194002545, -8.629273315112915], [-63.808261390981116, -8.621198664165389]]], [[[-63.834437143439466, -8.811163886566561], [-63.830388949239456, -8.805765439543205], [-63.8230759035002, -8.803332842710052], [-63.82376743580944, -8.795078789863942], [-63.819551242999125, -8.789421616233428], [-63.81086693538864, -8.78985834444552], [-63.806720521961545, -8.796352526638987], [-63.800480012754484, -8.798244977484558], [-63.797055141939964, -8.802112750417017], [-63.8056758235418, -8.819636727677501], [-63.813353801966315, -8.82235341332517], [-63.81938703281374, -8.817510869572388], [-63.82272137216714, -8.817095118643579], [-63.829698697731615, -8.82804404968196], [-63.83243315549458, -8.829461395879532], [-63.835131469527035, -8.828697708207747], [-63.83671755458265, -8.826057544633798], [-63.83680966964184, -8.814601853685476], [-63.834437143439466, -8.811163886566561]]], [[[-63.94999273919791, -8.7480760342734], [-63.95173263576369, -8.74526265767185], [-63.95090727801256, -8.741224246245348], [-63.942268448941405, -8.737804175790357], [-63.93883273844104, -8.731879414326741], [-63.93339594378127, -8.731377644978684], [-63.927450520055515, -8.73572154967508], [-63.92352346341687, -8.733485218510218], [-63.92376612551558, -8.710202128193348], [-63.92051909052167, -8.696666336856527], [-63.92131412260897, -8.691996082677017], [-63.916791590867824, -8.68247015757528], [-63.91855116174441, -8.67697255326866], [-63.91762835450367, -8.670219136029635], [-63.913360723785935, -8.667453159134864], [-63.90851440029004, -8.670860388293088], [-63.90969349642077, -8.681241515193717], [-63.905261705682015, -8.687493741574416], [-63.907039510642136, -8.69739003109995], [-63.912060012270906, -8.702261076268375], [-63.91087450336366, -8.706253068807104], [-63.905361842771356, -8.708113227627413], [-63.90127775481803, -8.70329932628593], [-63.89722953228633, -8.702312793174597], [-63.89455505664064, -8.703913762373906], [-63.891963097376326, -8.70981515925842], [-63.88717994252049, -8.709607073116738], [-63.88466977210542, -8.705901509904406], [-63.88635284892619, -8.697876595615408], [-63.884519766505775, -8.692661101699692], [-63.888608724470224, -8.684615404271172], [-63.88553274527498, -8.68096445677795], [-63.88023393802818, -8.681639596889328], [-63.873713587601564, -8.686372355551544], [-63.871528985004296, -8.692826182104872], [-63.86335150533709, -8.695093756347191], [-63.86178611340208, -8.707245071572464], [-63.854403001123025, -8.70832513328887], [-63.845555999404, -8.715320571986299], [-63.845013798110024, -8.718857663313154], [-63.84858888878426, -8.724398925488368], [-63.847173233758355, -8.727910683277196], [-63.84254556962311, -8.729713389991884], [-63.83638145642187, -8.725302612251689], [-63.83044661952704, -8.726765411951869], [-63.830658322934, -8.737932159092983], [-63.82507017108903, -8.741820424643526], [-63.82076748988022, -8.75394067740649], [-63.81439491284378, -8.757110964675661], [-63.812881626945114, -8.762271399195335], [-63.815386651850055, -8.765527766937096], [-63.826327381770106, -8.767681820136813], [-63.828938504376865, -8.766090585073194], [-63.83134614231311, -8.76069214787187], [-63.83769252196063, -8.758546946672748], [-63.84330993880734, -8.76302464003952], [-63.853331538456835, -8.7645020253561], [-63.854801911161736, -8.772153924402335], [-63.851429762988, -8.77894318105067], [-63.85402322936289, -8.785287144119033], [-63.84829255142298, -8.795756838814368], [-63.85259824946214, -8.801671802975958], [-63.85484998120106, -8.809800925260527], [-63.85974424920633, -8.811165491198524], [-63.86688203343899, -8.80679026108009], [-63.868373458760516, -8.804261345288145], [-63.86366719204545, -8.794774155061388], [-63.867004350775815, -8.787905488390296], [-63.86329068094694, -8.780176283008936], [-63.866430627441794, -8.776114557533692], [-63.8620807918531, -8.765310349121933], [-63.85515187506357, -8.764615171348975], [-63.85297393815018, -8.76299318094208], [-63.85119561376628, -8.754466947963188], [-63.845344109263166, -8.753014962399657], [-63.84005633382863, -8.755413119362121], [-63.83694670655202, -8.75395155772342], [-63.83573952464715, -8.750679230176038], [-63.837158286673365, -8.739502636989583], [-63.84154278794089, -8.737789375299608], [-63.848679000844776, -8.742077361412639], [-63.85644065048199, -8.73998450320355], [-63.86419006114706, -8.744537035559052], [-63.87083723319007, -8.742474961069927], [-63.87685398423464, -8.745807839790833], [-63.88119734301762, -8.745733718818995], [-63.888524532183034, -8.748450056670205], [-63.89150340124647, -8.747362411915676], [-63.89531840998956, -8.741697166175989], [-63.908182557285926, -8.741516206924718], [-63.91070582636771, -8.744843826672874], [-63.90933454198981, -8.749843438473677], [-63.901326167236554, -8.751523659029209], [-63.89810028694504, -8.758033174351203], [-63.89050144717885, -8.759052592915076], [-63.888245470097594, -8.763351825632581], [-63.88945983289802, -8.766324793986039], [-63.892541875355526, -8.7675916712181], [-63.89879054030049, -8.763878635536694], [-63.902701253466994, -8.765064219879216], [-63.90477241728212, -8.772370100529269], [-63.90930847979089, -8.777068277218895], [-63.90648536853245, -8.783283100511913], [-63.90221597726568, -8.784125157020489], [-63.894409956782525, -8.77805156658765], [-63.88666310470896, -8.780111722188282], [-63.88022001858743, -8.772837360008772], [-63.87155585665816, -8.777491492100165], [-63.87564995676744, -8.783746100827495], [-63.883615652707306, -8.781123311265327], [-63.886530713055755, -8.78186842927734], [-63.89038733540016, -8.791177166332306], [-63.8982302871738, -8.796744971990723], [-63.90253861813557, -8.796164855679741], [-63.906910461566156, -8.790856314628329], [-63.91069951134841, -8.791002714384637], [-63.917137457956336, -8.804464543326603], [-63.92722867395548, -8.807757957266169], [-63.930776833087805, -8.805227252378419], [-63.93085088600481, -8.799659309018972], [-63.92177357729103, -8.790809212400577], [-63.911429553165696, -8.776627956289671], [-63.91528497059984, -8.769211636573177], [-63.923350168861724, -8.770089010139126], [-63.92658053812936, -8.767494129082662], [-63.926531175428984, -8.761784047865127], [-63.91954863734808, -8.758701686350623], [-63.918653723769076, -8.754318514008784], [-63.92112220393809, -8.748531986547937], [-63.92390068936479, -8.746486744420677], [-63.934131777819736, -8.750997976689433], [-63.94057063860977, -8.748317022545793], [-63.94999273919791, -8.7480760342734]], [[-63.87184965864183, -8.710259199114784], [-63.87459632865102, -8.712707344055843], [-63.87479492850344, -8.717556125608885], [-63.87318040464774, -8.720132786012115], [-63.87022065726704, -8.72082975197731], [-63.86722914446094, -8.718574477341186], [-63.86658129312526, -8.713533750743087], [-63.868471152689004, -8.710620746669036], [-63.87184965864183, -8.710259199114784]], [[-63.89987342347658, -8.71646586351434], [-63.90348046370604, -8.715178679466227], [-63.90633687717924, -8.717156954858103], [-63.909011472440504, -8.72439886652385], [-63.90730092760052, -8.728713591538998], [-63.89639467291617, -8.729357504294796], [-63.888117923537045, -8.725429479117127], [-63.887147794796554, -8.720186079816921], [-63.888725285124366, -8.71669965901469], [-63.89172158184047, -8.715874765657409], [-63.89687915694906, -8.717909269104256], [-63.89987342347658, -8.71646586351434]]], [[[-63.98328929799634, -8.674494019839514], [-63.993506319036825, -8.677494086606034], [-63.99647494341522, -8.676948908239762], [-63.99828988109064, -8.67409433366665], [-63.998141491607505, -8.665199719988719], [-63.994896404263685, -8.663315576698846], [-63.98377499197278, -8.664144902246822], [-63.981889292497605, -8.667393355416065], [-63.98328929799634, -8.674494019839514]]], [[[-63.99017570725882, -8.69617064008911], [-63.98528763405599, -8.703036070880051], [-63.98640133623345, -8.7073350788139], [-64.00114304186584, -8.71055239387178], [-64.00463542739723, -8.70917548612471], [-64.00757855721493, -8.702997389961904], [-64.00629344273773, -8.69924393619766], [-63.99017570725882, -8.69617064008911]]], [[[-64.00055772929157, -8.580447850869485], [-64.00211453699585, -8.576641723222162], [-63.99890725387961, -8.569571648978902], [-63.99589629886794, -8.568591528365978], [-63.988782532547546, -8.570464431948823], [-63.98781635206842, -8.573577353499058], [-63.98993727180966, -8.58070251416577], [-63.99273603600985, -8.581739602236706], [-64.00055772929157, -8.580447850869485]]], [[[-64.0515845870869, -8.86439355129459], [-64.0472769697209, -8.86813765084291], [-64.04662195565261, -8.872763612020082], [-64.04899274519539, -8.87759535360918], [-64.05580899577494, -8.880575950304394], [-64.06154344486222, -8.874404545438866], [-64.0620580086323, -8.871102141320705], [-64.05571548290155, -8.864570898662906], [-64.0515845870869, -8.86439355129459]]], [[[-64.07759163892105, -8.777328622671867], [-64.08183819836563, -8.776161749811816], [-64.08569471539799, -8.76864485659723], [-64.07813883572071, -8.761048400195328], [-64.07493856203708, -8.760144679686864], [-64.06966663208419, -8.764904775249926], [-64.06884441215236, -8.767974635783986], [-64.07759163892105, -8.777328622671867]]]]}, "properties": {}}