{"type": "Feature", "geometry": {"type": "MultiPolygon", "coordinates": [[[[-73.0171268711793, -40.71974950307203], [-73.01787611648791, -40.71446215329003], [-73.01005655812503, -40.708688060669644], [-73.00549937102464, -40.698939732628396], [-72.99867747120673, -40.69963897254862], [-72.9954880977009, -40.70348473094759], [-72.98937984356712, -40.70700976110814], [-72.99138209574276, -40.71380791504788], [-73.00097740697309, -40.71456063280697], [-73.00913142309402, -40.723078437119796], [-73.01226704706026, -40.723065783194464], [-73.0171268711793, -40.71974950307203]]], [[[-73.00386672281913, -40.600800965531356], [-73.00554997690077, -40.596448650602056], [-73.01411208897423, -40.5936278221972], [-73.0148475842457, -40.589153051973106], [-73.01287735573146, -40.585980957074966], [-73.0092023313322, -40.58570878620446], [-73.00516166666186, -40.58906972560989], [-73.00383239347235, -40.59593086664449], [-72.99629284821452, -40.59938969867648], [-72.99478249558388, -40.605621616012705], [-72.99816071670084, -40.60793412683763], [-73.00214623570905, -40.60688987540015], [-73.00416107622141, -40.60440576715781], [-73.00386672281913, -40.600800965531356]]], [[[-73.02227548450932, -40.41146172019304], [-73.0213520315268, -40.40838151662554], [-73.01791743022528, -40.405637172866214], [-73.01081930087747, -40.40160782490875], [-73.00540498022994, -40.4007885921369], [-73.00203452094424, -40.40318911735255], [-72.99914067107369, -40.40870210844011], [-72.99813860193144, -40.4178319409867], [-73.00060084259943, -40.42065267088788], [-73.01061097119455, -40.42312953925151], [-73.01937789744387, -40.41821046390705], [-73.02227548450932, -40.41146172019304]]], [[[-73.02618228259594, -40.478543175449886], [-73.02422593752692, -40.481855397341484], [-73.02584309583015, -40.48700107091135], [-73.02851198480923, -40.48859164337977], [-73.03300116028623, -40.48786991857095], [-73.03608707267436, -40.482978245840194], [-73.03556692183021, -40.47958105398358], [-73.03269715591779, -40.47785295324069], [-73.02618228259594, -40.478543175449886]]], [[[-73.07392796958759, -40.597945494518], [-73.07277183323139, -40.59433065093182], [-73.06863792286664, -40.59253617535357], [-73.05993317973522, -40.597029606600074], [-73.05846744720823, -40.60084889129461], [-73.06216128652683, -40.60486461416378], [-73.06945764116797, -40.60416971369115], [-73.07294698228604, -40.60145599835239], [-73.07392796958759, -40.597945494518]]], [[[-73.19043587817666, -40.56622193105513], [-73.19005575211384, -40.56275423779166], [-73.183124884431, -40.55213832631812], [-73.17692176740653, -40.550458145567966], [-73.17065807046326, -40.54652542172135], [-73.1658815167505, -40.54594382021218], [-73.16215781387868, -40.542646552130336], [-73.15638110449244, -40.5416311273362], [-73.15409151127788, -40.53472608309351], [-73.15131761573645, -40.53239209862453], [-73.14723069181733, -40.53308253932865], [-73.14529653302712, -40.53598834626059], [-73.14840785491938, -40.54328974666896], [-73.14670143839648, -40.54801094160986], [-73.14768101126762, -40.556820184603396], [-73.14654141027655, -40.56076465085155], [-73.1372046047251, -40.56567854951264], [-73.13047274459151, -40.563789327132675], [-73.12470229443616, -40.55644027424129], [-73.12192282979312, -40.549357690571306], [-73.10933000574047, -40.54932632239754], [-73.10524761609126, -40.547747934612275], [-73.0993386556937, -40.549098209305754], [-73.09209836404935, -40.542580247032824], [-73.08732604364221, -40.54083538615943], [-73.08545241285003, -40.53538241647628], [-73.08215363874491, -40.53200849541846], [-73.07743462699212, -40.53032882065473], [-73.0733950724867, -40.5334772181669], [-73.07372885031558, -40.5364814584995], [-73.07718973310394, -40.54053228099376], [-73.08381974652858, -40.544826181479806], [-73.08828646068424, -40.55470613012976], [-73.09286431102613, -40.55720086977822], [-73.09529283046095, -40.56072057347044], [-73.09360614216625, -40.57140179300989], [-73.09043902688187, -40.57451809751039], [-73.08400673792386, -40.57616925542233], [-73.079723451776, -40.5865115309858], [-73.0809976756746, -40.591418208210214], [-73.09058745482416, -40.59794379627114], [-73.09037853162091, -40.60137216344755], [-73.08621078319257, -40.60441940894521], [-73.08504299081844, -40.60758057217807], [-73.08636002834393, -40.61094962849967], [-73.09057200058254, -40.61302328190478], [-73.10635733613074, -40.61599772657919], [-73.10843479206179, -40.613915863318745], [-73.11063932208643, -40.605753367062185], [-73.12141675176639, -40.60362594212903], [-73.1320464650003, -40.59379091113845], [-73.14329142609577, -40.59945287024522], [-73.14797197694843, -40.598432480055685], [-73.1532706751115, -40.59972158303851], [-73.16002526793322, -40.59518056607478], [-73.1680740544973, -40.600944971812176], [-73.17670174682688, -40.59949629568118], [-73.18256933210672, -40.59592247688827], [-73.18639643648102, -40.59072715357215], [-73.18790617070317, -40.58527594765853], [-73.18392526064572, -40.577777623291716], [-73.19043587817666, -40.56622193105513]]], [[[-73.11280555304948, -40.65397825951906], [-73.11243101804016, -40.657634359789114], [-73.11530864138173, -40.660468173174564], [-73.11870124475064, -40.66061135409045], [-73.1214638647041, -40.65814879497264], [-73.12144862711374, -40.654531181109], [-73.11847005351835, -40.65189691747237], [-73.11541868398731, -40.651793544007035], [-73.11280555304948, -40.65397825951906]]], [[[-73.15924334619396, -40.61838944882225], [-73.16282138132897, -40.61488168635336], [-73.16207713862273, -40.61078452318044], [-73.15502660003294, -40.609174410030285], [-73.15203744887143, -40.61016526866752], [-73.15054928174732, -40.61337436433192], [-73.15154232424378, -40.61628800901852], [-73.15924334619396, -40.61838944882225]]], [[[-73.1810821552384, -40.36676968730076], [-73.18259697403924, -40.362541766752614], [-73.17884773288517, -40.35883462417232], [-73.16997215504954, -40.36259537173386], [-73.16483030566765, -40.35865456654383], [-73.16116023011034, -40.35801774115992], [-73.15750432942615, -40.36129499470276], [-73.15789836863301, -40.364880544731854], [-73.16048891860778, -40.36699250966172], [-73.16426722773429, -40.36694753067055], [-73.16971584132128, -40.36298909588214], [-73.17612825115019, -40.36760562314637], [-73.1810821552384, -40.36676968730076]]], [[[-73.17022054024646, -40.747661568076374], [-73.16707745701652, -40.746747533842615], [-73.16409313130708, -40.7483928616758], [-73.16304691094392, -40.75134723653601], [-73.16423080832304, -40.753944272480894], [-73.16773484859785, -40.755492386418815], [-73.17160838954392, -40.754139209933385], [-73.17250409905114, -40.7504972374306], [-73.17022054024646, -40.747661568076374]]], [[[-73.17435936254478, -40.61467439051871], [-73.1713222793733, -40.6164162211801], [-73.1706486308816, -40.619874178969525], [-73.1732696050368, -40.62327735391075], [-73.17661929695988, -40.62384469065747], [-73.17950924092756, -40.62203515857483], [-73.18014889795526, -40.618746937896084], [-73.17747303175591, -40.61531039863372], [-73.17435936254478, -40.61467439051871]]], [[[-73.22759302960417, -40.79793668964099], [-73.22221395914221, -40.78798536314898], [-73.21811327960984, -40.78386423618862], [-73.20846148937049, -40.78062190780614], [-73.20391456341697, -40.783021188936644], [-73.20350050009726, -40.78669704677704], [-73.2076175005153, -40.79340454725909], [-73.20775350026189, -40.8020397825514], [-73.20487320754216, -40.808868047978464], [-73.2078966522715, -40.81315519773844], [-73.2129690309175, -40.81401906350066], [-73.22173459778136, -40.80586501426824], [-73.22754199758394, -40.8041837356639], [-73.22906927078368, -40.801067670480776], [-73.22759302960417, -40.79793668964099]]]]}, "properties": {}}