{"type": "Feature", "properties": {"city": "Osorno", "country": "Chile", "real_area": 28.38}, "geometry": {"type": "LineString", "coordinates": [[-73.1760424045595, -40.5983767950615], [-73.1722999988459, -40.5951172527143], [-73.1667000585561, -40.596363386501], [-73.1629587658834, -40.5931038128015], [-73.1648170319089, -40.5885984590951], [-73.1610764704463, -40.5853392079534], [-73.1554780245483, -40.5865849568219], [-73.1536192581516, -40.5910898711981], [-73.1480205427048, -40.5923350640452], [-73.1461611249435, -40.5968397759375], [-73.1405621401138, -40.5980844126508], [-73.1368234551924, -40.5948244234112], [-73.1386833728935, -40.5903201509493], [-73.1349454184523, -40.5870604845179], [-73.1293479285153, -40.5883047371407], [-73.1274875111898, -40.5928085701305], [-73.1218897524679, -40.5940522666985], [-73.1200286839269, -40.5985558968824], [-73.1144306565861, -40.5997990372835], [-73.1106945798005, -40.5965386338705], [-73.1050971660617, -40.5977813045069], [-73.1013622019378, -40.5945208710404], [-73.1032242685488, -40.590018120042], [-73.0994900338434, -40.5867580097564], [-73.0938941155283, -40.5880002974481], [-73.0901609930034, -40.584740157452], [-73.0920234056752, -40.580238082767], [-73.0976184426002, -40.5789957084468], [-73.0994802046063, -40.5744934309292], [-73.105074973775, -40.5732505008245], [-73.1069360851985, -40.5687480206798], [-73.1032029258278, -40.5654889102108], [-73.1050638851508, -40.5609866671502], [-73.1106575055375, -40.5597430950598], [-73.1143910473691, -40.563001852336], [-73.1125305864451, -40.5675045349025], [-73.1162648573013, -40.5707636155882], [-73.1218599714525, -40.5695196604243], [-73.1237199336627, -40.5650165383934], [-73.1293147794275, -40.5637720276293], [-73.133050544015, -40.5670307249237], [-73.1386460022201, -40.5657857445549], [-73.142382878409, -40.569044411528], [-73.1479789488883, -40.5677989613758], [-73.1498372619616, -40.5632947584994], [-73.1461000041074, -40.5600364451051], [-73.1479581660747, -40.5555324796571], [-73.1442216380407, -40.5522744894187], [-73.146079648903, -40.54777076153], [-73.1516736885144, -40.5465245846386], [-73.1535310490942, -40.5420206552084], [-73.1591248196567, -40.540773923166], [-73.1628621101412, -40.5440312059754], [-73.1610052490544, -40.5485355745953], [-73.1647432694921, -40.551793180552], [-73.1703385320269, -40.5505460640372], [-73.1740776636667, -40.5538036391598], [-73.1796735374134, -40.5525560525656], [-73.1834137804032, -40.5558135966336], [-73.1815577689369, -40.5603190812632], [-73.1852987428061, -40.5635769481139], [-73.1834425810302, -40.5680826703685], [-73.1871842860434, -40.5713408598831], [-73.1853279739573, -40.5758468196318], [-73.1797294560465, -40.5770941507038], [-73.1778724927312, -40.5815999086442], [-73.1816145481531, -40.584858774677], [-73.1872139479829, -40.583611528803], [-73.1909571160792, -40.5868703632884], [-73.1891005033714, -40.5913767976322], [-73.1835002213571, -40.592623958296], [-73.1816429570204, -40.5971301905368], [-73.1760424045595, -40.5983767950615]]}}