{"type": "Feature", "properties": {"city": "Santa Cruz do Capibaribe", "country": "Brazil", "real_area": 21.79}, "geometry": {"type": "MultiLineString", "coordinates": [[[-36.2366896579344, -7.92712357868593], [-36.2326823084923, -7.92372868935632], [-36.233616575849, -7.91859966701418], [-36.2385581597555, -7.91686545401906], [-36.2425655809666, -7.92026032190871], [-36.2475073092194, -7.91852599672176], [-36.2515149076038, -7.92192083230113], [-36.2505807061043, -7.92705001447052], [-36.2456388732553, -7.92878428121587], [-36.2416313465142, -7.92538942422458], [-36.2366896579344, -7.92712357868593]], [[-36.2209306296026, -7.93745419882463], [-36.2249378352545, -7.94084913091781], [-36.2298794441767, -7.93911531843832], [-36.233886827379, -7.94251021813718], [-36.2329525297755, -7.94763895160227], [-36.2280108160983, -7.94937270535871], [-36.2270764864996, -7.95450128882448], [-36.222134812754, -7.95623487123098], [-36.2212004511799, -7.9613633044819], [-36.2162588174698, -7.96309671536172], [-36.21532442394, -7.96822499818228], [-36.2103828303691, -7.96995823735873], [-36.2094484049034, -7.97508636953349], [-36.2045068515757, -7.97681943682992], [-36.2004998286924, -7.97342443104078], [-36.2014342868929, -7.96829637910456], [-36.1974273698306, -7.96490136194968], [-36.1983618288436, -7.95977323961642], [-36.1943550176203, -7.95637821131983], [-36.1894138197709, -7.95811128413018], [-36.188479328089, -7.96323932603968], [-36.1835381708492, -7.96497222689799], [-36.1795316104482, -7.96157714511865], [-36.1745905991194, -7.96330993322279], [-36.1705842173268, -7.95991481932522], [-36.1715187742006, -7.95478693862341], [-36.1764596803075, -7.95305409114647], [-36.1804661347503, -7.95644918375298], [-36.1854071868452, -7.95471622361397], [-36.1863416793163, -7.9495881115982], [-36.1823351523074, -7.94619304032156], [-36.1832696455617, -7.94106485842517], [-36.188210633203, -7.9393316672425], [-36.1891450946179, -7.93420333507194], [-36.1851386010202, -7.9308082746944], [-36.1860730632237, -7.92567987302941], [-36.1910139863893, -7.92394645116886], [-36.1950205524265, -7.92734149007208], [-36.199961621187, -7.92560795589021], [-36.20396836539, -7.92900296294426], [-36.2089095795118, -7.92726931643188], [-36.2129165016954, -7.93066429150745], [-36.2178578609448, -7.9289305326554], [-36.2218649609237, -7.93232547562322], [-36.2209306296026, -7.93745419882463]]]}}