{"type": "Feature", "properties": {"city": "Valdivia", "country": "Chile", "real_area": 32.68}, "geometry": {"type": "LineString", "coordinates": [[-73.2517159328865, -39.8218439733899], [-73.2498888250374, -39.8263367698241], [-73.2535868497841, -39.8295604964305], [-73.2517595971133, -39.8340535441043], [-73.2462338303903, -39.8353224289858], [-73.2444059434892, -39.839815291575], [-73.2481043126314, -39.8430397054735], [-73.2536309380778, -39.8417709005964], [-73.2554583355699, -39.8372776018095], [-73.2609846958606, -39.8360082555648], [-73.2646845174198, -39.8392322879681], [-73.2628576096396, -39.8437260229113], [-73.2573303904997, -39.844995289288], [-73.2555028481866, -39.8494888390617], [-73.259203014829, -39.8527135586268], [-73.2573753276951, -39.8572073592607], [-73.2518469840366, -39.8584760040876], [-73.2500186620964, -39.8629696192016], [-73.2444900531821, -39.8642377222454], [-73.2407906256598, -39.8610122903643], [-73.2352626111408, -39.8622799318427], [-73.2315642675706, -39.8590544748276], [-73.2260368476088, -39.8603216549123], [-73.2223395878493, -39.8570961729762], [-73.2168127626065, -39.8583628918392], [-73.2131165865161, -39.8551373851949], [-73.2075903561536, -39.8564036430081], [-73.2038952635908, -39.8531781118685], [-73.19836962827, -39.8544439088037], [-73.1946756190928, -39.8512183533815], [-73.1965068745838, -39.8467273566532], [-73.1928135779102, -39.8435021327019], [-73.1946446872364, -39.839011386576], [-73.1909521028115, -39.835786494208], [-73.1927830659735, -39.8312959988107], [-73.1983061258644, -39.8300299593263], [-73.2001364552694, -39.8255392783407], [-73.2056592517296, -39.8242726977011], [-73.2074889474584, -39.8197818313318], [-73.2037963345196, -39.8165579819928], [-73.2056258844679, -39.8120673667687], [-73.2019339833956, -39.8088438492276], [-73.2037633875637, -39.8043534852748], [-73.2000721981036, -39.8011302996435], [-73.2019014564917, -39.796640187088], [-73.2074214169962, -39.795372823885], [-73.2092500423636, -39.7908825265861], [-73.2147697395052, -39.7896146229071], [-73.2184616682635, -39.7928370968634], [-73.223981958828, -39.7915687330163], [-73.2276749686781, -39.7947911828948], [-73.2258473186987, -39.7992823526051], [-73.2295410406045, -39.8025051342665], [-73.2350627817552, -39.8012363901516], [-73.2387575852111, -39.8044591474059], [-73.2442799195883, -39.8031899426444], [-73.2479758047352, -39.8064126752792], [-73.2534987321774, -39.8051430096998], [-73.257195699156, -39.8083657175026], [-73.2627192195016, -39.8070955909338], [-73.2664172684525, -39.8103182736923], [-73.2645914284366, -39.8148114393898], [-73.2590670501354, -39.8160814862819], [-73.2572405762435, -39.8205744674503], [-73.2517159328865, -39.8218439733899]]}}