{"type": "Feature", "geometry": {"type": "MultiPolygon", "coordinates": [[[[-78.33218805570691, -9.15606995418727], [-78.33317582458004, -9.150862105043592], [-78.33148721831247, -9.14741795425537], [-78.32860637956792, -9.145689386701195], [-78.32013590903179, -9.147303027193187], [-78.31640505835684, -9.153175099960308], [-78.31902290588803, -9.159421454602832], [-78.3250789405045, -9.162293018407496], [-78.33013753039293, -9.160539753715458], [-78.33218805570691, -9.15606995418727]]], [[[-78.41731217919923, -9.100078310549437], [-78.41191599230676, -9.104807369559254], [-78.41178928222703, -9.108863184453336], [-78.41505873338909, -9.111522203269226], [-78.42342643623061, -9.112213823769318], [-78.42709391112449, -9.108260270825093], [-78.42712199119093, -9.10472384563104], [-78.42155838652113, -9.099851875030938], [-78.41731217919923, -9.100078310549437]]], [[[-78.42569775859752, -9.231785910469075], [-78.4244306004768, -9.226713095178308], [-78.4196145629015, -9.225880343288793], [-78.41498225643748, -9.230961900123708], [-78.41517094457569, -9.237233521797629], [-78.41817386105694, -9.239526222361903], [-78.42129098375771, -9.23937466303154], [-78.42520453680218, -9.234883206210249], [-78.42569775859752, -9.231785910469075]]], [[[-78.44270898337048, -9.25931539881656], [-78.43903534579594, -9.252305846813945], [-78.43423204374058, -9.251505283696225], [-78.42775543339509, -9.258203286532174], [-78.42227124397053, -9.259916652395761], [-78.41697886460412, -9.265390005443212], [-78.41587742279137, -9.271200963976158], [-78.41890424732952, -9.274365466736132], [-78.42224511291437, -9.27452728215889], [-78.43148857668915, -9.265287810494277], [-78.44029460986293, -9.264782972774862], [-78.44270898337048, -9.25931539881656]]], [[[-78.45452339999999, -9.23728870475512], [-78.45146167940275, -9.230555473581994], [-78.44810969042688, -9.23000687585104], [-78.44542784996719, -9.231864583927567], [-78.44440941879947, -9.238627563710905], [-78.44631001507929, -9.241795424890029], [-78.45247059029558, -9.241151800275961], [-78.45452339999999, -9.23728870475512]]], [[[-78.50776692320365, -9.262305659347852], [-78.50708428822165, -9.259313934438087], [-78.50223199917588, -9.254298826433175], [-78.49638045262256, -9.251082507037738], [-78.48225235341805, -9.261497846456978], [-78.47248725560333, -9.259316686596685], [-78.46959952687416, -9.26138106816987], [-78.46877498606466, -9.264452958203993], [-78.47007307006936, -9.268642130675012], [-78.47282864636935, -9.270435031555882], [-78.48177240357742, -9.266715517505757], [-78.49898522128345, -9.270128719555135], [-78.50776692320365, -9.262305659347852]]], [[[-78.62869172068017, -9.019685543793619], [-78.62735828471098, -9.015732196467669], [-78.62991707280405, -9.009287132466302], [-78.62360777763267, -8.997238308680807], [-78.62657255433918, -8.991507295920943], [-78.62742666974088, -8.98596776743119], [-78.62625450970428, -8.983142847699064], [-78.61856538846702, -8.978519699438044], [-78.60819593283588, -8.979278912680643], [-78.6002298361684, -8.976789934971764], [-78.59014969120136, -8.979856392347441], [-78.58945846696214, -8.984746538991509], [-78.59196712625368, -8.98845031293249], [-78.59717693578017, -8.99109697427314], [-78.59945517341993, -8.997758205844885], [-78.6023827478885, -8.999174858849653], [-78.6073887916684, -8.99839511701202], [-78.61366945022439, -9.001100146978029], [-78.61466850124661, -9.009513479864285], [-78.60912073850763, -9.014081582168416], [-78.60331683724758, -9.014139075158493], [-78.5994444514535, -9.016540456689663], [-78.59794391730236, -9.019128885460987], [-78.5982280099806, -9.02458031749586], [-78.59655372928955, -9.0267344776153], [-78.58750725370616, -9.026223866335876], [-78.57749464520231, -9.030999664455592], [-78.57304780046705, -9.035687390602746], [-78.57030789318567, -9.03539591538173], [-78.56681256733458, -9.032416066368267], [-78.56311755277224, -9.025036176261576], [-78.55892134715246, -9.024259340008035], [-78.55584179770192, -9.026417065387879], [-78.55559310795594, -9.034695092456221], [-78.56336027410732, -9.043189751610905], [-78.56914642504246, -9.062036320546984], [-78.56758801483213, -9.065066009111987], [-78.56254631371768, -9.067414177506349], [-78.56033225859552, -9.073104482617577], [-78.55521694719742, -9.075347042296327], [-78.55324674110669, -9.078086473935342], [-78.55451268023172, -9.084301161072164], [-78.55291800467674, -9.089103891286548], [-78.55502207148452, -9.099196179831127], [-78.55421501796067, -9.102128944261798], [-78.54860674877975, -9.106234513666578], [-78.53923327966051, -9.100565723890204], [-78.5351612661085, -9.094169784537547], [-78.53460388973105, -9.087751658570488], [-78.53056182486257, -9.084017131940495], [-78.52698246699616, -9.083914021800316], [-78.52271017853735, -9.087977488129432], [-78.52102925794502, -9.093494128695284], [-78.50605791408906, -9.10665561441058], [-78.49864081504715, -9.10681255011313], [-78.48611688873854, -9.112186122867325], [-78.47919377941763, -9.117199162355274], [-78.47405083022535, -9.124991603344077], [-78.47352114855397, -9.129005012531646], [-78.47563648076893, -9.133530320301784], [-78.4743396389682, -9.137923627353272], [-78.47498330155818, -9.14559784841229], [-78.48829212306333, -9.15977562251871], [-78.49198152906631, -9.167485770076974], [-78.49456100279261, -9.168524194641906], [-78.49734245792239, -9.167501333597894], [-78.4999142223904, -9.16244669297403], [-78.52575382799589, -9.139079615355698], [-78.5348743295016, -9.141468312699548], [-78.54905399136095, -9.1294137396895], [-78.56089853499367, -9.130014336321347], [-78.57050282521168, -9.10628934847199], [-78.58261290399042, -9.08986454940095], [-78.59117316070937, -9.082917006472067], [-78.61208271441382, -9.077214538491019], [-78.61311634411635, -9.073897755402992], [-78.60925344769728, -9.063213433609258], [-78.6087502628108, -9.054296818711371], [-78.61078059578587, -9.046279507278067], [-78.60749847579129, -9.036728503719557], [-78.61064237311777, -9.034040521694822], [-78.61772183513176, -9.035602715122822], [-78.62255650964775, -9.03366776125517], [-78.62894858453036, -9.024104986567501], [-78.62869172068017, -9.019685543793619]]], [[[-78.4973168428393, -8.939563011288955], [-78.4977129715653, -8.935124686380568], [-78.49225500839565, -8.93100699282283], [-78.48726569563142, -8.934014059704904], [-78.48510194975603, -8.939981024072177], [-78.48786338692312, -8.944238820141058], [-78.49071793454911, -8.945206763932973], [-78.4947457978861, -8.94341789393036], [-78.4973168428393, -8.939563011288955]]], [[[-78.53213743504077, -9.06193363954179], [-78.53383984153116, -9.056563381117579], [-78.53223755597904, -9.053680710881295], [-78.52597334187644, -9.049967312229434], [-78.52481277001787, -9.035359943188025], [-78.52186213080871, -9.033218069084409], [-78.51651094683339, -9.03350700093898], [-78.51373440863523, -9.038957218089562], [-78.5159359550436, -9.043671275189588], [-78.51636889930413, -9.052215466206611], [-78.51928732243495, -9.058672938609977], [-78.52240503129224, -9.06131494467247], [-78.53213743504077, -9.06193363954179]]], [[[-78.5339217411238, -8.908004230391896], [-78.53129962702317, -8.903434402858633], [-78.52540743060152, -8.9020416734154], [-78.52164641052528, -8.902803274522926], [-78.51882804324707, -8.905807223514739], [-78.51912749327627, -8.91270390505158], [-78.52230281624449, -8.91590555295238], [-78.52596820482427, -8.916374789467424], [-78.53266097643451, -8.911807638357718], [-78.5339217411238, -8.908004230391896]]], [[[-78.56776024036272, -9.002484494968071], [-78.56820483705575, -8.996527207501275], [-78.56367649529669, -8.989325418913461], [-78.55927034096052, -8.986508635531525], [-78.55077358367791, -8.98781643799147], [-78.54521292274362, -8.982427360869064], [-78.54053891766844, -8.984391073198873], [-78.53863088754613, -8.98942648908985], [-78.53404894691654, -8.992142498790837], [-78.53241969277946, -8.995544206035424], [-78.53475665731544, -9.000591487580829], [-78.54459888271593, -9.005640615857283], [-78.55045549757632, -9.005576813793553], [-78.55444715776538, -9.01092927987289], [-78.56306476487484, -9.013784014318686], [-78.56753814707486, -9.01140824931939], [-78.56879664040046, -9.006621740206498], [-78.56776024036272, -9.002484494968071]]], [[[-78.56949739857522, -8.886800128189867], [-78.56635056050511, -8.882820491711863], [-78.56120439136139, -8.884949054924546], [-78.55801386819306, -8.892810948580758], [-78.55975126363909, -8.899205925214797], [-78.56680815316399, -8.900844325603218], [-78.56989147296348, -8.899321291118994], [-78.57104116622583, -8.891418457162557], [-78.56949739857522, -8.886800128189867]]], [[[-78.5903033472019, -8.961564543832353], [-78.58843473870076, -8.958612279627733], [-78.58909989517, -8.952666358214554], [-78.58202960119705, -8.941672125777723], [-78.58241699423064, -8.93341584292195], [-78.57860910543518, -8.930635483961382], [-78.57296041480467, -8.930690523172451], [-78.5706684299554, -8.933677534143213], [-78.5705071566517, -8.937064872106648], [-78.57415886831488, -8.942375184185522], [-78.57537525585347, -8.951632937273764], [-78.58001485395268, -8.957990029764579], [-78.57843957808655, -8.961051160072726], [-78.57170889106155, -8.96446719218379], [-78.57221653245654, -8.972416001924406], [-78.57838261263207, -8.975374554156865], [-78.59138285787814, -8.96977716031089], [-78.59334316852937, -8.965907466179962], [-78.5903033472019, -8.961564543832353]]], [[[-78.64074916090311, -8.948653120501925], [-78.64133820390312, -8.945363861971051], [-78.63855083463656, -8.940423698058188], [-78.63872769407041, -8.931628880887905], [-78.63460551714046, -8.9279413161872], [-78.63034718903828, -8.927813809510459], [-78.62658506010985, -8.930823345969163], [-78.62266220538619, -8.943111549290826], [-78.61649550573159, -8.950022590055584], [-78.61892301030123, -8.95660574631518], [-78.61696486392007, -8.963634692424192], [-78.61891375219336, -8.968069564062256], [-78.62353283846952, -8.96974641671688], [-78.63286782819387, -8.96651540016051], [-78.63645295444826, -8.961091582219241], [-78.63554624338605, -8.953844149869342], [-78.64074916090311, -8.948653120501925]]]]}, "properties": {}}