{"type": "Feature", "geometry": {"type": "MultiPolygon", "coordinates": [[[[-71.05876771219177, -33.69046940046412], [-71.05800305647197, -33.68687276850231], [-71.05291758271576, -33.683032731053096], [-71.04107859719502, -33.6841548785388], [-71.03234285983874, -33.682582045147925], [-71.02777318189005, -33.67948731573632], [-71.02588427416636, -33.672446968426584], [-71.02317244170781, -33.67046195276201], [-71.01775560851037, -33.67104455857444], [-71.01509200991057, -33.67763348937604], [-71.01157472829497, -33.67910230821229], [-71.00565847433849, -33.67804395124234], [-71.00216033912673, -33.67083557431503], [-70.99795427682109, -33.66929122917683], [-70.99468331306595, -33.66582457887274], [-70.98827494546565, -33.6639442107831], [-70.98024788238315, -33.664561633690504], [-70.97521573236077, -33.6694369369398], [-70.96668318248585, -33.66850085474056], [-70.96078965216981, -33.67226842217566], [-70.95107123684978, -33.66674830751408], [-70.94039928954471, -33.663422697204034], [-70.93640938205098, -33.65651420152508], [-70.93686563865896, -33.64947436139905], [-70.93216976684424, -33.64332847299925], [-70.93268999804775, -33.63753667757059], [-70.92993368936452, -33.62867141812659], [-70.9331873758636, -33.62317037168116], [-70.93265116352713, -33.61865556421185], [-70.92635063627029, -33.615364764059585], [-70.91481052104308, -33.61722827462874], [-70.91200124850009, -33.61618659522216], [-70.91043515247142, -33.612684013602255], [-70.91259029713609, -33.6064534090875], [-70.91170846530545, -33.60333146491114], [-70.90805825380306, -33.60007138162532], [-70.89739480087934, -33.59517260712702], [-70.89452093727334, -33.58671793029004], [-70.89121819916235, -33.58504664043834], [-70.88466122283903, -33.585583570868074], [-70.87846798973806, -33.577046166189014], [-70.86770478367329, -33.57018037417831], [-70.86650774323732, -33.567376909755964], [-70.86766954399043, -33.56159964270321], [-70.86632826890602, -33.559195415149475], [-70.84830643349335, -33.55080419943189], [-70.84522650762239, -33.54665091982423], [-70.84077245000063, -33.54422439434489], [-70.83588162363381, -33.544711902890874], [-70.83207646514757, -33.547706027065956], [-70.82048506760287, -33.551497978509296], [-70.80734707269548, -33.5508452663546], [-70.80368645364666, -33.547857277974245], [-70.80261996271805, -33.543885993326974], [-70.80616387703719, -33.538146631343466], [-70.80365049895224, -33.52980509175895], [-70.81187364674231, -33.51919555786151], [-70.81278458915085, -33.51381765461347], [-70.81141502410748, -33.509885375787526], [-70.81315329272368, -33.50677405002458], [-70.81605607926551, -33.505666603478836], [-70.81887591319973, -33.50697088264469], [-70.82199065926513, -33.516711970549565], [-70.82426168772425, -33.51889107290974], [-70.83365247840908, -33.52008102554017], [-70.83670431570279, -33.51539850576546], [-70.82570944684069, -33.49432425918739], [-70.81875477608708, -33.4938128566391], [-70.80857249884322, -33.48967553724951], [-70.81045019040732, -33.476648028370846], [-70.80854816882204, -33.467476307877384], [-70.80938947054999, -33.464525747162085], [-70.81373738542642, -33.4620366273437], [-70.81919516004886, -33.464297584954075], [-70.82541667313563, -33.46376135876662], [-70.8326516749013, -33.459872614937545], [-70.83530307687043, -33.461291855565484], [-70.83849158237089, -33.46666650663173], [-70.8474772343253, -33.46534125735315], [-70.85874114578307, -33.47355867664615], [-70.86849519009782, -33.47236738399707], [-70.87244994768841, -33.46905305858308], [-70.87188134752331, -33.463545457028616], [-70.86561965936333, -33.459376101649035], [-70.86558963790598, -33.44962241790568], [-70.86418428056928, -33.44704837354295], [-70.85122372609274, -33.44001704569745], [-70.83752655495657, -33.441176909577855], [-70.83529043682293, -33.439154674886666], [-70.83472358035596, -33.435575934269245], [-70.83611698451122, -33.432463254649534], [-70.8416965103957, -33.429610425568505], [-70.843493763604, -33.42126060544481], [-70.85564429763997, -33.40854206748685], [-70.8663553490225, -33.40626616002535], [-70.87134939640968, -33.40811779456396], [-70.88475112790974, -33.40770329634799], [-70.88927131368749, -33.40693706281281], [-70.89136856937382, -33.40498397362548], [-70.89074978471429, -33.3981401010127], [-70.88276647989424, -33.38438894330988], [-70.88348838362492, -33.37712885967912], [-70.87596343543385, -33.370095080237405], [-70.8782732101795, -33.36132583645933], [-70.87487865380596, -33.3531085742009], [-70.87058586914864, -33.35211563340001], [-70.84642278191369, -33.363444312164084], [-70.84578166731983, -33.36677644657662], [-70.84971260163294, -33.3738483386238], [-70.8494079219803, -33.37692817630536], [-70.83779809771535, -33.38151401939859], [-70.8356107528995, -33.38511338654714], [-70.8365901925659, -33.38775575049951], [-70.8453173369927, -33.39573072102208], [-70.845885775292, -33.39955285759712], [-70.83689468849806, -33.40528514383855], [-70.83409754287783, -33.41141513466327], [-70.82954603023008, -33.414803122959825], [-70.82833816962854, -33.41969917889233], [-70.82540500901732, -33.42142663899802], [-70.82084844669426, -33.419981618085], [-70.81564027156314, -33.411625036467036], [-70.81299468898344, -33.410038076665536], [-70.80602015272667, -33.412716565066845], [-70.79947494586338, -33.42105197544791], [-70.7901093575164, -33.416942154131725], [-70.78407344875811, -33.40101990184507], [-70.7870425930857, -33.39496517545778], [-70.78754246863214, -33.387955106535486], [-70.78621904782477, -33.38071180984808], [-70.78224639605666, -33.374057386518174], [-70.78343081842698, -33.368070600792635], [-70.78159695669733, -33.36496928441497], [-70.77885676100396, -33.36434789133097], [-70.76818354777475, -33.36716445435538], [-70.76063190687901, -33.364301130257296], [-70.74082278441016, -33.369281022890675], [-70.7397460500112, -33.373184031916765], [-70.74356467975068, -33.378762898609246], [-70.74288656877229, -33.3870656904448], [-70.73688601183572, -33.39383563415413], [-70.72889884068297, -33.398858334812665], [-70.72088612522471, -33.407518087392226], [-70.72003553476591, -33.41043720527708], [-70.72156460794305, -33.41371596450034], [-70.72495098526537, -33.41560233779434], [-70.74082825927772, -33.41536659015709], [-70.74414019154983, -33.41842412370748], [-70.74376713278754, -33.424666537918235], [-70.74760488874611, -33.4379643818279], [-70.74529912493051, -33.440516231866006], [-70.73786295935753, -33.442051390977525], [-70.73539181445567, -33.45094877979468], [-70.737700910741, -33.45429690526324], [-70.74427804066774, -33.45412221073438], [-70.74723325129028, -33.45662432520587], [-70.74838693545854, -33.46247433676458], [-70.74408109455115, -33.4693419617541], [-70.7455952107361, -33.47973120690733], [-70.7480325827856, -33.485193473354556], [-70.74283662511891, -33.494221862195744], [-70.73870965836342, -33.49884699518781], [-70.73432459005436, -33.50092337171455], [-70.73325359420943, -33.50417477847914], [-70.73829383276812, -33.5156936645615], [-70.74559804584283, -33.52317291524465], [-70.74539704495629, -33.53029428639495], [-70.75021529328623, -33.535821173311135], [-70.74781315821254, -33.54298066061574], [-70.75137110381692, -33.55164789562185], [-70.75075776092639, -33.55762624146969], [-70.76215223889915, -33.57190343341944], [-70.76125959145091, -33.57875605290832], [-70.75432029134984, -33.58234750272077], [-70.75344625454781, -33.586685590891705], [-70.75607746935238, -33.589411073103996], [-70.76374288340315, -33.591448650372556], [-70.76772378301006, -33.59708433688944], [-70.76658074754137, -33.5999240181893], [-70.76130491526018, -33.60427318573808], [-70.75917586109351, -33.60979042185037], [-70.752502581582, -33.61151748152713], [-70.7486955419721, -33.614353001142234], [-70.74865880507252, -33.62259798179207], [-70.74448337368912, -33.627064338594074], [-70.7421895776843, -33.63349059199611], [-70.7475120435231, -33.64085212685024], [-70.74954530125908, -33.64723401178809], [-70.7571466519357, -33.64755298797404], [-70.764418688318, -33.65155524689314], [-70.7700932648803, -33.65035329032714], [-70.77399045741454, -33.642083601626744], [-70.79405688964391, -33.636521098715576], [-70.79703575806737, -33.637560288630446], [-70.80045082819774, -33.642601514543536], [-70.81185181682606, -33.64623786210831], [-70.81470264449385, -33.653172368300595], [-70.81114041973038, -33.659800254815615], [-70.81322981905556, -33.666957790701034], [-70.81634984855631, -33.668534836274546], [-70.82216827765369, -33.66652839589283], [-70.82544545253704, -33.66715427740008], [-70.8321374990932, -33.67450729478694], [-70.83407436756306, -33.681540370955055], [-70.82861906996365, -33.687376779893185], [-70.82944189135462, -33.69425903660022], [-70.82780747134777, -33.69994813864209], [-70.83230752299437, -33.70590061021878], [-70.84190201921385, -33.709363281925995], [-70.84348516819792, -33.71403771468793], [-70.84356882670274, -33.72834810200279], [-70.8486375789738, -33.733987774473874], [-70.84814451634114, -33.73856801107539], [-70.85037923911777, -33.74650592380001], [-70.84810176672383, -33.74858543959931], [-70.83751310820895, -33.75164425749572], [-70.83610523190795, -33.75471706602536], [-70.8376021994908, -33.75806455570674], [-70.85225347558973, -33.75900037300655], [-70.85968718744655, -33.76570735161621], [-70.86251369959695, -33.77109650070845], [-70.86748598977917, -33.77311425233444], [-70.87419230152294, -33.77210577036407], [-70.87635627854867, -33.767755035651646], [-70.87264433376295, -33.755593296287884], [-70.87661931904472, -33.75029686747972], [-70.872874526182, -33.73472877227518], [-70.87432044667092, -33.73207608544097], [-70.87847189756374, -33.730285437959736], [-70.88163144838806, -33.7323275748743], [-70.88609768905863, -33.7442981197355], [-70.88553674718966, -33.747267581779326], [-70.88188989136387, -33.75110172558237], [-70.88294019084312, -33.753443380860624], [-70.88617878177028, -33.75804111311539], [-70.89202274940467, -33.76120403564585], [-70.89747874203925, -33.76912276786838], [-70.90215632701019, -33.76931467420214], [-70.90692261078485, -33.764628689507305], [-70.91163237066138, -33.765207611916296], [-70.9158986047062, -33.763189710037025], [-70.92360751907742, -33.76301812660667], [-70.9308146691048, -33.75684252014213], [-70.93364296169248, -33.746072880049894], [-70.92247777121617, -33.73034174662998], [-70.92142831441554, -33.72418016960394], [-70.9283297077251, -33.7180171605045], [-70.94184037520206, -33.71245082327811], [-70.94536853501052, -33.70811557272664], [-70.9484580534706, -33.70796033339314], [-70.95808433728945, -33.71326562253244], [-70.96452700796836, -33.71357267434967], [-70.96958352359975, -33.71167764207249], [-70.99225403442222, -33.71717712162779], [-70.99539597273981, -33.71441462475249], [-70.99489276638613, -33.70812888885738], [-70.99314737134866, -33.705842822029176], [-70.98861950533946, -33.70432224338131], [-70.98606543221554, -33.69957507498885], [-70.98076484301056, -33.6962987287964], [-70.98100353032102, -33.691288774246935], [-70.98342524585327, -33.68887943691814], [-70.9877984150772, -33.6886071457288], [-70.99979019992927, -33.69444018557242], [-71.00731009341682, -33.69290606923987], [-71.01551434188447, -33.69847912929888], [-71.02252570637751, -33.69745918757285], [-71.03487660105183, -33.70094508356819], [-71.05630577743064, -33.6934306889249], [-71.05876771219177, -33.69046940046412]], [[-70.83944685654996, -33.620400956351375], [-70.83510218306498, -33.62490966025119], [-70.83174715173145, -33.62523116316128], [-70.8292183118738, -33.62250712629266], [-70.8289284103041, -33.616144777346584], [-70.83145522045369, -33.61392220171976], [-70.83512038965966, -33.6140329983001], [-70.83912010256452, -33.616384362353934], [-70.83944685654996, -33.620400956351375]], [[-70.90685612878157, -33.718115820031144], [-70.9103524855377, -33.72034023191071], [-70.91000134437971, -33.724469301862065], [-70.89810935393048, -33.733177041568034], [-70.8938029709191, -33.73435780496045], [-70.88833082048701, -33.73099287739439], [-70.88077797699633, -33.73022506402775], [-70.8771351256214, -33.71700201986928], [-70.87933345925438, -33.712818745990695], [-70.8856934760142, -33.710996238432394], [-70.8968850303753, -33.717524624676386], [-70.90685612878157, -33.718115820031144]], [[-70.89411182674996, -33.67955322220513], [-70.89672039669925, -33.68221290650047], [-70.89617355311603, -33.685637932531975], [-70.89190107410323, -33.68824888032775], [-70.88849311136484, -33.68759254602117], [-70.88645890118066, -33.683157602637266], [-70.88710910221512, -33.680159904008015], [-70.89045887966459, -33.678419922200945], [-70.89411182674996, -33.67955322220513]], [[-70.91267628897961, -33.671666504391055], [-70.91386808678502, -33.67468028807892], [-70.91232993359228, -33.67766807054733], [-70.90837756546698, -33.67923259170447], [-70.90487620680389, -33.67717588562416], [-70.903763482527, -33.67258590313433], [-70.9058423051548, -33.66886514155645], [-70.90951705109369, -33.66842333890347], [-70.91267628897961, -33.671666504391055]], [[-70.92406734112124, -33.706445328278015], [-70.92192696845062, -33.711381209755665], [-70.91416519515519, -33.71195438672777], [-70.91022871679058, -33.706654052347986], [-70.91016692367599, -33.7014525635772], [-70.91288710338053, -33.698843554953584], [-70.91588475128444, -33.69858666340857], [-70.92310126342024, -33.7024669954562], [-70.92406734112124, -33.706445328278015]]], [[[-70.93715607337748, -33.4550725522057], [-70.93909750697638, -33.4497909373484], [-70.93412194707084, -33.440490190871664], [-70.92536163357346, -33.43298735314618], [-70.91924419746157, -33.43161280288125], [-70.91373297365939, -33.433667920608215], [-70.89791165087732, -33.43529901693991], [-70.89304514856215, -33.4383688727677], [-70.88723450383328, -33.448484868889054], [-70.88996997638425, -33.45279450407426], [-70.90107785189724, -33.456039097146544], [-70.91374257339871, -33.45687780468514], [-70.91837177978736, -33.45897449907205], [-70.9221742400227, -33.45859374636803], [-70.92690491177751, -33.45531678767924], [-70.93298822511359, -33.45708989155708], [-70.93715607337748, -33.4550725522057]]], [[[-71.05943133346214, -33.40863734199037], [-71.04522848058929, -33.41093565777598], [-71.04182993163852, -33.41686018822148], [-71.03196064268022, -33.42566904345041], [-71.02680737559825, -33.423710205175915], [-71.01642502948377, -33.413261391313966], [-71.0064876730862, -33.407437164546195], [-71.0021878221653, -33.40262808843373], [-70.99914428182258, -33.40269790784348], [-70.9929971582695, -33.40655723820782], [-70.99119043508854, -33.41006669356938], [-70.99558968971724, -33.41630854004241], [-70.99709895424965, -33.42152950092338], [-71.00410338731012, -33.42364252163024], [-71.0063552960251, -33.42580383970259], [-71.00479544199402, -33.4331424703913], [-71.00633338739529, -33.436187119939326], [-71.01901428314916, -33.438348417862585], [-71.0320482064788, -33.44387113416117], [-71.03576355958272, -33.44228331115563], [-71.03717667101084, -33.43699852597141], [-71.03914241021934, -33.43520073357554], [-71.04538836937371, -33.43617695503559], [-71.05255586645114, -33.43435978636948], [-71.05410430158733, -33.4289346313077], [-71.05273947964771, -33.422181764357994], [-71.06278204612953, -33.41485471451257], [-71.06246800062904, -33.41185753977384], [-71.05943133346214, -33.40863734199037]]], [[[-71.17298320660615, -33.403901943970965], [-71.17165013190319, -33.398295741136245], [-71.16646182771768, -33.396294672077914], [-71.16075888230091, -33.39898536857573], [-71.15603903682556, -33.40426254254383], [-71.1412008114706, -33.400960455717836], [-71.13671610125563, -33.39730906804794], [-71.13309013268025, -33.388479234961224], [-71.12656347698665, -33.38493291067421], [-71.1190394435157, -33.38712432339788], [-71.11533021246699, -33.39230650050792], [-71.11542905181598, -33.400947559605136], [-71.11897416964536, -33.41174068513063], [-71.12671944392424, -33.41317704903156], [-71.13672687011, -33.4125871657843], [-71.1491986969685, -33.416609430790224], [-71.15596524394427, -33.42101515146052], [-71.16194830254163, -33.419268281037915], [-71.16552778396382, -33.414858820040415], [-71.17200246394562, -33.41244793153831], [-71.17298320660615, -33.403901943970965]]], [[[-71.24841126104987, -33.65308864555499], [-71.24306264354509, -33.644479410170646], [-71.2447308391273, -33.63873222515804], [-71.24371970818628, -33.63025126938118], [-71.23836279981714, -33.62381942065452], [-71.23175366972951, -33.62427721833057], [-71.22762279874284, -33.628283252080436], [-71.229907433339, -33.63372225895295], [-71.22951456253541, -33.63673826418561], [-71.22305111697962, -33.64163002010778], [-71.2219369792788, -33.64467041913017], [-71.22577393850459, -33.65257557684996], [-71.23400609081304, -33.654974038164696], [-71.23648064341354, -33.65953146441118], [-71.23500166676503, -33.66297953528379], [-71.20990440044349, -33.665247609945155], [-71.20015981029911, -33.672810508174614], [-71.19636987994129, -33.6737818650005], [-71.19028654376697, -33.6704034687045], [-71.1716870350378, -33.66847709428188], [-71.1649738640052, -33.67422390759], [-71.16527148794691, -33.680746692497046], [-71.1742062194364, -33.686004849818566], [-71.1976438207326, -33.69232033546291], [-71.200168051088, -33.69472247752024], [-71.20137394772166, -33.701995184301424], [-71.20919278177855, -33.70932252276929], [-71.21465616620864, -33.71159467590727], [-71.2179964957941, -33.71726667288254], [-71.2234009152112, -33.71910174760703], [-71.23044905482531, -33.71835179889273], [-71.23334554242287, -33.713757038278956], [-71.22884216990819, -33.70737090340854], [-71.2301700279377, -33.69721723741338], [-71.23223656640532, -33.69395496210004], [-71.24239748079539, -33.68848291551306], [-71.24400364080789, -33.67926191231057], [-71.24738189782843, -33.67456414806333], [-71.24636714196971, -33.66922755554214], [-71.24826310721343, -33.66425007238545], [-71.24646124687466, -33.65914648608766], [-71.24841126104987, -33.65308864555499]]], [[[-71.22599692965409, -33.569922526466165], [-71.22708834506366, -33.56605637954386], [-71.22594274778257, -33.563253901541025], [-71.22159586149745, -33.561071345215346], [-71.21844163434552, -33.55627844072971], [-71.21201844777693, -33.555904968076774], [-71.2062383370649, -33.56257449343777], [-71.19454505995374, -33.56508930732367], [-71.19034534304943, -33.56777505168701], [-71.18245130599657, -33.56859270558175], [-71.1801228002619, -33.577280254120915], [-71.18401961727363, -33.58063408967949], [-71.19265902951261, -33.577104284158075], [-71.1984819245735, -33.57926933249571], [-71.20756061152173, -33.57787040117004], [-71.20980598746077, -33.58175620257312], [-71.20595648336649, -33.587005824147774], [-71.20615322410737, -33.59048000484903], [-71.21058674003818, -33.59483192338177], [-71.2156784693797, -33.59523559844527], [-71.22156195543603, -33.591402741834195], [-71.22260205253141, -33.58679619828879], [-71.22117572857034, -33.5816144662299], [-71.2241258268814, -33.57724887698298], [-71.22599692965409, -33.569922526466165]]]]}, "properties": {}}