{"type": "Feature", "geometry": {"type": "MultiPolygon", "coordinates": [[[[120.80678831390651, 14.370925107727645], [120.80764506843877, 14.375704869773974], [120.81605041272145, 14.380039898898625], [120.81956116378666, 14.38475353169772], [120.8291390683121, 14.389520684192899], [120.83578056416619, 14.387108278460627], [120.84081622056095, 14.389589405738208], [120.84151682077191, 14.392986072781422], [120.83870825093358, 14.399651101862545], [120.84417022819797, 14.406811652019089], [120.84536312263809, 14.415493914376375], [120.84445179948604, 14.420003993156445], [120.84655780837026, 14.422918281372374], [120.85553433158606, 14.422558979768398], [120.86073625410857, 14.428738211223624], [120.86833515061353, 14.429018595089216], [120.880084347544, 14.435901457330736], [120.8839522256852, 14.441339927788784], [120.89403273329894, 14.441587433828177], [120.90271562726358, 14.448284356027184], [120.90926835154539, 14.450338545651249], [120.91303972435318, 14.454397601408596], [120.9143926363242, 14.462294519296943], [120.91767852214123, 14.465167291896837], [120.94252917621274, 14.462856453274421], [120.95155360197772, 14.463663874291449], [120.96058930431222, 14.474241986090133], [120.97350737888578, 14.481012803004157], [120.97840853867201, 14.492177541004603], [120.98242621549794, 14.496152450167717], [120.98152763020522, 14.500512733305268], [120.97357589318077, 14.503974430534472], [120.97173321696633, 14.506285410344011], [120.97539605954385, 14.519571626372368], [120.97416001506151, 14.52474564473031], [120.95899293284498, 14.52634580738405], [120.95728304072915, 14.53922199423667], [120.95501645752263, 14.542113299475664], [120.93913106091418, 14.5385246603001], [120.93050823221505, 14.543503500904706], [120.92757716228039, 14.548531224978236], [120.92790067244263, 14.5550664042957], [120.93187949332378, 14.558710542605713], [120.94078555576745, 14.558868370953766], [120.94535274619662, 14.556909620939994], [120.95186252271574, 14.558774734694422], [120.9635715203604, 14.55870797927047], [120.96920194408143, 14.556871242385656], [120.978767514619, 14.560817807751427], [120.98068549678153, 14.563980361971513], [120.97711523359092, 14.57252281791778], [120.96632502704014, 14.581898454360513], [120.95742161828818, 14.580976422210105], [120.94902135778297, 14.590584210063547], [120.94242377478729, 14.590923309925726], [120.93978547568477, 14.592987896107003], [120.93863354507914, 14.599676723191418], [120.94294684569425, 14.605402729232722], [120.94150423838347, 14.613415399219924], [120.94390349315441, 14.616336168859654], [120.94952022275989, 14.618392162780113], [120.95077305247739, 14.621961392184827], [120.94859791727113, 14.62539105778972], [120.94207724881156, 14.62669222041659], [120.93793840124346, 14.631732459459664], [120.93754870912234, 14.635198416468242], [120.93968933341303, 14.639775408823127], [120.93668759205147, 14.653332819229325], [120.93806779722036, 14.659564896032936], [120.93177107825137, 14.670976694527983], [120.9257327430503, 14.67482970465593], [120.92349346883297, 14.678504538946903], [120.92447356507286, 14.6819329533305], [120.9382780371073, 14.694010802593223], [120.93887403279263, 14.701193340698204], [120.94653489619132, 14.710946489690476], [120.94520098894968, 14.716696404513119], [120.94726686340724, 14.721302993133648], [120.94621476622869, 14.726221455605996], [120.94737730236086, 14.731312887595942], [120.9417068195503, 14.738154158160013], [120.94616585814825, 14.749390060376037], [120.94372947079654, 14.75633656555793], [120.94470086627751, 14.759435290015828], [120.94760078462026, 14.761133419800124], [120.9563339411276, 14.761007345358866], [120.96275278321512, 14.763240059299441], [120.96971832946147, 14.76113257638835], [120.97529618012913, 14.764443242278292], [120.9809630250836, 14.763657724839755], [120.98655813873683, 14.766104008764554], [120.99278150105867, 14.763415276889852], [120.99744003211315, 14.766243883571638], [121.00162684751601, 14.766573709597347], [121.00603114694889, 14.763396542088305], [121.01147568997264, 14.762421674574123], [121.02351512672203, 14.767029294710362], [121.03915922093853, 14.766901147098945], [121.05479113610183, 14.762137413498436], [121.05890297698643, 14.75892919600942], [121.0650180293015, 14.759268490456435], [121.06784652102873, 14.763071419700161], [121.06465128353662, 14.779709352229608], [121.06462629329933, 14.799496910388832], [121.06672887136197, 14.802520009168509], [121.07042552145194, 14.802786474752672], [121.07308901244618, 14.799658632801055], [121.07321209326975, 14.780437942723642], [121.07611411229647, 14.768183817177455], [121.07871396243515, 14.766705219596803], [121.08344148979852, 14.767090030423239], [121.09176202525884, 14.774139090389964], [121.09531902572259, 14.774840473753954], [121.09857162368498, 14.772721692570272], [121.10301841398349, 14.763157465430588], [121.10171525963486, 14.759613830120157], [121.0912488160212, 14.75344076178939], [121.08899523395333, 14.74787476835368], [121.08173150770939, 14.741708687594034], [121.0799148450468, 14.734874044599376], [121.07574531988898, 14.730877672258918], [121.07400066983854, 14.722489488814748], [121.07511837775763, 14.71678638041883], [121.07734162050768, 14.714557241957973], [121.08192854115154, 14.714018448809636], [121.09182887071125, 14.716564994612988], [121.09761479892485, 14.723586595599675], [121.10403414004621, 14.726953613313707], [121.10845239577843, 14.727305423306777], [121.11333433779141, 14.730839036142354], [121.11906652270613, 14.739974899952133], [121.11500420881355, 14.746253564279412], [121.11516269424108, 14.751727617461224], [121.11884831488418, 14.75518421841966], [121.12366861309324, 14.756430344568608], [121.12954324570111, 14.762398542252598], [121.13592369903805, 14.763096062629158], [121.14053344981123, 14.765413415885027], [121.1477172449655, 14.76079443625573], [121.15842205445311, 14.765308851493538], [121.16424210679996, 14.76292078351954], [121.16973277292789, 14.755774399640714], [121.16967097229332, 14.749655373296862], [121.17338128204881, 14.744468542956893], [121.1728404143547, 14.733030527894675], [121.16274645185814, 14.723430855924082], [121.15861420090054, 14.715358491754362], [121.14965520470535, 14.707246446303198], [121.14808889523974, 14.700026546085235], [121.14085494837744, 14.696407940987891], [121.14018924775814, 14.690264686292641], [121.14366322983076, 14.686628674174244], [121.14942369824169, 14.688857895490113], [121.15684726289676, 14.68605940561033], [121.16464911460027, 14.688206152533766], [121.16810525423894, 14.68503092240605], [121.16895120503321, 14.680874306101039], [121.15963589359534, 14.668814221440924], [121.16359035322866, 14.659038202871228], [121.16324228073218, 14.656100352283334], [121.15293050046023, 14.649173307583913], [121.14759608353485, 14.642768979286881], [121.14554090963547, 14.632324879024605], [121.14951038434162, 14.628383674553843], [121.1548294796129, 14.628317321722728], [121.15991424288194, 14.631835323956263], [121.16634405248918, 14.63154270419089], [121.17060026571777, 14.636805837096276], [121.17519134690191, 14.637574417076744], [121.1791601502423, 14.63554527305228], [121.18199620753663, 14.631439914591331], [121.18837308455363, 14.628331537792148], [121.19483022453284, 14.629147089602565], [121.2025361418729, 14.627629197359733], [121.2060773661392, 14.630255628802624], [121.20566421291045, 14.636839482557617], [121.20722406585122, 14.639526339119035], [121.21407799691515, 14.640979015226032], [121.21824708863863, 14.639450941777758], [121.22469961759845, 14.627725331050247], [121.21371095490532, 14.613645415867913], [121.21203769381266, 14.605731812842148], [121.21624798315959, 14.593870219281541], [121.21901187007492, 14.592683352059863], [121.2266090953063, 14.593785382324958], [121.22995593101636, 14.588614931671268], [121.2206154954144, 14.55564996732356], [121.22174507371707, 14.551043300818863], [121.22718589954, 14.546635524740912], [121.22715801390814, 14.53665795192242], [121.22496339880192, 14.534004669581478], [121.21912085190667, 14.532516294319151], [121.2104405325942, 14.537384907794848], [121.20320497283645, 14.536282181467861], [121.20102116837897, 14.534251464287829], [121.20020439946605, 14.528808490589233], [121.20464384891588, 14.52418706527783], [121.20919879718669, 14.51074938500841], [121.20733255770317, 14.50400657264804], [121.1987995232201, 14.49580337716489], [121.19957544822297, 14.490458473000427], [121.19743020155035, 14.484416527345894], [121.20278080074591, 14.479820090283166], [121.20368489488875, 14.476617923040443], [121.20166425188815, 14.470605743581578], [121.19660873369905, 14.465625748960925], [121.19629679175712, 14.460490192128223], [121.19403776227408, 14.457884648850909], [121.1826022231511, 14.460395638511757], [121.17913006820216, 14.464166421783858], [121.17887921539528, 14.468924097800036], [121.18405480277966, 14.475313687327201], [121.18176207160181, 14.484270091831263], [121.16361506610579, 14.50256141344655], [121.15952436665334, 14.511480784059524], [121.14556891179735, 14.51454862903485], [121.14122712096265, 14.51698935297621], [121.13916940847261, 14.526162196484481], [121.13425490798502, 14.530802803690957], [121.12827027357788, 14.529899511391745], [121.1222471746085, 14.532298444771257], [121.11340393543425, 14.526976851666568], [121.10443344020915, 14.531545878375026], [121.0977333647161, 14.527242294801118], [121.09696683193378, 14.518196151753143], [121.09125912951734, 14.513601315887344], [121.08913918168396, 14.507895065665968], [121.08323535609732, 14.503919152379572], [121.0765702971146, 14.504317276385756], [121.06834226331928, 14.49980320615856], [121.06740625563783, 14.491947068952856], [121.0647390582294, 14.487309251573041], [121.06320622481026, 14.467726182596385], [121.05838784149728, 14.462496712024233], [121.05733651331307, 14.453528389871257], [121.05405964323391, 14.447666497256778], [121.05656866737479, 14.436838485448863], [121.0550676562479, 14.43072544097476], [121.05479287503252, 14.4228022207331], [121.05628452239647, 14.418627358617071], [121.05471927181058, 14.401456434089265], [121.05488231410675, 14.390420471171415], [121.05660235208433, 14.383894277299367], [121.061429144506, 14.376524893458653], [121.06727626392805, 14.372686567400281], [121.06887068418439, 14.362124694453392], [121.07817591902182, 14.358822253657255], [121.0813287700957, 14.352737935978377], [121.09110936972613, 14.349146202558547], [121.10088244898897, 14.336726143364077], [121.11250809162279, 14.33286497262888], [121.12043094719283, 14.325478891327176], [121.12677104184282, 14.316776841039436], [121.12626854157843, 14.304873850624114], [121.12088318385184, 14.30129555958472], [121.10147913119857, 14.3039832963534], [121.09446670740995, 14.302343546816315], [121.08506551031735, 14.303194621518319], [121.07080077122494, 14.297801081130283], [121.05685313727967, 14.304985746110738], [121.0500695802088, 14.30220745556742], [121.03969738148675, 14.30170103445639], [121.03577142125093, 14.298534671555661], [121.02992094526095, 14.29739226702537], [121.026641603182, 14.29956421380387], [121.02577481905226, 14.306216635434275], [121.02245650188159, 14.311202688750871], [121.01778893082852, 14.311816049920255], [121.01019021899626, 14.308109857077502], [121.00143355875754, 14.31219007418586], [120.99394628754783, 14.303746266319232], [120.99457818755614, 14.298035170471408], [120.9933661100115, 14.295075758767023], [120.98980567895656, 14.292333078572144], [120.98655749021125, 14.286761021684711], [120.98370250485868, 14.285621821995115], [120.9777547757745, 14.288407262300206], [120.97588465523474, 14.299482276029742], [120.97281216192347, 14.302632218586073], [120.96815119029192, 14.301793208389608], [120.96157797243977, 14.29785074162342], [120.95576382729735, 14.298364728617775], [120.95079049662932, 14.29529575933717], [120.94463214328827, 14.29609605303115], [120.94077432962149, 14.292378299642625], [120.93410682019162, 14.29012869132483], [120.93148226537402, 14.291438337180557], [120.92969781081881, 14.296258367295207], [120.9271051898764, 14.297857795225546], [120.91551640655292, 14.292849199990238], [120.91071850092708, 14.294099153230842], [120.9067397614552, 14.30048461704247], [120.90598939390998, 14.307732943448126], [120.90218721860099, 14.309930577514518], [120.88429964291998, 14.304694754909855], [120.87603497191236, 14.299246669290172], [120.87323629465443, 14.291803394128992], [120.8676644702308, 14.289908581644807], [120.8649424051014, 14.29209291145398], [120.85961278242375, 14.306622689698491], [120.85216511018322, 14.311959709666446], [120.84569481055503, 14.313243878119183], [120.84227680866185, 14.316274432479817], [120.84136518121403, 14.320143132927349], [120.84372212433536, 14.326758799240952], [120.83731930918431, 14.336068395700737], [120.83351034259863, 14.337348594500494], [120.82704367709906, 14.334242474969006], [120.82195477927482, 14.337731305947822], [120.81996783760155, 14.343230251403046], [120.8244528408221, 14.349038841217233], [120.82365195364527, 14.353095467398873], [120.82086333035399, 14.354400285189541], [120.80791526547405, 14.353861718972844], [120.80519956342437, 14.35534154984046], [120.80429604931436, 14.360111718454558], [120.80861296351374, 14.36563484124628], [120.80678831390651, 14.370925107727645]], [[121.11910554302473, 14.716200096760094], [121.11675679042936, 14.71388561032765], [121.11704260903913, 14.710213705623556], [121.12003031430739, 14.707551187911431], [121.12308285339901, 14.707618181047055], [121.12519883744199, 14.709819338587081], [121.12543072256214, 14.714383852321703], [121.12274429145813, 14.71675225236303], [121.11910554302473, 14.716200096760094]], [[120.99293292024743, 14.351815896423249], [120.98948218673385, 14.350381161970779], [120.98869277406475, 14.346758606471367], [120.99099937143914, 14.342198758762766], [120.99583053135385, 14.341503030947006], [120.99816184923824, 14.343396108334018], [120.9985187702638, 14.346377952134898], [120.99670143836371, 14.349904100420215], [120.99293292024743, 14.351815896423249]], [[120.86778732285909, 14.37075420996613], [120.86945642522578, 14.367449223790942], [120.87347844743287, 14.36707540801847], [120.87798787120187, 14.37023327523629], [120.87842838693457, 14.375170819269197], [120.8745360317585, 14.37952747095732], [120.87022618715471, 14.380134797977014], [120.86737963502135, 14.376669958795132], [120.86778732285909, 14.37075420996613]], [[120.86166559886438, 14.334138169410084], [120.86374895095668, 14.331535091553153], [120.86721711538432, 14.331479655126577], [120.87116106400686, 14.33464949231809], [120.87155586054742, 14.33838283138043], [120.86857602347541, 14.341412065628555], [120.8652179413924, 14.341645692770177], [120.8615960807689, 14.337760215135512], [120.86166559886438, 14.334138169410084]]], [[[120.83487690273097, 14.74200755066603], [120.83492059790017, 14.74707077323286], [120.84097095704607, 14.75001601923158], [120.84856434462077, 14.757922334968313], [120.85289365154934, 14.759119643809594], [120.8592214354523, 14.756030133669364], [120.87311006217092, 14.76109179283478], [120.88550444370422, 14.762265191989805], [120.88971451952257, 14.764248867684108], [120.8921219502209, 14.769619535375266], [120.89594544628255, 14.772063638826046], [120.90223094950224, 14.770213251903337], [120.90876893823201, 14.76016911380508], [120.90720382570656, 14.755561240963962], [120.901107699456, 14.751164726426955], [120.9040013565926, 14.738483030953784], [120.9020562363074, 14.730829184165229], [120.8840631983944, 14.723107991114286], [120.87535955314814, 14.712178598390755], [120.86236047451146, 14.717924869044456], [120.84217184352254, 14.732387723734359], [120.83487690273097, 14.74200755066603]]]]}, "properties": {}}