{"type": "Feature", "geometry": {"type": "MultiPolygon", "coordinates": [[[[-70.07706609484563, 18.53262937570738], [-70.08026696385353, 18.536047481496464], [-70.07897809582951, 18.545318468479632], [-70.07397791333794, 18.55063895834191], [-70.06705207269094, 18.553091241358675], [-70.06371155740017, 18.567183677743365], [-70.05890088777268, 18.571843324670265], [-70.04412967733742, 18.570338516913274], [-70.03847672849231, 18.565910631152192], [-70.03137101783598, 18.566060724904553], [-70.02495607807752, 18.568912102855496], [-70.01243768836828, 18.568131303284733], [-70.00800134319331, 18.5624558591538], [-70.00418766991842, 18.553033241075482], [-69.9915323098642, 18.55250374071161], [-69.98013423054964, 18.546981983287793], [-69.9720730293314, 18.548558335165495], [-69.9683686336882, 18.552012614348055], [-69.96683273477005, 18.556292252430527], [-69.9680330223202, 18.56163541908548], [-69.9639606282476, 18.57465669491943], [-69.95443357987148, 18.576964823824298], [-69.95203360762952, 18.582321975037917], [-69.94876797842201, 18.584708059359233], [-69.94032955401461, 18.58465166372861], [-69.93336470789916, 18.59252783680782], [-69.93014150377793, 18.593437645531107], [-69.92249264306173, 18.58925783064177], [-69.91569799576654, 18.590146050239746], [-69.91154461755941, 18.588187128885615], [-69.90390662901167, 18.57490430417687], [-69.87949147934899, 18.57208071563986], [-69.8737087675069, 18.56366071927724], [-69.8593237117593, 18.565807999999997], [-69.85158203784478, 18.563583375424727], [-69.84220801735198, 18.55391042669183], [-69.84242604438725, 18.546772189902825], [-69.83927877848954, 18.54402345162358], [-69.82725966231237, 18.546999477416175], [-69.82342900809412, 18.549770092508155], [-69.80987031093456, 18.55153677994463], [-69.80708470303269, 18.55864478046437], [-69.79937846714925, 18.564936960251604], [-69.79207578344614, 18.56394564007665], [-69.77725573122771, 18.56710868095179], [-69.77095120647293, 18.561316246022958], [-69.77123003674863, 18.557186091822288], [-69.77537832786638, 18.550875526469998], [-69.77056297026455, 18.545387639998193], [-69.76907409609319, 18.54026574199129], [-69.76100229398682, 18.535077530411442], [-69.75272412644284, 18.53484168729015], [-69.74864014163347, 18.532288421728374], [-69.73468049540938, 18.508618950433913], [-69.73293268143179, 18.50435916170713], [-69.73530780417674, 18.493862544749813], [-69.73323801776806, 18.49064478132398], [-69.72548164034896, 18.49030871236138], [-69.70412147293426, 18.480209380686365], [-69.69679704468895, 18.48700391036127], [-69.69255114660795, 18.494197599882668], [-69.68390951585005, 18.494857111990367], [-69.6810416225406, 18.491954551384538], [-69.6802958487645, 18.48093731120145], [-69.67108132261214, 18.473835161169788], [-69.66542605813933, 18.472980381293173], [-69.65915415216345, 18.467355113496488], [-69.65530423271693, 18.467511931850265], [-69.64766929609983, 18.473803724038223], [-69.63444987510802, 18.473775843115458], [-69.6295306814191, 18.4688242104032], [-69.61738781147984, 18.46613339883593], [-69.60577661643555, 18.473051497432124], [-69.5981252404438, 18.47213127659362], [-69.59502958948995, 18.469578954013627], [-69.59402491777918, 18.45962252254965], [-69.5914190335168, 18.453979164632333], [-69.59362670781984, 18.44632130493596], [-69.5958111098394, 18.444350222137675], [-69.60995074893731, 18.44298196599976], [-69.6201437018298, 18.444511807656603], [-69.62755595811417, 18.44070955107996], [-69.62897845738263, 18.438295765909956], [-69.62858763900212, 18.433815044841364], [-69.62295154210787, 18.42811791998019], [-69.62391619482754, 18.4190939746634], [-69.6290707944195, 18.41645080326685], [-69.64307888537685, 18.415959223492703], [-69.64650642218491, 18.41806879850913], [-69.64852610285293, 18.429323278259158], [-69.65394068986653, 18.433590420845622], [-69.65700133299293, 18.443502708352344], [-69.67606157263742, 18.443833592168943], [-69.68030573496102, 18.4466210781414], [-69.6876397192289, 18.447513585051723], [-69.70246178732668, 18.45332697150707], [-69.712481570355, 18.452434094862635], [-69.74509114939268, 18.46011893974066], [-69.79025334253171, 18.462446075150805], [-69.81594608794755, 18.46124354296882], [-69.83236984609425, 18.464409377627735], [-69.85954918834169, 18.464335607332412], [-69.87131774380657, 18.462599825243203], [-69.8791205304753, 18.46465963357362], [-69.88775398891421, 18.463621323802123], [-69.91731784218844, 18.450472493843822], [-69.92300543491656, 18.442331239962908], [-69.9281912387763, 18.438206479408148], [-69.9443325664379, 18.430968695159486], [-69.97027080980074, 18.42331587756639], [-69.97973091193423, 18.422803879642398], [-69.99080194093483, 18.417926543293923], [-69.99781743831554, 18.41761926006282], [-70.00564458741282, 18.420439975299313], [-70.01529151608517, 18.416016536361596], [-70.02156908422388, 18.406543461163434], [-70.02298544595115, 18.4001534332091], [-70.03243869301767, 18.389105932610022], [-70.03467540717382, 18.38322768343651], [-70.04101059745138, 18.378844535440276], [-70.04737403580599, 18.371701343329317], [-70.0503763223549, 18.370990930997483], [-70.05356738843898, 18.373836686166552], [-70.0590402217347, 18.398528382623805], [-70.05611516897727, 18.404492408093006], [-70.05580043955902, 18.414387816856856], [-70.06278000454485, 18.418419813910155], [-70.06515070797273, 18.426734489652677], [-70.07044841987397, 18.43164376401211], [-70.06517079618912, 18.44410281188021], [-70.0693498730224, 18.44988897933892], [-70.07150323907457, 18.461140585611165], [-70.0683968733872, 18.465155149759514], [-70.06028683810239, 18.463739863038082], [-70.05571110207725, 18.464684442741326], [-70.05329930236475, 18.470069527445403], [-70.05555096395885, 18.47306032899793], [-70.06341049607805, 18.473820284813513], [-70.06739337200086, 18.477364225089186], [-70.0723047408322, 18.478402426441864], [-70.07525822929436, 18.48310850726212], [-70.07442834001692, 18.48745297212589], [-70.06673085976729, 18.49144889719859], [-70.06661217879197, 18.501868869337933], [-70.06381155281655, 18.51088419867218], [-70.07092906078762, 18.52928458694674], [-70.07706609484563, 18.53262937570738]]], [[[-69.71296328378222, 18.558704096890185], [-69.70932330567034, 18.568814529243564], [-69.70536323100295, 18.570687471135383], [-69.69428969818318, 18.565950154254825], [-69.69089349247638, 18.554834121030193], [-69.69876058978731, 18.54428838809029], [-69.71152685050997, 18.54493515433048], [-69.71771368974775, 18.548816315930917], [-69.71898699537397, 18.551294393905934], [-69.71815828616322, 18.554240171499615], [-69.71296328378222, 18.558704096890185]]], [[[-69.8769460729337, 18.684286765698733], [-69.87632878851949, 18.691361933232255], [-69.87337149382388, 18.698417786442704], [-69.87059154555173, 18.69989147600885], [-69.86574783025365, 18.69891250750569], [-69.86018633686086, 18.691540246315427], [-69.86268323713655, 18.685252606672808], [-69.8632258063941, 18.6780633497275], [-69.86149324268914, 18.669789795866453], [-69.86298789887765, 18.666659990513043], [-69.87545457162368, 18.666789591034544], [-69.87942428810682, 18.670382357361838], [-69.88080660849302, 18.674455805674935], [-69.8769460729337, 18.684286765698733]]]]}, "properties": {}}