{"type": "Feature", "properties": {"city": "Kostanay", "country": "Kazakhstan", "real_area": 78.14}, "geometry": {"type": "MultiLineString", "coordinates": [[[63.5339803384603, 53.1148769435955], [63.5360334828318, 53.1098748344675], [63.5443138724453, 53.1084880688654], [63.5505425768859, 53.1121032393679], [63.5484908119042, 53.1171056211903], [63.5402089629048, 53.118492559854], [63.5339803384603, 53.1148769435955]], [[63.6711265957808, 53.1757243440163], [63.677375499797, 53.1793327606345], [63.6753337425586, 53.1843364132855], [63.6670416935013, 53.1857313787331], [63.6607928621085, 53.1821225158013], [63.6525010147849, 53.1835164827727], [63.6462537729861, 53.1799068922738], [63.6482983048357, 53.1749037811133], [63.6565886916757, 53.1735099895464], [63.6586318921709, 53.1685065018704], [63.6669210211727, 53.1671118876967], [63.6731684093087, 53.1707205856535], [63.6711265957808, 53.1757243440163]], [[63.0772296143353, 52.9718097254403], [63.0793227641307, 52.9668147158937], [63.0875834275511, 52.9654582338492], [63.0937524030913, 52.9690965975475], [63.0916606088027, 52.974091887265], [63.0833984832781, 52.9754485331502], [63.0772296143353, 52.9718097254403]], [[63.1412265140856, 52.9659393190377], [63.1329663467146, 52.9672995912452], [63.1267940712111, 52.9636630893352], [63.1185341436654, 52.9650223728292], [63.1123634649525, 52.9613851618366], [63.1144526091252, 52.9563891114615], [63.1227110760788, 52.9550299924603], [63.128881859263, 52.9586667593784], [63.1371405662593, 52.9573066519495], [63.1433129453898, 52.9609427097358], [63.1515718913752, 52.9595816137207], [63.1577458660248, 52.9632169619802], [63.1556607920951, 52.9682138503903], [63.1474003859528, 52.9695751114698], [63.1412265140856, 52.9659393190377]], [[63.6776252717386, 53.2165687443084], [63.6796681919623, 53.2115657868793], [63.6734148084723, 53.2079577696706], [63.6651185771567, 53.2093522634882], [63.6588667844743, 53.2057435176672], [63.6609111501087, 53.2007407244661], [63.66920591967, 53.1993464063695], [63.6712489526227, 53.194343236241], [63.6795424623424, 53.1929480949981], [63.6815841630845, 53.1879445482593], [63.689876412794, 53.1865485841875], [63.6961284219914, 53.1901559908127], [63.7044208712709, 53.1887590279691], [63.7106744686775, 53.1923657058551], [63.7189671164446, 53.1909677440924], [63.7252223015971, 53.1945736928489], [63.7335151467688, 53.1931747320201], [63.7397719192031, 53.1967799512569], [63.7377357777195, 53.2017845778077], [63.743994068905, 53.2053895137005], [63.7419579867241, 53.210394033886], [63.7482177972912, 53.2139986861287], [63.7565137580627, 53.2125983715387], [63.7627751562501, 53.2162022931745], [63.7607405262448, 53.2212069760121], [63.7524431052014, 53.2226074680351], [63.7504071422527, 53.2276117748891], [63.7421084558422, 53.2290114440977], [63.7400711594765, 53.2340153746509], [63.7463339426814, 53.2376199053693], [63.7442967058033, 53.2426237288196], [63.7505610105126, 53.246227975012], [63.7485238333315, 53.2512316911593], [63.7402209572238, 53.2526308917015], [63.7339567209438, 53.2490261987712], [63.7256540415896, 53.2504243983968], [63.719391396342, 53.2468189742871], [63.7214313609625, 53.2418157972869], [63.7297325776086, 53.240417774662], [63.7317712078649, 53.2354142207267], [63.7255100144198, 53.2318089591359], [63.7172102600588, 53.233206804866], [63.7109506568391, 53.2296008127933], [63.7129907380378, 53.2245974216403], [63.7067326548845, 53.2209911460452], [63.6984345609692, 53.2223878150732], [63.6921780681023, 53.2187808097355], [63.6838801738557, 53.2201764789978], [63.6776252717386, 53.2165687443084]], [[63.5777731325756, 53.1774177730597], [63.5798245381256, 53.1724161253411], [63.5881153605743, 53.1710271485218], [63.5901654341946, 53.1660251232522], [63.5984550023233, 53.1646353229635], [63.6046959580986, 53.16824737372], [63.6129857325241, 53.1668565758352], [63.6192282788649, 53.1704679005464], [63.6171809748871, 53.175470469246], [63.6234250361189, 53.1790815137058], [63.6213777860431, 53.1840839767449], [63.6276233627953, 53.1876947406477], [63.6255761668271, 53.1926970978259], [63.6318232597297, 53.1963075808661], [63.6401176235562, 53.194915260419], [63.646366307783, 53.1985250159777], [63.6443205538274, 53.2035275382582], [63.6505707552406, 53.2071370123003], [63.6485250564535, 53.2121394282569], [63.6547767756836, 53.2157486204767], [63.6630742673405, 53.2143549503024], [63.669327578245, 53.2179634139526], [63.6672833244539, 53.2229659941799], [63.6735381542118, 53.2265741753535], [63.6818373103074, 53.2251793297768], [63.6880937316826, 53.2287867816411], [63.6860509250171, 53.23378952557], [63.6923088662819, 53.2373966943032], [63.7006096856642, 53.2360006724993], [63.7068692184877, 53.2396071111834], [63.7048278610792, 53.2446100182446], [63.7110889148286, 53.248216173143], [63.7090476153704, 53.253218972891], [63.7007438691572, 53.2546153476601], [63.6987012343877, 53.2596177698386], [63.6903962236427, 53.2610133202031], [63.6841353121538, 53.2574062719944], [63.686179339771, 53.2524041201155], [63.6799199496632, 53.2487967882068], [63.6716166040708, 53.2501911616028], [63.6653588072589, 53.2465830997299], [63.6674042833044, 53.2415811110698], [63.6611480068357, 53.2379727661515], [63.6528463275494, 53.2393659634047], [63.6507994605532, 53.2443676812159], [63.6424965199261, 53.2457600538315], [63.636241911094, 53.2421505332047], [63.6279391745774, 53.2435419056531], [63.6258895817999, 53.2485429739022], [63.6175855849537, 53.2499335212591], [63.611332646598, 53.2463228254017], [63.603028855788, 53.247712372604], [63.6009765373276, 53.2527127903713], [63.5926714872011, 53.2541015120288], [63.5864202221606, 53.2504896414201], [63.5884739297532, 53.2454894955898], [63.5822241838773, 53.2418773434167], [63.5739208083925, 53.243264890759], [63.571865712293, 53.2482647644099], [63.5635610791755, 53.2496514859354], [63.5573130092668, 53.2460381598835], [63.5593694932477, 53.2410385586541], [63.5676726594445, 53.2396520110165], [63.5697278073971, 53.2346520302805], [63.5780297166297, 53.2332646570067], [63.5800835290241, 53.2282642970812], [63.5883841811191, 53.2268760984873], [63.5904366584254, 53.2218753596893], [63.5841898710061, 53.2182630915714], [63.5758906840682, 53.219651116022], [63.5738368195806, 53.2246515826953], [63.5655363761732, 53.2260387820063], [63.5592912628401, 53.2224253407482], [63.5509910292025, 53.2238115409267], [63.5447475124362, 53.2201973731889], [63.5468041494123, 53.215197451491], [63.5551029174111, 53.2138114248837], [63.5613465138844, 53.2174251464416], [63.5696454918934, 53.2160381209878], [63.5716994082694, 53.2110375477665], [63.5799971304764, 53.2096496973537], [63.5820497126535, 53.2046487455347], [63.5758059586943, 53.2010359163396], [63.5778585929994, 53.1960348583101], [63.5716163548241, 53.1924217490346], [63.5736690410529, 53.1874205849945], [63.5819625804357, 53.1860322580588], [63.5840139338227, 53.1810307160131], [63.5777731325756, 53.1774177730597]]]}}