{"type": "FeatureCollection", "features": [{"type": "Feature", "properties": {"threshold": 70}, "geometry": {"type": "Polygon", "coordinates": [[[-53.514371816342695, -24.959023744045044], [-53.508050002755965, -24.951137013418897], [-53.49913317548168, -24.948671841779515], [-53.49529171775794, -24.941033534144257], [-53.49553125776392, -24.934681149190826], [-53.49262911084595, -24.934781856595006], [-53.48767150485935, -24.943489365316676], [-53.4842943527043, -24.944769527022665], [-53.47703771120311, -24.940034530054888], [-53.47545617207854, -24.928719132726826], [-53.465150229006625, -24.928100315798957], [-53.46196102163953, -24.924776971125336], [-53.45739566439671, -24.926325196560324], [-53.46009016976404, -24.941109028560625], [-53.45522715411413, -24.94287847708911], [-53.45203817241365, -24.92995754961865], [-53.443627123515355, -24.929180591614934], [-53.44355866229913, -24.92344720763479], [-53.448515639320924, -24.917760304027045], [-53.44330983774317, -24.90998573047947], [-53.433679505175775, -24.91167228964664], [-53.42662862053838, -24.907859170351657], [-53.41570801881076, -24.911347330965604], [-53.41596462478408, -24.927742245379093], [-53.41076021921691, -24.92893428151721], [-53.408074717145894, -24.933709604781964], [-53.3998365084062, -24.933727194070123], [-53.395830291588595, -24.937568824511597], [-53.39698546875379, -24.942968199634723], [-53.405825300533515, -24.948836615578514], [-53.40422536194546, -24.952762809435132], [-53.39977331486121, -24.95468094427786], [-53.39884798872535, -24.95918103944779], [-53.40648530135807, -24.966444044391213], [-53.40801476874469, -24.97294943810819], [-53.41712829108156, -24.974288581541362], [-53.419007594641016, -24.97937544641876], [-53.423306082339145, -24.9780524004855], [-53.426872839944444, -24.98083465140787], [-53.43314295113445, -24.980438846352154], [-53.43448224799728, -24.987655601362853], [-53.45351120588862, -24.99608933300245], [-53.4587815316516, -25.004932355784625], [-53.463897044054, -25.003837601605476], [-53.47257204200944, -24.990927048315324], [-53.47794561636927, -24.993521353410557], [-53.49928819432078, -24.991394553599275], [-53.50076875157128, -24.98110106535251], [-53.507504315917245, -24.981878224790215], [-53.510591367200995, -24.97819757630099], [-53.50787782645286, -24.967143889000926], [-53.514493795342226, -24.96245830316956], [-53.514371816342695, -24.959023744045044]], [[-53.44866149318638, -24.9587999009288], [-53.44850026611235, -24.962474112144147], [-53.43768050480266, -24.96654531079355], [-53.43542573699154, -24.970439545792967], [-53.428230102332584, -24.971091242128953], [-53.42082645766111, -24.966469156757885], [-53.4213762666934, -24.963369991922477], [-53.432966294005055, -24.95595377641147], [-53.44592472840117, -24.95600690360538], [-53.44866149318638, -24.9587999009288]], [[-53.43532401217293, -24.94939776290037], [-53.431487024821195, -24.951235825542856], [-53.4296522547993, -24.947437307953567], [-53.43402785184344, -24.946023844008586], [-53.43532401217293, -24.94939776290037]]]}}, {"type": "Feature", "properties": {"threshold": 80}, "geometry": {"type": "Polygon", "coordinates": [[[-53.514371816342695, -24.959023744045044], [-53.508050002755965, -24.951137013418897], [-53.50079863437608, -24.94996402286784], [-53.494502141180874, -24.933818633749322], [-53.484793041852456, -24.944874614605858], [-53.4770785799657, -24.93686688399427], [-53.47524906994861, -24.9285843361472], [-53.4651472565812, -24.928099391037456], [-53.46164456612616, -24.92474527784723], [-53.45782170931079, -24.924904631572815], [-53.45386629140988, -24.928909874439228], [-53.44864156572638, -24.92834676904848], [-53.44520402758616, -24.923648783996683], [-53.448440440143045, -24.916003136695174], [-53.44242425437638, -24.909206589841034], [-53.43144746581183, -24.910135855154568], [-53.426464195946735, -24.907074866364024], [-53.41570801881076, -24.911347330965604], [-53.41596462478408, -24.927742245379093], [-53.41076021921691, -24.92893428151721], [-53.408411154171226, -24.93337634199979], [-53.3998365084062, -24.933727194070123], [-53.395830291588595, -24.937568824511597], [-53.39703155754617, -24.945348460608393], [-53.405739111692576, -24.948611447143236], [-53.39884798872535, -24.95918103944779], [-53.410687909232344, -24.976080792333796], [-53.416360181050244, -24.974346743065375], [-53.418926945128845, -24.979350613869624], [-53.43314295113445, -24.980438846352154], [-53.434439587404825, -24.98839244914251], [-53.45351120588862, -24.99608933300245], [-53.45791092025612, -25.004946753697272], [-53.463835008408196, -25.00389074419306], [-53.473343248784346, -24.992010384066884], [-53.47883205756694, -24.994300211055823], [-53.49843375229128, -24.992202536122374], [-53.50088423735349, -24.982103434819035], [-53.507504315917245, -24.981878224790215], [-53.51060748298317, -24.978990925275784], [-53.5087178192585, -24.967156755487736], [-53.514543220151744, -24.96239513873929], [-53.514371816342695, -24.959023744045044]], [[-53.44026531895083, -24.956656334180007], [-53.445505408126664, -24.957221945764328], [-53.445245354689554, -24.964749407216484], [-53.427702237499105, -24.96950999457218], [-53.4295581831138, -24.957870169728412], [-53.44026531895083, -24.956656334180007]], [[-53.46016872312456, -24.934401234717424], [-53.457446827632516, -24.937838510727314], [-53.45445271390066, -24.934249571985816], [-53.45719258704146, -24.93193645248214], [-53.46016872312456, -24.934401234717424]]]}}, {"type": "Feature", "properties": {"threshold": 90}, "geometry": {"type": "Polygon", "coordinates": [[[-53.51583930354936, -24.98602866419356], [-53.510387310549675, -24.98110264993851], [-53.51145139373198, -24.974628463134813], [-53.50869853390781, -24.96868342287639], [-53.51538020501928, -24.963236945138625], [-53.515476426325556, -24.96012326909263], [-53.5106927928099, -24.952679715995476], [-53.50079863437608, -24.94996402286784], [-53.496539726242275, -24.935567493246296], [-53.49267513243328, -24.933935340663773], [-53.48767150485935, -24.943489365316676], [-53.48454086599337, -24.944833239380813], [-53.48054815459232, -24.942147053751135], [-53.47523321746172, -24.927790960397076], [-53.46692596319915, -24.926990915945932], [-53.464388096763, -24.923912962000323], [-53.457897957096485, -24.92487019422313], [-53.45433205797791, -24.92844400483181], [-53.44875480133209, -24.926984705799637], [-53.445707864299706, -24.923537243082507], [-53.448409097047616, -24.914416350495625], [-53.44168654960378, -24.907676367373263], [-53.43650130922429, -24.91077472783542], [-53.426464195946735, -24.907074866364024], [-53.41570801881076, -24.911347330965604], [-53.41596462478408, -24.927742245379093], [-53.41076021921691, -24.92893428151721], [-53.4081147484079, -24.93339015693696], [-53.398779750575876, -24.932216203756315], [-53.39587676136056, -24.93741972872972], [-53.398884100803286, -24.95933250119447], [-53.410687909232344, -24.976080792333796], [-53.41688036880785, -24.976416074044376], [-53.41909052646658, -24.979392954102007], [-53.42364419957259, -24.97835394840106], [-53.426085310871535, -24.98086635339835], [-53.43314295113445, -24.980438846352154], [-53.434455221911705, -24.98918584274925], [-53.45256551344279, -24.996754783345477], [-53.4577472947749, -25.004904459906943], [-53.463835008408196, -25.00389074419306], [-53.473587652114446, -24.99193858738071], [-53.47868279583055, -24.994296020157126], [-53.49011338125227, -24.99198818730616], [-53.49339716286294, -24.99403862464298], [-53.498310166548904, -24.99308435857608], [-53.50331581407318, -24.981426408388728], [-53.507762948260975, -24.98279955893107], [-53.50744131305725, -24.9877741660249], [-53.51144960620215, -24.99051534165909], [-53.51584089348134, -24.988682467341782], [-53.51583930354936, -24.98602866419356]], [[-53.437365171206785, -24.96607652722234], [-53.43023022270918, -24.968474367432318], [-53.429951438066354, -24.959316753250643], [-53.433608290007875, -24.957023548270694], [-53.44490712756647, -24.957342376428034], [-53.44541401202152, -24.96456330312195], [-53.437365171206785, -24.96607652722234]]]}}, {"type": "Feature", "properties": {"threshold": 95}, "geometry": {"type": "Polygon", "coordinates": [[[-53.5162051488822, -24.988907980561777], [-53.516750394892526, -24.98528776767099], [-53.510420874179545, -24.981127776629734], [-53.51145139373198, -24.974628463134813], [-53.50874521094086, -24.969625534919587], [-53.51546190187448, -24.96476047552014], [-53.515476426325556, -24.96012326909263], [-53.51075689690284, -24.952730748377213], [-53.49906909948034, -24.945498404617513], [-53.496401350068616, -24.93466656940444], [-53.49267513243328, -24.933935340663773], [-53.48767150485935, -24.943489365316676], [-53.4842943527043, -24.944769527022665], [-53.477817073012645, -24.93672717120345], [-53.47925931742154, -24.932312088442604], [-53.47616118476017, -24.927021796963878], [-53.46717816852353, -24.927059886970017], [-53.464388096763, -24.923912962000323], [-53.455205818598465, -24.92644928681476], [-53.44929888552452, -24.924580758911684], [-53.44432699405857, -24.905285317786376], [-53.437262176400544, -24.910693802720818], [-53.42661309394317, -24.907065763506218], [-53.41529095841839, -24.911356754492036], [-53.41221323242387, -24.90584827156459], [-53.405844958155036, -24.906107021134645], [-53.40786529164815, -24.914330370996485], [-53.41326354830004, -24.912318846269212], [-53.41606710654946, -24.914030363857574], [-53.416335591247204, -24.92710470333236], [-53.40686387091282, -24.932041364555328], [-53.39864010160776, -24.93230457861017], [-53.39332449139265, -24.944054289659952], [-53.396664204266294, -24.946349592954643], [-53.40257194879821, -24.96655922038502], [-53.40680921148757, -24.967882822566082], [-53.4108102677404, -24.97618842657151], [-53.41688036880785, -24.976416074044376], [-53.41909052646658, -24.979392954102007], [-53.42364419957259, -24.97835394840106], [-53.426085310871535, -24.98086635339835], [-53.43314295113445, -24.980438846352154], [-53.434455221911705, -24.98918584274925], [-53.451958118675215, -24.997311616324343], [-53.457040308043204, -25.004961146499557], [-53.463835008408196, -25.00389074419306], [-53.473587652114446, -24.99193858738071], [-53.47868279583055, -24.994296020157126], [-53.49011338125227, -24.99198818730616], [-53.49832621442103, -24.99387771338113], [-53.504523721620764, -24.98183108894455], [-53.50790925895581, -24.982991362564114], [-53.50954110433822, -24.989680867180972], [-53.5162051488822, -24.988907980561777]], [[-53.44343822549029, -24.963541210835928], [-53.4405995523727, -24.96555723012921], [-53.4327738477331, -24.964720915497765], [-53.43118843193901, -24.959743644303547], [-53.43411819266254, -24.95747666703408], [-53.444204926982586, -24.957706127754932], [-53.44634673842619, -24.961082076178418], [-53.44343822549029, -24.963541210835928]]]}}]}