{"type": "Feature", "geometry": {"type": "MultiPolygon", "coordinates": [[[[-70.22731696390052, -23.568935573429414], [-70.22941844330474, -23.56619320534413], [-70.23429639309373, -23.565763868007473], [-70.24111568716863, -23.56204567465904], [-70.24193746125447, -23.558910330849873], [-70.23964964935219, -23.5545086224865], [-70.2359848581862, -23.553280093964222], [-70.22795091027002, -23.556251158387372], [-70.22534164830697, -23.5547816355092], [-70.2216498475582, -23.54838854244929], [-70.20976593264433, -23.549261316243385], [-70.20540395661506, -23.55684457101847], [-70.21083179231552, -23.575436384712155], [-70.21538169086219, -23.576480508407233], [-70.22566908703719, -23.571359361343767], [-70.22731696390052, -23.568935573429414]]], [[[-70.21918484053768, -23.468262610403162], [-70.21615230530777, -23.466994355629375], [-70.21125199167622, -23.46828750712026], [-70.2085983482737, -23.472163282522633], [-70.21064118852145, -23.481069904001593], [-70.2194367348657, -23.484155019047247], [-70.22225354362565, -23.482840848688493], [-70.22328473252814, -23.48020501939055], [-70.21918484053768, -23.468262610403162]]], [[[-70.26107244102492, -23.4952588430705], [-70.26624290591876, -23.49091225922739], [-70.26658211239918, -23.485400392903262], [-70.26225750995384, -23.48292011779213], [-70.25432851960676, -23.48269967831538], [-70.24828742509354, -23.489517820160682], [-70.24825006861455, -23.493327479843916], [-70.25346851931442, -23.497095037332006], [-70.26107244102492, -23.4952588430705]]], [[[-70.28243828836732, -23.61493045929454], [-70.28282396430942, -23.609739569024093], [-70.27615074789041, -23.598281238109614], [-70.2801862727336, -23.59173212538475], [-70.2787312018208, -23.587015195079946], [-70.27533483006897, -23.585800049878475], [-70.26963706348057, -23.588276505712063], [-70.26316711730695, -23.588751237731575], [-70.26057458499427, -23.58724897287147], [-70.25642526094738, -23.58044226835507], [-70.25035624554265, -23.581756779225156], [-70.24922661970002, -23.58565444873359], [-70.25367597100788, -23.594923460111573], [-70.25252180036374, -23.604503113092292], [-70.25540047767623, -23.609582167078397], [-70.25319052183544, -23.615627021765544], [-70.25580829355758, -23.628483094804935], [-70.24914613999718, -23.641912587661498], [-70.24944377257867, -23.656988366102397], [-70.25174161121262, -23.6624168921784], [-70.25833530894428, -23.665143943305765], [-70.26389971260674, -23.665002447347714], [-70.26623501272162, -23.663371641541953], [-70.2654754851718, -23.61993442468088], [-70.26978196145488, -23.61735098307211], [-70.27758177815885, -23.621158469087522], [-70.28160793440502, -23.617952663665527], [-70.28243828836732, -23.61493045929454]]], [[[-70.32543491929738, -23.775991498997293], [-70.32116727110535, -23.76973809573618], [-70.32069778892277, -23.76436160436153], [-70.32336819567011, -23.758510194240074], [-70.31733741989511, -23.740613885385095], [-70.31441377723313, -23.73900708119392], [-70.30691225017941, -23.739807173428773], [-70.30141524901555, -23.733471890393464], [-70.29462264907728, -23.735292362306012], [-70.29302027584157, -23.738330125024905], [-70.2945152686859, -23.74599924048901], [-70.29215478925985, -23.75084025482804], [-70.28625511088005, -23.75379252276132], [-70.28484126028609, -23.75727833670171], [-70.2862123479846, -23.761109225213566], [-70.29038132664165, -23.763971860269137], [-70.29242112381166, -23.76843824962361], [-70.29845438077813, -23.769998843900026], [-70.3006556552313, -23.77247579970777], [-70.30305300871464, -23.77951852791565], [-70.3013985055334, -23.78966836574964], [-70.30227489283916, -23.79243763031387], [-70.31602274029919, -23.79699490652128], [-70.32166102864406, -23.796416914623382], [-70.32331030782193, -23.793734234101347], [-70.32543491929738, -23.775991498997293]]], [[[-70.30521797953692, -23.63645497486605], [-70.29680091714886, -23.626747195702144], [-70.29222442047542, -23.626182634081328], [-70.2896308616309, -23.628098881542694], [-70.29002652185478, -23.642423300802864], [-70.29199409196329, -23.645347066981163], [-70.30393143385868, -23.64519935523777], [-70.30575783141605, -23.64242191392277], [-70.30521797953692, -23.63645497486605]]], [[[-70.32843930037072, -23.810648800731975], [-70.32746169467272, -23.80793050534579], [-70.32500846621589, -23.806590630310495], [-70.31499694093331, -23.806521478624305], [-70.3120713604897, -23.808468567475884], [-70.30999211555121, -23.833593516849774], [-70.3119288826552, -23.837058821085154], [-70.32486440578266, -23.837001793449634], [-70.32782653780802, -23.835156590105466], [-70.32843930037072, -23.810648800731975]]], [[[-70.34404325777624, -23.59953208379359], [-70.3377881752981, -23.5982831249428], [-70.33399026614607, -23.60057378480416], [-70.3341740827741, -23.605115697890945], [-70.33864175408645, -23.610216684810624], [-70.34363942551751, -23.610851131451863], [-70.3482581581214, -23.60832608947642], [-70.3484706357969, -23.60299515381786], [-70.34404325777624, -23.59953208379359]]], [[[-70.37821646199531, -23.498362621056263], [-70.37672355176888, -23.49418090953387], [-70.37132060204344, -23.493289606528524], [-70.36811205338176, -23.498340503562734], [-70.36315289239977, -23.501833455371948], [-70.36331952477863, -23.50656790910744], [-70.36595616633426, -23.508530150806273], [-70.37050787321995, -23.50826249961173], [-70.37427114703334, -23.50566107044166], [-70.37821646199531, -23.498362621056263]]], [[[-70.40324803075217, -23.83337574115275], [-70.39654938539519, -23.830475216998863], [-70.38608929888818, -23.828845768381704], [-70.37914527270235, -23.830181789978397], [-70.37284081910805, -23.835947472751542], [-70.36487006234668, -23.839821426959368], [-70.36522614697361, -23.853785618904844], [-70.36927322917036, -23.85680789765987], [-70.38822356060528, -23.85459181279318], [-70.40584258424745, -23.843527072693256], [-70.40681216199718, -23.836338739650245], [-70.40324803075217, -23.83337574115275]]], [[[-70.43834239220196, -23.7180210278521], [-70.43471265501228, -23.707535210548638], [-70.42548949318815, -23.70044897010619], [-70.4246833212811, -23.691146418529524], [-70.42107622677602, -23.687555120033103], [-70.41532091145733, -23.672583030880602], [-70.408115949422, -23.662725220298967], [-70.40812105397917, -23.658702853849878], [-70.41221103103298, -23.653667922241578], [-70.41280626299303, -23.64517643751073], [-70.41104573429224, -23.642809003551264], [-70.40687416864196, -23.64181602229161], [-70.40180714187082, -23.637998317306348], [-70.40041112778957, -23.624889291464708], [-70.39653318376932, -23.618905853619516], [-70.3957268370465, -23.614223723036638], [-70.39649189072333, -23.603061341170672], [-70.40127175454568, -23.59329388211803], [-70.39704834470878, -23.580009295320213], [-70.40078048047184, -23.573796023406242], [-70.40185114460952, -23.568128868722827], [-70.40770009348054, -23.563112418789423], [-70.40385293544136, -23.54681739269347], [-70.40443219288557, -23.538639799179563], [-70.41311211374223, -23.524840312666804], [-70.40693275334327, -23.51535359317407], [-70.40669689765974, -23.51232693404241], [-70.40892241443983, -23.509500044792055], [-70.41515076113647, -23.50737554327822], [-70.42416328905274, -23.509032601057385], [-70.42800683504291, -23.502163748235482], [-70.42629963491906, -23.494148583853093], [-70.42682339727558, -23.486718609217352], [-70.41432013905307, -23.482159791417736], [-70.41161809503814, -23.483738380380995], [-70.40674457849028, -23.49163980647755], [-70.39546232164463, -23.49257203020604], [-70.39136128354552, -23.496509693294342], [-70.39009902169425, -23.502556488169667], [-70.39546542150904, -23.509988614670288], [-70.39368586712786, -23.51720198479142], [-70.39039362486845, -23.51828286302526], [-70.381580047391, -23.51607297019022], [-70.3759663301301, -23.51980538356849], [-70.37338193283173, -23.531588652498037], [-70.37804214158517, -23.53614990357486], [-70.37888045148846, -23.539127092476672], [-70.37642971183374, -23.544896371396096], [-70.37770043937299, -23.550700332954], [-70.37397163248359, -23.555437221000712], [-70.36842393222042, -23.578767496238324], [-70.36995684260428, -23.588751601125555], [-70.36706956437011, -23.59294197291008], [-70.36529043177144, -23.599730176701797], [-70.36944044972613, -23.610861989960526], [-70.36626579195114, -23.6188204127512], [-70.37209434345253, -23.63838619088613], [-70.37750559835365, -23.643275586902888], [-70.37724446340057, -23.651737842876084], [-70.38095853981567, -23.657755575878348], [-70.38431606595925, -23.671844554618975], [-70.39092392484059, -23.674804408430234], [-70.40029489534841, -23.682782323545272], [-70.4010325008407, -23.697384538996516], [-70.40279158229824, -23.702223096029787], [-70.41413185509803, -23.710153272760003], [-70.41755145255726, -23.715650194241206], [-70.42497677134621, -23.717833811236353], [-70.4349210663926, -23.729707458285347], [-70.43849650705756, -23.729192200542506], [-70.4403724601756, -23.726489400986832], [-70.43834239220196, -23.7180210278521]]], [[[-70.47832684017158, -23.76322297984275], [-70.47022199020047, -23.755358839710937], [-70.46701006478969, -23.75436632786499], [-70.45800175017817, -23.75602069986023], [-70.4552892290926, -23.759581857329145], [-70.45671717955187, -23.764525893893893], [-70.46509377352263, -23.76620187252976], [-70.47165196398014, -23.77253286798706], [-70.4745240180082, -23.77195491123025], [-70.47788488786053, -23.76852780698504], [-70.47832684017158, -23.76322297984275]]], [[[-70.54064710349162, -23.511708528855596], [-70.5391918501594, -23.503997922860506], [-70.53503106445044, -23.502885384900225], [-70.53135232986166, -23.503802572620767], [-70.52722859929843, -23.512331036729055], [-70.52745035880278, -23.51829010059727], [-70.53025079085491, -23.520363618725728], [-70.53529223174647, -23.51998836944001], [-70.54030516649203, -23.515754788745777], [-70.54064710349162, -23.511708528855596]]]]}, "properties": {}}