{"type": "FeatureCollection", "features": [{"type": "Feature", "properties": {"threshold": 70}, "geometry": {"type": "MultiPolygon", "coordinates": [[[[32.72242086634657, 25.77255912261156], [32.726926665613234, 25.778474964756285], [32.730803333152004, 25.778372075585846], [32.72982176184497, 25.769279773211785], [32.72356717807401, 25.769978763058887], [32.72242086634657, 25.77255912261156]]], [[[32.71870346866107, 25.723629355227924], [32.724255231771465, 25.725219139111058], [32.7267121571176, 25.721897923725948], [32.721291108114336, 25.71727725111093], [32.71870346866107, 25.723629355227924]]], [[[32.70490496393074, 25.734478944486394], [32.710052896700454, 25.739553562210528], [32.71505066491747, 25.737682318574898], [32.716136613969425, 25.73311637130804], [32.70902396835541, 25.729997899493913], [32.70490496393074, 25.734478944486394]]], [[[32.66406794081411, 25.747431162753227], [32.66969419366871, 25.75438653643106], [32.67830363479895, 25.75941313630261], [32.681386814754795, 25.768138009360328], [32.68822148684367, 25.768152809994415], [32.69306368044164, 25.76413735061281], [32.69774391000318, 25.76742085150926], [32.701484672648725, 25.764269889287387], [32.70405436853433, 25.76966051580762], [32.70997738741129, 25.770646174825742], [32.71511881097449, 25.764589035643215], [32.71473189110236, 25.760394720797727], [32.69895838488572, 25.757761068364864], [32.693461842751375, 25.753116651569016], [32.6855288049546, 25.755312545918443], [32.67724779675598, 25.73904995394416], [32.67158446394288, 25.73475847095898], [32.66606438086968, 25.738294360475383], [32.66406794081411, 25.747431162753227]]], [[[32.67358070652804, 25.688356973147727], [32.676898682623786, 25.694608791972247], [32.685170306305935, 25.69960887531237], [32.68716628569846, 25.699007979206236], [32.686917413122444, 25.69145389428392], [32.69668263274389, 25.694853744228173], [32.696551627326, 25.700000307718284], [32.69246584614511, 25.701975437374447], [32.694744493753795, 25.70917003020537], [32.70998904244168, 25.701595939965777], [32.709168405636056, 25.68910086615434], [32.704841004514755, 25.685791288057658], [32.705605017408104, 25.680180011351293], [32.69902157742045, 25.675023589313184], [32.69360801716892, 25.675150296716883], [32.69111180048655, 25.671818027398032], [32.685329033368205, 25.670963210664667], [32.68380499612647, 25.673029549731723], [32.684295023207646, 25.68683727608643], [32.67953906205839, 25.68842324391744], [32.673851101586905, 25.68608589462235], [32.67358070652804, 25.688356973147727]]], [[[32.60737692508069, 25.68083299207605], [32.609841047110926, 25.692592606962947], [32.6165072046165, 25.69896512937952], [32.62035802936645, 25.707548306624307], [32.61800302266009, 25.717685495622995], [32.6274592685952, 25.71862583345813], [32.632407658300934, 25.71514045458982], [32.63921934077, 25.717739555545133], [32.640909198791825, 25.71104434911812], [32.63578830214439, 25.70819835333172], [32.63982684530711, 25.703244597935033], [32.660282360185846, 25.731383518900294], [32.66489948835557, 25.729603081566733], [32.6670137384108, 25.723924313616706], [32.6746545641421, 25.72159005661733], [32.673237143054884, 25.71398843206362], [32.669869146554895, 25.714145893282403], [32.66559342800755, 25.720221421012713], [32.65917215171147, 25.718839623127543], [32.659868278431524, 25.705812200892723], [32.65556381681406, 25.70191399014625], [32.65752075218577, 25.69813099166401], [32.66376375687235, 25.698737572671178], [32.6660365059315, 25.695386535534478], [32.65529375572801, 25.68307160663148], [32.64654741961204, 25.67784781640642], [32.64488668201039, 25.66900503669224], [32.64767492901043, 25.662731475540934], [32.642039920489154, 25.65742870022021], [32.63695188968648, 25.657909357801948], [32.630450932617165, 25.654257236230034], [32.62425832286333, 25.674119363006398], [32.613017811449865, 25.673226353881343], [32.60737692508069, 25.68083299207605]], [[32.61745055388998, 25.688554196155245], [32.61879475557017, 25.677610494526107], [32.62259249704886, 25.675665262706996], [32.63438183432094, 25.69760637590339], [32.62530861142208, 25.702877664713874], [32.62286755987071, 25.691151163884005], [32.61745055388998, 25.688554196155245]]], [[[32.676895573739266, 25.71062588190221], [32.68084517413241, 25.71044219944865], [32.681002864670575, 25.70513982974895], [32.67565491811201, 25.701226330773583], [32.676895573739266, 25.71062588190221]]], [[[32.65844027656693, 25.66900261770475], [32.65868117461545, 25.675572032215843], [32.6627820634453, 25.676457358073616], [32.66744493707048, 25.673667413268568], [32.67011171571577, 25.677990091431194], [32.67569792298134, 25.677676504278484], [32.675753797027625, 25.670620109836765], [32.669238845424196, 25.666800173844717], [32.66834237811972, 25.662234294054677], [32.66033546341261, 25.66230239916202], [32.65844027656693, 25.66900261770475]]], [[[32.62196589077667, 25.73468314955335], [32.62571133689058, 25.743118664892783], [32.63262913968792, 25.74036857993457], [32.64803834687573, 25.75672754205472], [32.65177344393728, 25.7486956042085], [32.63491901505452, 25.728465406901798], [32.62419409566213, 25.731488269135355], [32.62196589077667, 25.73468314955335]]], [[[32.60274885096499, 25.72137334996945], [32.60176379616571, 25.725108997440824], [32.60457207765535, 25.72945185059138], [32.61547247452686, 25.734374625443976], [32.614748273327926, 25.72368774186226], [32.608091932489664, 25.72020583733024], [32.60274885096499, 25.72137334996945]]], [[[32.60469315075503, 25.635027967186215], [32.605059395121586, 25.639520185200062], [32.61155265861377, 25.63931842996332], [32.61045305883985, 25.632632866684396], [32.60611329640577, 25.632547823171198], [32.60469315075503, 25.635027967186215]]], [[[32.59227991731305, 25.69423796387552], [32.58883319464201, 25.69911285147129], [32.59689593907014, 25.702652287357925], [32.5975080972, 25.707777323843025], [32.6038659302526, 25.713615075882988], [32.608498700332255, 25.713627591862835], [32.608660409946616, 25.701348529030415], [32.600649206979696, 25.702851272536964], [32.5989995213158, 25.69574152742084], [32.59227991731305, 25.69423796387552]]], [[[32.550544768547226, 25.59859870839618], [32.555809988756224, 25.601210090160244], [32.55904992690923, 25.596242837997824], [32.55269013452166, 25.594099432312436], [32.550544768547226, 25.59859870839618]]], [[[32.47680049329026, 25.562430128089193], [32.48633141475065, 25.58152958967562], [32.491605212977134, 25.582649320232804], [32.49963300779033, 25.595301761407935], [32.532494908766196, 25.600881185448678], [32.53356797825862, 25.59783392218869], [32.53064429869056, 25.593379197463115], [32.51109870566264, 25.591596115088663], [32.50883834022, 25.580661602940605], [32.49559884794799, 25.574665260534974], [32.49399544256523, 25.568714785918637], [32.48971569202109, 25.566503362999327], [32.491560939961815, 25.554719172853183], [32.4886309492199, 25.549389218533392], [32.4821182133131, 25.55107096234205], [32.47680049329026, 25.562430128089193]]]]}}, {"type": "Feature", "properties": {"threshold": 80}, "geometry": {"type": "MultiPolygon", "coordinates": [[[[32.743483911714485, 25.914914685781334], [32.74709977856243, 25.919743026779816], [32.75658797701624, 25.91975927105694], [32.761476994886515, 25.916945796012488], [32.76237576080949, 25.908366950638403], [32.757707925283405, 25.90553761881867], [32.74343837689198, 25.911964358062875], [32.743483911714485, 25.914914685781334]]], [[[32.72242086634657, 25.77255912261156], [32.730830286696595, 25.780241784154157], [32.744196206905976, 25.77725002018243], [32.739628345692, 25.769407759530022], [32.734723122138284, 25.76752924019484], [32.728052925855735, 25.76756213463179], [32.72242086634657, 25.77255912261156]]], [[[32.73297407948855, 25.736020705975804], [32.733904926862124, 25.739587647793222], [32.74252693845075, 25.734682795215253], [32.736219234505015, 25.7324528714148], [32.73297407948855, 25.736020705975804]]], [[[32.71870346866107, 25.723629355227924], [32.724255231771465, 25.725219139111058], [32.7267121571176, 25.721897923725948], [32.721291108114336, 25.71727725111093], [32.71870346866107, 25.723629355227924]]], [[[32.70490496393074, 25.734478944486394], [32.710052896700454, 25.739553562210528], [32.71505066491747, 25.737682318574898], [32.716136613969425, 25.73311637130804], [32.70902396835541, 25.729997899493913], [32.70490496393074, 25.734478944486394]]], [[[32.66406794081411, 25.747431162753227], [32.66969419366871, 25.75438653643106], [32.67830363479895, 25.75941313630261], [32.681386814754795, 25.768138009360328], [32.68822148684367, 25.768152809994415], [32.69306368044164, 25.76413735061281], [32.69774391000318, 25.76742085150926], [32.701484672648725, 25.764269889287387], [32.70405436853433, 25.76966051580762], [32.70997738741129, 25.770646174825742], [32.71511881097449, 25.764589035643215], [32.71473189110236, 25.760394720797727], [32.69895838488572, 25.757761068364864], [32.693461842751375, 25.753116651569016], [32.6855288049546, 25.755312545918443], [32.67724779675598, 25.73904995394416], [32.67158446394288, 25.73475847095898], [32.66606438086968, 25.738294360475383], [32.66406794081411, 25.747431162753227]]], [[[32.67358070652804, 25.688356973147727], [32.676898682623786, 25.694608791972247], [32.685170306305935, 25.69960887531237], [32.68716628569846, 25.699007979206236], [32.686917413122444, 25.69145389428392], [32.69668263274389, 25.694853744228173], [32.696551627326, 25.700000307718284], [32.69246584614511, 25.701975437374447], [32.694744493753795, 25.70917003020537], [32.70998904244168, 25.701595939965777], [32.709168405636056, 25.68910086615434], [32.704841004514755, 25.685791288057658], [32.705605017408104, 25.680180011351293], [32.69902157742045, 25.675023589313184], [32.69360801716892, 25.675150296716883], [32.69111180048655, 25.671818027398032], [32.685329033368205, 25.670963210664667], [32.68380499612647, 25.673029549731723], [32.684295023207646, 25.68683727608643], [32.67953906205839, 25.68842324391744], [32.673851101586905, 25.68608589462235], [32.67358070652804, 25.688356973147727]]], [[[32.60737692508069, 25.68083299207605], [32.609841047110926, 25.692592606962947], [32.6165072046165, 25.69896512937952], [32.62035802936645, 25.707548306624307], [32.61800302266009, 25.717685495622995], [32.6274592685952, 25.71862583345813], [32.632407658300934, 25.71514045458982], [32.63921934077, 25.717739555545133], [32.640909198791825, 25.71104434911812], [32.63578830214439, 25.70819835333172], [32.63982684530711, 25.703244597935033], [32.660282360185846, 25.731383518900294], [32.66489948835557, 25.729603081566733], [32.6670137384108, 25.723924313616706], [32.6746545641421, 25.72159005661733], [32.673237143054884, 25.71398843206362], [32.669869146554895, 25.714145893282403], [32.66559342800755, 25.720221421012713], [32.65917215171147, 25.718839623127543], [32.659868278431524, 25.705812200892723], [32.65556381681406, 25.70191399014625], [32.65752075218577, 25.69813099166401], [32.66376375687235, 25.698737572671178], [32.6660365059315, 25.695386535534478], [32.65529375572801, 25.68307160663148], [32.64654741961204, 25.67784781640642], [32.64488668201039, 25.66900503669224], [32.64767492901043, 25.662731475540934], [32.642039920489154, 25.65742870022021], [32.63695188968648, 25.657909357801948], [32.630450932617165, 25.654257236230034], [32.62425832286333, 25.674119363006398], [32.613017811449865, 25.673226353881343], [32.60737692508069, 25.68083299207605]], [[32.61745055388998, 25.688554196155245], [32.61879475557017, 25.677610494526107], [32.62259249704886, 25.675665262706996], [32.63438183432094, 25.69760637590339], [32.62530861142208, 25.702877664713874], [32.62286755987071, 25.691151163884005], [32.61745055388998, 25.688554196155245]]], [[[32.676895573739266, 25.71062588190221], [32.68084517413241, 25.71044219944865], [32.681002864670575, 25.70513982974895], [32.67565491811201, 25.701226330773583], [32.676895573739266, 25.71062588190221]]], [[[32.65844027656693, 25.66900261770475], [32.65868117461545, 25.675572032215843], [32.6627820634453, 25.676457358073616], [32.66744493707048, 25.673667413268568], [32.67011171571577, 25.677990091431194], [32.67569792298134, 25.677676504278484], [32.675753797027625, 25.670620109836765], [32.669238845424196, 25.666800173844717], [32.66834237811972, 25.662234294054677], [32.66033546341261, 25.66230239916202], [32.65844027656693, 25.66900261770475]]], [[[32.62196589077667, 25.73468314955335], [32.62571133689058, 25.743118664892783], [32.63262913968792, 25.74036857993457], [32.64803834687573, 25.75672754205472], [32.65177344393728, 25.7486956042085], [32.63491901505452, 25.728465406901798], [32.62419409566213, 25.731488269135355], [32.62196589077667, 25.73468314955335]]], [[[32.58268189758802, 25.69808166467561], [32.583967563281824, 25.701747020278685], [32.596819237911944, 25.702694650345336], [32.602674265204456, 25.719423454710103], [32.60096962599198, 25.725326312671122], [32.61547247452686, 25.734374625443976], [32.61479933713448, 25.723750491265072], [32.60412654631795, 25.718184481225094], [32.61056404152772, 25.713174044465738], [32.608660409946616, 25.701348529030415], [32.600421097608866, 25.702740003531517], [32.59905056494062, 25.695804282155922], [32.59401450807008, 25.693846633736786], [32.58390837044311, 25.69546929503462], [32.58268189758802, 25.69808166467561]]], [[[32.60469315075503, 25.635027967186215], [32.605059395121586, 25.639520185200062], [32.61155265861377, 25.63931842996332], [32.61045305883985, 25.632632866684396], [32.60611329640577, 25.632547823171198], [32.60469315075503, 25.635027967186215]]], [[[32.550544768547226, 25.59859870839618], [32.555809988756224, 25.601210090160244], [32.55904992690923, 25.596242837997824], [32.55269013452166, 25.594099432312436], [32.550544768547226, 25.59859870839618]]], [[[32.52665575683383, 25.581440381686257], [32.52714504751063, 25.585946055922722], [32.53356283558964, 25.58762452892523], [32.53884044960438, 25.585553479461044], [32.5388611116473, 25.580162000767853], [32.534881724853726, 25.577327713917008], [32.52885926571618, 25.5773417773013], [32.52665575683383, 25.581440381686257]]], [[[32.47680049329026, 25.562430128089193], [32.48633141475065, 25.58152958967562], [32.491605212977134, 25.582649320232804], [32.49963300779033, 25.595301761407935], [32.532494908766196, 25.600881185448678], [32.53356797825862, 25.59783392218869], [32.53064429869056, 25.593379197463115], [32.51109870566264, 25.591596115088663], [32.50883834022, 25.580661602940605], [32.49559884794799, 25.574665260534974], [32.49399544256523, 25.568714785918637], [32.48971569202109, 25.566503362999327], [32.491560939961815, 25.554719172853183], [32.4886309492199, 25.549389218533392], [32.4821182133131, 25.55107096234205], [32.47680049329026, 25.562430128089193]]], [[[32.50562601168264, 25.606157131872223], [32.50667309388791, 25.610519955823932], [32.514361330222364, 25.611461564480063], [32.51683766498667, 25.604157649805252], [32.507017705058814, 25.60350073758394], [32.50562601168264, 25.606157131872223]]], [[[32.49155705097761, 25.606331181474008], [32.49439010901135, 25.60892356096695], [32.50093230068915, 25.602290228011253], [32.49271769466907, 25.601138598217336], [32.49155705097761, 25.606331181474008]]], [[[32.46748464643143, 25.61131365553119], [32.47558054744879, 25.612933528699838], [32.482390032390256, 25.61021682817426], [32.47604334583002, 25.59872812092573], [32.46865182011651, 25.603704127876654], [32.46748464643143, 25.61131365553119]]]]}}, {"type": "Feature", "properties": {"threshold": 90}, "geometry": {"type": "MultiPolygon", "coordinates": [[[[32.739086671028886, 25.910123432304925], [32.7480573917694, 25.922162657452184], [32.761506182591916, 25.916872446840852], [32.762425443424604, 25.908516046549327], [32.759180528387944, 25.90551380994229], [32.750967352499494, 25.907991141299995], [32.73927622013972, 25.90627662214201], [32.739086671028886, 25.910123432304925]]], [[[32.71803066374607, 25.86783050156853], [32.72269550501065, 25.87031499038402], [32.72688159850308, 25.86940707991044], [32.73162266711936, 25.864275993843094], [32.7306398607168, 25.86025589174797], [32.717989552410266, 25.863285681823562], [32.71803066374607, 25.86783050156853]]], [[[32.734532510252585, 25.85732753713598], [32.752682833839465, 25.842987833696608], [32.758960384712545, 25.835693721008948], [32.758749963037495, 25.832313134299948], [32.74699426978741, 25.835534463717828], [32.73638836396851, 25.851935621880738], [32.73275351357664, 25.850535964655073], [32.73317765271055, 25.843429815176634], [32.72577477789475, 25.843526139129384], [32.72654350912876, 25.850783907755925], [32.73256120759629, 25.85259327421207], [32.734532510252585, 25.85732753713598]]], [[[32.72242086634657, 25.77255912261156], [32.730830286696595, 25.780241784154157], [32.744196206905976, 25.77725002018243], [32.740561703998466, 25.76867479050145], [32.73472843861957, 25.765137499495896], [32.72790654169886, 25.76524351880257], [32.72242086634657, 25.77255912261156]]], [[[32.73297407948855, 25.736020705975804], [32.73244029168648, 25.739506430545358], [32.740066715208656, 25.739598773399074], [32.74252693845075, 25.734682795215253], [32.736219234505015, 25.7324528714148], [32.73297407948855, 25.736020705975804]]], [[[32.71870346866107, 25.723629355227924], [32.724255231771465, 25.725219139111058], [32.7267121571176, 25.721897923725948], [32.721291108114336, 25.71727725111093], [32.71870346866107, 25.723629355227924]]], [[[32.71316288981082, 25.87839531885982], [32.71674142428119, 25.89700490165595], [32.72321770013286, 25.89734350592985], [32.721860880487846, 25.877929463584426], [32.715721375610826, 25.874312544211783], [32.71316288981082, 25.87839531885982]]], [[[32.70490496393074, 25.734478944486394], [32.710052896700454, 25.739553562210528], [32.71505066491747, 25.737682318574898], [32.716136613969425, 25.73311637130804], [32.70902396835541, 25.729997899493913], [32.70490496393074, 25.734478944486394]]], [[[32.66406794081411, 25.747431162753227], [32.66969419366871, 25.75438653643106], [32.67830363479895, 25.75941313630261], [32.681386814754795, 25.768138009360328], [32.68822148684367, 25.768152809994415], [32.69306368044164, 25.76413735061281], [32.69774391000318, 25.76742085150926], [32.701484672648725, 25.764269889287387], [32.70405436853433, 25.76966051580762], [32.70997738741129, 25.770646174825742], [32.71511881097449, 25.764589035643215], [32.71473189110236, 25.760394720797727], [32.69895838488572, 25.757761068364864], [32.693461842751375, 25.753116651569016], [32.6855288049546, 25.755312545918443], [32.67724779675598, 25.73904995394416], [32.67158446394288, 25.73475847095898], [32.66606438086968, 25.738294360475383], [32.66406794081411, 25.747431162753227]]], [[[32.67358070652804, 25.688356973147727], [32.676898682623786, 25.694608791972247], [32.685170306305935, 25.69960887531237], [32.68716628569846, 25.699007979206236], [32.686917413122444, 25.69145389428392], [32.69668263274389, 25.694853744228173], [32.696551627326, 25.700000307718284], [32.69246584614511, 25.701975437374447], [32.694744493753795, 25.70917003020537], [32.70998904244168, 25.701595939965777], [32.709168405636056, 25.68910086615434], [32.704841004514755, 25.685791288057658], [32.705605017408104, 25.680180011351293], [32.69902157742045, 25.675023589313184], [32.69360801716892, 25.675150296716883], [32.69111180048655, 25.671818027398032], [32.685329033368205, 25.670963210664667], [32.68380499612647, 25.673029549731723], [32.684295023207646, 25.68683727608643], [32.67953906205839, 25.68842324391744], [32.673851101586905, 25.68608589462235], [32.67358070652804, 25.688356973147727]]], [[[32.60737692508069, 25.68083299207605], [32.609841047110926, 25.692592606962947], [32.6165072046165, 25.69896512937952], [32.62035802936645, 25.707548306624307], [32.61800302266009, 25.717685495622995], [32.6274592685952, 25.71862583345813], [32.632407658300934, 25.71514045458982], [32.63921934077, 25.717739555545133], [32.640909198791825, 25.71104434911812], [32.63578830214439, 25.70819835333172], [32.63982684530711, 25.703244597935033], [32.660282360185846, 25.731383518900294], [32.66489948835557, 25.729603081566733], [32.6670137384108, 25.723924313616706], [32.6746545641421, 25.72159005661733], [32.673237143054884, 25.71398843206362], [32.669869146554895, 25.714145893282403], [32.66559342800755, 25.720221421012713], [32.65917215171147, 25.718839623127543], [32.659868278431524, 25.705812200892723], [32.65556381681406, 25.70191399014625], [32.65752075218577, 25.69813099166401], [32.66376375687235, 25.698737572671178], [32.6660365059315, 25.695386535534478], [32.65529375572801, 25.68307160663148], [32.64654741961204, 25.67784781640642], [32.64488668201039, 25.66900503669224], [32.64767492901043, 25.662731475540934], [32.642039920489154, 25.65742870022021], [32.63695188968648, 25.657909357801948], [32.630450932617165, 25.654257236230034], [32.62425832286333, 25.674119363006398], [32.613017811449865, 25.673226353881343], [32.60737692508069, 25.68083299207605]], [[32.61745055388998, 25.688554196155245], [32.61879475557017, 25.677610494526107], [32.62259249704886, 25.675665262706996], [32.63438183432094, 25.69760637590339], [32.62530861142208, 25.702877664713874], [32.62286755987071, 25.691151163884005], [32.61745055388998, 25.688554196155245]]], [[[32.676895573739266, 25.71062588190221], [32.68084517413241, 25.71044219944865], [32.681002864670575, 25.70513982974895], [32.67565491811201, 25.701226330773583], [32.676895573739266, 25.71062588190221]]], [[[32.65844027656693, 25.66900261770475], [32.65868117461545, 25.675572032215843], [32.6627820634453, 25.676457358073616], [32.66744493707048, 25.673667413268568], [32.67011171571577, 25.677990091431194], [32.67569792298134, 25.677676504278484], [32.675753797027625, 25.670620109836765], [32.669238845424196, 25.666800173844717], [32.66834237811972, 25.662234294054677], [32.66033546341261, 25.66230239916202], [32.65844027656693, 25.66900261770475]]], [[[32.62196589077667, 25.73468314955335], [32.62571133689058, 25.743118664892783], [32.63262913968792, 25.74036857993457], [32.64803834687573, 25.75672754205472], [32.65177344393728, 25.7486956042085], [32.63491901505452, 25.728465406901798], [32.62419409566213, 25.731488269135355], [32.62196589077667, 25.73468314955335]]], [[[32.58268189758802, 25.69808166467561], [32.583967563281824, 25.701747020278685], [32.596819237911944, 25.702694650345336], [32.602674265204456, 25.719423454710103], [32.60096962599198, 25.725326312671122], [32.61547247452686, 25.734374625443976], [32.61479933713448, 25.723750491265072], [32.60412654631795, 25.718184481225094], [32.61056404152772, 25.713174044465738], [32.608660409946616, 25.701348529030415], [32.600421097608866, 25.702740003531517], [32.59905056494062, 25.695804282155922], [32.59401450807008, 25.693846633736786], [32.58390837044311, 25.69546929503462], [32.58268189758802, 25.69808166467561]]], [[[32.60469315075503, 25.635027967186215], [32.605059395121586, 25.639520185200062], [32.61155265861377, 25.63931842996332], [32.61045305883985, 25.632632866684396], [32.60611329640577, 25.632547823171198], [32.60469315075503, 25.635027967186215]]], [[[32.550544768547226, 25.59859870839618], [32.555809988756224, 25.601210090160244], [32.55904992690923, 25.596242837997824], [32.55269013452166, 25.594099432312436], [32.550544768547226, 25.59859870839618]]], [[[32.52665575683383, 25.581440381686257], [32.52714504751063, 25.585946055922722], [32.53356283558964, 25.58762452892523], [32.53884044960438, 25.585553479461044], [32.5388611116473, 25.580162000767853], [32.534881724853726, 25.577327713917008], [32.52885926571618, 25.5773417773013], [32.52665575683383, 25.581440381686257]]], [[[32.47680049329026, 25.562430128089193], [32.48633141475065, 25.58152958967562], [32.491605212977134, 25.582649320232804], [32.49963300779033, 25.595301761407935], [32.532494908766196, 25.600881185448678], [32.53356797825862, 25.59783392218869], [32.53064429869056, 25.593379197463115], [32.51109870566264, 25.591596115088663], [32.50883834022, 25.580661602940605], [32.49559884794799, 25.574665260534974], [32.49399544256523, 25.568714785918637], [32.48971569202109, 25.566503362999327], [32.491560939961815, 25.554719172853183], [32.4886309492199, 25.549389218533392], [32.4821182133131, 25.55107096234205], [32.47680049329026, 25.562430128089193]]], [[[32.49068887455366, 25.60371410150772], [32.4927624462997, 25.608951252901736], [32.49933492805528, 25.60982780518284], [32.50214482701899, 25.607850976496575], [32.49874132306338, 25.60112604067498], [32.491916337261976, 25.601102485716282], [32.49068887455366, 25.60371410150772]]], [[[32.50382071414413, 25.6078566737977], [32.5092979265014, 25.61371780565294], [32.514435143159815, 25.613834630765123], [32.51681707935098, 25.604081962155163], [32.50693423215839, 25.60351939784904], [32.50382071414413, 25.6078566737977]]], [[[32.465910905233024, 25.59367744108094], [32.4650539203193, 25.59718766289555], [32.468924046442176, 25.602522013424778], [32.466861158469136, 25.610958271465883], [32.4718881048561, 25.613717486168625], [32.480381918149284, 25.612023373487624], [32.48253502777596, 25.609853876052803], [32.48154550891921, 25.60215590945805], [32.471601840444166, 25.59229404056343], [32.465910905233024, 25.59367744108094]]]]}}, {"type": "Feature", "properties": {"threshold": 95}, "geometry": {"type": "MultiPolygon", "coordinates": [[[[32.71803066374607, 25.86783050156853], [32.72269550501065, 25.87031499038402], [32.72688159850308, 25.86940707991044], [32.73162266711936, 25.864275993843094], [32.7307069189512, 25.85991581982055], [32.717989552410266, 25.863285681823562], [32.71803066374607, 25.86783050156853]]], [[[32.732703208981185, 25.85766437748437], [32.73667077405406, 25.857420138279178], [32.752682833839465, 25.842987833696608], [32.764302104592055, 25.826065084704627], [32.763173709055025, 25.822753477886387], [32.75868148218876, 25.821862328811996], [32.74965058273792, 25.82916111725655], [32.74137457676995, 25.842905928485116], [32.72725081859031, 25.84244507957714], [32.7248919116328, 25.84432171066589], [32.72663882295469, 25.85091356450432], [32.732438868765, 25.85334295770661], [32.732703208981185, 25.85766437748437]]], [[[32.739086671028886, 25.910123432304925], [32.7480573917694, 25.922162657452184], [32.761506182591916, 25.916872446840852], [32.762425443424604, 25.908516046549327], [32.759180528387944, 25.90551380994229], [32.750967352499494, 25.907991141299995], [32.73927622013972, 25.90627662214201], [32.739086671028886, 25.910123432304925]]], [[[32.73315062188116, 25.805674180323255], [32.73668324225628, 25.81126659348397], [32.74491618096315, 25.81175241293723], [32.74282074221088, 25.799512250694963], [32.737515989772206, 25.799542849773538], [32.73286275662697, 25.80294252544912], [32.73315062188116, 25.805674180323255]]], [[[32.72242086634657, 25.77255912261156], [32.730830286696595, 25.780241784154157], [32.744196206905976, 25.77725002018243], [32.740561703998466, 25.76867479050145], [32.73472843861957, 25.765137499495896], [32.72790654169886, 25.76524351880257], [32.72242086634657, 25.77255912261156]]], [[[32.73297407948855, 25.736020705975804], [32.73244029168648, 25.739506430545358], [32.740066715208656, 25.739598773399074], [32.74252693845075, 25.734682795215253], [32.736219234505015, 25.7324528714148], [32.73297407948855, 25.736020705975804]]], [[[32.71870346866107, 25.723629355227924], [32.724255231771465, 25.725219139111058], [32.7267121571176, 25.721897923725948], [32.721291108114336, 25.71727725111093], [32.71870346866107, 25.723629355227924]]], [[[32.71228160988383, 25.87839357418151], [32.71227316706637, 25.886412560681034], [32.71679169848484, 25.890189133529564], [32.71674142428119, 25.89700490165595], [32.72321770013286, 25.89734350592985], [32.721860880487846, 25.877929463584426], [32.715721375610826, 25.874312544211783], [32.71228160988383, 25.87839357418151]]], [[[32.70490496393074, 25.734478944486394], [32.710052896700454, 25.739553562210528], [32.71505066491747, 25.737682318574898], [32.716136613969425, 25.73311637130804], [32.70902396835541, 25.729997899493913], [32.70490496393074, 25.734478944486394]]], [[[32.66406794081411, 25.747431162753227], [32.66969419366871, 25.75438653643106], [32.67830363479895, 25.75941313630261], [32.681386814754795, 25.768138009360328], [32.68822148684367, 25.768152809994415], [32.69306368044164, 25.76413735061281], [32.69774391000318, 25.76742085150926], [32.701484672648725, 25.764269889287387], [32.70405436853433, 25.76966051580762], [32.70997738741129, 25.770646174825742], [32.71511881097449, 25.764589035643215], [32.71473189110236, 25.760394720797727], [32.69895838488572, 25.757761068364864], [32.693461842751375, 25.753116651569016], [32.6855288049546, 25.755312545918443], [32.67724779675598, 25.73904995394416], [32.67158446394288, 25.73475847095898], [32.66606438086968, 25.738294360475383], [32.66406794081411, 25.747431162753227]]], [[[32.67358070652804, 25.688356973147727], [32.676898682623786, 25.694608791972247], [32.685170306305935, 25.69960887531237], [32.68716628569846, 25.699007979206236], [32.686917413122444, 25.69145389428392], [32.69668263274389, 25.694853744228173], [32.696551627326, 25.700000307718284], [32.69246584614511, 25.701975437374447], [32.694744493753795, 25.70917003020537], [32.70998904244168, 25.701595939965777], [32.709168405636056, 25.68910086615434], [32.704841004514755, 25.685791288057658], [32.705605017408104, 25.680180011351293], [32.69902157742045, 25.675023589313184], [32.69360801716892, 25.675150296716883], [32.69111180048655, 25.671818027398032], [32.685329033368205, 25.670963210664667], [32.68380499612647, 25.673029549731723], [32.684295023207646, 25.68683727608643], [32.67953906205839, 25.68842324391744], [32.673851101586905, 25.68608589462235], [32.67358070652804, 25.688356973147727]]], [[[32.60737692508069, 25.68083299207605], [32.609841047110926, 25.692592606962947], [32.6165072046165, 25.69896512937952], [32.62035802936645, 25.707548306624307], [32.61800302266009, 25.717685495622995], [32.6274592685952, 25.71862583345813], [32.632407658300934, 25.71514045458982], [32.63921934077, 25.717739555545133], [32.640909198791825, 25.71104434911812], [32.63578830214439, 25.70819835333172], [32.63982684530711, 25.703244597935033], [32.660282360185846, 25.731383518900294], [32.66489948835557, 25.729603081566733], [32.6670137384108, 25.723924313616706], [32.6746545641421, 25.72159005661733], [32.673237143054884, 25.71398843206362], [32.669869146554895, 25.714145893282403], [32.66559342800755, 25.720221421012713], [32.65917215171147, 25.718839623127543], [32.659868278431524, 25.705812200892723], [32.65556381681406, 25.70191399014625], [32.65752075218577, 25.69813099166401], [32.66376375687235, 25.698737572671178], [32.6660365059315, 25.695386535534478], [32.65529375572801, 25.68307160663148], [32.64654741961204, 25.67784781640642], [32.64488668201039, 25.66900503669224], [32.64767492901043, 25.662731475540934], [32.642039920489154, 25.65742870022021], [32.63695188968648, 25.657909357801948], [32.630450932617165, 25.654257236230034], [32.62425832286333, 25.674119363006398], [32.613017811449865, 25.673226353881343], [32.60737692508069, 25.68083299207605]], [[32.61745055388998, 25.688554196155245], [32.61879475557017, 25.677610494526107], [32.62259249704886, 25.675665262706996], [32.63438183432094, 25.69760637590339], [32.62530861142208, 25.702877664713874], [32.62286755987071, 25.691151163884005], [32.61745055388998, 25.688554196155245]]], [[[32.676895573739266, 25.71062588190221], [32.68084517413241, 25.71044219944865], [32.681002864670575, 25.70513982974895], [32.67565491811201, 25.701226330773583], [32.676895573739266, 25.71062588190221]]], [[[32.65844027656693, 25.66900261770475], [32.65868117461545, 25.675572032215843], [32.6627820634453, 25.676457358073616], [32.66744493707048, 25.673667413268568], [32.67011171571577, 25.677990091431194], [32.67569792298134, 25.677676504278484], [32.675753797027625, 25.670620109836765], [32.669238845424196, 25.666800173844717], [32.66834237811972, 25.662234294054677], [32.66033546341261, 25.66230239916202], [32.65844027656693, 25.66900261770475]]], [[[32.62196589077667, 25.73468314955335], [32.62571133689058, 25.743118664892783], [32.63262913968792, 25.74036857993457], [32.64803834687573, 25.75672754205472], [32.65177344393728, 25.7486956042085], [32.63491901505452, 25.728465406901798], [32.62419409566213, 25.731488269135355], [32.62196589077667, 25.73468314955335]]], [[[32.58268189758802, 25.69808166467561], [32.583967563281824, 25.701747020278685], [32.596819237911944, 25.702694650345336], [32.602674265204456, 25.719423454710103], [32.60096962599198, 25.725326312671122], [32.61547247452686, 25.734374625443976], [32.61479933713448, 25.723750491265072], [32.60412654631795, 25.718184481225094], [32.61056404152772, 25.713174044465738], [32.608660409946616, 25.701348529030415], [32.600421097608866, 25.702740003531517], [32.59905056494062, 25.695804282155922], [32.59401450807008, 25.693846633736786], [32.58390837044311, 25.69546929503462], [32.58268189758802, 25.69808166467561]]], [[[32.60469315075503, 25.635027967186215], [32.605059395121586, 25.639520185200062], [32.61155265861377, 25.63931842996332], [32.61045305883985, 25.632632866684396], [32.60611329640577, 25.632547823171198], [32.60469315075503, 25.635027967186215]]], [[[32.550544768547226, 25.59859870839618], [32.555809988756224, 25.601210090160244], [32.55904992690923, 25.596242837997824], [32.55269013452166, 25.594099432312436], [32.550544768547226, 25.59859870839618]]], [[[32.535236702985024, 25.679601484579003], [32.54259248581425, 25.68485464354522], [32.549015509019235, 25.685241982531025], [32.54991560357776, 25.67985328663886], [32.54505593488519, 25.676219310133774], [32.53647325970517, 25.674597801320804], [32.535236702985024, 25.679601484579003]]], [[[32.52665575683383, 25.581440381686257], [32.52714504751063, 25.585946055922722], [32.53356283558964, 25.58762452892523], [32.53884044960438, 25.585553479461044], [32.5388611116473, 25.580162000767853], [32.534881724853726, 25.577327713917008], [32.52885926571618, 25.5773417773013], [32.52665575683383, 25.581440381686257]]], [[[32.47680049329026, 25.562430128089193], [32.48633141475065, 25.58152958967562], [32.491605212977134, 25.582649320232804], [32.49963300779033, 25.595301761407935], [32.532494908766196, 25.600881185448678], [32.53356797825862, 25.59783392218869], [32.53064429869056, 25.593379197463115], [32.51109870566264, 25.591596115088663], [32.50883834022, 25.580661602940605], [32.49559884794799, 25.574665260534974], [32.49399544256523, 25.568714785918637], [32.48971569202109, 25.566503362999327], [32.491560939961815, 25.554719172853183], [32.4886309492199, 25.549389218533392], [32.4821182133131, 25.55107096234205], [32.47680049329026, 25.562430128089193]]], [[[32.49068887455366, 25.60371410150772], [32.4927624462997, 25.608951252901736], [32.49933492805528, 25.60982780518284], [32.50214482701899, 25.607850976496575], [32.49874132306338, 25.60112604067498], [32.491916337261976, 25.601102485716282], [32.49068887455366, 25.60371410150772]]], [[[32.50382071414413, 25.6078566737977], [32.5092979265014, 25.61371780565294], [32.514435143159815, 25.613834630765123], [32.51681707935098, 25.604081962155163], [32.50693423215839, 25.60351939784904], [32.50382071414413, 25.6078566737977]]], [[[32.465910905233024, 25.59367744108094], [32.4650539203193, 25.59718766289555], [32.468924046442176, 25.602522013424778], [32.466861158469136, 25.610958271465883], [32.4718881048561, 25.613717486168625], [32.480381918149284, 25.612023373487624], [32.48253502777596, 25.609853876052803], [32.48154550891921, 25.60215590945805], [32.471601840444166, 25.59229404056343], [32.465910905233024, 25.59367744108094]]]]}}]}