{"type": "Feature", "geometry": {"type": "MultiPolygon", "coordinates": [[[[110.71922349888781, -7.769450715552461], [110.72924548517217, -7.762152916366496], [110.74625329795114, -7.74594568944314], [110.74502823015679, -7.739139003055023], [110.74122171496805, -7.735422721875653], [110.73952631336188, -7.730511204781642], [110.73412296693326, -7.726440319197925], [110.73560791073989, -7.719962772647719], [110.74404869206404, -7.712048999300659], [110.75081862636945, -7.712683862620766], [110.76109519416602, -7.711093385736462], [110.7638731474359, -7.707874126857513], [110.76476580655715, -7.702871305008263], [110.768930138204, -7.6990824739542925], [110.77906489400843, -7.701229474011825], [110.78203105708629, -7.7002133892315765], [110.78389347080466, -7.694556805523769], [110.78051710926576, -7.689898134613218], [110.7798685434393, -7.6840322127722995], [110.77604279910639, -7.678704743356645], [110.77637690108561, -7.6688090166323475], [110.77932953773558, -7.666277703805876], [110.78666727135104, -7.667098805252424], [110.79591220174552, -7.662211047128084], [110.80265486035871, -7.664250729899368], [110.80601427228909, -7.670672043838267], [110.81253231758565, -7.673473136599805], [110.81421598106009, -7.680162005451969], [110.8212259036105, -7.687681458954665], [110.8197807931903, -7.692706148237396], [110.81563846596454, -7.696720389974862], [110.81504306463394, -7.704394722986526], [110.81087856255594, -7.708983598689992], [110.81444862656605, -7.71846591456527], [110.80807165329581, -7.727352849733321], [110.80933586608765, -7.7300914296212015], [110.81425416929875, -7.732215192933905], [110.82146248858301, -7.7408307363119], [110.82112047614908, -7.750852391715357], [110.8296363172412, -7.755900374440432], [110.83249613319525, -7.754913185461217], [110.83637300698386, -7.749572908226581], [110.84209803332882, -7.751053314486014], [110.84428949277405, -7.755216918956324], [110.84206118921473, -7.765826998663129], [110.84454187067419, -7.771095656315018], [110.84719404395805, -7.7725504317275895], [110.85010630905242, -7.7717324423335], [110.85481450478832, -7.766771042001829], [110.85799725033728, -7.7578881003669515], [110.86401142816423, -7.756873353567014], [110.86645098185018, -7.754396371905354], [110.86538002921417, -7.7487439235539375], [110.86647245959219, -7.741518167694459], [110.87181489519668, -7.737350485545521], [110.87265900939708, -7.7343851825250765], [110.86911505258878, -7.729052373383037], [110.862327944696, -7.726834973475454], [110.85879067349624, -7.720481407175378], [110.85818046976891, -7.71328658054903], [110.8645419188896, -7.710171444287563], [110.86618806255022, -7.707183810987099], [110.8616392602004, -7.6909271387316815], [110.85524547918963, -7.683809725329622], [110.845297707386, -7.67983435828555], [110.84116734553902, -7.674650182200237], [110.83601918576204, -7.6726033403678535], [110.83211170667062, -7.663263263825454], [110.82723230763713, -7.659310517576863], [110.8267050300435, -7.656227113864514], [110.83039923698598, -7.650952451615103], [110.83021771754616, -7.646686488026208], [110.82552168468165, -7.6420647063649545], [110.82349755477847, -7.633624373797792], [110.8168844387779, -7.620820739268421], [110.80174550309238, -7.615386510512707], [110.79882385258628, -7.610214013818299], [110.79339252785257, -7.606913304116121], [110.79209331619259, -7.597925604466694], [110.78502879219113, -7.59678535911878], [110.78188895478117, -7.594189329257398], [110.78164358879901, -7.583498323994638], [110.78949130159882, -7.579349812845059], [110.79378798494159, -7.5704525371343], [110.79673206500341, -7.570012150984625], [110.80601068779006, -7.572909076123914], [110.81045465496373, -7.587374817664574], [110.81333177206061, -7.588387849524949], [110.81913503614938, -7.586790778743775], [110.821800500657, -7.596232866688851], [110.8388835673142, -7.603100080547536], [110.83815104137592, -7.6197020903387385], [110.84103898239147, -7.62942779838574], [110.83583889694933, -7.640249290325101], [110.83880350725646, -7.644044786412062], [110.84777902029184, -7.649537952389004], [110.8554431009522, -7.652139577686949], [110.85544985418164, -7.656845789269797], [110.85107425614711, -7.662166396853821], [110.85380525151943, -7.666851958369629], [110.86629713485313, -7.668979849838683], [110.86865313094475, -7.667086203281284], [110.87225133799795, -7.657895333149592], [110.8750085624383, -7.655827134364202], [110.88655630782984, -7.652693217019315], [110.89452215047186, -7.65357659921942], [110.89623613954461, -7.6510167650108745], [110.89562247646386, -7.647380232101182], [110.8872100311454, -7.642730593459072], [110.88404009745187, -7.637048378543104], [110.88478853643973, -7.633282047981681], [110.88808506115446, -7.63098772789272], [110.89806986788138, -7.63318216016225], [110.90548014492273, -7.631965478232247], [110.91500615021693, -7.638453391195275], [110.91901106321237, -7.646178648021749], [110.91727081949608, -7.6534908338475836], [110.91880917634708, -7.659650760016388], [110.91253204516858, -7.667571869399456], [110.91217053385705, -7.670947935841151], [110.92024951658489, -7.6768254964933265], [110.92277788522298, -7.68407652657598], [110.92747629742378, -7.687268617093267], [110.93372761781893, -7.682643987945713], [110.94115188165172, -7.681526527434516], [110.94426482925677, -7.6786815480142785], [110.94375522008794, -7.674607717516359], [110.93702475940881, -7.669237753487196], [110.93843913627704, -7.663144629896948], [110.947623128922, -7.661239453174756], [110.9555393738398, -7.664539984677956], [110.96138856882669, -7.665027696169003], [110.9649783947277, -7.661390375286402], [110.96351396382659, -7.657742685938436], [110.95646841031996, -7.655164843298149], [110.95444805767383, -7.6526511797272505], [110.95651790205808, -7.643506708954767], [110.95490699962507, -7.637085749079995], [110.94065671374712, -7.625170347234235], [110.93185062867103, -7.621807195481189], [110.92991178387045, -7.6182597743454386], [110.93167421436301, -7.614709177467397], [110.93882821182667, -7.613634750402094], [110.94465902777165, -7.608811555479478], [110.95278255165866, -7.608220936655987], [110.95656258705067, -7.611159943186749], [110.9567349706734, -7.619023840333924], [110.9607822646956, -7.622127699340569], [110.96411497178046, -7.6222691147926485], [110.96914616291488, -7.618590174436554], [110.97429337005768, -7.620059127428334], [110.97819814113141, -7.61934407519694], [110.98182601676346, -7.620535718292724], [110.98499252986957, -7.624691067735749], [110.98801619587871, -7.625133181122832], [110.99046965954959, -7.623311496079346], [110.99261366377, -7.61783671618903], [111.00235145250811, -7.615775372278639], [111.00855128921505, -7.607083938999882], [111.0125043151297, -7.604785165941599], [111.01431018128389, -7.5957757112614095], [111.02462996528811, -7.592547901789268], [111.0286754100974, -7.586257211910878], [111.02812924657427, -7.582181098335143], [111.02271012151124, -7.577976227300425], [111.00979898747032, -7.572040778576571], [111.00194074699715, -7.559173644975199], [110.99112667186171, -7.5635365363819105], [110.98755881930173, -7.567755749957626], [110.9887242690055, -7.570996904348522], [110.99639184550692, -7.576554970726163], [111.00237861249086, -7.5770596525499245], [111.00635479205823, -7.580637340156977], [111.00567272579582, -7.5845627310143895], [111.00124119952521, -7.588556594401786], [110.99953891786687, -7.598320037754923], [110.99595135621499, -7.601166552190033], [110.99231345752669, -7.600378374491242], [110.98817575136314, -7.596234440839601], [110.98222235751939, -7.594534908216889], [110.97364624619755, -7.5786262426804045], [110.96413408229863, -7.574487535588418], [110.95253677626192, -7.575077455787584], [110.94614115744946, -7.5702855650466025], [110.94516662043553, -7.567111853066282], [110.94785493668316, -7.557228803346098], [110.95261634153661, -7.554077789742939], [110.95559094998539, -7.546495876818682], [110.96389592998875, -7.5431301892688305], [110.96575627428788, -7.5402433298481135], [110.96463170441592, -7.535917807069896], [110.95959242510233, -7.534009971270151], [110.95655818694682, -7.534878882934785], [110.95219474802923, -7.540461459652045], [110.9484480152383, -7.540467708531932], [110.94541893782274, -7.537707268042116], [110.9449312783835, -7.531757455339317], [110.955452215665, -7.519051448707512], [110.95337329078998, -7.5132571790279785], [110.94060221549887, -7.510486244467524], [110.93326873322727, -7.515875069023152], [110.92304018848651, -7.51062678756541], [110.91922006735396, -7.514240074778642], [110.91792343579274, -7.520361077114737], [110.91354694088572, -7.523024408539761], [110.9101581346566, -7.527504075603689], [110.9063739501035, -7.527841793855808], [110.90228716881393, -7.524285578413866], [110.90408914177176, -7.518306366940387], [110.90343117081466, -7.512638189299654], [110.90652332494827, -7.506746813324555], [110.91160365523143, -7.50371880437482], [110.91465881950307, -7.497151643185344], [110.92176356925144, -7.495477190361537], [110.92484986924478, -7.490181902095864], [110.9237792541943, -7.480286621601465], [110.92095150267109, -7.47484226330338], [110.92191490898517, -7.467736897855156], [110.93437991047459, -7.455009638337429], [110.94270238720827, -7.454813602624805], [110.94554732374068, -7.452392291742648], [110.94496545999084, -7.447368453882103], [110.93828097509238, -7.440440662279009], [110.93952441242372, -7.434649587855691], [110.94507709066272, -7.433143720867007], [110.96013800486072, -7.440953489854448], [110.96935260616965, -7.440206858195915], [110.97661230299386, -7.43237171814374], [110.98610570646227, -7.435575794333385], [110.98759490705699, -7.438114567391745], [110.98704808268967, -7.440821410426473], [110.9756438248067, -7.452202762282844], [110.96090306837354, -7.461048195458107], [110.95092824222314, -7.464536390461765], [110.9499464127081, -7.467465457199368], [110.95151166245705, -7.471526878351404], [110.96705703579158, -7.481484708744487], [110.97412243606344, -7.491432792921802], [110.97991867645862, -7.490361698557362], [110.9898177023188, -7.48331331232254], [110.9946003188827, -7.484204546868202], [111.00075862035818, -7.4915622630324945], [111.00179589478532, -7.5005939166546245], [111.01325513679738, -7.504030062698792], [111.01554576878787, -7.50883094623846], [111.02058382954345, -7.512914666883418], [111.02130610791166, -7.519607363909264], [111.02693057923318, -7.524733624312713], [111.02908296610315, -7.529427407308913], [111.03691521679445, -7.531117999000423], [111.04283033131303, -7.535857306704455], [111.04924022760574, -7.532101789770518], [111.05332505993725, -7.532018311754308], [111.05995942876046, -7.539422204930265], [111.06110523677403, -7.545683051688503], [111.06544166195383, -7.550350712468604], [111.06224324193694, -7.558820341918533], [111.05697828800746, -7.564042710316581], [111.05813197178041, -7.569446702467617], [111.06644192740897, -7.573623352734677], [111.06880837597505, -7.57687884294578], [111.06747887399801, -7.581904182781213], [111.0625263524215, -7.585914334255125], [111.06248617212862, -7.592306003258079], [111.0606999710959, -7.596824859947403], [111.0559212604292, -7.598897466192949], [111.05241247600877, -7.597614740420831], [111.04913513070665, -7.593967365581927], [111.04603971703878, -7.593825729120561], [111.0369529183718, -7.604419936383863], [111.03785357566026, -7.60902060420251], [111.0447935567209, -7.6159805520109165], [111.05997690172335, -7.613000071993283], [111.06325659431738, -7.613895101708771], [111.06493320190457, -7.616906399392948], [111.06121636654676, -7.625445829635601], [111.06314406000227, -7.634598761751967], [111.06073221428863, -7.644667077241958], [111.0627435630911, -7.658491304009723], [111.06054302606498, -7.669052954493226], [111.06657559458611, -7.679892214433898], [111.05812882452145, -7.6916488967653684], [111.05716370322403, -7.700904303360102], [111.05990134778015, -7.707095551377106], [111.05736166829695, -7.71268315159253], [111.0606295209503, -7.7177292449794725], [111.06748279394013, -7.719715681808081], [111.06874717252305, -7.723624458570093], [111.05450798641883, -7.73926443987715], [111.0470141483689, -7.743021055822788], [111.04021298519211, -7.750709144950493], [111.03352748338646, -7.754104194928449], [111.03022945172616, -7.760381874110331], [111.02981588397014, -7.769682928841539], [111.0311930048255, -7.772401601440672], [111.03485495689732, -7.773230439012169], [111.04017265701566, -7.769261921214795], [111.0458803855516, -7.768704216568687], [111.05365307524184, -7.7743170678859475], [111.05322313103078, -7.7813811344960095], [111.04832609322449, -7.783731929359039], [111.03876916011583, -7.784514429625321], [111.0304900612692, -7.790136739342224], [111.02503781435135, -7.791430575163636], [111.00505420632179, -7.790783293134709], [110.99908599046711, -7.792408057257722], [110.99562961410007, -7.790075362848903], [110.9949859980598, -7.783556430635924], [110.99027703731444, -7.780123535863729], [110.97494920779154, -7.790077680360404], [110.96588392100658, -7.787070648470276], [110.95102994838662, -7.788540610883477], [110.94491338397991, -7.785224267841304], [110.93832523271034, -7.78731934211388], [110.93122267778647, -7.782898829942719], [110.90297941435209, -7.784126599514956], [110.89110368904835, -7.779720692409431], [110.88956048026779, -7.776616713478653], [110.89033239402622, -7.770313982383123], [110.88552371563391, -7.768074756059566], [110.87805073993874, -7.772248051061406], [110.87829498538821, -7.782124242632717], [110.87529448811006, -7.791592327974487], [110.85761643844204, -7.79677122507772], [110.85358450636771, -7.802156999200995], [110.85021225847304, -7.803033412557564], [110.84768116836294, -7.80135023775524], [110.84572356386502, -7.7946673305013405], [110.83857673737015, -7.787665867702532], [110.83615321222219, -7.782375352536877], [110.83044187826238, -7.781110980699911], [110.82609621655673, -7.777336076600197], [110.81593152607064, -7.778392274278463], [110.80824946855041, -7.774353105992488], [110.79790907774016, -7.76097664799838], [110.79705807018986, -7.7536839736338], [110.79030999887144, -7.750821021369591], [110.78849074726682, -7.743243809205732], [110.77985248684492, -7.738315388078495], [110.77776898117541, -7.731757497600753], [110.77133032927955, -7.728053254909168], [110.76872221786637, -7.728966268333332], [110.76595495542242, -7.732674645971818], [110.76567382101825, -7.741849332018485], [110.76286436524622, -7.747432913625427], [110.76002249513957, -7.748575436520663], [110.75243729284622, -7.7472307815535], [110.74978859669842, -7.748834732444409], [110.74766153557121, -7.762752975017755], [110.7505998618156, -7.7662957510981885], [110.75884253466195, -7.766587964270811], [110.76557750055085, -7.771035918845108], [110.77316097343304, -7.7682015386752745], [110.78333719345804, -7.770802096203058], [110.78682541210793, -7.777516227196279], [110.8040280541699, -7.788169707370876], [110.80520820163292, -7.792071709237196], [110.80322665962763, -7.796524372661489], [110.79861096209098, -7.79965712808868], [110.7955309603641, -7.799655382198386], [110.78775942807506, -7.792691283683198], [110.78252670597983, -7.791117785598256], [110.7798711245741, -7.792695663308163], [110.77652340385198, -7.798588398621895], [110.76339877884956, -7.796046786582765], [110.75903022431528, -7.799603476395512], [110.75432718912852, -7.800863808830151], [110.75080028546364, -7.805957949927343], [110.74560828486453, -7.805933137024993], [110.73557471035582, -7.798300957056946], [110.73604427280911, -7.789021333844582], [110.73285774186017, -7.78428314539907], [110.71897288223799, -7.781593957286307], [110.71449896294436, -7.782109947876167], [110.71059236734041, -7.779691012478979], [110.71064528154022, -7.773015721116231], [110.71922349888781, -7.769450715552461]], [[110.93738670344624, -7.741707605928197], [110.9382347110616, -7.745300357921715], [110.94610175766314, -7.749559804849747], [110.95067797772919, -7.756331813524852], [110.9647914912988, -7.751128531921585], [110.97051259234657, -7.754548211181011], [110.98095359385802, -7.755047916397051], [110.9946205818506, -7.74329391634997], [111.00016400361956, -7.742504943929956], [111.00623134549036, -7.745621454691325], [111.01472613287417, -7.746040230913391], [111.02219256857403, -7.736768248662731], [111.02450952735761, -7.7349349135882575], [111.03291857185977, -7.733479226789654], [111.03499908757185, -7.729504263287357], [111.03104960405031, -7.725336114621564], [111.0278182564795, -7.725594867025052], [111.02303747369352, -7.729116999680714], [111.01513805335264, -7.7253933420487915], [111.0098207538768, -7.724854290301338], [111.00374727567377, -7.727556387120703], [110.99958393227764, -7.7318796277629485], [110.9919130096417, -7.731209464912084], [110.97962922404733, -7.735725081034024], [110.96355652108207, -7.73638971911713], [110.95783152061856, -7.733842897020503], [110.95820074985843, -7.725789709269911], [110.95382361047342, -7.723129232900355], [110.94836186086367, -7.725398158191661], [110.9449974130977, -7.730247940358483], [110.93922198824387, -7.7322246199093145], [110.93738670344624, -7.741707605928197]], [[111.01979057619715, -7.770350869075723], [111.01698671892302, -7.773710392775984], [111.01869583782494, -7.777493973590818], [111.02493455703087, -7.778451593064255], [111.02823340804169, -7.776096497285089], [111.02877596809, -7.773030039512732], [111.0272857590335, -7.770728266693415], [111.01979057619715, -7.770350869075723]], [[111.00421076302281, -7.673329832992141], [111.00778254418485, -7.67691072611578], [111.01488613950778, -7.67406239830168], [111.0204453644807, -7.674257947663488], [111.02282735725409, -7.671334321040608], [111.02200288591845, -7.666592495102721], [111.01941973063396, -7.664305039756615], [111.01377692021002, -7.66431716936867], [111.0055450451975, -7.66950870585992], [111.00421076302281, -7.673329832992141]], [[111.0116725973517, -7.68988576301676], [111.00854989660232, -7.689068172176253], [111.0057680617386, -7.690945226125225], [111.00509815818667, -7.694978535648885], [111.00709368776168, -7.697743620331562], [111.01143763020205, -7.698264513538816], [111.01410888895832, -7.696219767142253], [111.01427525755692, -7.692859866450481], [111.0116725973517, -7.68988576301676]], [[110.99281480739768, -7.552263026903885], [110.99626976964886, -7.552846441269775], [110.99969415081513, -7.557834931401363], [111.00221751872476, -7.558909747878079], [111.01145504903887, -7.553036830361478], [111.01211274811476, -7.549397866863277], [111.00769020086196, -7.5418522924052995], [111.0091015765153, -7.535426070587327], [111.00731600105752, -7.532065143572421], [111.00452652002551, -7.5311503350047175], [110.99959946884317, -7.533516140215385], [110.99420279926095, -7.532832557316567], [110.98541348113494, -7.537885500256771], [110.98480256084856, -7.541294424001836], [110.98736420186371, -7.545022792996695], [110.9882332333186, -7.550109117297621], [110.99281480739768, -7.552263026903885]], [[110.97912858430763, -7.692186082200363], [110.97754941924299, -7.696971620594775], [110.98214732072786, -7.699721018723512], [110.98811477470933, -7.6941985187084665], [110.9889211006587, -7.690635029001971], [110.98732498978501, -7.6880827587103555], [110.98421977904385, -7.687299398701832], [110.97912858430763, -7.692186082200363]], [[110.97560507854794, -7.573571183909907], [110.97759340628039, -7.577196489254763], [110.9825679847183, -7.577695146053341], [110.98672734672024, -7.572604175035875], [110.98694438609647, -7.569192057322116], [110.98406626286705, -7.566757618442242], [110.97757110007582, -7.566745629464036], [110.97525559797414, -7.569205061300178], [110.97560507854794, -7.573571183909907]], [[110.94219065690737, -7.770046796637277], [110.94622707811064, -7.767576773759608], [110.94589357523697, -7.761565330473026], [110.94307555648076, -7.759531535472603], [110.9368171963725, -7.759489843450259], [110.93451862473836, -7.762366634444649], [110.93461918470615, -7.7674667162575926], [110.93702124814854, -7.769483497331176], [110.94219065690737, -7.770046796637277]], [[110.88384220469196, -7.73566039807524], [110.8803310933265, -7.738780793329307], [110.87992632714676, -7.742153125453998], [110.88583645026178, -7.7479933882352805], [110.88708367582448, -7.754991975247625], [110.89151273070621, -7.759598526156257], [110.89073731622183, -7.770082720091516], [110.89554830153585, -7.77185535225947], [110.89830141269204, -7.7701922273378115], [110.90037937879657, -7.765297398804295], [110.90514943713207, -7.762312483426288], [110.90778159444054, -7.752289338949981], [110.91161374374687, -7.748157887898294], [110.9119003664848, -7.7451481641015425], [110.90351301120815, -7.737910518909913], [110.89500798293668, -7.7392585099777085], [110.88849562271967, -7.733813917990702], [110.88384220469196, -7.73566039807524]]], [[[110.85223864706789, -7.564494914299509], [110.85536510458695, -7.562461939717888], [110.86031743211984, -7.56365295515855], [110.86984810309406, -7.563005264662003], [110.8741998038852, -7.5577523577474635], [110.87482367750007, -7.551328135755473], [110.88542551757956, -7.540891696641129], [110.88876025802806, -7.534136533604635], [110.89320695216787, -7.53386100494364], [110.8994570462199, -7.5397645621925475], [110.89999501750053, -7.54340632967908], [110.89629407578272, -7.550356868203906], [110.89774307643886, -7.558598974645743], [110.89471672246265, -7.56441309274501], [110.8936359599604, -7.571425264902002], [110.88973310750599, -7.572461759607848], [110.88145416899364, -7.5701493233926085], [110.87591079629726, -7.573453938616089], [110.86810190765547, -7.574124925217438], [110.86385207217712, -7.5717060591537395], [110.85899740278163, -7.572295930514284], [110.8535977615115, -7.570302765472594], [110.85172254452475, -7.567871994068752], [110.85223864706789, -7.564494914299509]]], [[[110.89817318407283, -7.575242704734566], [110.90501208024875, -7.569850152770085], [110.91527554380083, -7.573149411459327], [110.91777728222388, -7.58145438481492], [110.92514717701907, -7.588479587330588], [110.92454787969291, -7.59745066520371], [110.92297335013629, -7.600328465161802], [110.91937744872516, -7.6017007544718815], [110.9047653127772, -7.5993973347593196], [110.89552890389966, -7.603860386393323], [110.8881523133373, -7.6030261666047565], [110.88189179355628, -7.600088331581218], [110.88020514272004, -7.596800649009766], [110.88089212351005, -7.593263867568646], [110.89247772284618, -7.587026669452919], [110.89817318407283, -7.575242704734566]]], [[[110.77710970544892, -7.425611103633917], [110.77587524095725, -7.420549230226237], [110.77733787301698, -7.417450259266097], [110.79432569585191, -7.411934240782213], [110.79760558886925, -7.408341438218749], [110.80257223689445, -7.40607537473943], [110.80832061353154, -7.406786132352496], [110.8125555958712, -7.409289003951959], [110.81779856642649, -7.408108306963038], [110.82446229268831, -7.391893938951246], [110.83084148212072, -7.38218751987597], [110.83106046242762, -7.37919369671423], [110.82905256345022, -7.376708387034324], [110.82128096049901, -7.3771833523233985], [110.81544776210254, -7.374131576467827], [110.81311472382501, -7.36536222443863], [110.80779797035277, -7.360107915520271], [110.80947370138786, -7.350048095548729], [110.80221524049523, -7.347258803575111], [110.80042462168956, -7.3447199795652045], [110.80079485748317, -7.341407126615006], [110.80300319625452, -7.338994244295622], [110.81096128162487, -7.336213687877458], [110.81972071991294, -7.329320091418135], [110.82384331140672, -7.329212701153348], [110.83585240479009, -7.334524304714869], [110.8480612541487, -7.328508373781222], [110.8597126230875, -7.328740887716303], [110.86432307968286, -7.333744374000908], [110.86484208957258, -7.3402082073854995], [110.86874285172549, -7.344155850958509], [110.86889902614028, -7.351507343568736], [110.87345322144401, -7.356150465290257], [110.87342730648037, -7.359462131585812], [110.86950353834932, -7.365319176814375], [110.87078992288613, -7.36921656292972], [110.88729983264975, -7.370385981588718], [110.88938302441764, -7.372952255022286], [110.88956556857985, -7.378522467206814], [110.89219228582178, -7.380618083118862], [110.89591767343737, -7.380942309898748], [110.9112587587854, -7.375873927297783], [110.91467550091588, -7.376639862470555], [110.9165143927589, -7.378947364587675], [110.91569043190819, -7.386533484774347], [110.90873756158238, -7.389109558427078], [110.89885499402122, -7.39686789273836], [110.89768379765277, -7.4059634583515885], [110.89343860360815, -7.410625896269186], [110.886450292765, -7.41057915234815], [110.87178365759219, -7.400381382554095], [110.86624077275567, -7.401740515713766], [110.86414112727337, -7.4044292673000545], [110.86457607965889, -7.4091785338300715], [110.86293723654826, -7.413713871120851], [110.86458501885802, -7.416776807482993], [110.87721421699696, -7.42160346227863], [110.88282714394387, -7.419475229375792], [110.8881924324367, -7.419988013566077], [110.89191317562498, -7.424983884855013], [110.8915577862254, -7.429381519959007], [110.886022844443, -7.434259362819304], [110.88520214971572, -7.4368833164434935], [110.88652260442778, -7.44402239108118], [110.89583877709738, -7.4481907611440255], [110.89909302995339, -7.453981410977704], [110.89817920112904, -7.458822581124323], [110.89506730111464, -7.46297829564051], [110.89556729534746, -7.470334434067332], [110.89255738541922, -7.473189348403078], [110.88430404727922, -7.47203025202388], [110.86947003866604, -7.477939211419132], [110.86260215557894, -7.475301694229166], [110.8614388940495, -7.455921053991802], [110.87046834708171, -7.441764501119897], [110.87019613647973, -7.433631691174622], [110.86798573636938, -7.430987831309395], [110.85551391373777, -7.428162414993281], [110.84713691800148, -7.429143934528025], [110.82312215682667, -7.439343455787273], [110.81345250348554, -7.436219810107919], [110.80856232111637, -7.4382794770686305], [110.80378042670021, -7.437754077909616], [110.79771375168896, -7.431797837450583], [110.79368564300562, -7.430892107386682], [110.78832901986794, -7.436377330457592], [110.78484840118982, -7.437140106735472], [110.78120737772946, -7.435134125771488], [110.77710970544892, -7.425611103633917]], [[110.84820431935493, -7.341808959677006], [110.84438163624885, -7.346251736561945], [110.84512642548526, -7.35101734570491], [110.84877448748223, -7.352906442589816], [110.85455482044357, -7.3496634009397885], [110.85590755328928, -7.344289207896153], [110.85326894110818, -7.3407314646150414], [110.84820431935493, -7.341808959677006]], [[110.81167518089441, -7.347163976746227], [110.81075863054552, -7.350301354213125], [110.81229056772864, -7.352927942509141], [110.81559851506736, -7.35376843675439], [110.81829186507998, -7.352151566538289], [110.81902634042851, -7.348657803987736], [110.81741359381967, -7.346081677220171], [110.8144557488263, -7.345382725331893], [110.81167518089441, -7.347163976746227]]], [[[110.75670849961429, -7.567845401164886], [110.75515324374314, -7.562768775124405], [110.75914381221259, -7.556031420035138], [110.76342487857973, -7.552288331060975], [110.7622459610168, -7.546091168770345], [110.76324713457656, -7.542534322343228], [110.76743303774145, -7.5397086663971615], [110.77083945397997, -7.534415695661443], [110.77765441405792, -7.535331769037244], [110.78294995007518, -7.5428512487243555], [110.78331548141365, -7.545655966678465], [110.78191493955188, -7.548648882285125], [110.77707905241574, -7.551565272139941], [110.77557871688923, -7.556880692069243], [110.77119478364646, -7.560245525704059], [110.77052662405326, -7.568388682268408], [110.76707262469729, -7.572077985946477], [110.76391386605275, -7.572753563061537], [110.76023287794897, -7.5716196789640735], [110.75670849961429, -7.567845401164886]]], [[[110.64306015798019, -7.4308309511742], [110.6496136880473, -7.425787134767184], [110.65040363756242, -7.4183786848641775], [110.652359847133, -7.415962315607476], [110.66049660886031, -7.4140578986529455], [110.66646878323655, -7.4161180750677955], [110.67140702194395, -7.412332668366801], [110.67789492398833, -7.411529828862007], [110.68017435492602, -7.407305640861384], [110.68050769462087, -7.401609598136596], [110.68541829446042, -7.396149839667423], [110.685246689056, -7.392708157455989], [110.68028673608445, -7.3862042426509475], [110.67882649807652, -7.375587361813046], [110.6722149584879, -7.372680920183178], [110.67057638889581, -7.370151818665007], [110.6711697787212, -7.367197304608722], [110.67605587051392, -7.361564675983214], [110.67687018820665, -7.352691220125056], [110.68315302366709, -7.347077282529125], [110.69107907925539, -7.346570194538499], [110.70015792584189, -7.342317892098396], [110.70532503246558, -7.332030009506276], [110.71148621869676, -7.332382188739428], [110.71715112428338, -7.330168487655108], [110.72344700745106, -7.332160049638773], [110.72579085209321, -7.336391049257232], [110.72616810658485, -7.342597275117347], [110.73409868802437, -7.345196229213188], [110.73719658078268, -7.350699622786352], [110.73516801860232, -7.355703041428814], [110.72559627461366, -7.358675857458993], [110.72351619868115, -7.361319211902204], [110.72587974892313, -7.366562724266398], [110.7331126952937, -7.3702157790331535], [110.73482973298695, -7.372819010178121], [110.72858918840257, -7.389365083902462], [110.72494938806534, -7.3928789713425225], [110.72034439042596, -7.391119183080504], [110.71777404036074, -7.385951626159224], [110.71857478646216, -7.3794570070718], [110.71725094038517, -7.376287178368691], [110.7094997642701, -7.366220860113684], [110.69991418763824, -7.362906820497349], [110.69666373267891, -7.366335894847323], [110.69584742254204, -7.376290776610368], [110.69751050035838, -7.381806976924908], [110.6971237517251, -7.389646249189838], [110.69525033866235, -7.391974936680602], [110.69054369736045, -7.393448353343845], [110.68906364179857, -7.39649176723121], [110.69241738872806, -7.402225388618492], [110.69216817843265, -7.408128939283508], [110.69618298249638, -7.412014037211109], [110.69823728885343, -7.416655975325247], [110.71573425332363, -7.423026988682812], [110.73008292741414, -7.425509089867897], [110.73526969527786, -7.433189817520359], [110.73517944107766, -7.43903066495954], [110.73112561296759, -7.443718025550277], [110.72500825158747, -7.446070702430861], [110.72375067444398, -7.455863033428082], [110.71806072732352, -7.463561095428901], [110.72067555442325, -7.46931504473062], [110.72065561507647, -7.476294727467224], [110.72782992006428, -7.489637806212494], [110.7257551099528, -7.494823419846655], [110.72646852659174, -7.500322230015492], [110.7228287376717, -7.509805451095595], [110.71216117253046, -7.51266548779118], [110.70248997005918, -7.509770058067797], [110.69940941489274, -7.501997842079507], [110.69310871905861, -7.4982496025078245], [110.688053497765, -7.47596257274666], [110.67885469591391, -7.4701188744238625], [110.67891047419288, -7.460668108462787], [110.67023070700735, -7.456876228314542], [110.66909625959075, -7.449525243571655], [110.66729734448795, -7.447164954681698], [110.65973410313046, -7.446141386742867], [110.65592919756445, -7.442853882322888], [110.65122263877534, -7.442441077281356], [110.64355740356031, -7.438510034777787], [110.64208982379076, -7.435335236610169], [110.64306015798019, -7.4308309511742]]], [[[110.599620288219, -7.551765772722901], [110.60692297008335, -7.537757240517373], [110.61313842979541, -7.538309809914684], [110.62312726788254, -7.54191237692431], [110.62843391577162, -7.546886139423597], [110.62963852707887, -7.554240019120816], [110.63446701275276, -7.562999091631422], [110.63343923496778, -7.5676686825973976], [110.63117350930241, -7.569743931487882], [110.62737594911297, -7.569912126349437], [110.60966275478982, -7.557619976944671], [110.60135830951441, -7.557855373238235], [110.59915027501583, -7.555333626891165], [110.599620288219, -7.551765772722901]]]]}, "properties": {}}