{"type": "Feature", "geometry": {"type": "MultiPolygon", "coordinates": [[[[73.65390468295035, 31.708759512185942], [73.64999835199436, 31.71372212840056], [73.65413033576677, 31.71927150532253], [73.6627406154951, 31.72156310479963], [73.66883327483225, 31.720227410377667], [73.67173504007779, 31.722022223105427], [73.67340806585462, 31.730138091870685], [73.67023133424718, 31.740563506034228], [73.67698712741523, 31.74498632549731], [73.6811754059974, 31.75322444036169], [73.68641786307603, 31.75308438442973], [73.6901608009682, 31.745194846928356], [73.6944670661442, 31.74151354479244], [73.70216023811327, 31.73903459407075], [73.70359517605023, 31.73515896466589], [73.70268941389315, 31.72977981851745], [73.69509329099171, 31.72198483265216], [73.68707296581258, 31.720822818556364], [73.68377968244134, 31.712987002515284], [73.6744573068138, 31.711874702571173], [73.67324392124117, 31.70336060547136], [73.67112278243061, 31.70084672545148], [73.66598230190827, 31.70126259219096], [73.66199932183538, 31.70503224240357], [73.65390468295035, 31.708759512185942]]], [[[73.60109877253342, 31.837912655439972], [73.60161240748668, 31.8416934644169], [73.60605878806079, 31.845707660639007], [73.60609546994306, 31.85158934450603], [73.60831900790744, 31.85526649469962], [73.61201123766853, 31.856564048262072], [73.6170584007765, 31.855759988517168], [73.61903139235251, 31.85341772775819], [73.61885794291855, 31.847751071854194], [73.62032305240157, 31.844979443486572], [73.63061791845512, 31.84430185198767], [73.63400615953736, 31.841520786728342], [73.6347169929775, 31.836723438847997], [73.63226823598983, 31.83191304278416], [73.63380605590805, 31.826744045096813], [73.6330614786247, 31.821701612078297], [73.63039834221453, 31.819592335219475], [73.62194455933752, 31.819184162726625], [73.61734177541038, 31.814179223818183], [73.61201605282228, 31.814638796771234], [73.6099364636515, 31.81782031801972], [73.6105981108142, 31.82837887027944], [73.60498734475051, 31.831836231941743], [73.60109877253342, 31.837912655439972]]], [[[73.58347082816991, 31.58109134865305], [73.57948849677302, 31.588544311213784], [73.58375435090774, 31.59431916612041], [73.58989888893333, 31.59405019786615], [73.5986000355961, 31.59763962696001], [73.60679540392017, 31.595074602124033], [73.60891465177053, 31.59726436198307], [73.61014519280577, 31.602749380613673], [73.61717555983296, 31.608399063399204], [73.62262343539207, 31.607531829265007], [73.62838962578108, 31.609847503665517], [73.6340393193593, 31.606511741747322], [73.63439584713103, 31.599719527792466], [73.63240017757319, 31.596907686986068], [73.62554592848956, 31.5962229370553], [73.61613130416147, 31.5915798609203], [73.61080588535079, 31.593171638783677], [73.60790868957402, 31.592239041644007], [73.60571603123681, 31.586508918143167], [73.59881832675043, 31.58028926289237], [73.5987597294943, 31.574325962335678], [73.59678217561877, 31.571849719784563], [73.58982129336282, 31.569995046354826], [73.58570747358576, 31.571846698032655], [73.58374764697848, 31.5747241410792], [73.58347082816991, 31.58109134865305]]], [[[73.60640732828446, 31.721832530400455], [73.60684882714492, 31.726403746955143], [73.61011522904631, 31.729687150904702], [73.61332397333642, 31.729954923913883], [73.62135207673572, 31.724779304247523], [73.62326075997669, 31.720787069412086], [73.62777052879069, 31.717226781262518], [73.62809503032872, 31.713653452380633], [73.62402766737661, 31.708855872570464], [73.62038117286909, 31.70841033639694], [73.6159365093174, 31.711384940350246], [73.61360924842378, 31.71656256867714], [73.60640732828446, 31.721832530400455]]], [[[73.59103901153817, 31.64992040526142], [73.5943467263098, 31.650916628254954], [73.60118034956407, 31.64843132786854], [73.60726363796284, 31.648951339337035], [73.61460092647451, 31.64342519283484], [73.6151749171383, 31.639285038593687], [73.60966363796389, 31.6335439722231], [73.60597183082503, 31.633327267273216], [73.588519079922, 31.64273359504706], [73.58772714440958, 31.64670826864565], [73.59103901153817, 31.64992040526142]]], [[[73.57493024044308, 31.97973811048601], [73.57578813429296, 31.987246193993748], [73.58174094151497, 31.995411124833424], [73.5855174467913, 31.996829332899026], [73.59043844718738, 31.994104129115854], [73.59290347180492, 31.98740804710248], [73.6083649933353, 31.982951376225728], [73.61058708611674, 31.979220176699652], [73.60557039322214, 31.968861030268233], [73.60039438989082, 31.96594785574265], [73.57785664220702, 31.973618304019926], [73.57496712584916, 31.97631442213895], [73.57493024044308, 31.97973811048601]]], [[[73.56565324863789, 31.69420067773], [73.5714419398858, 31.70424052734827], [73.57672043600313, 31.707009700785306], [73.58288137370653, 31.70446511398389], [73.58826201799167, 31.704708121713654], [73.59223462182648, 31.700982523842384], [73.59179498268101, 31.697922289425033], [73.58835870749702, 31.694451679020318], [73.58031577345605, 31.69376085426209], [73.57371498200969, 31.687385320541328], [73.56741510743045, 31.689957977134906], [73.56565324863789, 31.69420067773]]], [[[73.56541416982813, 31.734975891759355], [73.57171596801045, 31.74063001463243], [73.57157005142231, 31.750114147031514], [73.57926956578267, 31.75358473782998], [73.58467545161558, 31.750031880024586], [73.5918637153764, 31.732025126440615], [73.58115419509141, 31.720217265415698], [73.57165213544253, 31.7162943845162], [73.56918387297162, 31.717533272547936], [73.56666478777315, 31.721810547454226], [73.56678807924595, 31.726834716446938], [73.56449249017902, 31.731907197324066], [73.56541416982813, 31.734975891759355]]], [[[73.53836921996545, 31.646559894419408], [73.54159614275663, 31.650291886779385], [73.54460392027593, 31.65093935352882], [73.55113213819006, 31.646625892899383], [73.55937831701942, 31.647710752655303], [73.56268333839127, 31.645564698713585], [73.56357192115428, 31.642348334548892], [73.55794129321184, 31.63665411558306], [73.55130753429926, 31.63815984722118], [73.54530254896751, 31.636113815064945], [73.53738499533185, 31.64081948570988], [73.53669294586574, 31.643821382206397], [73.53836921996545, 31.646559894419408]]], [[[73.51268362546261, 31.58154781466244], [73.5120333774223, 31.585600356811323], [73.5157608690628, 31.589830743202292], [73.52569449993844, 31.589143286231113], [73.53315307522242, 31.581670144500503], [73.53461326184109, 31.57688399480484], [73.53185491067582, 31.573721962805365], [73.52285686009456, 31.572733647648047], [73.51268362546261, 31.58154781466244]]], [[[73.5385578676952, 31.586431228047953], [73.5368524198529, 31.590566283681003], [73.53747852516781, 31.593403972429417], [73.5449647891537, 31.596786312474052], [73.55006959555742, 31.603831780504642], [73.5549203428193, 31.60458422948605], [73.56050245548789, 31.600677388324993], [73.56121713923122, 31.595062119186633], [73.54975853764176, 31.582470710665287], [73.54576148388882, 31.581983465014282], [73.5385578676952, 31.586431228047953]]], [[[73.5242769911018, 31.93668710466581], [73.5314090495422, 31.951335437614656], [73.54120692946665, 31.95267794100487], [73.54501612951724, 31.950515132826574], [73.54481632899301, 31.94468262329287], [73.53657476994638, 31.93823085645915], [73.5313163627358, 31.9306073725318], [73.52802357932197, 31.929633141928328], [73.52526537578535, 31.930694489640477], [73.5242769911018, 31.93668710466581]]], [[[73.48472512598178, 31.874852236176004], [73.48783219703837, 31.875546726169524], [73.50725169530354, 31.872468053969598], [73.51348124701292, 31.873754344079654], [73.51948826955864, 31.867933414100694], [73.53885819858078, 31.86087047559291], [73.5404367641342, 31.856231907862345], [73.5359289405255, 31.852957800000002], [73.5218297566361, 31.853572208464268], [73.51470573517847, 31.856310155426147], [73.50818336374225, 31.85562690222031], [73.50228661581181, 31.85047559766885], [73.49887559749442, 31.850164560650477], [73.4933225779591, 31.853078567661093], [73.4902843096071, 31.862534676991956], [73.48437575848327, 31.86401220734162], [73.48030210043557, 31.867624954414], [73.48045660674327, 31.871767564176427], [73.48472512598178, 31.874852236176004]]], [[[73.42500680320644, 31.57826438646506], [73.42613320790765, 31.58108883994482], [73.42919902974148, 31.582480563223903], [73.43622297517595, 31.57902915467724], [73.44559786228058, 31.581567376427184], [73.44839597988519, 31.58453949141915], [73.44948911711177, 31.589579705385685], [73.45413529353033, 31.592611678026312], [73.46062946442181, 31.589266497022194], [73.46849814942995, 31.59008235807913], [73.48004133221139, 31.586528553601127], [73.48887860419161, 31.5883486608003], [73.49096859061409, 31.591881640387303], [73.4893476045813, 31.59914679269876], [73.49344991239833, 31.605357651752467], [73.49434237558489, 31.619221177108788], [73.50055280318901, 31.623254928220796], [73.50630685627343, 31.618753070536282], [73.50702728210817, 31.609325792327677], [73.50400570492768, 31.603689075383826], [73.50517216872984, 31.597855985627884], [73.50330025363999, 31.594092694642217], [73.49655022736233, 31.589985795273734], [73.49553636925864, 31.58702578486346], [73.50037625152186, 31.580309247475427], [73.50005452054877, 31.57360443514521], [73.50885233792785, 31.56026542841074], [73.50560675154576, 31.55506202683162], [73.5057919232501, 31.54906455257647], [73.49809590699847, 31.538614666276906], [73.49486358880834, 31.538445085703874], [73.48943508633062, 31.542185417902438], [73.48707109036965, 31.550323512570042], [73.47092414986972, 31.559102629856508], [73.45443836130885, 31.55951278120029], [73.44446658746615, 31.557495676838947], [73.4400788068587, 31.562124970501973], [73.43670507790465, 31.569215766640227], [73.42596241953113, 31.572642145123947], [73.42500680320644, 31.57826438646506]]], [[[73.42600691356633, 31.796694276519734], [73.4333038960744, 31.796489823388043], [73.43819336286967, 31.793821373689173], [73.44441649023679, 31.787401946345682], [73.44558147636023, 31.77721911636668], [73.44266077410818, 31.772831456695826], [73.43712313263185, 31.770795855478728], [73.4321460780201, 31.772450619443756], [73.42901299238201, 31.778008264770943], [73.43008094857237, 31.78471919427777], [73.42428754223833, 31.791022917140833], [73.42600691356633, 31.796694276519734]]], [[[73.35003587109814, 31.722496220718654], [73.35181977574378, 31.72672337509842], [73.35478591597702, 31.728353070821434], [73.3704186207718, 31.72704850745305], [73.37985397594059, 31.73025347327473], [73.3876432085952, 31.72879523492777], [73.39683615217997, 31.723696648979725], [73.3994747348345, 31.715439945864468], [73.41068824137504, 31.712390882106032], [73.41255807140702, 31.705922883453564], [73.41849987341313, 31.70176651742297], [73.41887526123631, 31.697483882066475], [73.41615700596854, 31.694639426081903], [73.41283286768729, 31.69416027630595], [73.40074582905768, 31.701256304378695], [73.38735768018947, 31.702081693654545], [73.38067039070569, 31.706943136985323], [73.36949164287346, 31.702750223601992], [73.35738732089165, 31.708761576009753], [73.35557031679161, 31.715376600067355], [73.3511662267103, 31.718936653053973], [73.35003587109814, 31.722496220718654]]], [[[73.38070334805339, 31.88188329240056], [73.37881660497997, 31.876333156169647], [73.37669912637561, 31.87459833270135], [73.36571831126028, 31.876528530866768], [73.36325972732136, 31.879550760538503], [73.36336264036399, 31.889230652039682], [73.36694476459354, 31.891676653647252], [73.37909241097334, 31.890182744208538], [73.38154294626182, 31.88731355420874], [73.38070334805339, 31.88188329240056]]], [[[73.35149381278697, 31.601524143333002], [73.35271025612987, 31.60630044839893], [73.35691420678205, 31.608883263879353], [73.36012040130066, 31.608350029009205], [73.36576345219261, 31.602224353282043], [73.3664331244425, 31.597457070877343], [73.37021767123161, 31.592448959002905], [73.36958355864174, 31.5890968222367], [73.3629492650265, 31.584516761507334], [73.35935639048562, 31.58496395753018], [73.35588227116067, 31.58925142280497], [73.35636905571333, 31.595731025088025], [73.35149381278697, 31.601524143333002]]], [[[73.320083800421, 31.557944961260354], [73.31967048477023, 31.562525213723344], [73.32640654573514, 31.56788922316112], [73.32916599188111, 31.574059288309954], [73.33283268561283, 31.575707569814956], [73.33875760764951, 31.574171159483612], [73.34797044689196, 31.57815312801165], [73.35410742022164, 31.573300265228742], [73.35427092670541, 31.568808120511743], [73.35233065950472, 31.56673843450877], [73.33944121131675, 31.56163531285241], [73.33842679251921, 31.55456169088474], [73.34203089394936, 31.5525468458815], [73.34847822885612, 31.555331349294068], [73.3534746290238, 31.554379699147262], [73.359530023106, 31.55613065988139], [73.36516670976788, 31.5511929415334], [73.3658643204586, 31.5478659321864], [73.36099856856482, 31.542604311693644], [73.35321172617196, 31.545143260689272], [73.34583337113908, 31.541563608079013], [73.34031858086425, 31.54564890590071], [73.3374934555364, 31.553073847785303], [73.33440919893137, 31.553498417098186], [73.32659516894299, 31.550332566657417], [73.320083800421, 31.557944961260354]]], [[[73.27115082333131, 31.66928848228621], [73.2727689793394, 31.672210613162985], [73.27795837859036, 31.67444032588156], [73.28053943191223, 31.679695904046604], [73.28744548602546, 31.681415872974668], [73.29596377486828, 31.674303424242773], [73.29734052648782, 31.662489745070932], [73.29483031609963, 31.658950067531013], [73.29012671751109, 31.65777928842512], [73.28152107987235, 31.664142228590237], [73.27302659661615, 31.66436115902406], [73.27115082333131, 31.66928848228621]]], [[[73.25827776006764, 31.897333312763983], [73.2558504793542, 31.900239548918474], [73.25668635097813, 31.90526607184716], [73.26578276157002, 31.909287093409212], [73.27058730233763, 31.917321598777686], [73.27497194113812, 31.91848517372512], [73.28066674963495, 31.913916339146848], [73.28114914252681, 31.908831959088843], [73.2870335085572, 31.89939138273154], [73.28773449162065, 31.890325970966696], [73.28487189499184, 31.88737932593628], [73.26548058231123, 31.884353770673997], [73.26102266995146, 31.886781709326808], [73.2609806204402, 31.89466454693783], [73.25827776006764, 31.897333312763983]]]]}, "properties": {}}