{"type": "Feature", "properties": {"city": "Los Mochis", "country": "Mexico", "real_area": 49.77}, "geometry": {"type": "LineString", "coordinates": [[-109.032985878193, 25.7754708786303], [-109.032181598505, 25.7702617247245], [-109.026769021549, 25.7682854535072], [-109.022160409271, 25.7715182161949], [-109.016747915163, 25.7695415736803], [-109.015944348255, 25.7643322886124], [-109.010532252096, 25.7623553950457], [-109.009728989778, 25.7571460392688], [-109.004317291641, 25.7551688948777], [-109.003514333866, 25.7499594686368], [-108.998103033823, 25.7479820736492], [-108.997300380548, 25.7427725771891], [-108.991889478669, 25.7407949318328], [-108.987280915698, 25.7440266624225], [-108.981870097797, 25.7420486462943], [-108.977261210763, 25.7452800657207], [-108.978063047613, 25.750489681465], [-108.973453742577, 25.7537209697518], [-108.974255475581, 25.7589305749372], [-108.969645752513, 25.7621617318411], [-108.970447381628, 25.7673713262345], [-108.965837240497, 25.7706023515121], [-108.960425564619, 25.7686236023397], [-108.955815099874, 25.7718543157685], [-108.956616216507, 25.7770639583323], [-108.962028206455, 25.7790428282885], [-108.962829627665, 25.7842524003991], [-108.968242016679, 25.7862310198394], [-108.96904374251, 25.7914405212518], [-108.964432670706, 25.7946714624477], [-108.965234292555, 25.7998809522078], [-108.970647394875, 25.8018594414977], [-108.975258561017, 25.7986283204176], [-108.980671747949, 25.8006064381424], [-108.981474083158, 25.8058157974236], [-108.976862822795, 25.8090470983708], [-108.971449321425, 25.8070688601532], [-108.966837736947, 25.8102998487547], [-108.967639559506, 25.8155092553635], [-108.973053375302, 25.8174876140845], [-108.973855502644, 25.8226969491823], [-108.979269717543, 25.8246750565027], [-108.980072149712, 25.8298843198447], [-108.985486763643, 25.8318621755365], [-108.990098630707, 25.8286306475675], [-108.995513328793, 25.830608131201], [-109.000124871118, 25.8273762907545], [-108.999321621505, 25.822167146507], [-109.003932745159, 25.8189351735815], [-109.009347212108, 25.8209121650601], [-109.013958010694, 25.8176798799782], [-109.013154248779, 25.812470783355], [-109.017764628666, 25.80923836622], [-109.023178863851, 25.81121486576], [-109.027788918341, 25.8079821367898], [-109.033203236393, 25.8099582644449], [-109.03781296522, 25.8067252237783], [-109.037008282949, 25.8015162355422], [-109.041617592987, 25.798283063431], [-109.040812807276, 25.7930740636483], [-109.045421698556, 25.789840760336], [-109.044616809447, 25.7846317492396], [-109.039203437205, 25.7826559810641], [-109.038398852829, 25.7774468984406], [-109.032985878193, 25.7754708786303]]}}