{"type": "Feature", "geometry": {"type": "MultiPolygon", "coordinates": [[[[-102.09549716331207, 21.815003980676845], [-102.09701317079623, 21.818352129411043], [-102.0950657536778, 21.821865081188086], [-102.08578551983231, 21.824063638058213], [-102.07461154890736, 21.814962266775765], [-102.0730871413351, 21.809141334311008], [-102.07625514184959, 21.803514477688193], [-102.0808124108483, 21.80293409849273], [-102.08537600775225, 21.80921615698324], [-102.09549716331207, 21.815003980676845]]], [[[-102.36629899796004, 21.950503017128046], [-102.35682673601553, 21.959632802007], [-102.34946357710253, 21.960216741803293], [-102.34477335452411, 21.964923725310946], [-102.33774257575618, 21.965029878594056], [-102.33357518803827, 21.97362113487979], [-102.32222042289621, 21.97242355113236], [-102.31108009334788, 21.977961089350377], [-102.30076624536161, 21.97566562499112], [-102.29759860942045, 21.97716534166228], [-102.29635245347097, 21.984484875840064], [-102.30080086479839, 22.002730847258487], [-102.29174430111374, 22.012782026375046], [-102.28920675750217, 22.023676279591253], [-102.28515296706816, 22.029196920465484], [-102.2864366647838, 22.032312122001372], [-102.29159140358655, 22.03550169775891], [-102.29341940852747, 22.04591507022539], [-102.28382898500269, 22.048374161843213], [-102.28096309506789, 22.052317310021042], [-102.28302134438019, 22.058779530882077], [-102.28282969279422, 22.06699534973047], [-102.28146094634474, 22.080411165812027], [-102.27934505962308, 22.08600562891065], [-102.27669215865765, 22.087436318835806], [-102.27025342049492, 22.087172411904042], [-102.26304821470893, 22.08509866758471], [-102.26069129074631, 22.07792017411078], [-102.25573930910065, 22.072548119537267], [-102.25572545275585, 22.061757454462516], [-102.26205029901155, 22.05398276716739], [-102.26192620894561, 22.037280468723864], [-102.2582327432405, 22.025807286330448], [-102.26310656670167, 22.017192672406143], [-102.27810551705666, 22.01673418725896], [-102.28101305063622, 22.015000127003116], [-102.283021654361, 22.004896580263495], [-102.27967285918781, 21.99908249150548], [-102.28059160705801, 21.990743805363664], [-102.27786920850205, 21.987756988341783], [-102.25891581107545, 21.98450720046351], [-102.24572645393135, 21.98711779547323], [-102.24210850516631, 21.984912745274293], [-102.23993232466724, 21.976815302373407], [-102.24527637723695, 21.972620409636104], [-102.24627348824934, 21.97010762793728], [-102.23945125795738, 21.96115007229221], [-102.2427363121309, 21.94853625064612], [-102.23838949746047, 21.943940686290965], [-102.23716070497512, 21.93457407369017], [-102.2333569291918, 21.929731374340413], [-102.2349807257808, 21.921602880220465], [-102.228052371774, 21.9133639619055], [-102.23260714013406, 21.90391606975132], [-102.23073783877265, 21.896541245178387], [-102.22568550677767, 21.886735232166053], [-102.22209798965707, 21.88354507063799], [-102.2203934973296, 21.878536320765896], [-102.22436371916778, 21.868865002088437], [-102.22330951096454, 21.862222617205024], [-102.22847682078249, 21.856463667229526], [-102.23112475197468, 21.84874742108215], [-102.24212353605999, 21.84204992739168], [-102.24684837827476, 21.835853068321537], [-102.25575317915535, 21.833777248401475], [-102.2577739584839, 21.83191463077601], [-102.25863747361363, 21.826570359259247], [-102.26201043746889, 21.82256314712279], [-102.26256599213797, 21.817070572204027], [-102.25919033357296, 21.810830901718695], [-102.259358087826, 21.80507893096264], [-102.26247038364235, 21.80053935129586], [-102.26941464841222, 21.79768974014897], [-102.27087525775976, 21.79330988244133], [-102.26853295267671, 21.785856835655686], [-102.270587755902, 21.78276885467297], [-102.28148054580433, 21.78043870318501], [-102.28391830016955, 21.78241785748465], [-102.28537920210469, 21.789887861859846], [-102.28734827722995, 21.792109784475894], [-102.2919087493912, 21.792495068328623], [-102.29672671063203, 21.789703434389274], [-102.30118507096583, 21.79102848291757], [-102.30309982811912, 21.79708915680778], [-102.30791713920982, 21.80151710837969], [-102.3094885295196, 21.810849756618396], [-102.30862001029432, 21.818825593551164], [-102.31297039311828, 21.820662461855008], [-102.32008982538613, 21.816286593755056], [-102.32863825090502, 21.817368627859324], [-102.33012488016566, 21.824925519872572], [-102.33407595585344, 21.830168968845], [-102.33270340952305, 21.836286820364343], [-102.33497188518047, 21.839506277413232], [-102.3383232789148, 21.8397871917016], [-102.34320103897066, 21.83688240326381], [-102.34951893257244, 21.839235747004725], [-102.35801215991326, 21.837402222839284], [-102.36357559308819, 21.841393198789884], [-102.36388418180202, 21.850768530837257], [-102.35678631557222, 21.861507141524903], [-102.35938977513698, 21.86806267375008], [-102.35802704626406, 21.87474953923019], [-102.35339393621842, 21.87848886293], [-102.35174180529954, 21.882905356589617], [-102.34770057341315, 21.886710311253804], [-102.34701625300681, 21.890911736954987], [-102.35266387519904, 21.89941056625418], [-102.35889704749242, 21.900679753046663], [-102.36426633840112, 21.905395226446227], [-102.36512114270407, 21.911375206906197], [-102.36325785066359, 21.916276392573884], [-102.36046940882215, 21.917403596210796], [-102.3533029263147, 21.916387494421674], [-102.35038766310689, 21.918771866702784], [-102.35053589641844, 21.935338597852073], [-102.35707262253416, 21.9416645750612], [-102.36604894156297, 21.944822055765087], [-102.36735639414798, 21.9475735970796], [-102.36629899796004, 21.950503017128046]], [[-102.29436567522127, 21.822346057181043], [-102.29723820659778, 21.821356016972253], [-102.29859473142942, 21.8182438078732], [-102.29707082303821, 21.81521004646032], [-102.29381382756914, 21.814258554981553], [-102.29105908364065, 21.815626793734918], [-102.29009001398501, 21.818545970913554], [-102.29143088302457, 21.82131004488485], [-102.29436567522127, 21.822346057181043]], [[-102.30793222720828, 21.822295711599228], [-102.30854262929343, 21.819240771368882], [-102.306429061749, 21.81647650877764], [-102.3021335989724, 21.81591490742168], [-102.29946327972247, 21.817990406216193], [-102.29933779032156, 21.821370132914144], [-102.3024287823143, 21.824476171156547], [-102.30547602061182, 21.824633914769773], [-102.30793222720828, 21.822295711599228]]], [[[-102.29521555343754, 22.04717180686292], [-102.30314764364886, 22.044195961479964], [-102.31969497066349, 22.047969845619097], [-102.32187005492752, 22.051535818625982], [-102.31958984631852, 22.060800628989238], [-102.31543762511419, 22.062851665144297], [-102.29760248681734, 22.057004768356467], [-102.29554388723712, 22.054341192848444], [-102.29521555343754, 22.04717180686292]]], [[[-102.33188053134332, 21.722398986312562], [-102.33441954492902, 21.726414827341102], [-102.33284050318377, 21.733207388982756], [-102.33045695127204, 21.73542955515835], [-102.30988472369465, 21.72972853453811], [-102.30572480243943, 21.73145520706031], [-102.30437315716738, 21.735459934865496], [-102.30080224079832, 21.73876619668726], [-102.30014466085649, 21.743791288129902], [-102.30251345940442, 21.74679008709127], [-102.30850192363579, 21.74777892405483], [-102.31007291012862, 21.751181028299364], [-102.30720134727315, 21.76110923822982], [-102.30383173558175, 21.763379744567413], [-102.29654367463587, 21.759698684321876], [-102.29235085836, 21.755593007350974], [-102.28430243414057, 21.754979723079256], [-102.27358632056499, 21.757574881022087], [-102.26798647668107, 21.75530278152043], [-102.26480160260802, 21.739821787859576], [-102.25666624600655, 21.726335886900316], [-102.2577815580159, 21.723375145528607], [-102.26114423528266, 21.72161501414288], [-102.26373429551595, 21.722516154959184], [-102.2706002482091, 21.72981306449741], [-102.28100463477075, 21.726833155531853], [-102.28327592677181, 21.723187300935827], [-102.28117316879279, 21.715673367295288], [-102.28435941409047, 21.711072934222717], [-102.29094997327778, 21.706058998030137], [-102.29546027156697, 21.70801236118725], [-102.30048172405922, 21.713252416912944], [-102.30227621558859, 21.72074046693165], [-102.30578392928605, 21.7236914992769], [-102.30885396937806, 21.72372812318493], [-102.3211580791852, 21.71760926714986], [-102.33188053134332, 21.722398986312562]]], [[[-102.29502934282435, 22.1504521353051], [-102.29293212979577, 22.156550573221388], [-102.29075515513564, 22.158333270752685], [-102.28066802798313, 22.15777936800652], [-102.27557894382106, 22.16027400733321], [-102.26728172015773, 22.159187598705177], [-102.26539158263986, 22.15657512104469], [-102.26439187063109, 22.144713508373254], [-102.26682532133223, 22.134967129778506], [-102.26988129091262, 22.13293844096122], [-102.28462565537166, 22.132533743097646], [-102.28790949795238, 22.136377326769942], [-102.2936288822338, 22.13910961998081], [-102.29660923808872, 22.146729748196357], [-102.29502934282435, 22.1504521353051]]], [[[-102.35889561758027, 21.772880005041035], [-102.36161463541092, 21.77655821567791], [-102.36037824047024, 21.782085870462815], [-102.3561046425308, 21.789475175501273], [-102.35290878801322, 21.79166974777642], [-102.34834776232579, 21.792450293845988], [-102.33709659143895, 21.784916945171087], [-102.33766273670965, 21.779958365500935], [-102.34534674931066, 21.770880212012173], [-102.35625595689172, 21.77111385929438], [-102.35889561758027, 21.772880005041035]]]]}, "properties": {}}