{"type": "Feature", "geometry": {"type": "MultiPolygon", "coordinates": [[[[-75.94123754665127, 4.263652927648881], [-75.94195918087551, 4.2665716800514355], [-75.9395818151425, 4.276656027797986], [-75.94064756670429, 4.281778870208607], [-75.93752550752481, 4.285550514536638], [-75.93227502012769, 4.285040734469939], [-75.9288863202833, 4.280352022739185], [-75.92014613472456, 4.276165940726529], [-75.92070793067614, 4.2695664351821865], [-75.91916463207522, 4.2641709025518235], [-75.92397171056902, 4.256773649289899], [-75.93681936546034, 4.254047080424336], [-75.93943938209011, 4.257091406400975], [-75.94123754665127, 4.263652927648881]]], [[[-75.93624573327438, 4.216145569558705], [-75.93414222241778, 4.2187690939918605], [-75.93075305549776, 4.219329989898995], [-75.92812655580147, 4.217640550162738], [-75.92739972981697, 4.214434376679084], [-75.92928474895771, 4.2112815458965445], [-75.93282673574113, 4.210689531300818], [-75.93582750203252, 4.21267158628317], [-75.93624573327438, 4.216145569558705]]], [[[-76.07949557796815, 4.317488229107116], [-76.07479182651939, 4.31850528247359], [-76.06932095414882, 4.3147787997042135], [-76.06831039555532, 4.311506866391451], [-76.06997445919544, 4.307361158918995], [-76.07375137952756, 4.3064177690463445], [-76.08122018429185, 4.310541519289104], [-76.08219248578732, 4.314408516162874], [-76.07949557796815, 4.317488229107116]]], [[[-76.21337380095129, 4.103822768966279], [-76.21066466573774, 4.108813266426223], [-76.20423555576446, 4.111546085471303], [-76.2006380721176, 4.108400844690695], [-76.19878377041394, 4.1021677877122045], [-76.19482671224581, 4.097250447383627], [-76.18473540190341, 4.098909783456092], [-76.17964225755888, 4.103070843293747], [-76.17641510595566, 4.102625892604434], [-76.17061536625404, 4.094100632502406], [-76.17049772610379, 4.090353412172369], [-76.17669216348736, 4.0856913671381765], [-76.18344376068039, 4.089874395529902], [-76.18988557396698, 4.089497496726894], [-76.1952275322935, 4.09602150474748], [-76.20162114869892, 4.094823681391496], [-76.21065301437183, 4.097299232595853], [-76.21337380095129, 4.103822768966279]]], [[[-76.20920449782218, 4.061411222873273], [-76.21050469852737, 4.064165803611655], [-76.20948147507056, 4.067810355373454], [-76.20053491154567, 4.074267426798577], [-76.19773848638968, 4.081088691996755], [-76.19375972920741, 4.081704366255251], [-76.18646590650573, 4.078148079306651], [-76.1858198654642, 4.074776046849004], [-76.1890687420076, 4.068253828167411], [-76.1943560213182, 4.063169513781297], [-76.19737997569277, 4.057437282386814], [-76.20107648453425, 4.056908741541447], [-76.20920449782218, 4.061411222873273]]], [[[-76.22749167389915, 4.007439149220771], [-76.22805815345694, 4.011773272727796], [-76.22206051420739, 4.019428793761602], [-76.21908430655405, 4.020432134637474], [-76.21511542033116, 4.018637635617821], [-76.2147684382797, 4.013709404514492], [-76.22076544707753, 4.006539209292728], [-76.22408765899858, 4.005531162978949], [-76.22749167389915, 4.007439149220771]]], [[[-76.28328046941824, 3.9398274623943887], [-76.28093733466218, 3.9423969402884187], [-76.28209168610049, 3.9484425542007298], [-76.28005594180347, 3.951910653988273], [-76.27573568789877, 3.95319770373399], [-76.27190424694166, 3.9512790190521305], [-76.27094992948656, 3.946964741327085], [-76.27546320478632, 3.94020847748465], [-76.27400436223876, 3.9336845807820873], [-76.27689547189381, 3.9300053682505776], [-76.28205470522434, 3.929100118900249], [-76.28615195783864, 3.931536879656205], [-76.28574752683804, 3.937346296194544], [-76.28328046941824, 3.9398274623943887]]], [[[-76.29648151221622, 4.155955700952965], [-76.29659854378197, 4.162014995979333], [-76.28809926503182, 4.167228288766349], [-76.28333029951173, 4.164796495965278], [-76.27948375379835, 4.154338802187129], [-76.2823219117214, 4.149554389358475], [-76.28909776073179, 4.1478046976885325], [-76.29380413220805, 4.151368989480594], [-76.29648151221622, 4.155955700952965]]], [[[-76.3283755159792, 4.207646666316333], [-76.32627735867403, 4.217451099016711], [-76.32423596380066, 4.22038621003848], [-76.31814102489648, 4.222939728527632], [-76.31162790929645, 4.220211889994096], [-76.31053870522749, 4.215218532309689], [-76.3126784321027, 4.206989256269624], [-76.32292910575573, 4.200624463729416], [-76.3277160611549, 4.203896883744618], [-76.3283755159792, 4.207646666316333]]]]}, "properties": {}}