{"type": "Feature", "geometry": {"type": "Polygon", "coordinates": [[[3.091089357337053, 6.46156189817306], [3.0935525425532444, 6.46673571161112], [3.1041783512303294, 6.467547028080085], [3.10991979396209, 6.47013215633002], [3.1142234341976835, 6.474612595751899], [3.114922815385953, 6.480543761635765], [3.1173263535002627, 6.483987979832836], [3.13458494073236, 6.487287603828658], [3.138267408326609, 6.495428190579674], [3.1446996256196145, 6.498718853817474], [3.146778059035109, 6.50511205356031], [3.157879734852738, 6.510513767642023], [3.1581081561729016, 6.513897999821573], [3.154696890551284, 6.520036246481418], [3.155310760677427, 6.5254133775727805], [3.1580609606017607, 6.527574691793651], [3.1650579988248633, 6.527224174600374], [3.1680083078842167, 6.530814644093031], [3.1674449917096474, 6.538679928444719], [3.157016407428166, 6.541775521566236], [3.1541701808575193, 6.549653100698901], [3.1546876837339006, 6.556505895604867], [3.157762510543202, 6.560552560563228], [3.1625985296459933, 6.5756521228764875], [3.1620678286795783, 6.580463577051236], [3.1634183263181104, 6.583804222296433], [3.1668640795705265, 6.585905992621391], [3.1767896760702254, 6.5863448203981525], [3.1839423798431192, 6.582179115943554], [3.1890490127045372, 6.576149298657461], [3.192765902728262, 6.575688650446971], [3.2097611150221668, 6.593450582119298], [3.2248370689671604, 6.603814538175533], [3.235310448461458, 6.6148633681644515], [3.23613069517106, 6.625875670715742], [3.234700350648696, 6.642532501593925], [3.2361090356915017, 6.653985958421253], [3.238617232290676, 6.663664112462266], [3.251161191813607, 6.682088760977141], [3.250146601607787, 6.686700656529821], [3.232080578513558, 6.687781381290232], [3.2088280235907374, 6.676753109225024], [3.1981593840748936, 6.659734182879398], [3.1924146519385737, 6.659561171700488], [3.1852444666095043, 6.662262784782122], [3.1832480608815317, 6.664922466373903], [3.185798588680093, 6.673669193110135], [3.184911540014501, 6.682304452774897], [3.1862434349356663, 6.686166271104619], [3.190647131353518, 6.687614595691679], [3.200740332196777, 6.686538893356568], [3.2036337182622514, 6.688960422707666], [3.2042083064303917, 6.702036301816428], [3.208764927779753, 6.706949194199021], [3.2082904740254974, 6.714051134442052], [3.211093535897824, 6.718926682209984], [3.209381068349093, 6.722955562659146], [3.2053169970439934, 6.723219801361253], [3.2013782577809162, 6.719079634454679], [3.1973232848585997, 6.7078152091025816], [3.1933565135158353, 6.703351125118905], [3.171875311726305, 6.694665000163111], [3.17076412386132, 6.692205871424524], [3.1714050539949032, 6.681490572017563], [3.165322592455172, 6.677646937270626], [3.162718817912908, 6.67216836518315], [3.156805460055701, 6.670946872811581], [3.150922270756172, 6.674453265563162], [3.1492781546678494, 6.679347263046264], [3.15206025713917, 6.686855004051487], [3.1500368878426297, 6.69325051695605], [3.1512101873260696, 6.710533238050342], [3.1499295419027806, 6.7160475080850395], [3.1556790007963382, 6.732689737560665], [3.1559398829402454, 6.73773992508449], [3.1655104007897004, 6.750026269328196], [3.1633354651559773, 6.757215142383048], [3.166007993631578, 6.763576525739503], [3.1744248168398355, 6.765324204615692], [3.1927094789270147, 6.76203649107187], [3.2126714207305884, 6.751789471883831], [3.2194152588665723, 6.740844067225158], [3.2297745920677716, 6.741301731817926], [3.2348556678978104, 6.739053738480039], [3.256829143312076, 6.743457342417747], [3.257478746770453, 6.747231454260296], [3.251936883019596, 6.759227972829955], [3.2545852003848927, 6.7635023757812425], [3.258756604374632, 6.764477858992243], [3.268123641705075, 6.761198934891499], [3.274797247439353, 6.763875809800267], [3.2796442764719114, 6.763419613779943], [3.307347493348266, 6.775202159345206], [3.3123473037925546, 6.774488342096845], [3.3171356583657325, 6.769634196440906], [3.3256327548784097, 6.771327972608818], [3.3334778020082636, 6.7646865260775835], [3.3339177234855075, 6.75849874922805], [3.3375075842064823, 6.755082411515954], [3.339022401033797, 6.750459094060943], [3.3396887736108187, 6.742903006021843], [3.346240845681222, 6.737187777306885], [3.348496436012938, 6.73262904226348], [3.3570381788167736, 6.72901992299328], [3.3620134970418785, 6.720676373061706], [3.362356012686148, 6.711280375163923], [3.370487618732116, 6.70349079819068], [3.374523559407849, 6.703062224538544], [3.3769630322769086, 6.706407981172645], [3.3778233790836283, 6.7213688590206875], [3.382154964665899, 6.727738454780598], [3.378647615412845, 6.734983477542132], [3.3794622705907087, 6.742080474743129], [3.3863128852032682, 6.7620295456826875], [3.3835904831840566, 6.770013105555581], [3.3772083907737467, 6.778003383680917], [3.3780191127499135, 6.784313642069902], [3.3768265747852078, 6.790054891092305], [3.3827299485828908, 6.795357642395208], [3.389506967166834, 6.796658446935564], [3.3931447284432874, 6.8067180671200695], [3.390264984988398, 6.8147928624702905], [3.3809999688673034, 6.823891602892794], [3.3801707785969275, 6.827135146352061], [3.385394150138752, 6.841955427242458], [3.3954088932369197, 6.843802089700417], [3.397923612354823, 6.8489403581744055], [3.4070212073874657, 6.859499943805351], [3.4179795502812023, 6.86101584496578], [3.439278680137914, 6.859191882696952], [3.449716771314025, 6.8647282493805974], [3.460967566970126, 6.863474092316058], [3.4654801844253944, 6.861034399912424], [3.4736304712908197, 6.861488081997523], [3.4799820633944547, 6.85614252428188], [3.478262830553231, 6.828643039075749], [3.4750955792246567, 6.809070898651968], [3.4706415845757554, 6.803502010025914], [3.467987829819822, 6.791695206909161], [3.4578291653605806, 6.781430155698741], [3.452836561922807, 6.768332509401645], [3.4466263599949722, 6.764836620430844], [3.4480176863386305, 6.755928114715878], [3.4412700878507296, 6.746278619368965], [3.4411512245838205, 6.737732961154759], [3.4444498853525682, 6.7324382381925485], [3.444362333601155, 6.723086310595072], [3.4426352700625316, 6.72049334842559], [3.437508294096571, 6.718618522007964], [3.436077469038185, 6.715609123418138], [3.441220596931484, 6.70420655712687], [3.441421561608305, 6.6957330840485945], [3.439711519492033, 6.691323701466526], [3.4407731391211756, 6.6884902017933605], [3.4701410930749654, 6.670938391760787], [3.474457977777075, 6.664364102580266], [3.4902319551627214, 6.663508867583435], [3.5080904305585037, 6.669931368032382], [3.509055766770546, 6.681218542587016], [3.5064628565682265, 6.691514768097943], [3.511302254450121, 6.697079708517755], [3.5163363911661754, 6.69813028416823], [3.523725326040242, 6.695265774907497], [3.5290749642522226, 6.690767497008689], [3.5381075044201364, 6.697011982551042], [3.5415150501409727, 6.697142899527928], [3.5492109866749355, 6.690763189935778], [3.5592916694630397, 6.670189586903639], [3.5752766703264163, 6.649396346368513], [3.5779359414970013, 6.64918597531688], [3.580349384007693, 6.651018922734198], [3.5801184667048913, 6.658161225421409], [3.582693334326278, 6.661485146965271], [3.595113083500788, 6.666478797727466], [3.6019655964773793, 6.667943712843203], [3.60549992673913, 6.666995389311296], [3.607504148840638, 6.663531793933524], [3.6071532477621484, 6.656050603132528], [3.6110651310641053, 6.650754729562342], [3.6114049545812885, 6.645804872135133], [3.6137738721109622, 6.642061097328491], [3.614787385128597, 6.632318698466499], [3.642369050538708, 6.616813593915022], [3.6447937310433605, 6.612970160112], [3.64779642067573, 6.599174177265904], [3.6507746058344166, 6.596079305368581], [3.653880368859184, 6.595474151006046], [3.6639204938747847, 6.5990675788534805], [3.6666545752796234, 6.597160696072135], [3.6678209429687185, 6.5934959584067405], [3.667413946163631, 6.588507227676351], [3.6628452477782667, 6.5814666352578595], [3.6517843441167077, 6.578450202281952], [3.6476712534211972, 6.573879086684211], [3.6425689300356576, 6.5728098460162245], [3.6377813426714547, 6.5674318735933355], [3.6294378267158818, 6.563567973801203], [3.62440012522462, 6.5633609509109245], [3.6155597018618693, 6.56935462718046], [3.612550247968646, 6.567762212006121], [3.6113655750608094, 6.562342996520615], [3.607517173371065, 6.558308561051996], [3.6016430491572815, 6.555918499819952], [3.580620447008889, 6.562187504929392], [3.5670877669335357, 6.559121031050432], [3.563062336184696, 6.553637577230879], [3.5686893358593, 6.541698689995511], [3.567345854459677, 6.537488665466781], [3.5567507834065415, 6.53111499819797], [3.5436410262917613, 6.534610379990556], [3.5344195379705385, 6.528779205663523], [3.5255933577689382, 6.5256833182295235], [3.518797373557983, 6.5268240721099415], [3.502014509756334, 6.534691550314945], [3.495457646557235, 6.533153457816968], [3.487255397039718, 6.53467159654943], [3.4810444807094836, 6.538381398641837], [3.468726571049335, 6.5509319020211345], [3.4673744823354196, 6.562844061886133], [3.4736285723188867, 6.577493337570821], [3.479616991073899, 6.582623117804367], [3.481022129983301, 6.590886230101225], [3.4757314030117525, 6.596578151485237], [3.476799776833089, 6.602768399607932], [3.4750271224288642, 6.605943357679238], [3.4680497726036457, 6.607940833636647], [3.4623116950182973, 6.614495780146414], [3.4547193371294616, 6.617206623285209], [3.4496466216528177, 6.617186140136079], [3.4455677839510246, 6.611403703279944], [3.445066501639542, 6.6053534561636145], [3.442014784275446, 6.602736027165778], [3.439071054169286, 6.602423588726419], [3.4308437320097367, 6.605623934704846], [3.424162590551888, 6.604007426278044], [3.420130258166215, 6.604820013570614], [3.4135062634829514, 6.600335530487725], [3.4101091945780007, 6.593605032445519], [3.4103976381830723, 6.590055727994759], [3.412726061743396, 6.587608251027225], [3.4191265025431656, 6.586185833088954], [3.420917992871888, 6.580646728034293], [3.413978494181583, 6.571787174888429], [3.4075368042123952, 6.56873745676013], [3.405945438430499, 6.566153691467291], [3.4124564261682537, 6.550046800001208], [3.4122554626714434, 6.539257135113621], [3.4085695416689603, 6.531172626521456], [3.4046667404663995, 6.527557985742645], [3.400010703639109, 6.512995382051513], [3.396168498260939, 6.51203959971881], [3.392207203441297, 6.51481434926393], [3.387874497635622, 6.51540754663123], [3.3802199657847556, 6.512300063422225], [3.376039641460737, 6.507637411113905], [3.375408798191456, 6.50210999062278], [3.3802634049493063, 6.496762848223409], [3.3887843443438936, 6.495970569990133], [3.3925106827827003, 6.4935131479295345], [3.39238341376641, 6.489692543930984], [3.3869931228390677, 6.4841263203254345], [3.3892127503158127, 6.478415390875636], [3.3891095804015747, 6.472666986970206], [3.3948468706749946, 6.468323923054328], [3.3996835920881225, 6.4615576796488305], [3.407933825334136, 6.460738282294397], [3.4212413297272453, 6.471904346357304], [3.427555002997572, 6.471666385036102], [3.4329826440896722, 6.469212673569084], [3.4394049701321383, 6.473404769266405], [3.4466091617642407, 6.472725908131193], [3.4569055296433944, 6.468262960353694], [3.457261188518584, 6.465104474530122], [3.4530824654445733, 6.456030903770534], [3.4549571234515257, 6.452756758477985], [3.459820235925007, 6.450549667827943], [3.4763747782149843, 6.45381478043335], [3.4771958915768395, 6.457196553245713], [3.4736036956422223, 6.4648176861467626], [3.478863899179101, 6.472322497755647], [3.4827334584276515, 6.471406475336853], [3.4851169598301586, 6.466154572123736], [3.4882261350997044, 6.464763320560319], [3.490736628087472, 6.465711623002622], [3.4948733677480748, 6.47097600049055], [3.509147600999784, 6.474873438853696], [3.5161140890022646, 6.47473271307759], [3.521852473380898, 6.4686236884749295], [3.528211131891492, 6.468362258417728], [3.5412073102037436, 6.4736291759595295], [3.552417049941865, 6.473652289476327], [3.5578500384095264, 6.471444239233107], [3.5667075927995415, 6.47700814618945], [3.571661997929389, 6.484318153423186], [3.576198969305573, 6.483894126801149], [3.5826255846367103, 6.480169874340789], [3.585576005215997, 6.4814399809540015], [3.5891007849061816, 6.485978593380873], [3.5980863233009845, 6.4860774720690815], [3.600680250252789, 6.483000009038485], [3.60048469049809, 6.4737491473376325], [3.6026721880012027, 6.471698642847135], [3.609493763492505, 6.4700530638325935], [3.611210270739944, 6.466218464370191], [3.610477766453719, 6.461626323428211], [3.6068854684157405, 6.459120289618611], [3.604044639483587, 6.454375966172768], [3.59497753358819, 6.451426601463063], [3.590367437525397, 6.445518079200871], [3.585006301614889, 6.44652580594794], [3.582307473370502, 6.455192981232806], [3.5800802399053886, 6.457304583914264], [3.574642306081148, 6.456851099482529], [3.5726286465796053, 6.452792442753721], [3.5772163076807257, 6.442219857188297], [3.5781082529695434, 6.4348721373139615], [3.5844586257877684, 6.433520582120373], [3.591967085308841, 6.435350177538427], [3.602342870491682, 6.433048460796954], [3.6063698264470805, 6.4300759958139615], [3.607528756506898, 6.426613153443912], [3.607251775660698, 6.423029905719749], [3.604561982746005, 6.421001875531207], [3.570964615149611, 6.4201906572536975], [3.5661302642032213, 6.423873518742427], [3.560223281571403, 6.425178898442502], [3.545204446916573, 6.4215534267199645], [3.530920985749704, 6.420647036797947], [3.524982149733793, 6.422188918540391], [3.5197413643205264, 6.4277480755654635], [3.509595085314565, 6.430228864887166], [3.49664335476987, 6.427178572120664], [3.4939600241865456, 6.419806603067561], [3.490090196479325, 6.417954151432402], [3.47434401663734, 6.418255704861544], [3.4691880055089155, 6.420626564509464], [3.446793403821559, 6.418554084245201], [3.436429443128893, 6.419951976161635], [3.433224960101354, 6.4160507200916195], [3.43390735719248, 6.409159130035615], [3.432112877261847, 6.40622547195093], [3.4275478377989015, 6.4049635301519485], [3.4194732330745223, 6.405943953095371], [3.415016324699779, 6.401133420093462], [3.405496325221456, 6.397069343388092], [3.399968485414384, 6.397221133885846], [3.396314855292426, 6.393156493772347], [3.3930222476650225, 6.392425156857205], [3.3822471773709957, 6.398647491274143], [3.3770978339945357, 6.404615626707682], [3.375993182415941, 6.410110737590242], [3.3735569312205818, 6.411855890201427], [3.3699973559501446, 6.411201622142778], [3.3666160563374024, 6.406986650011985], [3.3630374133456473, 6.406009495750541], [3.355918482683649, 6.411200023964087], [3.349763366447611, 6.412722633888504], [3.342543570350647, 6.409844438660806], [3.3350200826018783, 6.4147744210396995], [3.3214469316621407, 6.410497894601409], [3.307846970324873, 6.4132668420333285], [3.305969898720538, 6.418114381615514], [3.311883767134958, 6.424224204111578], [3.3098255676265245, 6.431919569003758], [3.3044144662866692, 6.435879020606621], [3.299485428280962, 6.4372108212458], [3.2971357622755226, 6.4425093364064265], [3.294907625902794, 6.444018395991774], [3.287467333304695, 6.443488719001609], [3.285045932767438, 6.440553621670057], [3.286674431062679, 6.428516590639477], [3.289835172827603, 6.423359953219825], [3.2898544335026627, 6.414524689140675], [3.288268831349996, 6.410724006041041], [3.28501082295617, 6.409755307726188], [3.272720959264882, 6.412584187014253], [3.2652473532817874, 6.409141722327137], [3.254247252379902, 6.407358295477392], [3.2450032425493243, 6.4126876601881095], [3.2410381670002963, 6.420160970385631], [3.241708499186249, 6.424271031173516], [3.248017539088462, 6.42897112574806], [3.2460465384683523, 6.434918469538094], [3.242794367154281, 6.435781857046899], [3.237426623692281, 6.433024329548859], [3.231189866547948, 6.434656411876182], [3.226350359037499, 6.432400929286484], [3.222546409125688, 6.433073764449832], [3.212250436329621, 6.440298855179222], [3.209168074127888, 6.44887532805871], [3.206777403054719, 6.450836293521313], [3.203702952403755, 6.450506980721091], [3.1978721115981465, 6.446374994155511], [3.1918244462102487, 6.446086387455372], [3.1878625947622865, 6.444186865609575], [3.1797907750876964, 6.444571165499429], [3.175866386632284, 6.438953323246045], [3.1729435150450307, 6.437912598286554], [3.1682053458153554, 6.439832487814317], [3.1646657141744248, 6.444581849861411], [3.158752478160924, 6.4486771514208865], [3.1530814931485027, 6.450718419142888], [3.1391871525786414, 6.451954082189672], [3.132124516915599, 6.4478468233233075], [3.1204052221941616, 6.453055121567424], [3.1025241206135523, 6.455076687774658], [3.0953193032831847, 6.453840869426253], [3.0918216817510595, 6.456692604747702], [3.091089357337053, 6.46156189817306]], [[3.5299082320504405, 6.644145878634953], [3.5269267493536223, 6.6436096781704865], [3.5251761176058403, 6.641137424442979], [3.5256548493665667, 6.63797197655902], [3.5281390254319986, 6.63618813366388], [3.5314370629790086, 6.636787991657816], [3.5332284474536046, 6.639323550175982], [3.5326665765179337, 6.64237681341169], [3.5299082320504405, 6.644145878634953]], [[3.382662451019464, 6.675714551742643], [3.382238229720346, 6.6707207892837905], [3.3869952298844503, 6.660762971038286], [3.3937558432126713, 6.658230035065485], [3.396547974600902, 6.655058236102366], [3.395740716244384, 6.645758875912532], [3.4025391639030076, 6.64182606092292], [3.404507873371096, 6.633123829820827], [3.4120954834310457, 6.625318641185115], [3.4130984566411264, 6.620082326080372], [3.4151323854474365, 6.617943394859062], [3.423950215086486, 6.615048524687713], [3.42769391432434, 6.615555238276272], [3.4333803488229466, 6.617512619131111], [3.438779345471972, 6.621649292016676], [3.4443638869381554, 6.6221623603956905], [3.4495677276438936, 6.6274051379624845], [3.454733361076921, 6.628981804043536], [3.4616158020646126, 6.628470016936082], [3.4644958242916233, 6.6304111763930065], [3.464793321346111, 6.633855469692223], [3.461223612967929, 6.637852346522261], [3.457559924306626, 6.647671005233646], [3.4489911593402076, 6.649432904358506], [3.4432207554365792, 6.646821334223323], [3.4394114160774705, 6.647005296629433], [3.433369782129024, 6.650335997763654], [3.4323167849633847, 6.653279708002557], [3.434194835038345, 6.663181944576417], [3.4320124964824816, 6.666670089052059], [3.416064378671488, 6.663865752072961], [3.410949949215463, 6.6659580573948185], [3.405669393702631, 6.682757935931543], [3.3974320303657057, 6.687994657873847], [3.394083020372426, 6.6920799223469025], [3.390738498310309, 6.692174542016099], [3.380318208731165, 6.686561414272621], [3.379789900829765, 6.68352147496416], [3.382662451019464, 6.675714551742643]], [[3.339440673254563, 6.525200435626261], [3.3414183388932006, 6.521585565583262], [3.346623368407061, 6.520838323082667], [3.3495337248754717, 6.521936169800956], [3.3507775650210934, 6.524787187844079], [3.3487654141383087, 6.531331237575383], [3.3457577494989548, 6.533084579500465], [3.3422582514977104, 6.5315104472517564], [3.339440673254563, 6.525200435626261]], [[3.328338997555784, 6.4494715427188405], [3.3300783258200943, 6.4451282894527875], [3.341363629689357, 6.440767213248852], [3.3446918113106605, 6.442448229471636], [3.347188998800665, 6.449794091847814], [3.345522191641019, 6.4529844855893845], [3.3419844548783, 6.454060070443868], [3.3308538143200863, 6.452580240299126], [3.328338997555784, 6.4494715427188405]], [[3.3103460123046897, 6.5599393169334155], [3.3144836164317946, 6.557093998745422], [3.318651768503945, 6.558092215344551], [3.321498873704608, 6.560629138187985], [3.324268704067812, 6.567737814534138], [3.335877202047715, 6.576343998922367], [3.336498551222528, 6.583769446490623], [3.3299858121243933, 6.597358604493503], [3.3169236910317856, 6.5962795420123115], [3.3140546062843628, 6.594310870483616], [3.311727836418257, 6.571127933248377], [3.3086813449983743, 6.5634586869322], [3.3103460123046897, 6.5599393169334155]], [[3.1717484158281746, 6.487321106023428], [3.1829645392896064, 6.480234830880259], [3.193664051707747, 6.481098482528565], [3.1952571191236827, 6.483761459082583], [3.195731423531734, 6.497841856125475], [3.199891573166194, 6.500190191775673], [3.2089342388368833, 6.499817015986881], [3.2126283106034705, 6.5012551736078175], [3.2149031758220286, 6.505241013507555], [3.2128024726655133, 6.510895749148129], [3.2136387010923295, 6.519331156410662], [3.216966192853299, 6.523299018541104], [3.220385891357052, 6.524145199923357], [3.2242568925644006, 6.523215383667912], [3.2273128401942204, 6.517199967530172], [3.239900502261899, 6.508169612168966], [3.258143649721778, 6.510819417778747], [3.26630748818012, 6.498386474051668], [3.2653656339876, 6.493373930349263], [3.258100144434148, 6.49026467257486], [3.248495626882545, 6.491634040497189], [3.24345996680555, 6.490661570145601], [3.23556051046285, 6.495543960103243], [3.2321211724605794, 6.495321824056949], [3.2302174524362712, 6.492894068921705], [3.229965873318874, 6.488455475832081], [3.2366990579412147, 6.480278505158143], [3.239674946544891, 6.479672725457003], [3.245855573078654, 6.483152106473224], [3.2483849824275377, 6.482970199398319], [3.2558612457459577, 6.476835006212341], [3.263052402672295, 6.475538211145599], [3.2655668976026426, 6.476608051678098], [3.269673684429583, 6.482094411414438], [3.2811851394626848, 6.482092088085526], [3.2847504528011764, 6.483692410405806], [3.2864872268569125, 6.486588114335605], [3.287329770126288, 6.50640836148526], [3.2814840788541835, 6.518468290359997], [3.2853706444746513, 6.536634532986423], [3.2823749925976338, 6.545466705091476], [3.2820749605288317, 6.556430282181283], [3.2773534138423317, 6.562485230158194], [3.2647809534807757, 6.5729230212889025], [3.2613469539821596, 6.573111808328328], [3.2550102449049905, 6.569422662219196], [3.2474949360461296, 6.573758594504421], [3.2345625721611984, 6.571459279797025], [3.2108097661093944, 6.55765760498641], [3.2045438961664163, 6.555856034490934], [3.202560212720643, 6.5526359044225675], [3.204019898155466, 6.547250708003426], [3.2032712860708576, 6.538088807881882], [3.1981254944920074, 6.534252385001649], [3.191977409952236, 6.533389426565911], [3.188289365541442, 6.524282320420615], [3.182754365489976, 6.521023876516914], [3.177136338168025, 6.520243644643754], [3.1730008543513013, 6.511561328040577], [3.164904267164635, 6.506025994025612], [3.1683735301942986, 6.490455616087786], [3.1717484158281746, 6.487321106023428]]]}, "properties": {}}