{"type": "FeatureCollection", "features": [{"type": "Feature", "properties": {"threshold": 70}, "geometry": {"type": "MultiPolygon", "coordinates": [[[[101.15360626299646, 4.455683218239308], [101.15370892956652, 4.461651332615901], [101.16096364979077, 4.465228804079736], [101.16202651233596, 4.478256635467238], [101.1698306101358, 4.478462982875429], [101.17098025868735, 4.466753833818308], [101.16527730612675, 4.461840071074272], [101.16409456399712, 4.44637443781283], [101.15377910226756, 4.446289401846577], [101.15360626299646, 4.455683218239308]]], [[[101.1211960284213, 4.31449165823323], [101.11904091668325, 4.314894671301069], [101.11908608144232, 4.321297851319801], [101.12842437595133, 4.324230280593649], [101.13030785178795, 4.334203409154153], [101.13929801924779, 4.332238700501728], [101.14492179323697, 4.335925792561739], [101.14991085613794, 4.33296436508087], [101.15292298687946, 4.3383755195896665], [101.16186508896797, 4.336618004104834], [101.16219492119718, 4.332987130624867], [101.15790928465582, 4.33096703080032], [101.15446703609929, 4.323415319453652], [101.15476972447863, 4.314349562318288], [101.15796695954833, 4.308246883576612], [101.16543587679406, 4.30287560476101], [101.16540774336083, 4.292909069441928], [101.1617885536256, 4.291743120438448], [101.15791543679515, 4.297042161041488], [101.14754791977163, 4.302726071624431], [101.13909286253205, 4.311278585606595], [101.13950693768618, 4.315795004913538], [101.13513930140653, 4.319947256109529], [101.13183702177055, 4.319003566596759], [101.13095768055267, 4.31349948544596], [101.1211960284213, 4.31449165823323]], [[101.1290002014343, 4.322719475680568], [101.13215283587913, 4.320730968297899], [101.13388933697897, 4.324169302828359], [101.13069134018404, 4.325853423005414], [101.1290002014343, 4.322719475680568]]], [[[101.15273490707594, 4.2952198736791365], [101.15468540860455, 4.290745698114105], [101.15112939191667, 4.282029468513884], [101.1546125487328, 4.268961030440074], [101.14889458601692, 4.265642951956056], [101.15207844568567, 4.261858880671821], [101.15108313049416, 4.25775345715032], [101.1452888945203, 4.256646762383133], [101.14140421918668, 4.26042041364788], [101.13885238962973, 4.269329716866538], [101.14905345023799, 4.280184007761523], [101.14638726035808, 4.287673782762813], [101.1499052821479, 4.2947074849885265], [101.15273490707594, 4.2952198736791365]]], [[[101.00791575911684, 4.482411367324283], [101.00743594808851, 4.485502475776846], [101.01184647065196, 4.486055399807824], [101.01658078719277, 4.490959266636264], [101.01222296871872, 4.498177093336532], [101.01415253836743, 4.508024761043409], [101.01943032780748, 4.505855352831836], [101.03228642534995, 4.509141279413146], [101.02725632139071, 4.519841134055191], [101.0308180463705, 4.530144995985277], [101.0289903691496, 4.545044420041593], [101.03374357357791, 4.548052835682194], [101.03984415099187, 4.565510002897545], [101.03018722255918, 4.568526723817233], [101.02907237512696, 4.574263425942581], [101.03458507745859, 4.577958642642113], [101.03582296136769, 4.587003513934747], [101.04024012305982, 4.593159379743616], [101.04947162037564, 4.591553837380873], [101.05081289426053, 4.5872107665902835], [101.05891906278326, 4.58366595091414], [101.07062763180359, 4.5907521063612915], [101.09369259799348, 4.587352577967525], [101.10580844343643, 4.589802307956128], [101.11070181005215, 4.5836633868326295], [101.12378924078737, 4.590583776110392], [101.13113079659193, 4.588921912647988], [101.13817932332496, 4.592222303582658], [101.14455363380421, 4.589398743751122], [101.14639432230959, 4.584630206806107], [101.14475308006114, 4.575009469565416], [101.14792118312805, 4.572557594895315], [101.14776591024352, 4.569073520552471], [101.14150546574358, 4.5646907489037165], [101.13324428325606, 4.5654792709807595], [101.12879720355471, 4.562205237739172], [101.11842372631374, 4.564277048895507], [101.11559974140334, 4.56202668630925], [101.1213019090612, 4.551616655952638], [101.1208092099166, 4.545870600633098], [101.12860752116597, 4.541863886129598], [101.13288644157585, 4.530712863449042], [101.13369972089265, 4.5243841007258485], [101.12758417150235, 4.515652754987413], [101.12265832219494, 4.515514210743505], [101.11737998248267, 4.519071954498759], [101.10836759519393, 4.51561831916218], [101.10725358382116, 4.523207870974716], [101.09834014796608, 4.524037382432363], [101.09767210014796, 4.53012146651839], [101.09316381833804, 4.53255320511765], [101.0901835806724, 4.526614031193279], [101.08168324831672, 4.525299894806886], [101.0802452336837, 4.520853843134166], [101.07525403450722, 4.51899073325025], [101.06972862463361, 4.525404769459575], [101.06970220779974, 4.53689209346231], [101.0635763886896, 4.53808304909954], [101.05959698099723, 4.521943761158361], [101.04831501871426, 4.519746676500196], [101.04526561987663, 4.505926602311963], [101.03974443063136, 4.5040258132774005], [101.03574160077348, 4.507328074157426], [101.0324363445714, 4.506063403699448], [101.02998104925456, 4.498863967969548], [101.03248603142983, 4.491507277056658], [101.03790323887641, 4.485982993337101], [101.03687999299743, 4.481740018342373], [101.02145032420236, 4.489157514836102], [101.01838877799871, 4.483315630260107], [101.00791575911684, 4.482411367324283]], [[101.1061942628535, 4.528447523708421], [101.10719825219299, 4.523602111343033], [101.11194488015703, 4.523233491887208], [101.11835153376452, 4.526618461518188], [101.1197126012543, 4.534027177745195], [101.1111576736734, 4.535340618629305], [101.1061942628535, 4.528447523708421]], [[101.08957363071706, 4.534350156098447], [101.0941244343106, 4.533730345402276], [101.09983574780601, 4.543893001252428], [101.09905911366995, 4.546719657956144], [101.08980375703007, 4.54535797792278], [101.08957363071706, 4.534350156098447]], [[101.09153915605603, 4.568161382358846], [101.08949307882004, 4.56599196430159], [101.09076049839136, 4.563459796929086], [101.09511729671577, 4.562030226686313], [101.09859983314267, 4.564301255886598], [101.09669444867923, 4.5708406605454455], [101.09153915605603, 4.568161382358846]], [[101.05877885461064, 4.560206136144511], [101.05340478461352, 4.546282583205705], [101.05547146279814, 4.54327086280777], [101.06158796186325, 4.544381824477908], [101.06242145909414, 4.552008597150278], [101.07150150868118, 4.557219865141295], [101.0742356781835, 4.562683819464465], [101.06730083293508, 4.567318690807185], [101.05989638390209, 4.563507517882768], [101.05877885461064, 4.560206136144511]], [[101.04289283656277, 4.531867354998869], [101.0352001569068, 4.525506591266583], [101.0358489190988, 4.521155477378156], [101.04848050395455, 4.522369017342771], [101.04778052482864, 4.533585367727366], [101.0447963375762, 4.534769457136149], [101.04289283656277, 4.531867354998869]]], [[[101.10798522846306, 4.348500977465705], [101.11117841076724, 4.358424284626701], [101.12472580309584, 4.366003528890922], [101.13064185088012, 4.3648181016675], [101.12982610135941, 4.355618360971268], [101.12422450358675, 4.353995803747949], [101.12369837338734, 4.342814365024332], [101.11634426862088, 4.342730695342053], [101.10781780746291, 4.346198154609708], [101.10798522846306, 4.348500977465705]]], [[[100.99461377860047, 4.460739005609594], [101.00441599964756, 4.471526154250899], [101.01162595698507, 4.470644027381386], [101.01541860015767, 4.4667671802170865], [101.01317006579416, 4.454882897816385], [101.0051246470791, 4.457689034060688], [101.00000476311786, 4.452476703468781], [100.99438250301979, 4.452429576290786], [100.99461377860047, 4.460739005609594]]], [[[100.93052376650748, 4.357685065629024], [100.93488260879394, 4.367248222584347], [100.94036418351716, 4.367058671207891], [100.94683674393424, 4.371515870648325], [100.95399481496311, 4.370611445746221], [100.95940626383693, 4.376504298275355], [100.96349529653621, 4.365837911493066], [100.9760455970968, 4.370623474010612], [100.98523361458321, 4.364836672624482], [100.98229132785058, 4.35985498880557], [100.97396340833593, 4.358223028872777], [100.9752155719808, 4.3505073309446365], [100.97279589241373, 4.345593034578057], [100.96733624827704, 4.346536407881626], [100.96184271301613, 4.3514164257570025], [100.9523045291232, 4.34995702122291], [100.95028481264615, 4.353077026484071], [100.95183441963017, 4.359252835779904], [100.94904647530721, 4.361984757210195], [100.93827370914477, 4.359773390438746], [100.93464133350754, 4.354887765694622], [100.93052376650748, 4.357685065629024]]], [[[100.90253020158505, 4.4698660692120304], [100.90754498372853, 4.480700581559356], [100.91454366977655, 4.484137160030698], [100.91544831811315, 4.467935918389479], [100.90753889657259, 4.468432407137912], [100.90390705450665, 4.465996071625536], [100.90253020158505, 4.4698660692120304]]], [[[100.8876228639738, 4.14099900524223], [100.88957577209034, 4.147859264627112], [100.9026062394062, 4.147855438793869], [100.90438988459245, 4.14155788157871], [100.91041269627894, 4.138444805720224], [100.91061169125773, 4.1351099047260815], [100.90777159819669, 4.129657131795048], [100.8962531302084, 4.126240774141921], [100.89236050783819, 4.128553675253515], [100.89381738711609, 4.137667190067229], [100.88781783381333, 4.138847020368512], [100.8876228639738, 4.14099900524223]]], [[[100.74159643906569, 4.288290828322235], [100.74411352073265, 4.295805166057131], [100.75119373862336, 4.297084322820579], [100.75726663611192, 4.302689125092039], [100.76079068302711, 4.314136117794395], [100.76778118417369, 4.312449926065525], [100.76787217610342, 4.307224407103405], [100.76056513274197, 4.3010712124612835], [100.76035763306513, 4.294717316028626], [100.75330156438235, 4.2913667680545275], [100.75273813859528, 4.281249243125798], [100.74753093945658, 4.280322727412631], [100.74159643906569, 4.288290828322235]]]]}}, {"type": "Feature", "properties": {"threshold": 80}, "geometry": {"type": "MultiPolygon", "coordinates": [[[[101.15360626299646, 4.455683218239308], [101.15370892956652, 4.461651332615901], [101.16096364979077, 4.465228804079736], [101.16157249626487, 4.4802338519226135], [101.16995588819573, 4.478359173103218], [101.17127769513878, 4.469770314515991], [101.18091520189851, 4.467204883157954], [101.18045117147854, 4.461945765191269], [101.17627376446242, 4.463615291301876], [101.172807658127, 4.461086357107488], [101.16570332762211, 4.461428630365122], [101.16594586868503, 4.451742969369857], [101.16210211547794, 4.44446998020178], [101.15448900198496, 4.4438983053599195], [101.15360626299646, 4.455683218239308]]], [[[101.12171794624822, 4.324010327994448], [101.13045809468042, 4.334265383485239], [101.13929801924779, 4.332238700501728], [101.14492179323697, 4.335925792561739], [101.14991085613794, 4.33296436508087], [101.15292298687946, 4.3383755195896665], [101.1619347139647, 4.336575841479173], [101.16219492119718, 4.332987130624867], [101.15790928465582, 4.33096703080032], [101.15446703609929, 4.323415319453652], [101.15476972447863, 4.314349562318288], [101.15796695954833, 4.308246883576612], [101.16543587679406, 4.30287560476101], [101.16536574531092, 4.292839177614957], [101.1617885536256, 4.291743120438448], [101.15791543679515, 4.297042161041488], [101.14754791977163, 4.302726071624431], [101.1390905277641, 4.310443810000913], [101.1378804624286, 4.3173270472749605], [101.13431365198191, 4.317279246816822], [101.1308021145983, 4.313452590201915], [101.11937223454298, 4.314443602594476], [101.11903849685419, 4.321141949711571], [101.12171794624822, 4.324010327994448]]], [[[101.15273490707594, 4.2952198736791365], [101.15468540860455, 4.290745698114105], [101.15115270406285, 4.281784823133892], [101.15459238898511, 4.278624171872228], [101.15545855128464, 4.2698741664308395], [101.14907726801042, 4.266106840270489], [101.15294349424481, 4.260006935661463], [101.14869300461079, 4.255790497870524], [101.1414458250011, 4.26035028535084], [101.13884023582177, 4.269249008943479], [101.1432564949631, 4.276421531565135], [101.14905345023799, 4.280184007761523], [101.14638726035808, 4.287673782762813], [101.1499052821479, 4.2947074849885265], [101.15273490707594, 4.2952198736791365]]], [[[101.00659475901855, 4.483829797558373], [101.01658078719277, 4.490959266636264], [101.01509013714578, 4.496343377500882], [101.01057327860264, 4.498935751654648], [101.01321725662815, 4.507901303269662], [101.02506691396154, 4.50853678581845], [101.02854467762101, 4.5166081498262445], [101.02726838274747, 4.524178350013135], [101.03102319169466, 4.53831965917172], [101.02816830453703, 4.544292646442194], [101.03360613636629, 4.547801489857307], [101.0398485959279, 4.562997205030249], [101.03858918843463, 4.56745573481699], [101.02924072801918, 4.5686447087862545], [101.02907472595795, 4.575098254312615], [101.03462186600083, 4.578747887377522], [101.03857386913171, 4.592329317946217], [101.04773669533749, 4.59242854868905], [101.05081289426053, 4.5872107665902835], [101.05891906278326, 4.58366595091414], [101.07062763180359, 4.5907521063612915], [101.09369259799348, 4.587352577967525], [101.10580844343643, 4.589802307956128], [101.11045184824877, 4.583668486992177], [101.12386973857534, 4.5905955133024765], [101.13113079659193, 4.588921912647988], [101.13817932332496, 4.592222303582658], [101.14621490032944, 4.5885589739337425], [101.14471478472741, 4.57566312804541], [101.14859776564283, 4.5690710261577765], [101.14158442584436, 4.564710346255377], [101.13377625679472, 4.565485710224548], [101.12909918288022, 4.5622431773316405], [101.1185199050869, 4.563044455847678], [101.1164220525948, 4.561045767709456], [101.12170665259491, 4.545413446044155], [101.13109567200901, 4.539352186444995], [101.13388232978909, 4.5315390747228035], [101.1336948324006, 4.5227145531720465], [101.12923425333543, 4.5197658444063835], [101.12841597670646, 4.515650312842797], [101.12182651402341, 4.515516646210209], [101.11614430736819, 4.518833583915703], [101.10851752177754, 4.515555484089666], [101.1053174032708, 4.523145520651198], [101.10256302304226, 4.5211736394598825], [101.10262499680987, 4.514055994564792], [101.09603784015682, 4.514756878688935], [101.09056591573959, 4.5258863189929155], [101.08356141956656, 4.52456632395543], [101.07525403450722, 4.51899073325025], [101.068079157075, 4.530418382328492], [101.06970220779974, 4.53689209346231], [101.0635763886896, 4.53808304909954], [101.05959698099723, 4.521943761158361], [101.04951452203629, 4.518314079394273], [101.04609745785278, 4.505924259643568], [101.04392361726649, 4.5040210964876755], [101.03249454876351, 4.505226741878885], [101.03309013387303, 4.492207560534586], [101.03796168068024, 4.485746041293355], [101.03521174300825, 4.480075001987313], [101.03083768242377, 4.479983727586833], [101.02336220081305, 4.48829364084083], [101.01324067602465, 4.480762908012514], [101.00686246476401, 4.481642809006122], [101.00659475901855, 4.483829797558373]], [[101.10702135048342, 4.5268059489406935], [101.1076104000422, 4.523576333594066], [101.11177168090153, 4.523338704704431], [101.11748974198147, 4.527298872066503], [101.11878141076943, 4.533510107370194], [101.11164442494352, 4.534389384792796], [101.10702135048342, 4.5268059489406935]], [[101.09279487759677, 4.56461920636327], [101.09814969182715, 4.565236955525598], [101.09873926250363, 4.568794453187144], [101.09447294468791, 4.570113261119138], [101.09179822090921, 4.567294442459203], [101.09279487759677, 4.56461920636327]], [[101.08969671268157, 4.540163746307785], [101.09349132443272, 4.537991216024916], [101.09627150108659, 4.544449090240531], [101.09226130958936, 4.54524439499042], [101.08969671268157, 4.540163746307785]], [[101.05530055207382, 4.543857101896026], [101.06158796186325, 4.544381824477908], [101.06242145909414, 4.552008597150278], [101.07166586824624, 4.557391581948425], [101.07350132422522, 4.5641656769190035], [101.06754463806224, 4.567342077645977], [101.05954944869144, 4.563161353166104], [101.05398820564076, 4.546767941175688], [101.05530055207382, 4.543857101896026]], [[101.04289283656277, 4.531867354998869], [101.0352001569068, 4.525506591266583], [101.0358489190988, 4.521155477378156], [101.04774040048751, 4.523240909926775], [101.04778052482864, 4.533585367727366], [101.0447963375762, 4.534769457136149], [101.04289283656277, 4.531867354998869]]], [[[101.10588750962161, 4.345628212319597], [101.10756897157383, 4.353960934056665], [101.11361487247463, 4.3608731891326435], [101.12556449367312, 4.368505515928207], [101.13142994203598, 4.36655099415873], [101.128201986348, 4.347425733934086], [101.12376382264212, 4.3428628050854075], [101.109763173811, 4.340224926639352], [101.10591499216353, 4.342258970190188], [101.10588750962161, 4.345628212319597]]], [[[100.9947282260892, 4.451976825322219], [100.99385077849038, 4.460147346730891], [100.99842005261158, 4.46344512573465], [101.0008030980595, 4.471383040712522], [101.01527378170488, 4.469558348943548], [101.01541448663843, 4.4580150022316385], [101.01262160729982, 4.454202552247511], [101.00510505305516, 4.456973690853993], [101.00083656407531, 4.452474439727331], [100.9947282260892, 4.451976825322219]]], [[[100.93052376650748, 4.357685065629024], [100.93488260879394, 4.367248222584347], [100.94036418351716, 4.367058671207891], [100.94683674393424, 4.371515870648325], [100.95399481496311, 4.370611445746221], [100.95932578540602, 4.376492530931041], [100.96349529653621, 4.365837911493066], [100.9706213281796, 4.36759403637817], [100.9743843369996, 4.371462723493223], [100.98522408833475, 4.365752308767377], [100.98152729748502, 4.359064110753192], [100.97396340833593, 4.358223028872777], [100.9752155719808, 4.3505073309446365], [100.97287636688571, 4.345604801880536], [100.96733624827704, 4.346536407881626], [100.96184271301613, 4.3514164257570025], [100.9523045291232, 4.34995702122291], [100.95028481264615, 4.353077026484071], [100.95183441963017, 4.359252835779904], [100.94904647530721, 4.361984757210195], [100.93827370914477, 4.359773390438746], [100.93464133350754, 4.354887765694622], [100.93052376650748, 4.357685065629024]]], [[[100.90253020158505, 4.4698660692120304], [100.91344681758721, 4.489929473900452], [100.92376974788807, 4.489902305270242], [100.92125574569332, 4.4828882585010374], [100.91595418059184, 4.481413007228796], [100.9156015117674, 4.46822177255706], [100.90946722596381, 4.466740489064074], [100.90852131914654, 4.45939911226729], [100.9040730838342, 4.45975217255618], [100.90253020158505, 4.4698660692120304]]], [[[100.8876228639738, 4.14099900524223], [100.88950218861645, 4.147824536176956], [100.90094519621991, 4.1486943514892465], [100.91051542834323, 4.138318496870115], [100.91061169125773, 4.1351099047260815], [100.9078973918199, 4.1297602841908985], [100.90187331568092, 4.126289717915951], [100.89375862861058, 4.126246737143856], [100.89151726476082, 4.1286364431718], [100.89259569420894, 4.137249738595826], [100.8876228639738, 4.14099900524223]]], [[[100.74159643906569, 4.288290828322235], [100.74411352073265, 4.295805166057131], [100.75119373862336, 4.297084322820579], [100.75724770576119, 4.302681320932243], [100.75641059476608, 4.307954701479754], [100.76079068302711, 4.314136117794395], [100.76778118417369, 4.312449926065525], [100.76787217610342, 4.307224407103405], [100.76056513274197, 4.3010712124612835], [100.76035763306513, 4.294717316028626], [100.75330156438235, 4.2913667680545275], [100.75273813859528, 4.281249243125798], [100.74753093945658, 4.280322727412631], [100.74159643906569, 4.288290828322235]]]]}}, {"type": "Feature", "properties": {"threshold": 90}, "geometry": {"type": "MultiPolygon", "coordinates": [[[[101.15360626299646, 4.455683218239308], [101.15370892956652, 4.461651332615901], [101.16096364979077, 4.465228804079736], [101.16157249626487, 4.4802338519226135], [101.16995588819573, 4.478359173103218], [101.17127769513878, 4.469770314515991], [101.18091520189851, 4.467204883157954], [101.18045117147854, 4.461945765191269], [101.17627376446242, 4.463615291301876], [101.172807658127, 4.461086357107488], [101.16570332762211, 4.461428630365122], [101.16594586868503, 4.451742969369857], [101.16126797700106, 4.443637661536759], [101.15444074724995, 4.443964007699349], [101.15360626299646, 4.455683218239308]]], [[[101.11993735053225, 4.3138858809280345], [101.11912105238164, 4.321371542746159], [101.12829740127626, 4.32971452902837], [101.130310189838, 4.335038189039295], [101.1390530299663, 4.332214295278239], [101.1430961699234, 4.335930979637535], [101.15083849052998, 4.3331772445369685], [101.15300191966038, 4.338395127377257], [101.16220426950986, 4.336275578814262], [101.16215291933295, 4.3329172396875775], [101.15790928465582, 4.33096703080032], [101.15446703609929, 4.323415319453652], [101.15476972447863, 4.314349562318288], [101.15796695954833, 4.308246883576612], [101.16543587679406, 4.30287560476101], [101.16550246108086, 4.293219358025847], [101.16193843472878, 4.291680298273733], [101.15590313321586, 4.295794641881388], [101.15144269399393, 4.284307380358651], [101.15546793559331, 4.270728962550394], [101.14883863961505, 4.265399626697861], [101.15290763385674, 4.26102177989713], [101.15247945528118, 4.251700232143848], [101.14646003156409, 4.251922931607033], [101.1388328417906, 4.269106024217525], [101.14158879404117, 4.274756638954296], [101.14916938811521, 4.2804009063789925], [101.14640723770692, 4.287752905270433], [101.1539605603044, 4.298562556143256], [101.14544734094618, 4.306413583956573], [101.13924631015608, 4.307758166047046], [101.13503268943182, 4.313181246734288], [101.11993735053225, 4.3138858809280345]]], [[[101.13872775438318, 4.487467504542796], [101.13798836523561, 4.4900798300159135], [101.14268649045822, 4.492150511984048], [101.14355108218663, 4.501762968461282], [101.13788089733292, 4.512253788687301], [101.14468482519446, 4.514556759112316], [101.14740344165982, 4.5080370384178075], [101.15188257732486, 4.505764031865748], [101.15501972161752, 4.4970957711705974], [101.1624543277463, 4.4934620145746], [101.16273164763511, 4.490151680029438], [101.1561610864593, 4.484497051601824], [101.13872775438318, 4.487467504542796]]], [[[101.00659475901855, 4.483829797558373], [101.01658078719277, 4.490959266636264], [101.01509013714578, 4.496343377500882], [101.01057327860264, 4.498935751654648], [101.01321955512184, 4.508736141378331], [101.02190397064754, 4.507579406740228], [101.02731184894454, 4.516671288799512], [101.02644635228846, 4.523426562684538], [101.03102296265585, 4.538073027334697], [101.02819295976593, 4.546041433349408], [101.03373821388695, 4.548665582650052], [101.03490620052912, 4.556952173188997], [101.03863494291456, 4.559182333585854], [101.03985501337974, 4.565269383483429], [101.03720473929484, 4.56777615576843], [101.03190685690896, 4.565133887264088], [101.02657894649886, 4.575105327718123], [101.03450159466529, 4.578541233364718], [101.03857386913171, 4.592329317946217], [101.04773669533749, 4.59242854868905], [101.05081289426053, 4.5872107665902835], [101.05891906278326, 4.58366595091414], [101.07062763180359, 4.5907521063612915], [101.09369259799348, 4.587352577967525], [101.10580844343643, 4.589802307956128], [101.11045184824877, 4.583668486992177], [101.12386973857534, 4.5905955133024765], [101.13113079659193, 4.588921912647988], [101.13817932332496, 4.592222303582658], [101.14621490032944, 4.5885589739337425], [101.14566464919962, 4.576396070421968], [101.14859776564283, 4.5690710261577765], [101.14158195040982, 4.563875577741842], [101.1348164073368, 4.565513177346492], [101.11681839020126, 4.560367213391272], [101.12236423454594, 4.545757849385759], [101.12938736006811, 4.542756845640194], [101.13308485680372, 4.535050245561343], [101.14118347274331, 4.537952838397659], [101.14621028175439, 4.535682046977684], [101.14502827876075, 4.52974388923972], [101.13438072923766, 4.528293428676302], [101.13366232005853, 4.5209682332308265], [101.12841597670646, 4.515650312842797], [101.11683063685275, 4.517983912359166], [101.11390821333836, 4.514685157243038], [101.09353998055109, 4.513929293682146], [101.09287466568065, 4.524089330609991], [101.09056591573959, 4.5258863189929155], [101.08356141956656, 4.52456632395543], [101.07525403450722, 4.51899073325025], [101.068079157075, 4.530418382328492], [101.06970220779974, 4.53689209346231], [101.0635763886896, 4.53808304909954], [101.05959698099723, 4.521943761158361], [101.04935862439596, 4.51812453168036], [101.04692929539192, 4.50592191602418], [101.04308945018222, 4.503188612981113], [101.03614581539418, 4.506488520600597], [101.03294416627786, 4.505057549040778], [101.0322835114698, 4.496641018643369], [101.0362281819457, 4.4944097936801075], [101.03501218998727, 4.489875347472545], [101.03796168068024, 4.485746041293355], [101.03521174300825, 4.480075001987313], [101.03090733014942, 4.479941567514434], [101.02454885837167, 4.486461416937202], [101.01399126408619, 4.479906159394695], [101.00678675519482, 4.480843070806539], [101.00659475901855, 4.483829797558373]], [[101.11129423132815, 4.529589958089326], [101.1152842871472, 4.52739769188272], [101.11776687108151, 4.532309064653605], [101.11271180617669, 4.533668637870261], [101.11129423132815, 4.529589958089326]], [[101.05394248038768, 4.545758814029237], [101.05650557379288, 4.5432575139321685], [101.06142035101486, 4.544218269172712], [101.06131312423103, 4.551319882501074], [101.07150150868118, 4.557219865141295], [101.0736649520826, 4.563989461127822], [101.06754463806224, 4.567342077645977], [101.05971444296814, 4.563342987356112], [101.05739992829803, 4.555440440220897], [101.05904144106285, 4.5517415015687375], [101.05394248038768, 4.545758814029237]], [[101.03766234076133, 4.526678854561775], [101.03771553026637, 4.521669266911719], [101.0461156013049, 4.52363101559091], [101.04765133432996, 4.5337988159802665], [101.0441334088393, 4.534430324152344], [101.03766234076133, 4.526678854561775]]], [[[101.10527632850945, 4.345903811024997], [101.10761097202396, 4.354030829925541], [101.11945038936823, 4.365865478842184], [101.12572390244816, 4.368536874004965], [101.13142994203598, 4.36655099415873], [101.128201986348, 4.347425733934086], [101.12376382264212, 4.3428628050854075], [101.116461040245, 4.342500896483829], [101.11225338768749, 4.33854836127603], [101.10518838265394, 4.342969755344194], [101.10527632850945, 4.345903811024997]]], [[[100.99316258204829, 4.455199649674315], [100.99587535973981, 4.4706102682686515], [101.00973565760391, 4.474047920604962], [101.0153220536785, 4.469492649224183], [101.01790760538051, 4.457173310553661], [101.0125538777284, 4.453319264036846], [101.00549258757967, 4.454737844686394], [101.00234763459876, 4.451573070666418], [100.99453951898576, 4.4515624821654605], [100.99316258204829, 4.455199649674315]]], [[[100.93052376650748, 4.357685065629024], [100.93488260879394, 4.367248222584347], [100.94036418351716, 4.367058671207891], [100.94683674393424, 4.371515870648325], [100.95399481496311, 4.370611445746221], [100.95932578540602, 4.376492530931041], [100.96349529653621, 4.365837911493066], [100.97083168482384, 4.367719844571522], [100.97246483191776, 4.371401442695195], [100.97771122971787, 4.371453941228342], [100.98522408833475, 4.365752308767377], [100.98152729748502, 4.359064110753192], [100.97396340833593, 4.358223028872777], [100.9752155719808, 4.3505073309446365], [100.97287636688571, 4.345604801880536], [100.96733624827704, 4.346536407881626], [100.96184271301613, 4.3514164257570025], [100.9523045291232, 4.34995702122291], [100.95028481264615, 4.353077026484071], [100.95183441963017, 4.359252835779904], [100.94904647530721, 4.361984757210195], [100.93827370914477, 4.359773390438746], [100.93464133350754, 4.354887765694622], [100.93052376650748, 4.357685065629024]]], [[[100.93748861013466, 4.185801256412186], [100.93866996527937, 4.191954286527989], [100.9497216113679, 4.197018289182548], [100.96142506632499, 4.197400064799644], [100.96106338888107, 4.188761317132499], [100.94244760722314, 4.183704303674336], [100.93748861013466, 4.185801256412186]]], [[[100.90189119780952, 4.464200364540328], [100.90491294964939, 4.476323564306775], [100.91287222635812, 4.485505780490896], [100.91339203394303, 4.489869129251693], [100.92370962134925, 4.489957287151909], [100.9213105289666, 4.482948602515883], [100.91595418059184, 4.481413007228796], [100.9156015117674, 4.46822177255706], [100.90954787854142, 4.466728431262416], [100.9087718417552, 4.459604373497227], [100.90434280744336, 4.459451935741919], [100.90189119780952, 4.464200364540328]]], [[[100.8876228639738, 4.14099900524223], [100.88950417299036, 4.148659444038426], [100.90094519621991, 4.1486943514892465], [100.91051542834323, 4.138318496870115], [100.91061169125773, 4.1351099047260815], [100.9078973918199, 4.1297602841908985], [100.90103983253714, 4.1254568096390365], [100.89375862861058, 4.126246737143856], [100.8899186980676, 4.130908184682921], [100.8876228639738, 4.14099900524223]]], [[[100.74159643906569, 4.288290828322235], [100.74411352073265, 4.295805166057131], [100.75119373862336, 4.297084322820579], [100.75724770576119, 4.302681320932243], [100.75639640086092, 4.310380450280345], [100.7599589198164, 4.3141380482103155], [100.76778118417369, 4.312449926065525], [100.76787217610342, 4.307224407103405], [100.76056513274197, 4.3010712124612835], [100.76035763306513, 4.294717316028626], [100.75330156438235, 4.2913667680545275], [100.7519045084609, 4.280416180895383], [100.74746572728382, 4.2803715118536925], [100.74159643906569, 4.288290828322235]]]]}}, {"type": "Feature", "properties": {"threshold": 95}, "geometry": {"type": "MultiPolygon", "coordinates": [[[[101.15360626299646, 4.455683218239308], [101.15370892956652, 4.461651332615901], [101.16096364979077, 4.465228804079736], [101.16157249626487, 4.4802338519226135], [101.16995588819573, 4.478359173103218], [101.17127769513878, 4.469770314515991], [101.18091520189851, 4.467204883157954], [101.18045117147854, 4.461945765191269], [101.17627376446242, 4.463615291301876], [101.172807658127, 4.461086357107488], [101.16570332762211, 4.461428630365122], [101.16594586868503, 4.451742969369857], [101.16126797700106, 4.443637661536759], [101.15444074724995, 4.443964007699349], [101.15360626299646, 4.455683218239308]]], [[[101.11993735053225, 4.3138858809280345], [101.11912105238164, 4.321371542746159], [101.12829740127626, 4.32971452902837], [101.130310189838, 4.335038189039295], [101.1390530299663, 4.332214295278239], [101.1430961699234, 4.335930979637535], [101.15083849052998, 4.3331772445369685], [101.15300191966038, 4.338395127377257], [101.16220426950986, 4.336275578814262], [101.16215291933295, 4.3329172396875775], [101.15790928465582, 4.33096703080032], [101.15446703609929, 4.323415319453652], [101.15476972447863, 4.314349562318288], [101.15796695954833, 4.308246883576612], [101.16543587679406, 4.30287560476101], [101.16550246108086, 4.293219358025847], [101.16193843472878, 4.291680298273733], [101.15590313321586, 4.295794641881388], [101.15144269399393, 4.284307380358651], [101.15161348083146, 4.2806591605587], [101.15548893007342, 4.278241869039976], [101.15536384460296, 4.269563872924502], [101.14880711041026, 4.265151917502447], [101.15290763385674, 4.26102177989713], [101.15247945528118, 4.251700232143848], [101.14663972597894, 4.251758510269837], [101.14227271961914, 4.258678416015115], [101.13884672074329, 4.274114683815076], [101.14905345023799, 4.280184007761523], [101.14640723770692, 4.287752905270433], [101.1539605603044, 4.298562556143256], [101.14544734094618, 4.306413583956573], [101.13675626666384, 4.309434742578364], [101.13506207811659, 4.3131669543902555], [101.11993735053225, 4.3138858809280345]]], [[[101.13797521979654, 4.492606618252965], [101.1424301805215, 4.494602346417862], [101.14355108218663, 4.501762968461282], [101.13713415307441, 4.5133205889740236], [101.14028540352027, 4.515416514963707], [101.15073613362333, 4.514456602039715], [101.15306214968237, 4.501450671080083], [101.16256886708948, 4.4933463802807525], [101.16264903730848, 4.489922108459377], [101.1564707993291, 4.484590343290523], [101.15267160211745, 4.484507352923109], [101.13906156517807, 4.487145916153113], [101.13797521979654, 4.492606618252965]]], [[[100.99316258204829, 4.455199649674315], [100.9956460693186, 4.470381390926211], [101.00751484575495, 4.473834885180516], [101.00729052195835, 4.485306805720341], [101.01650905109203, 4.490724265581671], [101.00983405711747, 4.502831580814341], [101.01345116513181, 4.5097998430476185], [101.02211747688223, 4.510225681053046], [101.02650091946406, 4.526086965046778], [101.02966785900472, 4.528394173610113], [101.03102319169466, 4.53831965917172], [101.02819295976593, 4.546041433349408], [101.03373821388695, 4.548665582650052], [101.03323770370555, 4.5552872312988395], [101.03855355965419, 4.559249332044957], [101.03984415099187, 4.565510002897545], [101.03720473929484, 4.56777615576843], [101.03190685690896, 4.565133887264088], [101.02657894649886, 4.575105327718123], [101.03450159466529, 4.578541233364718], [101.03857386913171, 4.592329317946217], [101.04773669533749, 4.59242854868905], [101.05081289426053, 4.5872107665902835], [101.05891906278326, 4.58366595091414], [101.07062763180359, 4.5907521063612915], [101.09369259799348, 4.587352577967525], [101.10580844343643, 4.589802307956128], [101.11045184824877, 4.583668486992177], [101.12386973857534, 4.5905955133024765], [101.13113079659193, 4.588921912647988], [101.13817932332496, 4.592222303582658], [101.14621490032944, 4.5885589739337425], [101.14566464919962, 4.576396070421968], [101.14859776564283, 4.5690710261577765], [101.1439856699982, 4.567480924070341], [101.14241380320698, 4.563873093347666], [101.13456221884645, 4.565474193206125], [101.11674518457222, 4.559881800974136], [101.1233600250239, 4.5449356836539625], [101.13161940956438, 4.544600112322174], [101.13632590034857, 4.538779201289708], [101.14112021696285, 4.543784485778792], [101.15106442098148, 4.540962434249278], [101.14508883032225, 4.528122783695147], [101.13474416448737, 4.528622048311044], [101.13366232005853, 4.5209682332308265], [101.12812790175505, 4.514663388337168], [101.117083395921, 4.5179960496188185], [101.11390579674057, 4.513850372483298], [101.09369924301976, 4.513897022826047], [101.09210279411059, 4.525286258751214], [101.08379996514763, 4.524654785058836], [101.07517753010558, 4.519018452149856], [101.068079157075, 4.530418382328492], [101.06957518108089, 4.537096456180139], [101.06313252084333, 4.53790465760068], [101.05955496689056, 4.521873865210164], [101.04983187666589, 4.517596090892099], [101.04775646003739, 4.504249931011693], [101.03294416627786, 4.505057549040778], [101.03249041989623, 4.49763695506816], [101.03628994105091, 4.494258969712429], [101.03693478181421, 4.481800349504864], [101.03098075999253, 4.479906461848408], [101.0240603141737, 4.486486863394619], [101.01512078960101, 4.481589049974895], [101.01544466602692, 4.476302306205104], [101.01206295808667, 4.472852968843126], [101.01539825034706, 4.46934862819398], [101.01773440729806, 4.456808364298518], [101.01233145993218, 4.452380657315617], [101.00518183736355, 4.453420727132365], [101.0021836861371, 4.449872001838601], [100.99423031811108, 4.451657537415302], [100.99316258204829, 4.455199649674315]], [[101.05643724835996, 4.548322476167487], [101.05726996978852, 4.5437530916309745], [101.06142035101486, 4.544218269172712], [101.06131312423103, 4.551319882501074], [101.07150150868118, 4.557219865141295], [101.0736649520826, 4.563989461127822], [101.06754463806224, 4.567342077645977], [101.05971444296814, 4.563342987356112], [101.05739992829803, 4.555440440220897], [101.05904144106285, 4.5517415015687375], [101.05643724835996, 4.548322476167487]], [[101.04092777091422, 4.528245196010552], [101.03717102880952, 4.525958995413645], [101.03813502338927, 4.522737293755855], [101.0464576595214, 4.524628035153643], [101.04750160328676, 4.533998290939383], [101.04393849599425, 4.534275055726867], [101.04092777091422, 4.528245196010552]]], [[[101.10527632850945, 4.345903811024997], [101.10761097202396, 4.354030829925541], [101.11945038936823, 4.365865478842184], [101.12572390244816, 4.368536874004965], [101.13142994203598, 4.36655099415873], [101.128201986348, 4.347425733934086], [101.12376382264212, 4.3428628050854075], [101.116461040245, 4.342500896483829], [101.11225338768749, 4.33854836127603], [101.10518838265394, 4.342969755344194], [101.10527632850945, 4.345903811024997]]], [[[101.06297713620351, 4.492499049270748], [101.06384405713624, 4.495609583101901], [101.07368992835794, 4.49256066461787], [101.07069118310018, 4.473116465102757], [101.0629552716378, 4.4735884843163625], [101.066375866096, 4.479726988745752], [101.06297713620351, 4.492499049270748]]], [[[101.04739906079911, 4.455948667570911], [101.04540177150699, 4.46401967770729], [101.04880986948113, 4.4664260856548035], [101.05055116151425, 4.461803391242556], [101.06176520079119, 4.456967099995431], [101.06444896276518, 4.450286196545666], [101.05508683932061, 4.44641859615777], [101.05287465818603, 4.447814122344676], [101.05270633772493, 4.454692380691344], [101.04739906079911, 4.455948667570911]]], [[[100.93052376650748, 4.357685065629024], [100.93488260879394, 4.367248222584347], [100.94036418351716, 4.367058671207891], [100.94683674393424, 4.371515870648325], [100.95399481496311, 4.370611445746221], [100.95932578540602, 4.376492530931041], [100.96349529653621, 4.365837911493066], [100.97783592504597, 4.372288476829442], [100.98522628313698, 4.366587164415153], [100.98159274532897, 4.359112566800652], [100.97396340833593, 4.358223028872777], [100.9752155719808, 4.3505073309446365], [100.97287636688571, 4.345604801880536], [100.96733624827704, 4.346536407881626], [100.96184271301613, 4.3514164257570025], [100.9523045291232, 4.34995702122291], [100.95028481264615, 4.353077026484071], [100.95183441963017, 4.359252835779904], [100.94904647530721, 4.361984757210195], [100.93827370914477, 4.359773390438746], [100.93464133350754, 4.354887765694622], [100.93052376650748, 4.357685065629024]]], [[[100.93748861013466, 4.185801256412186], [100.93866996527937, 4.191954286527989], [100.9497216113679, 4.197018289182548], [100.96142506632499, 4.197400064799644], [100.96106338888107, 4.188761317132499], [100.94244760722314, 4.183704303674336], [100.93748861013466, 4.185801256412186]]], [[[100.90189119780952, 4.464200364540328], [100.90491294964939, 4.476323564306775], [100.91287222635812, 4.485505780490896], [100.91339203394303, 4.489869129251693], [100.92370962134925, 4.489957287151909], [100.9213105289666, 4.482948602515883], [100.91595418059184, 4.481413007228796], [100.9156015117674, 4.46822177255706], [100.90954787854142, 4.466728431262416], [100.9087718417552, 4.459604373497227], [100.90434280744336, 4.459451935741919], [100.90189119780952, 4.464200364540328]]], [[[100.8876228639738, 4.14099900524223], [100.88950417299036, 4.148659444038426], [100.90094519621991, 4.1486943514892465], [100.91051542834323, 4.138318496870115], [100.91061169125773, 4.1351099047260815], [100.9078973918199, 4.1297602841908985], [100.90103983253714, 4.1254568096390365], [100.89375862861058, 4.126246737143856], [100.8899186980676, 4.130908184682921], [100.8876228639738, 4.14099900524223]]], [[[100.74159643906569, 4.288290828322235], [100.74411352073265, 4.295805166057131], [100.75119373862336, 4.297084322820579], [100.75724770576119, 4.302681320932243], [100.75639640086092, 4.310380450280345], [100.7599589198164, 4.3141380482103155], [100.76778118417369, 4.312449926065525], [100.76787217610342, 4.307224407103405], [100.76056513274197, 4.3010712124612835], [100.76035763306513, 4.294717316028626], [100.75330156438235, 4.2913667680545275], [100.7519045084609, 4.280416180895383], [100.74746572728382, 4.2803715118536925], [100.74159643906569, 4.288290828322235]]]]}}]}