{"type": "FeatureCollection", "features": [{"type": "Feature", "properties": {"threshold": 70}, "geometry": {"type": "MultiPolygon", "coordinates": [[[[-96.87451481225926, 18.77129222885082], [-96.87603130343047, 18.775361207797847], [-96.86922166493645, 18.77718705693691], [-96.86099095020026, 18.768837363162653], [-96.87451481225926, 18.77129222885082]]], [[[-97.00408660057137, 18.89934386463827], [-97.00106386387492, 18.910903062837313], [-96.99685662110286, 18.91078298510344], [-96.99408897259073, 18.904092089804315], [-96.98853092479662, 18.902765224612892], [-96.98297232297188, 18.905895044596758], [-96.97307348548502, 18.904287087837766], [-96.96756492222241, 18.910597066313557], [-96.94724336500826, 18.90755724920348], [-96.94569039973892, 18.912490125986935], [-96.95371243728823, 18.91752193148457], [-96.95249607627099, 18.924861703331132], [-96.94542708412395, 18.92148364343451], [-96.94452538319155, 18.91394661941363], [-96.93985384953642, 18.911390774306803], [-96.93626332726753, 18.915841770790493], [-96.92885330352559, 18.91653563487043], [-96.92971099441456, 18.92510487065107], [-96.9244097525746, 18.92551005423944], [-96.91808370541355, 18.921120109094637], [-96.9179324244876, 18.918091168833854], [-96.92720969386131, 18.915262428568237], [-96.92398976722917, 18.911012719497823], [-96.92617085810589, 18.903061335062628], [-96.91916682964218, 18.895027743330356], [-96.9164677208937, 18.882321400712637], [-96.91256903472195, 18.880412187117926], [-96.91115488405185, 18.87415913872981], [-96.90401941888807, 18.87184971679933], [-96.90190688172028, 18.87803309264502], [-96.89507380957235, 18.878077873807413], [-96.89042812835244, 18.87190609722263], [-96.89016279991482, 18.865966622611843], [-96.88422212527065, 18.865806922251533], [-96.87943696810379, 18.862308912922014], [-96.88961126716373, 18.856984702800997], [-96.905862887653, 18.865014693138537], [-96.9115013326188, 18.85972423490406], [-96.92128709518121, 18.859776134540805], [-96.92578328479806, 18.87187875253435], [-96.93939981878526, 18.87305686567261], [-96.94426664374258, 18.869782967549426], [-96.95367226249539, 18.87869623833321], [-96.97072613673204, 18.874151138093683], [-96.97335774986567, 18.878020900741202], [-96.9803459458842, 18.878462973671475], [-96.98226207297981, 18.88374421983093], [-96.98209867209752, 18.888484889531952], [-96.97712909180844, 18.890443550410108], [-96.97722317244636, 18.8988931572391], [-96.98826066520952, 18.900918885662065], [-96.99831004453621, 18.8947043150792], [-97.00408660057137, 18.89934386463827]]], [[[-96.94982684745507, 18.939383617766424], [-96.94427852486665, 18.94521096586311], [-96.93813788914112, 18.942168681428495], [-96.94558930784142, 18.937184465910878], [-96.94964718161387, 18.937290043352277], [-96.94982684745507, 18.939383617766424]]], [[[-96.99041299561509, 19.05168163175304], [-96.99088023043612, 19.05523645016913], [-96.98348478052192, 19.055235714740345], [-96.97547149700605, 19.05173328401551], [-96.9743625617261, 19.048503214256517], [-96.983050970052, 19.04796297082538], [-96.99041299561509, 19.05168163175304]]], [[[-97.01706297133106, 19.035736456127637], [-97.01768004907915, 19.038393106401205], [-97.0136415638883, 19.038529381043485], [-97.00639925259415, 19.035024950419558], [-97.00360835284658, 19.03135771595317], [-97.00383185994552, 19.025742284061437], [-97.0101884271602, 19.022452062823337], [-97.01628244776307, 19.03006661109826], [-97.01706297133106, 19.035736456127637]]], [[[-97.01790121762252, 18.78284460413049], [-97.01016438295979, 18.789125653680372], [-97.00935098015613, 18.775803349375465], [-97.01310333238298, 18.77573118894517], [-97.01790121762252, 18.78284460413049]]], [[[-97.02376952714808, 18.96588444538778], [-97.02382881473115, 18.96922219937627], [-97.01813586541071, 18.975235813520612], [-97.01116842992472, 18.9697518747617], [-97.0135492481488, 18.960651942341062], [-97.01931388253622, 18.960774334480654], [-97.02376952714808, 18.96588444538778]]], [[[-97.04048450104835, 19.009822387696072], [-97.03061438049474, 19.02153349386269], [-97.02433702469057, 19.019619984616913], [-97.02712634755096, 19.013638184872356], [-97.02558189783855, 19.006336313254355], [-97.0347634047394, 19.005501691547046], [-97.04048450104835, 19.009822387696072]]], [[[-97.05835985986582, 19.07281206583409], [-97.05649229225895, 19.076955168407082], [-97.04666988622235, 19.081889472828088], [-97.04261831206315, 19.081725721174987], [-97.0389055196373, 19.076301489984754], [-97.04078110333856, 19.06611397517952], [-97.044839816657, 19.06404997166376], [-97.04970312595252, 19.067214222788994], [-97.05653503076921, 19.067541109034973], [-97.05835985986582, 19.07281206583409]]], [[[-97.12512524822813, 18.836369360202625], [-97.12484614652219, 18.843075418789276], [-97.11572326239121, 18.84222838652342], [-97.11152364181686, 18.847397547853504], [-97.11195209962293, 18.854015004042257], [-97.1203777152136, 18.855532090744877], [-97.12155882331531, 18.86021536653709], [-97.117555365143, 18.872291117116923], [-97.12043711746564, 18.880791803232757], [-97.11921141476708, 18.883652294135373], [-97.11310469389204, 18.885571790879332], [-97.10955691650366, 18.89499322915352], [-97.1050216762862, 18.89192243870325], [-97.10668744325113, 18.886898588471496], [-97.10259292861386, 18.878692567300018], [-97.10411596712336, 18.86942352667325], [-97.09510241054377, 18.86592304555817], [-97.09520976442545, 18.862061233567605], [-97.0993158282723, 18.85791711270374], [-97.09822910272945, 18.854392902324708], [-97.09082968150122, 18.855897030483984], [-97.08563009381912, 18.853432911001082], [-97.07972583191085, 18.85821285719108], [-97.07959582587814, 18.86354305743331], [-97.06889770939779, 18.87475932826275], [-97.07270435867252, 18.87902190425778], [-97.0719896521025, 18.884912755582103], [-97.06690720739596, 18.884579822797612], [-97.06467094009412, 18.876196946740585], [-97.06105083662989, 18.87477837226568], [-97.05622965662127, 18.865058677460535], [-97.05253045349737, 18.86312193705658], [-97.05517025559884, 18.859214322106183], [-97.05435409774844, 18.850421175538226], [-97.05822853538804, 18.845924593721413], [-97.06987727382985, 18.84596573339165], [-97.07558306366577, 18.849941184177528], [-97.08172990140118, 18.847791634337124], [-97.08572573510683, 18.84046658573836], [-97.10025544743797, 18.842167306355567], [-97.10059590761676, 18.83804739946257], [-97.09201372239316, 18.833939797093176], [-97.10027515875247, 18.82846642803594], [-97.11281650190075, 18.825320187671082], [-97.11499197064823, 18.83633074492452], [-97.12512524822813, 18.836369360202625]]], [[[-97.13765125956859, 18.92891510808269], [-97.13556830876023, 18.933407362307108], [-97.12763949028715, 18.932889787266415], [-97.12685682159862, 18.9265807845803], [-97.13121489113126, 18.92373131753825], [-97.12611323073571, 18.91242949954764], [-97.12840035596685, 18.905865459391766], [-97.13376956641874, 18.906357204208646], [-97.13432373818058, 18.92196858172833], [-97.13765125956859, 18.92891510808269]]], [[[-97.14834526528227, 19.050087262815374], [-97.14879789259177, 19.055265243900045], [-97.13826167670075, 19.05482719707363], [-97.14211849017408, 19.046466034886635], [-97.14834526528227, 19.050087262815374]]], [[[-97.15309346767245, 18.897026436364982], [-97.15158543042439, 18.903299299124146], [-97.14718084226803, 18.904301287637814], [-97.14258521708027, 18.89264610121263], [-97.14967807237885, 18.891467400863146], [-97.1534823806243, 18.89430642195989], [-97.15309346767245, 18.897026436364982]]], [[[-97.15516048159716, 18.828046096861776], [-97.15572477424767, 18.836777678087486], [-97.14597705431667, 18.839228263694434], [-97.14422934931031, 18.832390372804472], [-97.14974012631862, 18.826528840372212], [-97.15516048159716, 18.828046096861776]]], [[[-97.16953200840639, 18.81667377333294], [-97.16395984104895, 18.82575543676411], [-97.16061896445069, 18.825573734992773], [-97.15699283752903, 18.8202770141979], [-97.16018887941797, 18.813617583699394], [-97.16837045346067, 18.812074613653376], [-97.16953200840639, 18.81667377333294]]], [[[-97.32818932930863, 18.8974461575224], [-97.32780131111272, 18.903579821788284], [-97.31818308660816, 18.90143164958086], [-97.32042399624676, 18.89390072983347], [-97.32704398903196, 18.893960441871677], [-97.32818932930863, 18.8974461575224]]]]}}, {"type": "Feature", "properties": {"threshold": 80}, "geometry": {"type": "MultiPolygon", "coordinates": [[[[-96.87451481225926, 18.77129222885082], [-96.87603130343047, 18.775361207797847], [-96.86922166493645, 18.77718705693691], [-96.86099095020026, 18.768837363162653], [-96.87451481225926, 18.77129222885082]]], [[[-97.00577176721829, 18.913131605517346], [-96.99868877986593, 18.91250083476927], [-96.99021578246833, 18.906842028493116], [-96.98118791607126, 18.91075251724369], [-96.97856818906999, 18.906801794237715], [-96.97293492309574, 18.9060792155186], [-96.96891740939861, 18.910066037023302], [-96.97166850244409, 18.916409712903757], [-96.96806451578159, 18.919394988380972], [-96.96764070297058, 18.924338545447775], [-96.96156451867527, 18.922414455684383], [-96.96133851880005, 18.915747527367657], [-96.95882387837612, 18.91410816211392], [-96.95416642553893, 18.915494195108707], [-96.95277489877076, 18.924474388681062], [-96.95070263422099, 18.924929983609406], [-96.9452808783005, 18.92129140113141], [-96.9443883376477, 18.913746416826502], [-96.93985384953642, 18.911390774306803], [-96.93626332726753, 18.915841770790493], [-96.92885330352559, 18.91653563487043], [-96.92971099441456, 18.92510487065107], [-96.92433157331503, 18.92548244318656], [-96.91808370541355, 18.921120109094637], [-96.9179324244876, 18.918091168833854], [-96.92720969386131, 18.915262428568237], [-96.92398976722917, 18.911012719497823], [-96.92617085810589, 18.903061335062628], [-96.91916682964218, 18.895027743330356], [-96.9164677208937, 18.882321400712637], [-96.91256903472195, 18.880412187117926], [-96.91115488405185, 18.87415913872981], [-96.90425753649095, 18.871797324880372], [-96.90161273235047, 18.878178518387084], [-96.89061488387017, 18.875604487079272], [-96.8836895702738, 18.879598656271977], [-96.87715067153123, 18.87949737643177], [-96.87585991040547, 18.87297481326156], [-96.87796617441724, 18.870782452576258], [-96.88412363253751, 18.873948908647865], [-96.89034895911753, 18.871834385911686], [-96.88998419963801, 18.865796089691294], [-96.88422212527065, 18.865806922251533], [-96.87946598733056, 18.862234521408553], [-96.88338158550592, 18.85859489613162], [-96.89148257419089, 18.857005912175318], [-96.90730738001426, 18.8646874568465], [-96.91123716984295, 18.843925986269007], [-96.91837868976755, 18.838698367048668], [-96.92218813655111, 18.848495505338093], [-96.91579612710147, 18.85296407453342], [-96.91534023423971, 18.857874925317596], [-96.92772874698214, 18.86332756559617], [-96.92679110881929, 18.869805678209566], [-96.95448682236955, 18.870707298717555], [-96.956306843004, 18.87749714094893], [-96.97041722306237, 18.874110006729236], [-96.97335774986567, 18.878020900741202], [-96.98020853965, 18.87837340096268], [-96.98222901278915, 18.888194771143116], [-96.97762115575186, 18.889645498408523], [-96.97754458666323, 18.893458729637405], [-96.98913274073438, 18.899304977114422], [-96.99891070228222, 18.88916825920983], [-97.00767674932456, 18.897816949932583], [-97.00930526195216, 18.90707696070595], [-97.00577176721829, 18.913131605517346]], [[-96.95475625041169, 18.910955752880277], [-96.95254272888803, 18.907591208027835], [-96.9453100535036, 18.90954058162265], [-96.94598604885459, 18.912857106618596], [-96.95044520035748, 18.9152445293064], [-96.95389101527769, 18.914610490176145], [-96.95475625041169, 18.910955752880277]]], [[[-96.92851662911328, 18.81074905465096], [-96.9258133692166, 18.826039805463125], [-96.92214167423687, 18.82643658256704], [-96.92016029273422, 18.81155972572143], [-96.92851662911328, 18.81074905465096]]], [[[-96.99041299561509, 19.05168163175304], [-96.99088023043612, 19.05523645016913], [-96.98348478052192, 19.055235714740345], [-96.97547149700605, 19.05173328401551], [-96.9743625617261, 19.048503214256517], [-96.983050970052, 19.04796297082538], [-96.99041299561509, 19.05168163175304]]], [[[-97.01706297133106, 19.035736456127637], [-97.01768004907915, 19.038393106401205], [-97.0136415638883, 19.038529381043485], [-97.00639925259415, 19.035024950419558], [-97.00360835284658, 19.03135771595317], [-97.00383185994552, 19.025742284061437], [-97.0101884271602, 19.022452062823337], [-97.01628244776307, 19.03006661109826], [-97.01706297133106, 19.035736456127637]]], [[[-97.01790121762252, 18.78284460413049], [-97.01016438295979, 18.789125653680372], [-97.00935098015613, 18.775803349375465], [-97.01310333238298, 18.77573118894517], [-97.01790121762252, 18.78284460413049]]], [[[-97.02376952714808, 18.96588444538778], [-97.02382881473115, 18.96922219937627], [-97.01813586541071, 18.975235813520612], [-97.01116842992472, 18.9697518747617], [-97.0135492481488, 18.960651942341062], [-97.01931388253622, 18.960774334480654], [-97.02376952714808, 18.96588444538778]]], [[[-97.03342527193409, 18.95068445569469], [-97.0331799526031, 18.95414360668331], [-97.02882723285477, 18.95418544092958], [-97.02345621825116, 18.94310535459788], [-97.01344808455818, 18.939269571697405], [-97.01608737066691, 18.93247230250434], [-97.02079522457697, 18.933456834174937], [-97.02287552663519, 18.9419549753349], [-97.03083971292, 18.940746384401624], [-97.03342527193409, 18.95068445569469]]], [[[-97.04048450104835, 19.009822387696072], [-97.03061438049474, 19.02153349386269], [-97.02433702469057, 19.019619984616913], [-97.02712634755096, 19.013638184872356], [-97.02558189783855, 19.006336313254355], [-97.0347634047394, 19.005501691547046], [-97.04048450104835, 19.009822387696072]]], [[[-97.05835985986582, 19.07281206583409], [-97.05649229225895, 19.076955168407082], [-97.04666988622235, 19.081889472828088], [-97.04261831206315, 19.081725721174987], [-97.0389055196373, 19.076301489984754], [-97.04078110333856, 19.06611397517952], [-97.044839816657, 19.06404997166376], [-97.04970312595252, 19.067214222788994], [-97.05653503076921, 19.067541109034973], [-97.05835985986582, 19.07281206583409]]], [[[-97.12512524822813, 18.836369360202625], [-97.12484614652219, 18.843075418789276], [-97.11614042622148, 18.84255154501148], [-97.11152364181686, 18.847397547853504], [-97.11195209962293, 18.854015004042257], [-97.1203777152136, 18.855532090744877], [-97.12155882331531, 18.86021536653709], [-97.117555365143, 18.872291117116923], [-97.12043711746564, 18.880791803232757], [-97.11921141476708, 18.883652294135373], [-97.11310469389204, 18.885571790879332], [-97.10963267080402, 18.89496006455636], [-97.1050216762862, 18.89192243870325], [-97.10668744325113, 18.886898588471496], [-97.10259292861386, 18.878692567300018], [-97.10411596712336, 18.86942352667325], [-97.09510241054377, 18.86592304555817], [-97.09937394640602, 18.85769581681208], [-97.09777818105141, 18.854184190803405], [-97.09082968150122, 18.855897030483984], [-97.08563009381912, 18.853432911001082], [-97.07972583191085, 18.85821285719108], [-97.07967591571231, 18.863404057370474], [-97.07324777672002, 18.869407966881], [-97.07109388829758, 18.87580731010937], [-97.07214955005034, 18.88486839001869], [-97.06605456974638, 18.884570954640758], [-97.06048003831738, 18.872132257668213], [-97.0541946849657, 18.865422791588042], [-97.05113842162511, 18.86633389539484], [-97.0477606362186, 18.873939748688844], [-97.04391765489237, 18.873655437101426], [-97.0440360689168, 18.86714421530041], [-97.05072365476285, 18.865515211040105], [-97.05494537076582, 18.859780339035794], [-97.05433295699663, 18.85049794468647], [-97.05822853538804, 18.845924593721413], [-97.06987727382985, 18.84596573339165], [-97.07533303358946, 18.84996202320879], [-97.08172990140118, 18.847791634337124], [-97.08572573510683, 18.84046658573836], [-97.09910910621203, 18.842837873744365], [-97.10090978664505, 18.838419616692256], [-97.09322007210191, 18.83630784659115], [-97.09217350585494, 18.832740156478618], [-97.11069977718277, 18.825279459650538], [-97.11418366680009, 18.827421937154746], [-97.11518427148528, 18.836484296308825], [-97.12512524822813, 18.836369360202625]]], [[[-97.13765125956859, 18.92891510808269], [-97.13556830876023, 18.933407362307108], [-97.12763949028715, 18.932889787266415], [-97.12685682159862, 18.9265807845803], [-97.13121489113126, 18.92373131753825], [-97.12611323073571, 18.91242949954764], [-97.12840035596685, 18.905865459391766], [-97.13376956641874, 18.906357204208646], [-97.13432373818058, 18.92196858172833], [-97.13765125956859, 18.92891510808269]]], [[[-97.14834526528227, 19.050087262815374], [-97.14879789259177, 19.055265243900045], [-97.13826167670075, 19.05482719707363], [-97.14211849017408, 19.046466034886635], [-97.14834526528227, 19.050087262815374]]], [[[-97.15309346767245, 18.897026436364982], [-97.15158543042439, 18.903299299124146], [-97.14718084226803, 18.904301287637814], [-97.14258521708027, 18.89264610121263], [-97.14967807237885, 18.891467400863146], [-97.1534823806243, 18.89430642195989], [-97.15309346767245, 18.897026436364982]]], [[[-97.15516048159716, 18.828046096861776], [-97.15572477424767, 18.836777678087486], [-97.14597705431667, 18.839228263694434], [-97.14422934931031, 18.832390372804472], [-97.14974012631862, 18.826528840372212], [-97.15516048159716, 18.828046096861776]]], [[[-97.16953200840639, 18.81667377333294], [-97.16379621162388, 18.825784757368208], [-97.16068539469876, 18.825621672933288], [-97.1535703568048, 18.818464155997397], [-97.1564233959506, 18.813782467598617], [-97.16208360841043, 18.811170089154306], [-97.16866107321732, 18.812226232284566], [-97.16953200840639, 18.81667377333294]]], [[[-97.32818932930863, 18.8974461575224], [-97.32780131111272, 18.903579821788284], [-97.31818308660816, 18.90143164958086], [-97.32042399624676, 18.89390072983347], [-97.32704398903196, 18.893960441871677], [-97.32818932930863, 18.8974461575224]]]]}}, {"type": "Feature", "properties": {"threshold": 90}, "geometry": {"type": "MultiPolygon", "coordinates": [[[[-96.87451481225926, 18.77129222885082], [-96.87603130343047, 18.775361207797847], [-96.86922166493645, 18.77718705693691], [-96.86099095020026, 18.768837363162653], [-96.87451481225926, 18.77129222885082]]], [[[-97.01661156377797, 18.921978880574922], [-97.01645616838262, 18.92555644696528], [-97.01085118687938, 18.926494641596626], [-97.0025420344253, 18.919117865216286], [-96.98920185406253, 18.921326746550093], [-96.98373376377167, 18.911451643558113], [-96.97834814382476, 18.906686753601424], [-96.9731850356442, 18.906058522925736], [-96.96891740939861, 18.910066037023302], [-96.97166850244409, 18.916409712903757], [-96.96806451578159, 18.919394988380972], [-96.9700092874223, 18.92328430076482], [-96.96764070297058, 18.924338545447775], [-96.96156451867527, 18.922414455684383], [-96.96133851868038, 18.915747527037357], [-96.95882387705545, 18.914108162161117], [-96.95070263422099, 18.924929983609406], [-96.9452808783005, 18.92129140113141], [-96.9443883376477, 18.913746416826502], [-96.93985384953642, 18.911390774306803], [-96.93626332726753, 18.915841770790493], [-96.92885330352559, 18.91653563487043], [-96.92971099441456, 18.92510487065107], [-96.92433157331503, 18.92548244318656], [-96.91808370541355, 18.921120109094637], [-96.9179324244876, 18.918091168833854], [-96.92720969386131, 18.915262428568237], [-96.92398976722917, 18.911012719497823], [-96.92617085810589, 18.903061335062628], [-96.91916682964218, 18.895027743330356], [-96.9164677208937, 18.882321400712637], [-96.91256903472195, 18.880412187117926], [-96.91115488405185, 18.87415913872981], [-96.90425753649095, 18.871797324880372], [-96.90161273235047, 18.878178518387084], [-96.89061488387017, 18.875604487079272], [-96.8836895702738, 18.879598656271977], [-96.87715067153123, 18.87949737643177], [-96.87585991040547, 18.87297481326156], [-96.87796617441724, 18.870782452576258], [-96.8854953472348, 18.873962055913818], [-96.89034895911753, 18.871834385911686], [-96.88998419963801, 18.865796089691294], [-96.88422212527065, 18.865806922251533], [-96.87946598733056, 18.862234521408553], [-96.88338158550592, 18.85859489613162], [-96.89148257419089, 18.857005912175318], [-96.90730738001426, 18.8646874568465], [-96.91110333376858, 18.84817013010759], [-96.90957266149837, 18.840660718300413], [-96.91837868976755, 18.838698367048668], [-96.92218813655111, 18.848495505338093], [-96.91553335129129, 18.853370553584977], [-96.91613427002322, 18.859123091221417], [-96.92415042257161, 18.860711346593337], [-96.93109082552212, 18.867095369317507], [-96.93578142371969, 18.866442373660423], [-96.94864588502311, 18.871335902438055], [-96.95156244605124, 18.869683297647672], [-96.95203494095259, 18.864467150275768], [-96.95831953027515, 18.86113017320539], [-96.95949366018924, 18.864408261135424], [-96.95504203521845, 18.87675645840045], [-96.97056318691011, 18.874118430432745], [-96.97335774986567, 18.878020900741202], [-96.98027955409694, 18.87841497444631], [-96.98222901278915, 18.888194771143116], [-96.97779126050452, 18.889478419404327], [-96.97715185618958, 18.89261732044527], [-96.98410245538005, 18.89654420865706], [-96.98777817033951, 18.89144228864536], [-96.99897710414079, 18.889216252718782], [-97.00761474759739, 18.897669811357414], [-97.01098379222337, 18.90937145431168], [-97.00975826870584, 18.915128038528252], [-97.01574633657171, 18.91867002636372], [-97.01661156377797, 18.921978880574922]], [[-96.95475625041169, 18.910955752880277], [-96.95254272888803, 18.907591208027835], [-96.9453100535036, 18.90954058162265], [-96.94598604885459, 18.912857106618596], [-96.95044520035748, 18.9152445293064], [-96.95389101527769, 18.914610490176145], [-96.95475625041169, 18.910955752880277]], [[-96.98939318050901, 18.90678317560759], [-96.98682462307063, 18.909513141664476], [-96.99002268200654, 18.911742059162], [-96.99220540328207, 18.90888345600908], [-96.98939318050901, 18.90678317560759]]], [[[-96.92939913822909, 18.81693740544289], [-96.92573318023524, 18.82617872976391], [-96.92199578016674, 18.826360222441913], [-96.9202404777669, 18.81142080344489], [-96.92912051759421, 18.808861515812268], [-96.92939913822909, 18.81693740544289]]], [[[-96.96099638616462, 18.84711815897348], [-96.95720795040748, 18.85042025090049], [-96.95058968881436, 18.847679547493485], [-96.95265166205289, 18.842896880027578], [-96.94883735479719, 18.83935298996846], [-96.94902695916755, 18.835966996578716], [-96.95875131900023, 18.83607379885445], [-96.96099638616462, 18.84711815897348]]], [[[-96.99041299561509, 19.05168163175304], [-96.99088023043612, 19.05523645016913], [-96.98348478052192, 19.055235714740345], [-96.97547149700605, 19.05173328401551], [-96.9743625617261, 19.048503214256517], [-96.983050970052, 19.04796297082538], [-96.99041299561509, 19.05168163175304]]], [[[-97.01873777794097, 18.821469607787943], [-97.0165346990445, 18.828276734078184], [-97.00606427964777, 18.826915625828367], [-97.00917930462222, 18.818587034919524], [-97.01656931627389, 18.818639057302132], [-97.01873777794097, 18.821469607787943]]], [[[-97.01706297133106, 19.035736456127637], [-97.01768004907915, 19.038393106401205], [-97.0136415638883, 19.038529381043485], [-97.00639925259415, 19.035024950419558], [-97.00360835284658, 19.03135771595317], [-97.00383185994552, 19.025742284061437], [-97.0101884271602, 19.022452062823337], [-97.01628244776307, 19.03006661109826], [-97.01706297133106, 19.035736456127637]]], [[[-97.02376952714808, 18.96588444538778], [-97.02382881473115, 18.96922219937627], [-97.01813586541071, 18.975235813520612], [-97.01116842992472, 18.9697518747617], [-97.0135492481488, 18.960651942341062], [-97.01931388253622, 18.960774334480654], [-97.02376952714808, 18.96588444538778]]], [[[-97.03342527193409, 18.95068445569469], [-97.0331799526031, 18.95414360668331], [-97.02862856743944, 18.954041946479652], [-97.02345621825116, 18.94310535459788], [-97.0133438506413, 18.939145900608064], [-97.0126855575178, 18.93162420612777], [-97.02069098800808, 18.933333166980304], [-97.02298491776381, 18.94183239058104], [-97.03083971292, 18.940746384401624], [-97.03342527193409, 18.95068445569469]]], [[[-97.02713430052033, 18.905961756505608], [-97.02673150433155, 18.91033199710677], [-97.01825574118394, 18.910241730607005], [-97.01532891772239, 18.906485244080645], [-97.01546692962609, 18.900188910639237], [-97.02599072434448, 18.9007807151224], [-97.02713430052033, 18.905961756505608]]], [[[-97.04048450104835, 19.009822387696072], [-97.03061438049474, 19.02153349386269], [-97.02433702469057, 19.019619984616913], [-97.02712634755096, 19.013638184872356], [-97.02558189783855, 19.006336313254355], [-97.0347634047394, 19.005501691547046], [-97.04048450104835, 19.009822387696072]]], [[[-97.05835985986582, 19.07281206583409], [-97.05649229225895, 19.076955168407082], [-97.04666988622235, 19.081889472828088], [-97.04261831206315, 19.081725721174987], [-97.0389055196373, 19.076301489984754], [-97.04078110333856, 19.06611397517952], [-97.044839816657, 19.06404997166376], [-97.04970312595252, 19.067214222788994], [-97.05653503076921, 19.067541109034973], [-97.05835985986582, 19.07281206583409]]], [[[-97.12512524822813, 18.836369360202625], [-97.12484614652219, 18.843075418789276], [-97.1167035363987, 18.842937754656], [-97.11151522523782, 18.847537196221648], [-97.11195209962293, 18.854015004042257], [-97.12123023320139, 18.85554069709252], [-97.12155882331531, 18.86021536653709], [-97.117555365143, 18.872291117116923], [-97.12043711746564, 18.880791803232757], [-97.11921141476708, 18.883652294135373], [-97.11310469389204, 18.885571790879332], [-97.10963267080402, 18.89496006455636], [-97.1050216762862, 18.89192243870325], [-97.10668744325113, 18.886898588471496], [-97.10259292861386, 18.878692567300018], [-97.10411596712336, 18.86942352667325], [-97.09510241054377, 18.86592304555817], [-97.09937394640602, 18.85769581681208], [-97.09777818105141, 18.854184190803405], [-97.09082968150122, 18.855897030483984], [-97.08563009381912, 18.853432911001082], [-97.07988722636381, 18.85802947058036], [-97.07967591571231, 18.863404057370474], [-97.07324777672002, 18.869407966881], [-97.07109388829758, 18.87580731010937], [-97.07261433501371, 18.884435505088703], [-97.0678491026755, 18.88807057104183], [-97.06442846139535, 18.887912963349642], [-97.06128015155058, 18.880980007985865], [-97.05781650244273, 18.87943502999936], [-97.05175207087139, 18.883769300807987], [-97.0477041673002, 18.87515605299149], [-97.04391765489237, 18.873655437101426], [-97.04404548388138, 18.86633261472281], [-97.05052337523169, 18.865648565734748], [-97.05494537076582, 18.859780339035794], [-97.05433295699663, 18.85049794468647], [-97.05822853538804, 18.845924593721413], [-97.06987727382985, 18.84596573339165], [-97.07533303358946, 18.84996202320879], [-97.08172990140118, 18.847791634337124], [-97.08572573510683, 18.84046658573836], [-97.09910910621203, 18.842837873744365], [-97.10090978664505, 18.838419616692256], [-97.09322007210191, 18.83630784659115], [-97.09217350585494, 18.832740156478618], [-97.11069977718277, 18.825279459650538], [-97.11418366680009, 18.827421937154746], [-97.11518427148528, 18.836484296308825], [-97.12512524822813, 18.836369360202625]]], [[[-97.13765125956859, 18.92891510808269], [-97.13556830876023, 18.933407362307108], [-97.12763949028715, 18.932889787266415], [-97.12685682159862, 18.9265807845803], [-97.13121489113126, 18.92373131753825], [-97.12611323073571, 18.91242949954764], [-97.12840035596685, 18.905865459391766], [-97.13376956641874, 18.906357204208646], [-97.13432373818058, 18.92196858172833], [-97.13765125956859, 18.92891510808269]]], [[[-97.15309346767245, 18.897026436364982], [-97.15158543042439, 18.903299299124146], [-97.14718084226803, 18.904301287637814], [-97.14258521708027, 18.89264610121263], [-97.14967807237885, 18.891467400863146], [-97.1534823806243, 18.89430642195989], [-97.15309346767245, 18.897026436364982]]], [[[-97.15516048159716, 18.828046096861776], [-97.15572477424767, 18.836777678087486], [-97.14597705431667, 18.839228263694434], [-97.14422934931031, 18.832390372804472], [-97.14974012631862, 18.826528840372212], [-97.15516048159716, 18.828046096861776]]], [[[-97.16953200840639, 18.81667377333294], [-97.16379621162388, 18.825784757368208], [-97.16068539469876, 18.825621672933288], [-97.1535703568048, 18.818464155997397], [-97.1564233959506, 18.813782467598617], [-97.16208360841043, 18.811170089154306], [-97.16866107321732, 18.812226232284566], [-97.16953200840639, 18.81667377333294]]], [[[-97.18358621076533, 18.80072560881732], [-97.18437583368583, 18.805045325966137], [-97.18154719971022, 18.808678928035793], [-97.1743800501935, 18.80860892485552], [-97.1724991907456, 18.80225704709705], [-97.1753409598665, 18.79854520056118], [-97.18358621076533, 18.80072560881732]]]]}}, {"type": "Feature", "properties": {"threshold": 95}, "geometry": {"type": "MultiPolygon", "coordinates": [[[[-96.87451481225926, 18.77129222885082], [-96.87603130343047, 18.775361207797847], [-96.86922166493645, 18.77718705693691], [-96.86099095020026, 18.768837363162653], [-96.87451481225926, 18.77129222885082]]], [[[-97.01661156377797, 18.921978880574922], [-97.01645616838262, 18.92555644696528], [-97.01085118687938, 18.926494641596626], [-97.0025420344253, 18.919117865216286], [-96.98920185406253, 18.921326746550093], [-96.98373376377167, 18.911451643558113], [-96.97834814382476, 18.906686753601424], [-96.9731850356442, 18.906058522925736], [-96.96891740939861, 18.910066037023302], [-96.97166850244409, 18.916409712903757], [-96.96806451578159, 18.919394988380972], [-96.9700092874223, 18.92328430076482], [-96.96764070297058, 18.924338545447775], [-96.96156451867527, 18.922414455684383], [-96.96133851868038, 18.915747527037357], [-96.95882387705545, 18.914108162161117], [-96.95070263422099, 18.924929983609406], [-96.9452808783005, 18.92129140113141], [-96.9443883376477, 18.913746416826502], [-96.93985384953642, 18.911390774306803], [-96.93626332726753, 18.915841770790493], [-96.92885330352559, 18.91653563487043], [-96.92971099441456, 18.92510487065107], [-96.92433157331503, 18.92548244318656], [-96.91808370541355, 18.921120109094637], [-96.9179324244876, 18.918091168833854], [-96.92720969386131, 18.915262428568237], [-96.92398976722917, 18.911012719497823], [-96.92617085810589, 18.903061335062628], [-96.91916682964218, 18.895027743330356], [-96.9164677208937, 18.882321400712637], [-96.91256903472195, 18.880412187117926], [-96.91115488405185, 18.87415913872981], [-96.90425753649095, 18.871797324880372], [-96.90161273235047, 18.878178518387084], [-96.89061488387017, 18.875604487079272], [-96.8836895702738, 18.879598656271977], [-96.87715067153123, 18.87949737643177], [-96.87585991040547, 18.87297481326156], [-96.87796617441724, 18.870782452576258], [-96.8854953472348, 18.873962055913818], [-96.89034895911753, 18.871834385911686], [-96.88998419963801, 18.865796089691294], [-96.88422212527065, 18.865806922251533], [-96.87946598733056, 18.862234521408553], [-96.88338158550592, 18.85859489613162], [-96.89148257419089, 18.857005912175318], [-96.90730738001426, 18.8646874568465], [-96.91110333376858, 18.84817013010759], [-96.90957266149837, 18.840660718300413], [-96.91837868976755, 18.838698367048668], [-96.92218813655111, 18.848495505338093], [-96.91553335129129, 18.853370553584977], [-96.91613427002322, 18.859123091221417], [-96.92415042257161, 18.860711346593337], [-96.93109082552212, 18.867095369317507], [-96.93578142371969, 18.866442373660423], [-96.94864588502311, 18.871335902438055], [-96.95156244605124, 18.869683297647672], [-96.95203494095259, 18.864467150275768], [-96.95831953027515, 18.86113017320539], [-96.95949366018924, 18.864408261135424], [-96.95504203521845, 18.87675645840045], [-96.97056318691011, 18.874118430432745], [-96.97335774986567, 18.878020900741202], [-96.98027955409694, 18.87841497444631], [-96.98222901278915, 18.888194771143116], [-96.97779126050452, 18.889478419404327], [-96.97715185618958, 18.89261732044527], [-96.98410245538005, 18.89654420865706], [-96.98777817033951, 18.89144228864536], [-96.99897710414079, 18.889216252718782], [-97.00761474759739, 18.897669811357414], [-97.01098379222337, 18.90937145431168], [-97.00975826870584, 18.915128038528252], [-97.01574633657171, 18.91867002636372], [-97.01661156377797, 18.921978880574922]], [[-96.95475625041169, 18.910955752880277], [-96.95254272888803, 18.907591208027835], [-96.9453100535036, 18.90954058162265], [-96.94598604885459, 18.912857106618596], [-96.95044520035748, 18.9152445293064], [-96.95389101527769, 18.914610490176145], [-96.95475625041169, 18.910955752880277]], [[-96.98939318050901, 18.90678317560759], [-96.98682462307063, 18.909513141664476], [-96.99002268200654, 18.911742059162], [-96.99220540328207, 18.90888345600908], [-96.98939318050901, 18.90678317560759]]], [[[-96.92939913822909, 18.81693740544289], [-96.92573318023524, 18.82617872976391], [-96.92199578016674, 18.826360222441913], [-96.9202404777669, 18.81142080344489], [-96.92912051759421, 18.808861515812268], [-96.92939913822909, 18.81693740544289]]], [[[-96.96099638616462, 18.84711815897348], [-96.95720795040748, 18.85042025090049], [-96.95058968881436, 18.847679547493485], [-96.95265166205289, 18.842896880027578], [-96.94883735479719, 18.83935298996846], [-96.94902695916755, 18.835966996578716], [-96.95875131900023, 18.83607379885445], [-96.96099638616462, 18.84711815897348]]], [[[-96.99041299561509, 19.05168163175304], [-96.99088023043612, 19.05523645016913], [-96.98348478052192, 19.055235714740345], [-96.97547149700605, 19.05173328401551], [-96.9743625617261, 19.048503214256517], [-96.983050970052, 19.04796297082538], [-96.99041299561509, 19.05168163175304]]], [[[-96.99989762816554, 18.8378081978053], [-97.00067100518388, 18.841393454023446], [-96.9977292775335, 18.84504626809871], [-96.98716783153267, 18.845520961107564], [-96.98581722812762, 18.835456133933437], [-96.99839871050355, 18.8346592868984], [-96.99989762816554, 18.8378081978053]]], [[[-97.00682197494946, 18.667003161885766], [-97.00147151925347, 18.67219624343036], [-96.9981199681586, 18.672235264068327], [-96.99344647084762, 18.66850088411394], [-96.99268819984466, 18.660568527070335], [-96.99782788691778, 18.65931633074458], [-97.00485203070227, 18.661883852659006], [-97.00682197494946, 18.667003161885766]]], [[[-97.01873777794097, 18.821469607787943], [-97.0165346990445, 18.828276734078184], [-97.00606427964777, 18.826915625828367], [-97.00917930462222, 18.818587034919524], [-97.01656931627389, 18.818639057302132], [-97.01873777794097, 18.821469607787943]]], [[[-97.01706297133106, 19.035736456127637], [-97.01768004907915, 19.038393106401205], [-97.0136415638883, 19.038529381043485], [-97.00639925259415, 19.035024950419558], [-97.00360835284658, 19.03135771595317], [-97.00383185994552, 19.025742284061437], [-97.0101884271602, 19.022452062823337], [-97.01628244776307, 19.03006661109826], [-97.01706297133106, 19.035736456127637]]], [[[-97.02376952714808, 18.96588444538778], [-97.02382881473115, 18.96922219937627], [-97.01813586541071, 18.975235813520612], [-97.01116842992472, 18.9697518747617], [-97.0135492481488, 18.960651942341062], [-97.01931388253622, 18.960774334480654], [-97.02376952714808, 18.96588444538778]]], [[[-97.03342527193409, 18.95068445569469], [-97.0331799526031, 18.95414360668331], [-97.02862856743944, 18.954041946479652], [-97.02345621825116, 18.94310535459788], [-97.0133438506413, 18.939145900608064], [-97.0126855575178, 18.93162420612777], [-97.02069098800808, 18.933333166980304], [-97.02298491776381, 18.94183239058104], [-97.03083971292, 18.940746384401624], [-97.03342527193409, 18.95068445569469]]], [[[-97.02713430052033, 18.905961756505608], [-97.02673150433155, 18.91033199710677], [-97.01825574118394, 18.910241730607005], [-97.01532891772239, 18.906485244080645], [-97.01546692962609, 18.900188910639237], [-97.02599072434448, 18.9007807151224], [-97.02713430052033, 18.905961756505608]]], [[[-97.02915570554049, 18.877988510978376], [-97.02136265928516, 18.88356910282122], [-97.01822492385419, 18.876091180835072], [-97.02119753725847, 18.87154971064191], [-97.02524681119809, 18.871471984507064], [-97.03006922562808, 18.873558478337422], [-97.02915570554049, 18.877988510978376]]], [[[-97.04048450104835, 19.009822387696072], [-97.03061438049474, 19.02153349386269], [-97.02433702469057, 19.019619984616913], [-97.02712634755096, 19.013638184872356], [-97.02558189783855, 19.006336313254355], [-97.0347634047394, 19.005501691547046], [-97.04048450104835, 19.009822387696072]]], [[[-97.12512524822813, 18.836369360202625], [-97.12484614652219, 18.843075418789276], [-97.1167035363987, 18.842937754656], [-97.11157500875113, 18.84731280097224], [-97.11195209962293, 18.854015004042257], [-97.12123023320139, 18.85554069709252], [-97.12155882331531, 18.86021536653709], [-97.117555365143, 18.872291117116923], [-97.12043711746564, 18.880791803232757], [-97.11921141476708, 18.883652294135373], [-97.11310469389204, 18.885571790879332], [-97.10947811218749, 18.89501916635977], [-97.1050216762862, 18.89192243870325], [-97.10668744325113, 18.886898588471496], [-97.10259292861386, 18.878692567300018], [-97.10411596712336, 18.86942352667325], [-97.09510241054377, 18.86592304555817], [-97.09937394640602, 18.85769581681208], [-97.09800902658475, 18.854278001552693], [-97.09082968150122, 18.855897030483984], [-97.08563009381912, 18.853432911001082], [-97.07988722636381, 18.85802947058036], [-97.07967591571231, 18.863404057370474], [-97.07324777672002, 18.869407966881], [-97.07109388829758, 18.87580731010937], [-97.07261433501371, 18.884435505088703], [-97.06760659681898, 18.888125719555273], [-97.06436729889198, 18.887859025636047], [-97.06128015155058, 18.880980007985865], [-97.05781650244273, 18.87943502999936], [-97.05168565427459, 18.883721325118973], [-97.0477041673002, 18.87515605299149], [-97.04388284450135, 18.873583322962475], [-97.04266094134152, 18.8646403090983], [-97.03548125461901, 18.86043290343955], [-97.0358705464062, 18.856282994274366], [-97.04055140614129, 18.853764825025028], [-97.04848843446474, 18.855356488073316], [-97.05838306137575, 18.845865531763543], [-97.06987727382985, 18.84596573339165], [-97.07533303358946, 18.84996202320879], [-97.08172990140118, 18.847791634337124], [-97.08572573510683, 18.84046658573836], [-97.09932551760741, 18.84274991643094], [-97.10090978664505, 18.838419616692256], [-97.09322007210191, 18.83630784659115], [-97.09217350585494, 18.832740156478618], [-97.11061871528327, 18.825297923584074], [-97.11418366680009, 18.827421937154746], [-97.11518427148528, 18.836484296308825], [-97.12512524822813, 18.836369360202625]], [[-97.05163992751578, 18.86165472478191], [-97.05378422169848, 18.858139040782508], [-97.04907425384368, 18.855341160818675], [-97.04522305113098, 18.863748546097725], [-97.05008739078781, 18.865857807714235], [-97.05163992751578, 18.86165472478191]]], [[[-97.05835985986582, 19.07281206583409], [-97.05649229225895, 19.076955168407082], [-97.04666988622235, 19.081889472828088], [-97.04261831206315, 19.081725721174987], [-97.0389055196373, 19.076301489984754], [-97.04078110333856, 19.06611397517952], [-97.044839816657, 19.06404997166376], [-97.04970312595252, 19.067214222788994], [-97.05653503076921, 19.067541109034973], [-97.05835985986582, 19.07281206583409]]], [[[-97.13765125956859, 18.92891510808269], [-97.13556830876023, 18.933407362307108], [-97.12763949028715, 18.932889787266415], [-97.12685682159862, 18.9265807845803], [-97.13121489113126, 18.92373131753825], [-97.12611323073571, 18.91242949954764], [-97.12840035596685, 18.905865459391766], [-97.13376956641874, 18.906357204208646], [-97.13432373818058, 18.92196858172833], [-97.13765125956859, 18.92891510808269]]], [[[-97.15309346767245, 18.897026436364982], [-97.15158543042439, 18.903299299124146], [-97.14718084226803, 18.904301287637814], [-97.14258521708027, 18.89264610121263], [-97.14967807237885, 18.891467400863146], [-97.1534823806243, 18.89430642195989], [-97.15309346767245, 18.897026436364982]]], [[[-97.15516048159716, 18.828046096861776], [-97.15572477424767, 18.836777678087486], [-97.14597705431667, 18.839228263694434], [-97.14422934931031, 18.832390372804472], [-97.14974012631862, 18.826528840372212], [-97.15516048159716, 18.828046096861776]]], [[[-97.16953200840639, 18.81667377333294], [-97.16379621162388, 18.825784757368208], [-97.16068539469876, 18.825621672933288], [-97.1535703568048, 18.818464155997397], [-97.1564233959506, 18.813782467598617], [-97.16208360841043, 18.811170089154306], [-97.16866107321732, 18.812226232284566], [-97.16953200840639, 18.81667377333294]]], [[[-97.18358621076533, 18.80072560881732], [-97.18437583368583, 18.805045325966137], [-97.18154719971022, 18.808678928035793], [-97.1743800501935, 18.80860892485552], [-97.1724991907456, 18.80225704709705], [-97.1753409598665, 18.79854520056118], [-97.18358621076533, 18.80072560881732]]], [[[-97.28366386021438, 18.80815888525982], [-97.27739760652109, 18.820343981492158], [-97.27173937720582, 18.81485928833117], [-97.26276365136663, 18.813986505146808], [-97.27877377399409, 18.804196446114624], [-97.28380275690381, 18.806015123395117], [-97.28366386021438, 18.80815888525982]]]]}}]}