{"type": "Feature", "geometry": {"type": "Polygon", "coordinates": [[[101.39586244025651, 3.2491015661401663], [101.40329680603818, 3.253149247465128], [101.4139151594674, 3.2460598662617453], [101.41822796427283, 3.2466400181402952], [101.42606685100745, 3.2569815860271403], [101.4238124106919, 3.262995892371984], [101.42397275478118, 3.274905300937917], [101.43287330747908, 3.2817521256352142], [101.43565720689784, 3.2806006800941305], [101.44394607466793, 3.270665675236855], [101.45732144598882, 3.2694459089469308], [101.46936367277226, 3.255994421958594], [101.47648463590625, 3.256142852971597], [101.48145420916757, 3.2609094544521464], [101.49336851431802, 3.261036550330408], [101.49633561524634, 3.25880005554013], [101.49784396237561, 3.2517156717978137], [101.50284840082767, 3.251129914436448], [101.50985687199467, 3.258786931132233], [101.5105000149977, 3.2691257922286336], [101.50862850410893, 3.2721882028902325], [101.50278365679533, 3.275996732814399], [101.49984139501719, 3.282719758208834], [101.495294130612, 3.2882182435064466], [101.49882212519188, 3.298978326875931], [101.49644591053098, 3.3067973740917216], [101.49918028622704, 3.310727421359171], [101.51123196046315, 3.3110782368298084], [101.51659892163052, 3.313760829672676], [101.51854375013022, 3.3235876086321023], [101.51288790134406, 3.332795518151101], [101.51482048577296, 3.3389158000982913], [101.51931689755897, 3.341532838584168], [101.52628204252096, 3.335927704950151], [101.53263463817044, 3.337109229409901], [101.53587460564201, 3.340024144497949], [101.53958972201676, 3.347748485614865], [101.54591037110582, 3.349354576105317], [101.54963691907264, 3.3522269002633167], [101.55150238644104, 3.3661021224126655], [101.55510054045932, 3.3720783872238136], [101.5581509334009, 3.3722736103423747], [101.56482008466959, 3.3684520462890477], [101.5674741946705, 3.3699320775085164], [101.56982722586524, 3.375475763209134], [101.57282944467109, 3.377843704667896], [101.59562372332518, 3.37756481071518], [101.59821025510375, 3.3713642545735194], [101.60520623142595, 3.3655977362479903], [101.60614107005297, 3.362336381529525], [101.59893146842205, 3.353940730621464], [101.59159559490232, 3.3398089647978937], [101.59954593092719, 3.320391370257306], [101.60302001305506, 3.315367630970521], [101.60351979025117, 3.3067008659778687], [101.60688967303697, 3.301826455867252], [101.60601489354133, 3.2978577066099994], [101.58907367242868, 3.289959045617076], [101.58171355010913, 3.294309777826337], [101.57404151632292, 3.289541682380552], [101.5658107885816, 3.2934424707244], [101.55976786418505, 3.291325828028443], [101.553336541732, 3.2938213572116055], [101.54991715143744, 3.293178973016915], [101.54729021971632, 3.2902083021024713], [101.54880492355232, 3.283063227453971], [101.54575115185214, 3.2770831737990003], [101.5373747792345, 3.274931139294249], [101.53056192422686, 3.268614899830757], [101.53089108689628, 3.2652406865312686], [101.53609581564159, 3.2563804866440966], [101.53876935179764, 3.2545394862111747], [101.54179184319368, 3.2551844116757414], [101.54692509247263, 3.2658763746498543], [101.55184651529646, 3.266882987702183], [101.55789575059273, 3.2591615476084193], [101.56487080210127, 3.2550886402114227], [101.57036571892083, 3.2541917439728834], [101.57495227003152, 3.2500583717110256], [101.57590126365685, 3.2468630724272938], [101.57386494330407, 3.2414188457096427], [101.57546146879235, 3.2383914153451117], [101.5845172611932, 3.234707667913052], [101.59068570627711, 3.2342780723476237], [101.59545839195454, 3.2258542390719174], [101.60116805210787, 3.2241448081614337], [101.60663846594277, 3.219142844047952], [101.61005248671401, 3.2192707104846776], [101.6149159044667, 3.22695432351976], [101.62155272724877, 3.229397008479558], [101.62665259500527, 3.2292034018167244], [101.63543195501383, 3.2352988047867677], [101.63690586619718, 3.2416734478652622], [101.63474569664608, 3.248150001293473], [101.64232872574708, 3.26139652500126], [101.64278945013793, 3.269149942293927], [101.64202520383704, 3.275653263355866], [101.6366359997045, 3.279157640764316], [101.63248898928006, 3.287398935803977], [101.62827897003125, 3.28834659208093], [101.6243251208287, 3.2849467354699127], [101.62142966772655, 3.2845608489160147], [101.613377514457, 3.2872399087895303], [101.6120793206581, 3.2920165855006], [101.61687777281108, 3.29633909654033], [101.61869465829528, 3.3010101922642394], [101.62252864376175, 3.303726609424026], [101.62734512351997, 3.3043208752828526], [101.6341652423396, 3.3009113313278737], [101.64136516086437, 3.3042382755375854], [101.64466611833386, 3.308359600973694], [101.64778119180384, 3.3090553729906196], [101.65013363490445, 3.3076787245562462], [101.65116828446803, 3.304728790293198], [101.64715522305059, 3.2907440062135387], [101.65175539696786, 3.2854840349173693], [101.65347432660087, 3.278930104435876], [101.65763343795219, 3.27439193723398], [101.65630412714279, 3.265039312669898], [101.65832080763222, 3.2618296287044215], [101.66184274443061, 3.2604251324181077], [101.66512864938016, 3.261211587260458], [101.6682762051068, 3.2645546186582046], [101.66913393831352, 3.269231386056987], [101.67239336715642, 3.2736459489033414], [101.67539859247483, 3.276234561841853], [101.6783702682492, 3.276529991161782], [101.68656959353642, 3.272137617817945], [101.69031625160201, 3.2648013916327154], [101.69332671144102, 3.2648243681633904], [101.7000001705419, 3.2685449942922085], [101.70442315702505, 3.266449985270168], [101.70640334495926, 3.2593705965843474], [101.71007496171147, 3.255626774616583], [101.7108859882301, 3.248109489428455], [101.71284202504032, 3.2457792148352627], [101.71661356333986, 3.245788049680799], [101.72127883695185, 3.249755988520741], [101.73032665189875, 3.2488470751248224], [101.73142222085073, 3.2416728154904657], [101.72779835525161, 3.235741195106315], [101.73030201584761, 3.231169868303003], [101.73456481643407, 3.2308282559664545], [101.73888282881025, 3.234816419851319], [101.74249240315301, 3.235550089818762], [101.74990188874224, 3.228412108141004], [101.76092938106832, 3.228566463095523], [101.76457362098496, 3.224750604589516], [101.77150981796703, 3.222496046776483], [101.77556924662986, 3.2178419487621697], [101.78719106767123, 3.2196837083296836], [101.79275641871118, 3.2185218285551223], [101.79423289753888, 3.2153860621146433], [101.79295427073986, 3.2069809013836426], [101.78648636725781, 3.2021650568845907], [101.7849122000869, 3.1949819928666803], [101.776967055428, 3.187023030576765], [101.77783284632072, 3.1795827200054396], [101.7753194828942, 3.174728879035334], [101.7780629614805, 3.167151195674206], [101.78452302094614, 3.1658129084341677], [101.78697174958312, 3.163462351276861], [101.78555902811271, 3.148442157139624], [101.7941884551919, 3.144974544617152], [101.79682167969943, 3.135479005368775], [101.80367482626696, 3.1291207796484795], [101.81329834644512, 3.129298511097275], [101.82776597740072, 3.134519665664997], [101.83071029525547, 3.134142012177544], [101.83460897826873, 3.128364171753344], [101.83484532277711, 3.1210170191488507], [101.84571267392087, 3.1190943519468672], [101.84865792386167, 3.1145922266243025], [101.84829716020295, 3.111093242601445], [101.8463191185442, 3.108980091206016], [101.83394568746101, 3.1048782862790327], [101.82156552442471, 3.1052582871121284], [101.8155758295367, 3.0985321039806113], [101.79406673070193, 3.088560064690131], [101.79240578800211, 3.085632327456683], [101.7930877940428, 3.0776733960875005], [101.80005152375192, 3.0738413249358794], [101.80466753543926, 3.064612968893452], [101.81314961623418, 3.065825622587948], [101.81790602716653, 3.0614528325944304], [101.81557130075515, 3.050167186705996], [101.81022252636666, 3.043910205743441], [101.80946978581433, 3.0389611115041797], [101.81133438155445, 3.0364737639149344], [101.81741670701555, 3.034319996764022], [101.81954147776605, 3.03109156537884], [101.8201896705213, 3.022091136472382], [101.81830152245973, 3.0173200200949384], [101.81951787713554, 3.0134778525955914], [101.83019090082836, 3.0105246691439103], [101.83373256264792, 3.0055628980340336], [101.83064414134908, 2.9873529096505065], [101.83670801823932, 2.974429385666767], [101.84402270760366, 2.9743394354952586], [101.85275991712348, 2.9713654982332596], [101.8568239266187, 2.9737696524803323], [101.85713877401146, 2.977165117364159], [101.85356379544062, 2.984252220263588], [101.85577743590544, 2.992229478456394], [101.85193921615127, 3.0030220428749104], [101.8555545129031, 3.012255823493422], [101.86086873793533, 3.0171077584356314], [101.85845798752888, 3.024863318942868], [101.85959905390386, 3.0296159787027213], [101.86577317439195, 3.0377308426081777], [101.86878773138022, 3.0380237233512797], [101.87194382573004, 3.0360505963727644], [101.87280595358257, 3.0319013251338], [101.86959963796016, 3.0251132750402046], [101.87190749276412, 3.0206839630327114], [101.87178573529566, 3.014930230450291], [101.87527397645184, 3.0084432554422884], [101.87680066001386, 2.9977749498763395], [101.88723332157585, 2.9893019724924215], [101.89300252187365, 2.977083442237127], [101.88911896147805, 2.970854834063242], [101.88030239404092, 2.9721257320033874], [101.87448590084901, 2.9658214483370697], [101.86890064738849, 2.9657630227209477], [101.86724348246334, 2.9636252423281078], [101.86716800662651, 2.9595409043010257], [101.87059732991372, 2.9566610741401838], [101.8761569671935, 2.959595953482317], [101.88006105910864, 2.9585896166583727], [101.88194115235449, 2.956373200799967], [101.88258305177031, 2.951031893586415], [101.88732820400236, 2.9480699390128127], [101.8896481635909, 2.943440421137919], [101.90046686427847, 2.940776560592964], [101.90080839098192, 2.9334093822903333], [101.90537397796751, 2.928565478839364], [101.90654632476931, 2.9215496634528675], [101.90329152406, 2.9128097508208577], [101.90070062851818, 2.9111042153422897], [101.89241154242316, 2.9117824060992312], [101.88728533927393, 2.9099096020035704], [101.88536958730337, 2.9075120385812245], [101.88422563985918, 2.9004782790996657], [101.8783803181539, 2.8951661001360107], [101.87189650229013, 2.8939181744667137], [101.86565673102662, 2.8961831543888406], [101.86133867999058, 2.9117349603254152], [101.85642151643319, 2.9163071630812754], [101.84924247706932, 2.916408584406386], [101.84410806388452, 2.9146520074014233], [101.83867709666082, 2.9156664875968032], [101.83229478693292, 2.9111648402355677], [101.82271136121004, 2.9133820988544636], [101.81850252750705, 2.9114337856534678], [101.81154037682849, 2.902309952991643], [101.8003519858586, 2.898988795579269], [101.791366606973, 2.9045120206100576], [101.79342630024227, 2.917033695246226], [101.78889098934839, 2.9220732846900574], [101.78786155939464, 2.929270056877571], [101.78428945428549, 2.931163944502613], [101.77935770000781, 2.929703796045771], [101.77736211999097, 2.924644125291469], [101.77485555311728, 2.922607364069338], [101.76568499624203, 2.9219763288171317], [101.76066294924392, 2.914606420642616], [101.75100298826541, 2.914016981174594], [101.74600950456181, 2.9104003024919662], [101.73633276148921, 2.9126594457945307], [101.73174196508018, 2.910833204594657], [101.72409674578846, 2.9108883757361825], [101.71848985628765, 2.9162322044385167], [101.71505977694143, 2.91653764432217], [101.70831007577618, 2.9098319517493723], [101.69165716117365, 2.907497764902818], [101.68825979441262, 2.9044066020277977], [101.68603205915933, 2.898857395454784], [101.68247429356765, 2.8964407748930627], [101.67654473037514, 2.897356766861698], [101.66963335991262, 2.9052071857256965], [101.66188130580316, 2.9088033762777434], [101.65230281294917, 2.9107142195810694], [101.63927327292495, 2.9103332358017817], [101.6364926148738, 2.9071995694988537], [101.63831454535222, 2.8995216358257774], [101.63739502318056, 2.896424776960707], [101.63154567472655, 2.8912245622834325], [101.62404923070774, 2.8904000209319034], [101.62082385789235, 2.8921174157737966], [101.61462632329885, 2.903657670859191], [101.61712770722897, 2.9109561999639957], [101.61485672428361, 2.919005574144536], [101.61553797121995, 2.9262357148398617], [101.61259956245105, 2.9279795248564993], [101.60782052989734, 2.9266705077906354], [101.5993303081355, 2.927610588925151], [101.59191254833468, 2.936484300521702], [101.58270646115754, 2.9330580767651746], [101.57501527480412, 2.9379872879791717], [101.56864972529598, 2.93227240344525], [101.56217449159722, 2.931498604923817], [101.56042687654049, 2.927791441021744], [101.5638648965492, 2.91978790186525], [101.55697362939456, 2.9139890759429568], [101.55369022035093, 2.9146645876180934], [101.54722322871274, 2.9210469417110216], [101.54428050508065, 2.9205649964183387], [101.53789834924794, 2.9153936725143748], [101.52720739579959, 2.919242939492184], [101.51609885336751, 2.9306781408419607], [101.52134105444165, 2.9449223427135225], [101.52036071564764, 2.9492454216283734], [101.50743885357032, 2.9582923079855834], [101.49123479781746, 2.9849877363484083], [101.4857464505602, 2.9871310830342335], [101.48232187115063, 2.991786875903487], [101.47898195969009, 2.992092954248317], [101.47622623317474, 2.989349038347064], [101.47527110570785, 2.9815281742843456], [101.46583035517561, 2.975780628581881], [101.44980486179519, 2.9817629462059663], [101.44540001614246, 2.9865119007659], [101.43955535411617, 3.001559485605082], [101.44196890595413, 3.0041157820252398], [101.45091922524828, 3.0057833252466044], [101.45370729867386, 3.0159442326217336], [101.45966480047353, 3.020469754492529], [101.46099772687722, 3.029855772417344], [101.46688426522948, 3.0346231322420243], [101.4667874446507, 3.038077320056107], [101.46255334260474, 3.043146574069186], [101.4632047643531, 3.04956038792818], [101.45483100861638, 3.0710263767646717], [101.4469289260956, 3.0744587582446083], [101.42224598938182, 3.074693663630246], [101.41965536589258, 3.0779080022944267], [101.41856950452757, 3.087666413208359], [101.41040791061533, 3.0895373524774596], [101.40820172967818, 3.092584030643598], [101.40817813320372, 3.1122500016590218], [101.4116759453493, 3.1155837326631226], [101.41528912489663, 3.1146720742161684], [101.42129141864996, 3.1071271788141086], [101.44314756425696, 3.1065649151248853], [101.44572247860701, 3.104475846317394], [101.44788700762776, 3.0976665258228158], [101.45214341956068, 3.096798964791013], [101.45489321227126, 3.097931211663787], [101.45655934727365, 3.1034149707520995], [101.45335736910103, 3.1094165161929705], [101.45493761230425, 3.1159361899860647], [101.45209745473296, 3.1208369173468102], [101.45215255469323, 3.1268221411957016], [101.45811749808679, 3.133317136312964], [101.46319678359578, 3.146545610177418], [101.46920195379255, 3.1489007747185553], [101.47090008073756, 3.151797975270923], [101.46895060098107, 3.1614498831219726], [101.46017648969254, 3.1654396069301582], [101.46102584383868, 3.1720997659177037], [101.46389503222426, 3.1757990121241386], [101.4668079256005, 3.176499783149035], [101.4853739285903, 3.16891161541859], [101.4931275767799, 3.174974325484735], [101.49372311728715, 3.1791102190250973], [101.48984473120646, 3.1830291617393383], [101.48873846648094, 3.1893928063689527], [101.48581026155274, 3.1913172909913285], [101.46965073056327, 3.1924708490010127], [101.46309334425158, 3.18840890653975], [101.4264723226158, 3.1889967961521912], [101.42351383461464, 3.1951478675467904], [101.41629602016589, 3.1981617165189475], [101.41423691073355, 3.206973507825103], [101.41646317646027, 3.2119067583287353], [101.42327325910848, 3.215001007913554], [101.42369935052366, 3.219482620587696], [101.4187534089077, 3.224055152501006], [101.40800885875232, 3.2234859053095275], [101.39872019224006, 3.233514090864651], [101.38962136369958, 3.2377392572714876], [101.38908269545827, 3.242490371262311], [101.39294142491691, 3.2480531511560624], [101.39586244025651, 3.2491015661401663]], [[101.82390483607392, 2.9366826991354706], [101.82506179715845, 2.932715113817443], [101.82911117506407, 2.9318887780597493], [101.8375505661576, 2.93700718845807], [101.8386592513072, 2.941206025567889], [101.83358979684661, 2.947692571336589], [101.82699610938948, 2.947160315509167], [101.82431489092757, 2.944569227207489], [101.82390483607392, 2.9366826991354706]], [[101.77842911597583, 3.11393734009342], [101.7744920057238, 3.1071119615783873], [101.76980408266799, 3.104349795706549], [101.76893941020121, 3.1013493799340384], [101.77298052425121, 3.0909216843134666], [101.7827248656652, 3.087582495083936], [101.79039258309777, 3.0913488034617926], [101.79066673113354, 3.104377621276758], [101.80076572266954, 3.111367166511863], [101.80368737243828, 3.1198718364807516], [101.80081634678965, 3.1240721899842416], [101.79209320053285, 3.124776490164692], [101.78725129373417, 3.1188927639101234], [101.78045650665368, 3.1171059950583193], [101.77842911597583, 3.11393734009342]], [[101.68825099330351, 2.98784745987541], [101.6845375004811, 2.983084200624105], [101.6845149192354, 2.9784374607014565], [101.6866277173223, 2.976273984333585], [101.69397915036842, 2.9739423891065395], [101.70274858945228, 2.9795055841736375], [101.70879620820483, 2.978276226092101], [101.7201850126566, 2.9789710463061527], [101.73013360728292, 2.9812854091516754], [101.73413271734142, 2.9834462520060723], [101.73545245113785, 2.9861567645229985], [101.72850891717539, 2.9989399957215435], [101.72251523273846, 3.0006123620316574], [101.71818607081988, 2.9992380289728127], [101.70871268786944, 2.9997677803603846], [101.70458451070822, 3.0053337713925345], [101.70188726200416, 3.0063792661822815], [101.69800002919105, 3.003762562863632], [101.69694908456924, 2.9927105184825193], [101.69001610353918, 2.990284245677], [101.68825099330351, 2.98784745987541]], [[101.71168413618588, 3.0404091075780277], [101.71313179160332, 3.0373551793775437], [101.71640147097537, 3.036499971528384], [101.72632731107711, 3.0423871988341937], [101.72750390087245, 3.0476049787911816], [101.72496193890139, 3.0577707921045953], [101.72751807574753, 3.0594110859715085], [101.72874615291755, 3.063501346492377], [101.72536647136212, 3.067702645617652], [101.72226464552402, 3.0678835538775275], [101.71996911359044, 3.0657896139380196], [101.7218147633053, 3.058531317721817], [101.71839235450103, 3.0558772730436234], [101.71254573818361, 3.0465248172021835], [101.71168413618588, 3.0404091075780277]], [[101.63414769669814, 3.0244742318405984], [101.63593152616389, 3.0111274065410116], [101.63903926447895, 3.0084335384720586], [101.65275142180722, 3.008898761761894], [101.65723957679708, 3.014503354681067], [101.66278352608843, 3.016345415007722], [101.6643465210017, 3.0197548319604453], [101.66245137675037, 3.0278562435384684], [101.65763122244005, 3.031023498656338], [101.63677116692637, 3.030753226387553], [101.63398398932894, 3.028330203452147], [101.63414769669814, 3.0244742318405984]], [[101.58854376426936, 3.1835010607884686], [101.58350097624633, 3.1819217720184207], [101.58294549103111, 3.1732292186931272], [101.58532532800574, 3.170747074608146], [101.59256503835726, 3.1692790991317015], [101.59737344862614, 3.1738873287500704], [101.59777330125517, 3.1780346513479065], [101.59436063810094, 3.181306330817726], [101.58854376426936, 3.1835010607884686]], [[101.57853522183223, 3.3417585236576386], [101.58098572541122, 3.3440476858966632], [101.58093992137708, 3.347185248777965], [101.57856980813052, 3.349443795401903], [101.57547287485416, 3.3494663169858834], [101.57328812145829, 3.3472712416934893], [101.5733736380086, 3.3437976171322723], [101.57560888650879, 3.341708716251001], [101.57853522183223, 3.3417585236576386]], [[101.54762708966858, 3.33025647956133], [101.550552806019, 3.329100432876148], [101.55438836448452, 3.330426112081177], [101.55598443907039, 3.333060877153618], [101.55523457317753, 3.336048709513928], [101.5519616811252, 3.3378306976308467], [101.54781084781048, 3.336405228005826], [101.54628038947678, 3.333289123975936], [101.54762708966858, 3.33025647956133]], [[101.53220935044222, 3.229827629880719], [101.53296157207132, 3.2259364481135826], [101.53596968721169, 3.2241302197630652], [101.53900394149936, 3.22491614242682], [101.54101027732372, 3.2281497682432136], [101.54014710357443, 3.2314008776088525], [101.53694622742333, 3.2330890769163463], [101.53392656629381, 3.2324905768389427], [101.53220935044222, 3.229827629880719]], [[101.51704404633404, 2.976627614829824], [101.51572324244867, 2.9721449818309247], [101.52397176032454, 2.959164753662386], [101.52827194857197, 2.958922487215967], [101.53165751375343, 2.962829355178865], [101.53901866602071, 2.9666348308960906], [101.53913039893607, 2.9699486588235335], [101.53623358889693, 2.9733968375681905], [101.52625377560202, 2.975486880863184], [101.52180400168069, 2.978769707889684], [101.51704404633404, 2.976627614829824]], [[101.48831733285424, 3.1074681283149004], [101.49074599076431, 3.1031088026906697], [101.49795207504988, 3.0992612147026595], [101.50446693361927, 3.098004393100667], [101.50853642136698, 3.0929600630811085], [101.51358901869376, 3.0922419958942573], [101.51703621596535, 3.094997400116989], [101.51701832531518, 3.1157814130814425], [101.51455718250244, 3.1190384803602114], [101.49090094534581, 3.111832317887895], [101.48831733285424, 3.1074681283149004]], [[101.47708303556698, 3.036417633503484], [101.4733671510779, 3.038671599394167], [101.46915411601134, 3.0361142438646125], [101.4691517062292, 3.0326433974228637], [101.4729062163253, 3.0272814994729527], [101.47593872985384, 3.027137801549197], [101.4792390799556, 3.02983373785532], [101.47945761170445, 3.032581882387662], [101.47708303556698, 3.036417633503484]]]}, "properties": {}}