{"type": "Feature", "geometry": {"type": "MultiPolygon", "coordinates": [[[[30.845209526882986, 28.110619948834827], [30.84112373701857, 28.111945879630483], [30.819466294002485, 28.12731574726194], [30.8169751338766, 28.131465648923268], [30.818673672773368, 28.135193302795734], [30.840544721791936, 28.148683270899433], [30.846102478214494, 28.145694391796077], [30.845871528632767, 28.13825043667768], [30.848579814023317, 28.134619394135758], [30.859255673922174, 28.133627114032322], [30.867612204921965, 28.126333754199983], [30.872801421513085, 28.12569962442728], [30.87753577218676, 28.122726267913514], [30.890504122836802, 28.100730591251455], [30.904516305885227, 28.089519486459142], [30.9052356930336, 28.085313327556165], [30.890075297658033, 28.07704788099205], [30.88684202658992, 28.076940779891235], [30.858168762151866, 28.10461744264004], [30.855814277318615, 28.109087686227728], [30.845209526882986, 28.110619948834827]]], [[[30.84849995759069, 28.296866151794372], [30.84939878039168, 28.30073705682965], [30.852018685756725, 28.302515532997973], [30.860907561476015, 28.302927985877638], [30.864021121179665, 28.29980569550639], [30.86337621168409, 28.2940624416997], [30.860613495358834, 28.291829826244534], [30.850902834183046, 28.29160233458981], [30.848781071571896, 28.29372655700489], [30.84849995759069, 28.296866151794372]]], [[[30.71770128556779, 28.086901674340556], [30.726653187621963, 28.095960980242445], [30.732198059992278, 28.090205693811342], [30.73625702372927, 28.090111109718766], [30.739555997640274, 28.098343915487643], [30.74254457735012, 28.099057928675926], [30.744190275562048, 28.102013716444095], [30.74294076819657, 28.105224871729416], [30.73964153934782, 28.10627784053543], [30.737229112729366, 28.10500041332637], [30.73619084072407, 28.102074522385088], [30.729258838150354, 28.101415554103717], [30.726610478969835, 28.09905152279915], [30.71970037943879, 28.102640721800864], [30.71794589944333, 28.106009238136874], [30.72211610705638, 28.112363930357116], [30.731769135893522, 28.112261118823653], [30.734797597304187, 28.11577757127081], [30.734210099192236, 28.120297079458815], [30.729729859806508, 28.124396091531946], [30.73026572538622, 28.130414109023985], [30.727519372237268, 28.13610126108225], [30.73099631358707, 28.147255209891217], [30.729018272550803, 28.149589269192905], [30.722695498950134, 28.151543798586193], [30.719982185748773, 28.15709027409663], [30.72098870308561, 28.15996400870873], [30.727271714422614, 28.1656201024037], [30.727332192489165, 28.170025137516145], [30.722814662980877, 28.17945916484595], [30.722970845314727, 28.189865927876248], [30.72456375086595, 28.193471861388257], [30.72925477016185, 28.194811004519632], [30.743153910060816, 28.18561109405806], [30.74304261254477, 28.181800581636736], [30.73735058014532, 28.16999245704231], [30.740737501557263, 28.163283953853362], [30.742622442466658, 28.152184812887956], [30.73838369179436, 28.1468532703765], [30.737855379517306, 28.14384182962495], [30.741196905419116, 28.13460824878231], [30.749179761112607, 28.13124862390994], [30.751782682666082, 28.127717542678624], [30.75305790384672, 28.123476140066625], [30.751439836903604, 28.117054914918192], [30.75532213844216, 28.10806494056148], [30.76300512575789, 28.101001048623743], [30.769900934093318, 28.100757374599997], [30.776773893416543, 28.09828609887493], [30.782758106757154, 28.105127636424836], [30.799179452153723, 28.103402776738417], [30.803834841853433, 28.108331626798076], [30.806717714394477, 28.109181299413002], [30.811810278548304, 28.106874080687046], [30.814203350671665, 28.10070125623201], [30.826975539788762, 28.090154308865245], [30.831132007098432, 28.09069297379251], [30.834678107871056, 28.096425881422935], [30.83711090385074, 28.097723876420027], [30.846610212131402, 28.093484472038714], [30.847099700230846, 28.089772400917244], [30.841240418064107, 28.079262128735003], [30.84899110689145, 28.06176658990336], [30.84822310606058, 28.0571995489439], [30.844294595841845, 28.054585124540534], [30.833781977895306, 28.057733901228424], [30.830483685932343, 28.053814841373878], [30.832570756007, 28.047240855816284], [30.838829133538653, 28.043418186456943], [30.844521297073097, 28.042655032634638], [30.8481601919229, 28.03899366428309], [30.84832808931088, 28.035604657350078], [30.84600841644409, 28.033297895162228], [30.839815749651642, 28.031527080765], [30.83757914336459, 28.025212908245027], [30.834288911843785, 28.023469144023018], [30.827335809045298, 28.026240898938557], [30.82395699987695, 28.032668085900315], [30.813162744305583, 28.03494188154873], [30.80720749046873, 28.046425154953862], [30.808480032287882, 28.04967257079936], [30.81305422063962, 28.052498591869696], [30.81366975582647, 28.055465457867047], [30.80736254054059, 28.061512477606364], [30.804445283678493, 28.0687975544538], [30.80423369060687, 28.07387962518118], [30.794421010062866, 28.084796398087533], [30.780609859872882, 28.09462468984319], [30.77681453223012, 28.09399827300534], [30.77135858315756, 28.087829291986022], [30.772435915315715, 28.076127935892107], [30.77711341313151, 28.06974914397371], [30.777831101463274, 28.062753349891523], [30.776634798227175, 28.0599219265118], [30.770972133187936, 28.056094329032792], [30.76752388984143, 28.060136804756343], [30.76268588156246, 28.057673605201515], [30.75708712784694, 28.058831577627675], [30.754110748287832, 28.077154893541717], [30.749803826701136, 28.080605028159983], [30.740249145210218, 28.07771541551155], [30.73788243203713, 28.07229556587016], [30.734631072668137, 28.069912585585975], [30.729645708818264, 28.069288560160032], [30.720175026771088, 28.071620336141745], [30.713256937351034, 28.08198885609828], [30.714190215542956, 28.085344484625704], [30.71770128556779, 28.086901674340556]]], [[[30.765430471797377, 28.05195590559359], [30.77048743090134, 28.054155139838276], [30.77277461584982, 28.05042239029124], [30.779669116368783, 28.04872198055923], [30.783514226390622, 28.044775695890724], [30.78334526885792, 28.041026567760916], [30.774679863617067, 28.033893229090424], [30.768635663329757, 28.03263485165673], [30.759227758075454, 28.03374184450151], [30.756848584981746, 28.037777202216603], [30.757304461043887, 28.04303991558638], [30.765430471797377, 28.05195590559359]]], [[[30.809095179222485, 27.9219068034091], [30.80948511226856, 27.92609682575694], [30.812645913541765, 27.930018585642813], [30.813513951243458, 27.936301315099573], [30.816718876388176, 27.937578005092774], [30.821595745284828, 27.93577616970089], [30.823890385232644, 27.92588591732882], [30.82180476277748, 27.92011051480666], [30.817382028760456, 27.9145087874593], [30.813928834998876, 27.913295789139408], [30.809575109106255, 27.91543841856637], [30.80824940145459, 27.91813125608799], [30.809095179222485, 27.9219068034091]]], [[[30.780537977431162, 28.013474900656924], [30.78682763944776, 28.02285985611665], [30.792138534951565, 28.0235680725379], [30.797649334850874, 28.015952268212825], [30.79808558484261, 28.00565431001508], [30.794924793268816, 28.003300994177003], [30.784839019566636, 28.00411571763445], [30.78032701996434, 28.007376851607514], [30.780537977431162, 28.013474900656924]]], [[[30.681907513131538, 28.302965706638854], [30.683023039769296, 28.30682192555057], [30.69214149490157, 28.3125738466992], [30.69330340000845, 28.319068355050522], [30.696455376056637, 28.32232904309543], [30.69907807671148, 28.32904779398106], [30.707940280220413, 28.334605693681425], [30.714371027182555, 28.331703606742757], [30.720167090767557, 28.33191517564064], [30.725762001345842, 28.326459024765505], [30.726591775128217, 28.322892031757945], [30.72260080559374, 28.31788897884573], [30.72273390847887, 28.31405435950094], [30.724900515915543, 28.311935460155212], [30.731444468565254, 28.310810608530737], [30.732572077306685, 28.302376541534002], [30.737035146809788, 28.29891804248965], [30.74094247664741, 28.300981860339984], [30.741424537798874, 28.308614649701237], [30.744496397633792, 28.3156985252888], [30.754048559181317, 28.329299116246787], [30.767815103539643, 28.332515908386608], [30.77480801118176, 28.331031719150683], [30.778994032809273, 28.327329326890098], [30.77788490567559, 28.32324367518751], [30.769452424012563, 28.315541394797048], [30.76544725390074, 28.31434176462178], [30.759515375894466, 28.315843280292782], [30.754139649513974, 28.31216014230526], [30.753240168948235, 28.306443957469547], [30.75661336033918, 28.300581426676903], [30.75526037358846, 28.29737017353965], [30.741718821135947, 28.29539334426349], [30.739256621229128, 28.29352670553582], [30.739389442759833, 28.284743832008044], [30.736753214603667, 28.27458957739722], [30.74266893074815, 28.264775541505482], [30.741500596582767, 28.26096899485418], [30.734565371282812, 28.25497637596663], [30.729230828612494, 28.254075887407947], [30.725951822005637, 28.256909088748795], [30.722710168835956, 28.266392736630227], [30.723305270482832, 28.274195817015013], [30.716156637368485, 28.27905127641518], [30.714282500098147, 28.290979184282453], [30.70743749450299, 28.29325044550441], [30.702652843434056, 28.297817919093045], [30.69673964916093, 28.298027937042338], [30.685405019307844, 28.29530328343429], [30.68311692998387, 28.2974918311157], [30.681907513131538, 28.302965706638854]]], [[[30.689864168994852, 28.22800800143874], [30.69214756019023, 28.23406149537992], [30.69065268169923, 28.239083987025026], [30.69130175708324, 28.244271430660685], [30.69912992255319, 28.25112023085954], [30.696679283996236, 28.261029020814746], [30.69980215263867, 28.26421130738973], [30.705985050828772, 28.26547651776747], [30.709187448098273, 28.262886512926386], [30.710748438126434, 28.25373011215018], [30.708835679529237, 28.25085477295516], [30.701621118522407, 28.248608955706015], [30.70104143268106, 28.245961479146526], [30.702791049986985, 28.24196847958839], [30.705632814923835, 28.240894416374122], [30.70969987834636, 28.242362030422893], [30.719384910159405, 28.24223291650324], [30.72448595542016, 28.23740157711909], [30.731065722542912, 28.236912609560797], [30.732921352639174, 28.23493735968422], [30.73538453328256, 28.225914501439703], [30.73832777173134, 28.22487427580435], [30.743186186559857, 28.227456010585772], [30.749315165006568, 28.227081806937004], [30.75347164330527, 28.21679168956472], [30.751897247943283, 28.214221924436742], [30.74713794960016, 28.212680671202474], [30.741150589262272, 28.208046354261537], [30.732978975118183, 28.205637723487907], [30.73002919481317, 28.20797516238183], [30.728810500843675, 28.21532088980505], [30.722610189224287, 28.218767167608164], [30.715790781024623, 28.21837301014578], [30.710025243107367, 28.22151054282715], [30.702087314676408, 28.22020642789841], [30.698005351890043, 28.217059341158773], [30.69430972180996, 28.21723879990601], [30.689864168994852, 28.22800800143874]]], [[[30.705171802310474, 28.052646067214916], [30.70693636849147, 28.060963639579136], [30.71415408833781, 28.06186438734152], [30.71638580334834, 28.059870340006427], [30.71761659820665, 28.055220504534237], [30.72134092643573, 28.051768508381922], [30.722107419223647, 28.04685965248481], [30.718792168589783, 28.043444284617237], [30.71017090982165, 28.042835526981065], [30.705478156646727, 28.046362863641566], [30.705171802310474, 28.052646067214916]]], [[[30.68806817428525, 28.19196963153964], [30.692388017127744, 28.197578711186488], [30.702531827313866, 28.198322997192502], [30.7069439441003, 28.193387441759548], [30.706602403243853, 28.18723151065085], [30.711571524772154, 28.18206860737924], [30.711352039948622, 28.176801426213007], [30.706139351115095, 28.172434836499228], [30.69873252188321, 28.172870870532936], [30.695459553018775, 28.180275840443517], [30.686492552504674, 28.185814386934315], [30.68602197122587, 28.189362367230277], [30.68806817428525, 28.19196963153964]]], [[[30.676373117468998, 28.066718943925284], [30.67942549993109, 28.07738440183712], [30.678370207768097, 28.086923640660224], [30.68145637606892, 28.09067041671023], [30.688714931505896, 28.09174101295915], [30.696924097383434, 28.080924185307154], [30.697256804713607, 28.07636797836424], [30.69218312865946, 28.072401461471316], [30.69066107883139, 28.065977303395442], [30.683149524470178, 28.06061297007232], [30.678202016109836, 28.061281124150966], [30.676373117468998, 28.066718943925284]]], [[[30.663380623685978, 28.108711811675093], [30.665487169824875, 28.112779536058042], [30.67154039653214, 28.112922370854537], [30.678671110644565, 28.105448020275947], [30.67904226750968, 28.100734753426114], [30.674191323733382, 28.09757291678349], [30.66917910375827, 28.09806527738973], [30.663580003751186, 28.102645063844225], [30.663380623685978, 28.108711811675093]]]]}, "properties": {}}