{"type": "Feature", "geometry": {"type": "MultiPolygon", "coordinates": [[[[-98.91987184590774, 19.550827923223327], [-98.92011274161813, 19.554080925702326], [-98.91780746624586, 19.55861832765245], [-98.91885720073567, 19.56422015090709], [-98.9156692912061, 19.56719296739101], [-98.9073029972097, 19.569767523723876], [-98.89557016306703, 19.567918655038717], [-98.88689006338674, 19.56214508336306], [-98.8855593373073, 19.555343417968093], [-98.88653917292679, 19.55249208441473], [-98.89220279177812, 19.54716825800294], [-98.89610812540698, 19.546015184422565], [-98.89898420432397, 19.54266994249185], [-98.90628539140428, 19.53863409084938], [-98.90958099916712, 19.538843566003063], [-98.91653206699962, 19.543151602435895], [-98.91987184590774, 19.550827923223327]]], [[[-98.96797780055375, 19.32485181512902], [-98.96695533040096, 19.33009848580261], [-98.96177850698928, 19.33489550376201], [-98.96341472904585, 19.34651539815667], [-98.95854458387927, 19.3495066074389], [-98.95308273788152, 19.3442260121649], [-98.94624653025508, 19.341106150261588], [-98.94222417294304, 19.33176134241072], [-98.93347236763246, 19.329292560744474], [-98.93174826603278, 19.322800099034012], [-98.93738815104639, 19.313502862875573], [-98.94076752529881, 19.31345092258324], [-98.946454131579, 19.31829956274262], [-98.94914427693742, 19.31875674404382], [-98.9519471518602, 19.31672485090171], [-98.95361027627644, 19.31110095343256], [-98.95697145691491, 19.30967429622094], [-98.96651475460142, 19.312297433594967], [-98.9690791156664, 19.32121029600807], [-98.96797780055375, 19.32485181512902]]], [[[-99.01134976997842, 19.505975224491113], [-99.00888484816524, 19.5557999434588], [-99.00611411418542, 19.55701273531557], [-98.98799530364397, 19.55631411749181], [-98.98067186509265, 19.548138150055017], [-98.97789456728528, 19.546936215269106], [-98.97507033963424, 19.54802330703875], [-98.96967970529855, 19.554471872453465], [-98.96333524670224, 19.553568046084795], [-98.96037172054392, 19.548760637797496], [-98.96203640492918, 19.523846981799824], [-98.95766259318158, 19.51717288040433], [-98.95989246934904, 19.503208854646857], [-98.96962701563747, 19.50034293693477], [-98.9739462603996, 19.500727802631054], [-98.97787205093843, 19.503329791748204], [-98.98115378602031, 19.502552077510384], [-98.98357939397637, 19.494813157220797], [-98.99037138432016, 19.49059978180899], [-98.99114438326687, 19.4753334848173], [-98.99644386380761, 19.472563614399164], [-99.00646195798367, 19.48160974314104], [-99.00655944790401, 19.490495738313776], [-99.01168699127723, 19.497499765432675], [-99.01134976997842, 19.505975224491113]]], [[[-99.09215785019033, 19.51421230126672], [-99.08606065772804, 19.525801618000994], [-99.07168126441994, 19.537057335895422], [-99.07246851128575, 19.540750308992173], [-99.07962425795623, 19.545770631573838], [-99.08397975715738, 19.551053910308017], [-99.0854127227089, 19.55945032029815], [-99.08432638858282, 19.56285648209438], [-99.07901743599078, 19.566514129746924], [-99.07998580141722, 19.57406206722455], [-99.07375024751228, 19.582975018923143], [-99.06622341845814, 19.58665880296458], [-99.0587754816171, 19.587785171992348], [-99.04532555257731, 19.601935340807366], [-99.04022422383444, 19.600044061631767], [-99.037005285291, 19.596028900954405], [-99.03606601604922, 19.59008534664624], [-99.03152395036297, 19.587442175411013], [-99.02781961577378, 19.58840633004155], [-99.02165298715148, 19.598439147619654], [-99.0186746687541, 19.599971173072838], [-98.99632347424252, 19.592487751002704], [-98.99155842108367, 19.587366475926256], [-98.9885426622506, 19.58758366551576], [-98.98668582450755, 19.589490192706112], [-98.98194162849951, 19.603363478947394], [-98.98363602092905, 19.607181782301296], [-98.99136622526689, 19.607319077577227], [-98.99530867681598, 19.60968423719559], [-99.00035330748737, 19.610296425800044], [-99.00263240312586, 19.61319046457989], [-99.00419612352502, 19.620619938682218], [-99.00737321045463, 19.622516511353208], [-99.0221126059777, 19.612569739101076], [-99.03451833368331, 19.611041126470145], [-99.04197842605086, 19.612485302501568], [-99.05073021113223, 19.62743028250073], [-99.05147303800446, 19.63307822936484], [-99.05598664441752, 19.63851907624738], [-99.05471246759211, 19.643938851374326], [-99.04717026596276, 19.6472197433572], [-99.04022145091578, 19.67052085778706], [-99.03303204883927, 19.67181195693016], [-99.02399346452692, 19.663969425099765], [-99.0212906747812, 19.664684317715654], [-99.01780345262571, 19.668536045712184], [-99.01443098095355, 19.668454690813903], [-99.01102120349063, 19.666066318537517], [-99.00898740131885, 19.66043690965649], [-99.00992399105614, 19.655175374253425], [-99.01277070228308, 19.651146800070112], [-99.01201273896022, 19.64621313164811], [-99.0133715185572, 19.64087597597061], [-99.00628710865483, 19.628088390802546], [-99.0037032363932, 19.626328169727838], [-98.99789000260323, 19.626591929216815], [-98.98779333977582, 19.621530146843654], [-98.9782897583544, 19.625503024898897], [-98.97165488654389, 19.62336388517309], [-98.96992486354695, 19.62032722631195], [-98.97054863067457, 19.613705219888914], [-98.96608907135972, 19.607992570604072], [-98.96855323491097, 19.598833712652453], [-98.96410361812175, 19.594145461712227], [-98.96410149510784, 19.589976662849843], [-98.96634246200638, 19.587920728405408], [-98.97167662523535, 19.587149258197126], [-98.97933256947347, 19.579320225728196], [-98.98611169476706, 19.580527594019227], [-98.989446037695, 19.585206398832575], [-98.99237719000575, 19.586161987487014], [-98.99943112245283, 19.581041571102844], [-99.00785861804887, 19.579218304475106], [-99.01389822193325, 19.574004315600273], [-99.02006544691844, 19.575660271356984], [-99.02652974294936, 19.574759143560122], [-99.03059530870003, 19.57005093283527], [-99.03355868630183, 19.56042007189238], [-99.04449570911245, 19.549318976380757], [-99.04555352592051, 19.543580733232577], [-99.05531810340938, 19.529813629022343], [-99.0634404984506, 19.52353141492426], [-99.06425777260665, 19.51696924040639], [-99.07505661083914, 19.502517579100225], [-99.08003345985274, 19.50111972350771], [-99.0921318344123, 19.50637319650335], [-99.09398554018375, 19.509849617312998], [-99.09215785019033, 19.51421230126672]]], [[[-99.06404622629644, 19.47942096263], [-99.06622275811176, 19.482047313884035], [-99.06568974503149, 19.48528887874155], [-99.05701044016239, 19.491199426587592], [-99.04632047739236, 19.488752313605296], [-99.04161120096597, 19.48610014250194], [-99.03466496173688, 19.466296569749403], [-99.03614503415827, 19.459548020638515], [-99.03906712994093, 19.45465888623837], [-99.04268731542439, 19.45365161372853], [-99.05881948448643, 19.4590699813118], [-99.06157218092726, 19.46547880487086], [-99.05836616030089, 19.475730731467866], [-99.05999207113632, 19.478009948660127], [-99.06404622629644, 19.47942096263]]], [[[-99.33818222687262, 19.569095612101698], [-99.32937492780334, 19.58028562419406], [-99.32312793158053, 19.583583232868992], [-99.31970345585667, 19.588318681637446], [-99.31409611581597, 19.589608298870296], [-99.3093399472399, 19.594794202903763], [-99.30649036987593, 19.595767373461122], [-99.28819372894871, 19.585661527956944], [-99.28283771689766, 19.58046680519931], [-99.28277420707201, 19.57667920121847], [-99.2881457558328, 19.570079504879594], [-99.28784877656112, 19.56098278485369], [-99.28563439020276, 19.55827872994413], [-99.2776678936866, 19.556583425092835], [-99.25412113922233, 19.563226173287546], [-99.24777062586517, 19.561253004367515], [-99.24344048184308, 19.563066108210226], [-99.24036626490849, 19.57374616947557], [-99.24498871614878, 19.586254159362962], [-99.24465585454267, 19.589259585445465], [-99.24039705552121, 19.5912757588198], [-99.23417020515053, 19.586375761465558], [-99.23030818953396, 19.586495121700285], [-99.22743776662179, 19.58899898558799], [-99.22602496324964, 19.59407773860236], [-99.22240025848177, 19.5970078275262], [-99.222423979644, 19.60108988199904], [-99.23520475051384, 19.60978943307453], [-99.23822527327057, 19.609298658370225], [-99.24551377502587, 19.603255200306556], [-99.25076214186423, 19.602469743312387], [-99.25785668831823, 19.60460308804854], [-99.2702731063371, 19.60442009072821], [-99.27258843392411, 19.606636584187886], [-99.27277144587633, 19.610529240716392], [-99.2663255953784, 19.61666035849216], [-99.25569558205311, 19.62219239660993], [-99.24680697898803, 19.625390926710736], [-99.23614188482279, 19.626660619277153], [-99.23496956689937, 19.630268394977662], [-99.24028450172788, 19.639118439619146], [-99.23981196660631, 19.64281775495174], [-99.23319171732481, 19.645153211442036], [-99.22576679794771, 19.65128661802004], [-99.22393535427622, 19.657123349172466], [-99.21687453249402, 19.666335932193533], [-99.20873968207944, 19.66861664865529], [-99.20420698355166, 19.67391057109912], [-99.19445346667344, 19.672190503325403], [-99.18657811984473, 19.67338724800604], [-99.1777452656819, 19.664438498276905], [-99.16342189009463, 19.665494925959784], [-99.15430803224062, 19.662779691302358], [-99.14710324888733, 19.664250834413526], [-99.13897437820837, 19.659237485959164], [-99.13460519010295, 19.6596168219943], [-99.12510114214489, 19.656099052322073], [-99.11999275728286, 19.65717442101972], [-99.11256200125507, 19.654884153361067], [-99.1097899118112, 19.65163236166819], [-99.11100212291831, 19.643233055104595], [-99.1082679317128, 19.6406937151428], [-99.10334773554123, 19.641224243336385], [-99.1008354271972, 19.646828663694293], [-99.09835514759592, 19.64853989576253], [-99.08372929320967, 19.645465802958284], [-99.08243903817552, 19.642757400888723], [-99.08336837810586, 19.6392134682447], [-99.08970566280847, 19.636609764049165], [-99.09401850785186, 19.6305928215931], [-99.10635460553785, 19.631730642356544], [-99.11302747973166, 19.62378265042349], [-99.11905296503497, 19.62129008097588], [-99.1268365303631, 19.62177870604565], [-99.13135656158809, 19.624122836497502], [-99.13663286734598, 19.622191790120844], [-99.1418390766073, 19.62297888689624], [-99.14403266035087, 19.621425810677994], [-99.1483287264795, 19.612796011616183], [-99.15109539156751, 19.611324633500445], [-99.15682270339674, 19.613755840713793], [-99.15987831430785, 19.619195754368352], [-99.16438822525872, 19.61907627325363], [-99.16724654615696, 19.614483874703946], [-99.17152103715793, 19.611768071527827], [-99.17259108084819, 19.60672871577634], [-99.17600111371543, 19.60269875719498], [-99.17634397815903, 19.597251785525987], [-99.17434932888114, 19.592625475007495], [-99.17547236516265, 19.588167536767273], [-99.1834020149107, 19.581367893640216], [-99.19184165812557, 19.581189523825376], [-99.19377639484927, 19.57298332092768], [-99.1892820516215, 19.568092113163836], [-99.18694104940099, 19.562748951859096], [-99.17667920877275, 19.55835087177249], [-99.17262991444645, 19.553716722846175], [-99.16566919573812, 19.550121490881413], [-99.16491247258878, 19.544669612159293], [-99.16906894833815, 19.537477006375127], [-99.16474316568738, 19.53272979323185], [-99.16161808672436, 19.53249407194198], [-99.15740480544048, 19.53605877888579], [-99.15232242111468, 19.536718038502897], [-99.14808719749904, 19.541897531412438], [-99.14453670324382, 19.542596314307932], [-99.14035215463105, 19.540336640544876], [-99.13339389543025, 19.52479712506084], [-99.13008041665961, 19.522925220930617], [-99.12520667972008, 19.526255094733365], [-99.11922732651496, 19.536818763059017], [-99.1144535313281, 19.537044880009276], [-99.109697235776, 19.533832765302208], [-99.10875343871199, 19.525685368803053], [-99.11453355219494, 19.511457288187003], [-99.10517491283834, 19.5052750819038], [-99.10659895546296, 19.49079676466238], [-99.10483699956016, 19.48868454185874], [-99.0967596192654, 19.48550245204649], [-99.09429234390866, 19.478593127994444], [-99.09831362575062, 19.466538581850934], [-99.10305899274343, 19.46500149974961], [-99.1067274462151, 19.46094816215159], [-99.11463002898833, 19.462046997904388], [-99.11860223010115, 19.45843641916768], [-99.12156240898018, 19.448246943242825], [-99.11609003400487, 19.43693684857635], [-99.11203686227051, 19.436087088058606], [-99.10313250843241, 19.441026820218475], [-99.10072268723862, 19.448040824107423], [-99.09708281625718, 19.449741447809995], [-99.09213044530249, 19.44668611225233], [-99.08528781808536, 19.44655262350248], [-99.08275608984475, 19.444871143346543], [-99.0818747296873, 19.43946453591297], [-99.08600321478478, 19.428959400757726], [-99.08003959951544, 19.424170410848376], [-99.07089574286151, 19.4260730682202], [-99.0637122876471, 19.434550207375395], [-99.05828630759795, 19.435544138145122], [-99.04932320148825, 19.4321949507136], [-99.04907842047928, 19.428674547926402], [-99.05751992471146, 19.41259447878522], [-99.05433618603267, 19.407971228144138], [-99.05313390376614, 19.402736116000906], [-99.04613941659431, 19.39855828138215], [-99.04457501685276, 19.391723390064968], [-99.04646372832265, 19.38829803792435], [-99.04939503113481, 19.387601868438754], [-99.05897745598084, 19.38982332008451], [-99.06382503561642, 19.40263441741252], [-99.06651633524609, 19.404754430124562], [-99.07821011759694, 19.40211521867966], [-99.08559340687422, 19.40607927943053], [-99.09035168235422, 19.404051347669743], [-99.0917341902606, 19.40098519989796], [-99.0884932532066, 19.39161486542722], [-99.07965485706337, 19.388907332165676], [-99.0725831887631, 19.38434102908056], [-99.07372252066448, 19.377514059582857], [-99.07759581145044, 19.373166408855322], [-99.07693034886096, 19.36801060790128], [-99.06883383284983, 19.36320448027138], [-99.0583754241206, 19.363412743459794], [-99.05582612695225, 19.355713696051858], [-99.0490452831477, 19.35167598064296], [-99.05145097658605, 19.337841457130835], [-99.04723096655555, 19.330527571378727], [-99.0408112172778, 19.32816879071587], [-99.03899935040046, 19.324875117532876], [-99.04082751992159, 19.321374880688094], [-99.04814755786343, 19.317099869322746], [-99.04975817111185, 19.309819319054448], [-99.05964058377464, 19.301100484630506], [-99.07250010003287, 19.30346683953173], [-99.07540549421493, 19.297079882353653], [-99.08027662206044, 19.293093696747796], [-99.08341900866806, 19.294283782845596], [-99.08694587624892, 19.30053561855648], [-99.09291701929575, 19.306109761051136], [-99.09483392546642, 19.31205496751217], [-99.09230053516461, 19.322099029914817], [-99.09027909462662, 19.32434503186948], [-99.08469105599545, 19.325839128574437], [-99.08317126327458, 19.331972558211692], [-99.08972112979588, 19.338441696786997], [-99.08920954572467, 19.342609879890333], [-99.08581127708025, 19.348123202956995], [-99.09058061704442, 19.354811744750673], [-99.09088479823937, 19.361353097304256], [-99.10217822765927, 19.364971129379846], [-99.10482644358027, 19.36787338526962], [-99.10441746180005, 19.37314743298826], [-99.10706871058252, 19.37914791942353], [-99.10186406513581, 19.387664530370262], [-99.1056034060994, 19.392675356792246], [-99.1076585633131, 19.399805354816177], [-99.11460490652006, 19.401528646752162], [-99.12033591815393, 19.398580601409723], [-99.12609371900358, 19.400291524927272], [-99.13182078046492, 19.399398066087517], [-99.14002140449864, 19.40367364600646], [-99.15083062638288, 19.397698660168757], [-99.158526225567, 19.398118479281923], [-99.16363787681507, 19.39172903516081], [-99.16915540439723, 19.390686062586497], [-99.17496818816183, 19.385893368467947], [-99.17186893120757, 19.379620675219687], [-99.16440454955213, 19.37854211655994], [-99.15841684615471, 19.379823825957967], [-99.15518322660854, 19.376032429182693], [-99.1601781383531, 19.367535604491785], [-99.15693009682647, 19.361622543313484], [-99.15715209987471, 19.358579682453648], [-99.16985458980923, 19.353289204998497], [-99.17427505221303, 19.346719345772037], [-99.17208044721615, 19.340094035964643], [-99.16684492690366, 19.337353171411596], [-99.15974956077534, 19.342393200699206], [-99.15193481249976, 19.33917724568601], [-99.14858476214548, 19.341595771252063], [-99.14809755538771, 19.34692527707494], [-99.14600804752388, 19.349202345315486], [-99.14163713006583, 19.34944252908334], [-99.13594837507002, 19.346925546275553], [-99.1337619738902, 19.34142944700757], [-99.1403592985595, 19.33481058435451], [-99.13928318518754, 19.32122931548688], [-99.13408974366699, 19.31815225777051], [-99.13057587129872, 19.311268072612723], [-99.12377307293762, 19.311824763328037], [-99.1170647125757, 19.310304345287282], [-99.1118816192192, 19.304247937550603], [-99.10323887490807, 19.302944477242985], [-99.09803161458694, 19.29882541284789], [-99.09760047429704, 19.294643278612718], [-99.10526642067627, 19.28974287512775], [-99.11296276628181, 19.290681804662356], [-99.12320599124988, 19.28816655194314], [-99.13481859324474, 19.292388083686166], [-99.14095931038433, 19.29132222024739], [-99.14623231219825, 19.293559581963176], [-99.15364288973748, 19.291474650694507], [-99.16340106033438, 19.285464547606434], [-99.16411445497882, 19.282144643535396], [-99.16076468145549, 19.27752014571777], [-99.16116764000044, 19.273234772610348], [-99.16349268897584, 19.2711533233174], [-99.16983405314191, 19.270481213440533], [-99.17424727181285, 19.262199794008005], [-99.1771667861756, 19.261802742972684], [-99.18317128992949, 19.264876089467577], [-99.19031541583107, 19.26576317276003], [-99.19373424079545, 19.264423170841436], [-99.19772178456772, 19.259471191819795], [-99.20267399813902, 19.25997269633753], [-99.20736489745745, 19.258432692250103], [-99.21052803302621, 19.25953768569665], [-99.21707286372902, 19.266558352255554], [-99.2170292280807, 19.270707493117733], [-99.21441274421534, 19.2725172690608], [-99.20977679994407, 19.27177654124], [-99.19788465865761, 19.274542048670853], [-99.19647369774651, 19.281930479575813], [-99.19079703083733, 19.284534728551098], [-99.18543001727879, 19.28936566249814], [-99.18226348632538, 19.298284903917523], [-99.18418364577416, 19.308730046928204], [-99.17745000048225, 19.31326555481944], [-99.1764583553144, 19.317005488374395], [-99.17868963241287, 19.320221704120076], [-99.18459839557818, 19.322954284606066], [-99.18423642365421, 19.33001896886232], [-99.18609351576663, 19.332884115686465], [-99.1897990615081, 19.333977580882355], [-99.19571230892866, 19.331159382558113], [-99.20156205378487, 19.331840063125107], [-99.20766724603057, 19.322011764527268], [-99.20474780971972, 19.31528778428746], [-99.198586366273, 19.314497372841647], [-99.19612606638108, 19.31230389252261], [-99.19822761503563, 19.302670704132517], [-99.2090019377227, 19.298382524257537], [-99.21480101362498, 19.3019874748877], [-99.22071605604638, 19.303152148525854], [-99.22841477314574, 19.325458262545673], [-99.233712208963, 19.328939581040967], [-99.23540119675721, 19.33283846313765], [-99.23325743230711, 19.3376927943739], [-99.224869895299, 19.338756430141892], [-99.2220204705681, 19.340693402048682], [-99.21969556510828, 19.35249000718745], [-99.2223843722349, 19.355682427314274], [-99.2288977357042, 19.35600099302961], [-99.2318256765976, 19.36121620312613], [-99.22438865620373, 19.367700263077797], [-99.22216027399054, 19.374261530436456], [-99.21364058472449, 19.376440252741304], [-99.21139693046483, 19.378415883166415], [-99.2122140956169, 19.39274937231002], [-99.2141539311375, 19.39942623654283], [-99.21174913979118, 19.403985540798534], [-99.20845474300971, 19.40448525834831], [-99.20407836060444, 19.401819035945582], [-99.19680769400286, 19.40151947329921], [-99.19374902159691, 19.393548145623907], [-99.18789295630754, 19.389224757755887], [-99.18486931907172, 19.384707172334412], [-99.18122338256602, 19.383726716081405], [-99.17809610324103, 19.385396134831208], [-99.17766788862376, 19.389574311191566], [-99.18442814535365, 19.397996557289158], [-99.18501108116193, 19.402892156588752], [-99.18793895758932, 19.407692060414888], [-99.18151365012429, 19.421948001617622], [-99.18295313675932, 19.42513234877765], [-99.18556940376838, 19.4266101037957], [-99.19177377423709, 19.42381124063046], [-99.20278721496315, 19.42532674843584], [-99.20650596139508, 19.43238026853853], [-99.21313762004051, 19.43526557968257], [-99.21637536050275, 19.444213982819715], [-99.22541352999704, 19.445466541739467], [-99.2305474103842, 19.44959936869409], [-99.23453397203795, 19.449192538715963], [-99.23878427849408, 19.450931928734907], [-99.24328807966091, 19.449431005758026], [-99.24690069435086, 19.45005288408749], [-99.25105571485042, 19.452211619550994], [-99.25430973859079, 19.458064796531122], [-99.25287858406351, 19.460825888517363], [-99.2475979222678, 19.46248189852845], [-99.24059796632554, 19.469985420732428], [-99.24134918512915, 19.47702222402206], [-99.24022184731292, 19.47977981474625], [-99.23560758396609, 19.481973650141335], [-99.23262490557461, 19.48564988771156], [-99.22750135197742, 19.48670263403083], [-99.2175220855447, 19.482921593273886], [-99.21601346613002, 19.477048558512664], [-99.20709646134706, 19.46395864843218], [-99.19777409486846, 19.462803191557224], [-99.19321189308117, 19.466430560269163], [-99.19283591893229, 19.470222226044015], [-99.20171437425167, 19.47458666241567], [-99.2033816149436, 19.477748671916018], [-99.19815167963063, 19.488591132494538], [-99.1979423970582, 19.495365442208666], [-99.20015689850004, 19.497420296223176], [-99.20672412669295, 19.498449039754828], [-99.21188637842909, 19.494665921024183], [-99.21469649180465, 19.494421627589045], [-99.2188135304256, 19.49861295709787], [-99.22385858359135, 19.499753821375887], [-99.22687645784855, 19.503303117959867], [-99.22987233051879, 19.50411022169973], [-99.24113549021372, 19.501272598993957], [-99.24256936309948, 19.49857179378641], [-99.2424221358048, 19.491964963409654], [-99.24734908289464, 19.490192932909498], [-99.2510076233837, 19.493186249925305], [-99.2527711071527, 19.49803363962416], [-99.25730437768307, 19.50142214595199], [-99.26882674351545, 19.50528567103951], [-99.27530362600591, 19.503748842063338], [-99.28097789708467, 19.507181625921945], [-99.28333845352236, 19.515212434574558], [-99.28815248324123, 19.519753775563075], [-99.28748959475648, 19.523858553953744], [-99.28418395505537, 19.527471952296764], [-99.28480109574195, 19.530081860561243], [-99.28730511844468, 19.531817304723393], [-99.29103532147752, 19.53077336089975], [-99.30115180735717, 19.517873310777535], [-99.30587740862893, 19.51756550577981], [-99.30793005935777, 19.520180774749242], [-99.31439838416549, 19.545501423275308], [-99.3384151823886, 19.563185389938067], [-99.33959470263044, 19.56628776127252], [-99.33818222687262, 19.569095612101698]], [[-99.11871156991029, 19.431798414330334], [-99.12080803246567, 19.428295371412748], [-99.1188427003546, 19.424697503578514], [-99.11074482407115, 19.424464234220803], [-99.10701307765852, 19.421405260345736], [-99.10308454503668, 19.42347612436012], [-99.10341727264631, 19.428203785544568], [-99.10862261378098, 19.429353352352766], [-99.11251159337965, 19.434116915364037], [-99.11586563124267, 19.434409363054673], [-99.11871156991029, 19.431798414330334]], [[-99.1656556657348, 19.479513772820816], [-99.16358458379837, 19.475220278541926], [-99.15808814390078, 19.4750453539197], [-99.15170616270909, 19.47211205763447], [-99.14923212628533, 19.465669683016138], [-99.14508433347977, 19.46387387934546], [-99.14223473932297, 19.465086676460167], [-99.1387582407313, 19.470132714667955], [-99.12728634898369, 19.471047786577913], [-99.11882499955063, 19.481071259284242], [-99.1264190961694, 19.492865459392593], [-99.13392857704794, 19.494189568641442], [-99.13712802274416, 19.498678180238077], [-99.13968417199818, 19.49964510879906], [-99.15423484274368, 19.490165149224637], [-99.15724472579826, 19.486124839164695], [-99.16372665529394, 19.48478120925337], [-99.1656556657348, 19.479513772820816]], [[-99.17422362466993, 19.300459838233138], [-99.17547779311792, 19.295960241207762], [-99.17150358659894, 19.291858297764303], [-99.1678436206531, 19.29253986000549], [-99.16389942570467, 19.297318490762244], [-99.16458954565589, 19.3010281506263], [-99.1683567862869, 19.30347755925597], [-99.17148852747992, 19.303157001316123], [-99.17422362466993, 19.300459838233138]], [[-99.18073925908543, 19.46620182241352], [-99.18321246679952, 19.46419676150225], [-99.18402736452654, 19.46056493892708], [-99.17721664616253, 19.454784759688764], [-99.17794050765701, 19.44627000829261], [-99.17373750066466, 19.44294124744844], [-99.17035255015917, 19.442968346495498], [-99.16740370614913, 19.446670872770902], [-99.16643615826433, 19.463561835908614], [-99.16851800470165, 19.465747076659273], [-99.17584909553499, 19.46785379130415], [-99.18073925908543, 19.46620182241352]], [[-99.17926726590244, 19.64076275501785], [-99.1780901559905, 19.63659056096407], [-99.1728876574939, 19.634948044745492], [-99.16702661603557, 19.64194698054393], [-99.1666011591357, 19.64539692556644], [-99.16866798152012, 19.647723510676446], [-99.17225894519807, 19.647927007699284], [-99.17926726590244, 19.64076275501785]], [[-99.20691639838786, 19.586030531642326], [-99.20412736124966, 19.583792214332878], [-99.19330701085907, 19.582828957189488], [-99.19082555344532, 19.585650880418008], [-99.19144166346808, 19.5923545835122], [-99.19611931173264, 19.594857574292906], [-99.2049875939216, 19.591900871878938], [-99.20734739283809, 19.589349798282083], [-99.20691639838786, 19.586030531642326]], [[-99.21254012745875, 19.634370914581613], [-99.21399733278066, 19.62954554922458], [-99.20594635935038, 19.62340395800192], [-99.20439576817766, 19.614911076259737], [-99.20085418853924, 19.61111762434437], [-99.19646409336698, 19.61167589387865], [-99.19468926129953, 19.614684636893532], [-99.1958778275719, 19.62302456699625], [-99.20148452938983, 19.62748740369495], [-99.20302690113218, 19.633824385045383], [-99.20599381491039, 19.635440380385877], [-99.21254012745875, 19.634370914581613]], [[-99.21148927941844, 19.345927007958192], [-99.20956210173146, 19.341868103806053], [-99.2051588459464, 19.340504611177884], [-99.1997005367248, 19.344144660593045], [-99.19829086739645, 19.348320444993774], [-99.19952095908953, 19.351527997968347], [-99.2098778965655, 19.36013069918983], [-99.21599962225855, 19.359439128165178], [-99.21883865637854, 19.355544425989596], [-99.21768369469497, 19.35236659808354], [-99.21251595678629, 19.349719077889034], [-99.21148927941844, 19.345927007958192]], [[-99.23630970058376, 19.53755100801378], [-99.23465853052751, 19.535260599618333], [-99.23147450289676, 19.534460449998463], [-99.22470204985275, 19.535949712268174], [-99.22277350950081, 19.53999848778949], [-99.22567144291855, 19.54343128057685], [-99.23314613675875, 19.54289753125343], [-99.23602291689316, 19.540945942298208], [-99.23630970058376, 19.53755100801378]]], [[[-99.13184058868733, 19.265598593995684], [-99.12983634512483, 19.273919818293052], [-99.12450099064549, 19.27532608803109], [-99.11766690549639, 19.28025171482501], [-99.1142243781382, 19.279993861332667], [-99.11099212235811, 19.273012476455808], [-99.11165836245667, 19.26590757733205], [-99.10723489014289, 19.254616104455874], [-99.10748431798697, 19.2504869727891], [-99.11147314906798, 19.246815419530588], [-99.115345044121, 19.24710219834567], [-99.1261699491298, 19.257043777603965], [-99.13095290804368, 19.259167283336], [-99.13255679240594, 19.26237205417791], [-99.13184058868733, 19.265598593995684]]], [[[-99.22738663311858, 19.220651371093087], [-99.23359183211315, 19.23167477100238], [-99.23153778091772, 19.23633924409847], [-99.21073507084488, 19.236469203490955], [-99.20487342838422, 19.239355844085022], [-99.19044234045464, 19.238000946829832], [-99.18714838287646, 19.23447842027947], [-99.19001122486412, 19.22848328394369], [-99.18902078834748, 19.22405559393799], [-99.1798286832227, 19.221645444079925], [-99.17173664286716, 19.217420291156493], [-99.16919351102375, 19.211907144649967], [-99.17612988161017, 19.201399731259464], [-99.17904864762447, 19.201295296042733], [-99.18663899729589, 19.205160766734654], [-99.19151619796592, 19.20157785261495], [-99.19736061776447, 19.199957901916722], [-99.20219900482039, 19.204923883028055], [-99.20571431855758, 19.20595384543536], [-99.21712693551002, 19.20397044233985], [-99.23246190063702, 19.205925742908075], [-99.23413476923314, 19.208274111025606], [-99.23402103991234, 19.211754485338055], [-99.22816401505087, 19.217467500031816], [-99.22738663311858, 19.220651371093087]]], [[[-99.34341471001963, 19.42772670691807], [-99.3357174032781, 19.431128954758897], [-99.31810643195968, 19.423894383942265], [-99.31434704018875, 19.419623357864644], [-99.30866473725034, 19.41673293720508], [-99.30817578925316, 19.408306099671513], [-99.30319956200185, 19.403081414497645], [-99.29698137109949, 19.40481036097309], [-99.28684798803918, 19.402866768669494], [-99.27929873155666, 19.410527248857623], [-99.27307911574259, 19.410939485149715], [-99.26563406743037, 19.405549517239567], [-99.26336797358684, 19.3995354040896], [-99.25512782050701, 19.391291101944525], [-99.25485652442688, 19.38762249576639], [-99.25687429004883, 19.38489238899808], [-99.25929143878182, 19.385178940213827], [-99.26907347795608, 19.390233091711018], [-99.27287096724464, 19.39067688087643], [-99.2776378516396, 19.386629331519416], [-99.2852795126612, 19.386571956383943], [-99.2872215377499, 19.381963527090637], [-99.28644208875491, 19.37895561483194], [-99.27864753212434, 19.376985328229786], [-99.27450581256032, 19.369758715384023], [-99.27075055345257, 19.36756238338842], [-99.25893387875252, 19.374445914554496], [-99.25461563068815, 19.37940861828164], [-99.24521636734393, 19.375693221294775], [-99.2437663635066, 19.37320192192649], [-99.24427447214494, 19.37029615734178], [-99.25071650767312, 19.363797991373257], [-99.25623905138127, 19.363457089788636], [-99.26095656857122, 19.3608210756571], [-99.26785906787241, 19.35120018777082], [-99.2709727780945, 19.34973321651732], [-99.27857697326037, 19.353965269469306], [-99.27869367202209, 19.361802612078453], [-99.28707760771128, 19.370352422932914], [-99.28726036986312, 19.376680470925535], [-99.28985689227765, 19.37948836316567], [-99.29721187994177, 19.378938926538375], [-99.30776324038928, 19.364798898125887], [-99.31374361286845, 19.36562488365862], [-99.3161952553489, 19.371893909587175], [-99.31240165590489, 19.379147310797208], [-99.31370028215042, 19.39696947292608], [-99.31896519691375, 19.403961761846848], [-99.33059144088205, 19.406127143167268], [-99.33720976554221, 19.415021876245905], [-99.34629414184548, 19.41533860013126], [-99.351826876639, 19.417546235673832], [-99.35299611971816, 19.420216976659347], [-99.35202486087265, 19.423709921317965], [-99.34341471001963, 19.42772670691807]]]]}, "properties": {}}