{"type": "Feature", "geometry": {"type": "MultiPolygon", "coordinates": [[[[4.856693417146516, 6.391333153016043], [4.862072545370484, 6.3983508432463], [4.86236814988789, 6.410159357507792], [4.864271564362098, 6.413892712715617], [4.873721179447875, 6.417165548273057], [4.875577029812062, 6.419144056097765], [4.875614338977615, 6.4222249968517895], [4.872028128733239, 6.428237843200812], [4.873517390925724, 6.432787711167623], [4.878341934074427, 6.43411772851479], [4.88695938114944, 6.433294639566775], [4.893665953796876, 6.435903158118245], [4.900262648110503, 6.431805795318562], [4.904852463177364, 6.420920858000801], [4.902799597029308, 6.4161814814875555], [4.886882692996177, 6.412604512019488], [4.882630100904905, 6.404141140442144], [4.876029745793203, 6.401352792043799], [4.874461401803244, 6.395606682256245], [4.863524534117254, 6.3810480498572595], [4.856164627380115, 6.381235096201197], [4.852991581970799, 6.38384902031868], [4.852726330743596, 6.387919340246248], [4.856693417146516, 6.391333153016043]]], [[[4.856525346213564, 6.360303031026694], [4.861895248022956, 6.366363179878111], [4.868593922901326, 6.369760346637166], [4.872944406320741, 6.369750469611201], [4.875681362269277, 6.366480046686518], [4.875627995900877, 6.35781820920897], [4.8714412804629506, 6.350778182069589], [4.86766710030977, 6.348750685369709], [4.861455552192547, 6.348085352834952], [4.858507453904937, 6.349414146766016], [4.854211743777046, 6.35599463958706], [4.856525346213564, 6.360303031026694]]], [[[4.807395537414501, 6.513434290440663], [4.807624283200938, 6.52084507804052], [4.809939739700314, 6.52380353941124], [4.814709130348708, 6.523789956662126], [4.821020195311705, 6.521166191471098], [4.830227250007672, 6.512568795992784], [4.832045620796274, 6.502962747306108], [4.8311224537715765, 6.4992722109497585], [4.82350050388377, 6.494902845398114], [4.820115187024724, 6.495133560350796], [4.808327647536955, 6.509254464845839], [4.807395537414501, 6.513434290440663]]], [[[4.7450024542040365, 6.381517817261672], [4.74580161147455, 6.385650138139876], [4.7496057188343395, 6.388033718685277], [4.762270399638388, 6.389569197841139], [4.7686076448447805, 6.403582828905969], [4.77229527685348, 6.405378619370087], [4.77801574969107, 6.404398758102515], [4.781241574789121, 6.40064838130938], [4.779997884638847, 6.3933987725600625], [4.781721820514136, 6.387388431769372], [4.795659131872439, 6.381255916956895], [4.802999730234889, 6.380172295196898], [4.808706368961039, 6.376200011495342], [4.810819137084746, 6.368718486556113], [4.809941554243164, 6.358494450875494], [4.820097112199299, 6.34908945715669], [4.822226587308239, 6.344909320110415], [4.821851838633955, 6.341982493530899], [4.819805057090456, 6.339890308270474], [4.816734845177786, 6.339758162263836], [4.8077088434620645, 6.344872333734971], [4.794089481820267, 6.34792781322026], [4.788636938417813, 6.351145746867421], [4.785317752560646, 6.355519743004055], [4.769161237976305, 6.360428456631614], [4.765940294789791, 6.356873064319617], [4.76847739333311, 6.345416497567464], [4.766977870119664, 6.3385682065050055], [4.767776445153626, 6.333551187008263], [4.76519005019867, 6.329854045973323], [4.761353701830197, 6.3296268533571185], [4.754726043777387, 6.333192773919311], [4.7504393167954335, 6.337815780158204], [4.751488454512759, 6.3447575566932715], [4.748414160811456, 6.350684133437783], [4.7508031262488295, 6.361585238681802], [4.749656659984278, 6.367644777242485], [4.751390638850374, 6.3725662059533095], [4.750284040879521, 6.376642765449823], [4.7450024542040365, 6.381517817261672]]], [[[4.7266121190643675, 6.51794256190328], [4.730637081855704, 6.521473216164424], [4.736360008114557, 6.523605750856742], [4.741598811358276, 6.536078606472754], [4.744759300016236, 6.538087863711042], [4.752865012910768, 6.535925359861021], [4.75814798745868, 6.529254380238317], [4.765786551742983, 6.531486813020177], [4.771090673993229, 6.530652278795367], [4.776253482614732, 6.527162031821431], [4.784308783814205, 6.526249850562507], [4.790502433594062, 6.523159255681221], [4.794966112878472, 6.512829843765452], [4.809727861170821, 6.490493593898331], [4.809328557943674, 6.485693016165019], [4.806646676390603, 6.4806899433525915], [4.810871315876464, 6.471953271688237], [4.810626700123605, 6.463851805241831], [4.802431639094111, 6.458804145170696], [4.789299247887687, 6.459123734468968], [4.786715616818566, 6.453378648737943], [4.788260061904434, 6.44809067255434], [4.787496051074838, 6.4453157184342915], [4.782701856632476, 6.442099402683274], [4.7771369424827, 6.432203632494231], [4.770816909250496, 6.429306568234207], [4.767531749542508, 6.429864880005367], [4.76461595736526, 6.434209616541887], [4.7637194171767945, 6.448850297091957], [4.759661997880029, 6.4525904507404865], [4.756966928133927, 6.458591551273931], [4.746226934550787, 6.461947688274353], [4.744066739449187, 6.466241508966743], [4.745119875764054, 6.469627701424614], [4.754991484498771, 6.4775664795315935], [4.755274544994251, 6.483771883990143], [4.758183704675083, 6.4886203662018165], [4.758091318378043, 6.491660956539386], [4.7418966888187235, 6.501622218644471], [4.733940622244907, 6.500245257981377], [4.73132111999774, 6.501147792814021], [4.728769780497024, 6.5067967276831595], [4.723377150312554, 6.512421310852508], [4.724090057902728, 6.5160208024132675], [4.7266121190643675, 6.51794256190328]]], [[[4.7810247314365615, 6.142070119569962], [4.780017726880595, 6.145671804310376], [4.783807142391944, 6.15465207399663], [4.792642987300233, 6.167739672615437], [4.788697946991177, 6.1805491623884325], [4.791252361782463, 6.183379688982562], [4.794330476420856, 6.183750478989505], [4.80147374128577, 6.176978251345781], [4.806909245965243, 6.175077439471654], [4.807896044856966, 6.171054636352277], [4.799053105700445, 6.154752489397476], [4.798801684135668, 6.1455146947587584], [4.79635745281169, 6.139054658648738], [4.786934682101353, 6.1346457152866085], [4.7810247314365615, 6.142070119569962]]], [[[4.585331662610129, 6.298852114928313], [4.5858181327448415, 6.302112764266042], [4.589112377074359, 6.304954933331436], [4.6032401536964995, 6.302649248506029], [4.607162952434775, 6.29727758139058], [4.6140482598597305, 6.296114845598986], [4.619561026959717, 6.291788605274771], [4.621738832992854, 6.287579325311109], [4.626869239795525, 6.285324467928143], [4.639012900989643, 6.273207616977769], [4.655245776282934, 6.262797247346542], [4.656000678335672, 6.255484242832924], [4.648714760075958, 6.251741633611775], [4.646982402207918, 6.246896219581243], [4.648890390649542, 6.240107417785382], [4.659061521954972, 6.2240067108195305], [4.662064355073635, 6.22330490232695], [4.671984010664884, 6.226373009939628], [4.676898967287084, 6.2235906860771815], [4.676657691062712, 6.211805501155199], [4.670553692892504, 6.204749582383733], [4.670968903588993, 6.200668516564202], [4.674596090433013, 6.198571344462199], [4.678967237434464, 6.199587346516152], [4.688466400918177, 6.198551621961848], [4.695812849479101, 6.191543076716865], [4.702192469433284, 6.181520303418981], [4.709069960709134, 6.178441187878551], [4.7119714570328295, 6.171707252457285], [4.719737040695145, 6.166221363523169], [4.723922871272121, 6.158651669131621], [4.731467062949448, 6.155425274256249], [4.740090158790507, 6.149146484200021], [4.7461390330774975, 6.142034990868724], [4.76144289829784, 6.132054403811001], [4.767830335724165, 6.124475379106207], [4.789239231405157, 6.115008922259356], [4.795982656351786, 6.100390015816708], [4.797253672222286, 6.094855521167217], [4.79605046455901, 6.091733029835443], [4.791433775337505, 6.089985690069623], [4.78245285653198, 6.092752672601171], [4.751533907046223, 6.123566563430607], [4.744639310383709, 6.1264547534321405], [4.734977777433936, 6.135050750698702], [4.731687950153325, 6.1400219670935705], [4.717635855505148, 6.148561539470746], [4.7128942013803945, 6.156128167279437], [4.702725120830464, 6.162099816085866], [4.685895484229972, 6.178180097727928], [4.666389312104215, 6.190556467013695], [4.663850270268931, 6.199488809687273], [4.653493188025281, 6.201479313085916], [4.640693729688279, 6.214679367593468], [4.639823066133606, 6.218040255971886], [4.642119108056278, 6.223898081968825], [4.638974082543769, 6.228729223043857], [4.632027506023036, 6.23525121588969], [4.6203382475274575, 6.235335472206548], [4.6157022917692485, 6.239563959922213], [4.615080675318453, 6.244604856335245], [4.619241305054469, 6.25000217125779], [4.62090411690573, 6.258928178580217], [4.606153120370283, 6.269387840626298], [4.604566441894352, 6.272823455526671], [4.606456758939251, 6.277537141640234], [4.6058369902457965, 6.2806073136382885], [4.603186110511363, 6.282573217802192], [4.59552378633888, 6.2838027344670415], [4.585331662610129, 6.298852114928313]]], [[[4.742521060314682, 6.313588713823767], [4.74378509516631, 6.318307778717664], [4.748206987042673, 6.319175301282054], [4.763451695565015, 6.309380144404779], [4.764566250508693, 6.30465956638255], [4.759361610914556, 6.301016185461489], [4.756102342338179, 6.300965830033456], [4.74807675559764, 6.3068568323618726], [4.742521060314682, 6.313588713823767]]], [[[4.719011023659077, 6.440828239317528], [4.719344621259566, 6.4464042892352404], [4.723117481291571, 6.453572694520652], [4.733965782495952, 6.457269730563962], [4.738632565970004, 6.455777192480764], [4.739982989912581, 6.448655422937237], [4.736830185561517, 6.44250818290814], [4.736518343560797, 6.431767251978156], [4.7340315308498715, 6.426781382988239], [4.7265052874632465, 6.42562606077785], [4.722643935706418, 6.427141140353689], [4.71809780398978, 6.434132766766152], [4.719011023659077, 6.440828239317528]]], [[[4.67357843818472, 6.515324628192463], [4.677947105012413, 6.524324358346514], [4.680913510917496, 6.524943973727079], [4.684802254878961, 6.5232638442038455], [4.700535773730629, 6.511303687523324], [4.699796172148833, 6.501906054785056], [4.692538337949083, 6.495856085960908], [4.686594147999488, 6.497107230676497], [4.682429254195338, 6.50405332358612], [4.673381002562263, 6.508914448503923], [4.67357843818472, 6.515324628192463]]], [[[4.664354737666407, 6.295990697004731], [4.666054894201826, 6.299348591072683], [4.670109355489322, 6.300261538324677], [4.675059383574174, 6.295428832689777], [4.680075006397539, 6.294553103055756], [4.682954725735205, 6.291699995027377], [4.683240798992006, 6.288271336240159], [4.678592373077469, 6.283847359939192], [4.678321938426574, 6.280157040850913], [4.690914767772773, 6.270371767739137], [4.692685973699532, 6.266731849443818], [4.68766596370287, 6.256647924245621], [4.683677301658717, 6.256184733207519], [4.675876878741137, 6.261119849192117], [4.675373334269466, 6.266621865238377], [4.6713295985091285, 6.274053505260496], [4.676392819665145, 6.279763354180447], [4.676707140691016, 6.283115534948036], [4.666921994317188, 6.290642913520124], [4.664354737666407, 6.295990697004731]]], [[[4.621826565676796, 6.521761838278262], [4.62102145819065, 6.524807645838737], [4.623064077484621, 6.529255764996866], [4.6239731715357575, 6.537782701452541], [4.628308362831243, 6.541302316098556], [4.633057475073239, 6.54241469196598], [4.638057104425261, 6.54689266316285], [4.638898438291799, 6.555771761824329], [4.635654869200822, 6.561439761586401], [4.635814173398027, 6.567535233000728], [4.639792659557138, 6.574606710063987], [4.6433857185952965, 6.576333418017995], [4.647135430465709, 6.575875276310994], [4.650547074267042, 6.571777825374226], [4.651189173397426, 6.5653456826765995], [4.657767277460597, 6.562539213826934], [4.659435615597115, 6.560293124040699], [4.660429693565217, 6.5529473302457815], [4.655683840038105, 6.54147121866586], [4.660582094019875, 6.531423317455586], [4.660526520314752, 6.528316377056191], [4.656774490692313, 6.523487755537213], [4.650515627177637, 6.521158335362073], [4.647727440037172, 6.516151975537755], [4.642319738309391, 6.514052644412522], [4.637807073497334, 6.5074465966577355], [4.629952844108692, 6.5111742855634285], [4.621826565676796, 6.521761838278262]]], [[[4.638434633660908, 6.504395603133685], [4.643511981538686, 6.501631110430042], [4.646213699609202, 6.497166006604846], [4.64270803373863, 6.487321679068769], [4.63774491274912, 6.485414759052307], [4.634130633956725, 6.488122474887059], [4.633630212888025, 6.497478073644469], [4.638434633660908, 6.504395603133685]]], [[[4.614502168036318, 6.453301044310787], [4.6117587814862695, 6.457604663996113], [4.61232290818368, 6.461977903986465], [4.620047325427639, 6.46511267099746], [4.62215683181991, 6.471636311213642], [4.625698248170753, 6.475686065394346], [4.63054754957225, 6.478542405766731], [4.634063396235778, 6.477873536105484], [4.636912990434924, 6.471319308725982], [4.631466246602298, 6.462271110039832], [4.630916031405829, 6.454712578772643], [4.620531743435514, 6.451137252695447], [4.614502168036318, 6.453301044310787]]], [[[4.612241366736235, 6.343798173613248], [4.613699908729547, 6.349416819099164], [4.618953048172227, 6.350057811632826], [4.628163911811836, 6.340916568172398], [4.628604300160915, 6.337049104249338], [4.62391741642463, 6.332598270620737], [4.620389179759212, 6.332386530632984], [4.615529495883917, 6.335897367462723], [4.612241366736235, 6.343798173613248]]], [[[4.5858906658281136, 6.451235020192523], [4.587243743312744, 6.454853454337002], [4.5913806504783095, 6.455913936200403], [4.6039831967149185, 6.449529942616172], [4.605364572630865, 6.445256787393312], [4.601741938009165, 6.441824122677971], [4.593828853135922, 6.4418981062004335], [4.587249129431837, 6.446235225401443], [4.5858906658281136, 6.451235020192523]]], [[[4.574972406761273, 6.485568902404959], [4.5743149180821305, 6.489082066492444], [4.576430370370561, 6.491760962931654], [4.580135172634743, 6.492494664322994], [4.585454229787317, 6.491051725683364], [4.590514933461287, 6.484951181977937], [4.591551767212469, 6.475196007783193], [4.588784359391378, 6.472674573179315], [4.58543132794147, 6.472320311702877], [4.577299993500127, 6.476133346079673], [4.575059925835944, 6.479670956500179], [4.574972406761273, 6.485568902404959]]], [[[4.554247467431077, 6.565939714088481], [4.55616245592528, 6.574645431891722], [4.559714722964136, 6.57608555127063], [4.563329480569586, 6.574280687742525], [4.57549654764911, 6.561307384232262], [4.575490462438423, 6.5560733247150536], [4.572806910592118, 6.5482342332023], [4.567261751804392, 6.547165018066648], [4.559603128343964, 6.553438434306748], [4.554683538804594, 6.56106957738246], [4.554247467431077, 6.565939714088481]]], [[[4.531640334137836, 6.296231700164416], [4.53017744193916, 6.299489192560491], [4.531066717933512, 6.3031610990660205], [4.541266179844966, 6.310831763931242], [4.543378099899566, 6.319899915133731], [4.546582737188081, 6.320919495200241], [4.555362097123595, 6.318701949080796], [4.55691468498397, 6.310865309550236], [4.549233032571666, 6.304909707188775], [4.547939216593335, 6.2984883960081754], [4.5450860838294895, 6.2945187066362], [4.538757571475101, 6.291931535012033], [4.531640334137836, 6.296231700164416]]], [[[4.53674235935389, 6.462221641228737], [4.539462852029365, 6.465851456125498], [4.544933039485067, 6.465004404360561], [4.552713753460547, 6.458565631146184], [4.553178525726535, 6.453499618816802], [4.548461183705563, 6.450495791654322], [4.540782354224496, 6.451226246044322], [4.538130986521178, 6.454149062553042], [4.53674235935389, 6.462221641228737]]], [[[4.509122374984453, 6.421157160489307], [4.512108521408904, 6.423877543483121], [4.5308537868766825, 6.426031945084581], [4.533060240981694, 6.4240835125700535], [4.534928121433621, 6.418470535317654], [4.534266634053875, 6.412153724008811], [4.529850436167635, 6.409413058178796], [4.512638721501292, 6.41308147716425], [4.508781573888938, 6.4163870340374105], [4.509122374984453, 6.421157160489307]]], [[[4.508344563306246, 6.534067254049083], [4.5084625920465395, 6.537258817421279], [4.510746233472846, 6.5404935674301194], [4.515584747757712, 6.541045717626593], [4.520525568274408, 6.535510508734193], [4.5210444075622815, 6.526263324427526], [4.516420418600482, 6.523795240403647], [4.512559520444296, 6.524993812203317], [4.508598614266791, 6.528558346368582], [4.508344563306246, 6.534067254049083]]], [[[4.470664386020789, 6.334878044995684], [4.47400647047446, 6.3397872729316305], [4.4798402834787545, 6.339308006915026], [4.487689610569064, 6.343435038787082], [4.492877126493495, 6.34202267368059], [4.500705068929264, 6.3382851042803], [4.512140952158924, 6.329723855685919], [4.5152624055386985, 6.321121570727679], [4.518135827703392, 6.317968847559786], [4.51820852843959, 6.31484534664879], [4.513479753761167, 6.31011540727618], [4.501930228041317, 6.313788252782711], [4.493199938240638, 6.325000520790882], [4.487469189388967, 6.328186766882931], [4.482232193958631, 6.327193292163735], [4.476515021910306, 6.328658202086291], [4.471879503802451, 6.331133216867719], [4.470664386020789, 6.334878044995684]]]]}, "properties": {}}