{"type": "Feature", "properties": {"city": "Ita\u00fana", "country": "Brazil", "real_area": 27.76}, "geometry": {"type": "LineString", "coordinates": [[-44.5863746906601, -20.0683411129594], [-44.5905263919439, -20.0714044164774], [-44.5896290532402, -20.0762263120403], [-44.5937807990903, -20.079289272622], [-44.598829832143, -20.0775304013129], [-44.5997270923971, -20.0727085532482], [-44.6047760129961, -20.0709494339898], [-44.6056732123699, -20.0661272743609], [-44.6107220204111, -20.0643679073125], [-44.61487365585, -20.0674307159487], [-44.6139765349977, -20.0722528279161], [-44.6089277001738, -20.0740121789199], [-44.608030518414, -20.0788339793862], [-44.6121822500061, -20.0818963811608], [-44.6172311115803, -20.0801370461975], [-44.6213828357221, -20.0831991684464], [-44.6204857501397, -20.088020561875], [-44.6246375185941, -20.0910823407162], [-44.6237404506566, -20.0959033746672], [-44.6186915356792, -20.0976626775612], [-44.6177944068014, -20.1024833997064], [-44.6127453790219, -20.1042424545376], [-44.6085935068778, -20.1011808033134], [-44.6035443932079, -20.1029396260915], [-44.6026471248858, -20.1077600839137], [-44.5975978986836, -20.1095186583785], [-44.5934459677155, -20.1064567912514], [-44.5883966560472, -20.1082151335533], [-44.5842447181819, -20.1051529867883], [-44.5851421434097, -20.1003324339722], [-44.5809902501592, -20.0972699439185], [-44.5818876929572, -20.0924490315337], [-44.5777358443472, -20.0893861983342], [-44.5726865016804, -20.0911443412295], [-44.5717889805143, -20.0959653009236], [-44.5667395258725, -20.097723195301], [-44.5625876196221, -20.0946601464351], [-44.5634852191116, -20.0898391395319], [-44.5593333576536, -20.0867757477394], [-44.5602309746713, -20.0819543814809], [-44.5560791580316, -20.0788906469046], [-44.556976792571, -20.0740689214297], [-44.5528250207753, -20.0710048442127], [-44.5477755635582, -20.0727625560581], [-44.5436237858116, -20.0696981998865], [-44.5445215160918, -20.0648760683377], [-44.540369783291, -20.0618113697785], [-44.5412675310619, -20.0569888793287], [-44.5463169334367, -20.0552311343862], [-44.5504686154668, -20.0582958964552], [-44.5555179337137, -20.0565379197273], [-44.556415542543, -20.0517151644593], [-44.5614647491203, -20.0499569395547], [-44.5656163741398, -20.0530214863392], [-44.5706654961647, -20.0512630297588], [-44.5748171148184, -20.0543272976728], [-44.573919662594, -20.0591499585958], [-44.5780713259416, -20.0622138839692], [-44.5831203902509, -20.060455211997], [-44.5872720469426, -20.0635188583084], [-44.5863746906601, -20.0683411129594]]}}