{"type": "Feature", "geometry": {"type": "MultiPolygon", "coordinates": [[[[27.97050070165457, -32.9437363371005], [27.97456835959104, -32.940149917467124], [27.98270750444804, -32.938911700411175], [27.986412743925236, -32.929847640925054], [27.991685629781067, -32.927735415697455], [27.999473792820634, -32.929820848830445], [28.006883731604738, -32.92715308481864], [28.010643325912344, -32.92786343247177], [28.014758021294337, -32.931614000733354], [28.01703055788822, -32.93864766245962], [28.015305229121005, -32.94247249238732], [28.009303221793083, -32.94380759629367], [28.005952753123147, -32.946334245095436], [28.00565362961651, -32.949358206198326], [28.008027787958078, -32.9543950127295], [28.006990366216492, -32.9573402753462], [27.99723798826436, -32.96197193187329], [27.98002698189094, -32.96257253960313], [27.975630900003935, -32.95904891254323], [27.973826233130076, -32.954277421721855], [27.967503805951143, -32.94958999736333], [27.967495547218086, -32.94606018218852], [27.97050070165457, -32.9437363371005]]], [[[27.91087656616974, -32.95938898975135], [27.90982526799845, -32.95010713304966], [27.91503508842143, -32.94323328039626], [27.918553082876286, -32.941068753036525], [27.93612029367003, -32.944393505941235], [27.94683506809124, -32.94360833165514], [27.949254140517098, -32.94541188207899], [27.951422123314924, -32.95107612295033], [27.95131860416284, -32.95829435854394], [27.95876976459431, -32.96142549206604], [27.9653368977171, -32.97068229171466], [27.965719998214155, -32.97343640065208], [27.958495457753052, -32.98005824669261], [27.95033068884104, -32.980400796560836], [27.943491392828157, -32.97749513005569], [27.941665483084773, -32.97465476351958], [27.942536129393684, -32.97158077837498], [27.94823597235732, -32.966611508288466], [27.948923067073117, -32.96128334171037], [27.946817018957454, -32.958238527090074], [27.942538264599715, -32.95793251922592], [27.935844145158548, -32.96238753406202], [27.92875096919044, -32.96136212462164], [27.917139424664533, -32.968888827074274], [27.91226925635132, -32.9669457279214], [27.91087656616974, -32.95938898975135]]], [[[27.808209955812544, -32.96807053148849], [27.810081261254645, -32.965240746444344], [27.816239224085145, -32.96344488045711], [27.826413990078155, -32.96339786674273], [27.830968022034185, -32.96495471862673], [27.834661144274815, -32.9686463625394], [27.833697034315573, -32.97457911122488], [27.834758779611928, -32.97735337228817], [27.841068418008376, -32.98171852913793], [27.844503958256322, -32.97934879943372], [27.84603453805909, -32.96957624917402], [27.84880318494874, -32.96741086465365], [27.851797596988366, -32.96747312254608], [27.861789908121903, -32.976586083653764], [27.86188892180653, -32.985233689295576], [27.863322464517722, -32.98791624202529], [27.869879867508217, -32.988417791931774], [27.874967607547923, -32.992027709362304], [27.879001574617064, -32.992155891118664], [27.88148041067642, -32.99090245220099], [27.88351321926141, -32.98547824754162], [27.88908817941426, -32.98021409299534], [27.889244903763952, -32.9764615721806], [27.883451068225146, -32.97327778452752], [27.878301238043022, -32.974832365363085], [27.87172131185157, -32.97361507232078], [27.869326995285764, -32.97143203596672], [27.86898800250031, -32.96855466565652], [27.87610607008685, -32.95795430593237], [27.88430505080284, -32.95580944773934], [27.887962554378657, -32.95656707456489], [27.89262510388378, -32.95951446774417], [27.89528702949081, -32.96416738512413], [27.894066859132487, -32.96975125545587], [27.89119017763315, -32.97390925256052], [27.891602675091917, -32.97689057622617], [27.893976839255533, -32.97874038418298], [27.902576643135905, -32.978832355901666], [27.9050045618381, -32.980241920732816], [27.90654876154154, -32.98567477865345], [27.915700623810064, -32.99788591967423], [27.91725270424873, -33.004425769888655], [27.923173385535335, -33.00868223090199], [27.92393321897054, -33.019212973519565], [27.921419285868655, -33.0232855799591], [27.91610008341746, -33.02649618784854], [27.915329125555097, -33.03336154535945], [27.906652428667755, -33.0428776672151], [27.89106019304333, -33.04171246180981], [27.884620159882914, -33.04388682816986], [27.868640709220212, -33.04289343255921], [27.861454439846717, -33.03756485976121], [27.862560923241876, -33.03171803457212], [27.87462503680105, -33.02477686536718], [27.88663904925859, -33.02248429792608], [27.89596047061459, -33.02151921242074], [27.90883718149764, -33.025016455561286], [27.911185865165773, -33.02199471707519], [27.910676688487214, -33.017449336901905], [27.91280477730992, -33.01234304597439], [27.911967570548793, -33.0097318051986], [27.90113449779089, -33.004967534366045], [27.89389363284632, -33.00644796187736], [27.885632455069032, -33.000073274205775], [27.874451707906683, -33.001570585437186], [27.86388739540611, -33.00743703424561], [27.86436242524721, -33.01434356340315], [27.861759329030395, -33.02210054849676], [27.858464305397618, -33.023452347838194], [27.85345349311909, -33.02225112225184], [27.844792799640715, -33.01823197792097], [27.84578621808906, -33.012767930342605], [27.848291155834016, -33.00989886272645], [27.861120818060254, -33.006517318992195], [27.86063650389795, -32.992038254531074], [27.857925728493136, -32.99070976851336], [27.85523057404957, -32.99148321170231], [27.844129184678103, -33.00272611152801], [27.839420489680638, -33.00361755510763], [27.835359846369812, -33.0023449284018], [27.827772867156067, -32.99677286988083], [27.8136023909143, -32.97552767453437], [27.809454345254217, -32.97262881017913], [27.808209955812544, -32.96807053148849]]], [[[27.840901581693544, -33.02012034565719], [27.837083849319463, -33.02791609445496], [27.837382683817047, -33.031308580838136], [27.841461285183446, -33.03454618083728], [27.843955319422157, -33.040226556384894], [27.850636122076846, -33.04386364684273], [27.857232815620346, -33.04507735536819], [27.85858900349297, -33.04818830334111], [27.857365375411447, -33.05107416582791], [27.85358520850182, -33.05272130149724], [27.848220393810145, -33.051962331700636], [27.83673733613855, -33.0582590613333], [27.8283054682797, -33.05308889175021], [27.82446468494212, -33.046860330690905], [27.815738926059705, -33.04927813923835], [27.81249673324262, -33.04807643385629], [27.808132236697364, -33.03952440846614], [27.810032052685784, -33.036102703256205], [27.816888730815535, -33.03293669539486], [27.815832652772226, -33.02612168504543], [27.8170800383052, -33.02326014251943], [27.83083128195039, -33.01546258952588], [27.834130163367085, -33.015883894860835], [27.840901581693544, -33.02012034565719]]], [[[27.61794171071087, -33.013965613120114], [27.619371705084713, -33.009843149903176], [27.626893997586635, -33.007430337709735], [27.633487573459895, -32.99936258686033], [27.635656873886763, -32.991567163896605], [27.635239311544677, -32.985955979579565], [27.63825406895134, -32.980486827726715], [27.637434059080586, -32.97521905644164], [27.635398413229478, -32.97239543991082], [27.62774661467456, -32.969982316138186], [27.626278376608223, -32.96590255868328], [27.632101168377627, -32.95973861499542], [27.633206375259366, -32.95347909243743], [27.643189055423548, -32.94183073541007], [27.64303973235453, -32.938809298497794], [27.639119048073386, -32.933345806515945], [27.639994602243434, -32.92933306053408], [27.6562390475775, -32.912090519098676], [27.656326763026584, -32.90906541577447], [27.652856885301812, -32.90184980178352], [27.656033812529262, -32.89728360335059], [27.658864091663823, -32.8970747305567], [27.67551901485302, -32.90304136989721], [27.68134739578584, -32.90808809385475], [27.68193771258994, -32.91413020062461], [27.68482868619454, -32.916616258099964], [27.703391577257513, -32.917980859362146], [27.707730009134757, -32.91629641732193], [27.72678192069148, -32.916311751451744], [27.734460031530013, -32.913889192598496], [27.744109469072487, -32.921363094328974], [27.75300018048686, -32.91596430902499], [27.75850650205015, -32.91922590929388], [27.769733152461278, -32.92232554054853], [27.781673411272813, -32.9290589496246], [27.78865186301873, -32.928315883471285], [27.791503592158957, -32.931503105600015], [27.794242438371977, -32.94398311460632], [27.790952602465342, -32.950471826686474], [27.793077436752395, -32.959386139449734], [27.788823390322097, -32.96772869249703], [27.783358221333124, -32.97197633376682], [27.77736771483203, -32.9709130300539], [27.77544615483297, -32.963251822861615], [27.771500673242173, -32.95874193242605], [27.774157466511422, -32.9469450820501], [27.773375407079957, -32.943922394568915], [27.755804813494983, -32.93337621559609], [27.753232078055515, -32.93431143874452], [27.751813652830638, -32.937077924248726], [27.75541120007095, -32.94782409338983], [27.748942091393275, -32.95322533080423], [27.743110783146797, -32.95244695706004], [27.739881587682042, -32.944960805812336], [27.730970406199134, -32.93942158434164], [27.72327749389351, -32.93809972646748], [27.716682581997862, -32.941164973270055], [27.71214024282796, -32.94750400741199], [27.714157751087342, -32.95883598689565], [27.708831464758514, -32.969736329089834], [27.686013722196183, -32.97430241050616], [27.68051531524331, -32.978200438617705], [27.672754924578403, -32.978096895783096], [27.666432843606653, -32.97424314326248], [27.65752061792464, -32.97554161203669], [27.656113008591444, -32.978280786582026], [27.657184454935322, -32.98329131402266], [27.664348975312638, -32.985875305257515], [27.66668630805478, -32.98989805091425], [27.664634175597744, -32.99650441646658], [27.659661426338975, -33.00410113853029], [27.659761130346663, -33.00829797386108], [27.667204568491766, -33.0118049077807], [27.678214369543237, -33.00897824348318], [27.68210240853491, -33.011788574418475], [27.68178475696735, -33.015526320142264], [27.677693501102826, -33.022385420782406], [27.677873261720457, -33.02821495133959], [27.675577892616747, -33.03091320732078], [27.662848989439308, -33.03299951559281], [27.653073048809212, -33.03248961983693], [27.649943302606967, -33.02996028447326], [27.649870103220856, -33.02474736015561], [27.648336674278646, -33.02250249928405], [27.641169159466703, -33.022258271700096], [27.637406923129646, -33.020574605127074], [27.630555233197413, -33.02458075190541], [27.624983309811334, -33.02465605117106], [27.618155803857512, -33.018096065210955], [27.61794171071087, -33.013965613120114]], [[27.6496677096548, -32.94667680484907], [27.65238404996905, -32.95485291248118], [27.66131966886857, -32.957473952262795], [27.670994371502413, -32.95185950221181], [27.674573543807416, -32.94506943672115], [27.673892637594456, -32.939185685205864], [27.67152822477973, -32.936616253841855], [27.661593961791084, -32.93422353837586], [27.64934161792244, -32.940820228461625], [27.648219162529607, -32.94365443313235], [27.6496677096548, -32.94667680484907]]], [[[27.773743402055043, -32.98740504117107], [27.77583523209757, -32.983884096846666], [27.78134409366677, -32.98184924283798], [27.785574682423004, -32.98385342495422], [27.788541119006805, -32.990038773065294], [27.785510690085914, -32.994866061818506], [27.77862706209041, -32.99492455969491], [27.774087955899393, -32.991704860047996], [27.773743402055043, -32.98740504117107]]], [[[27.73854754260031, -32.988526436199834], [27.735905844075493, -32.98554564179059], [27.736589779380484, -32.98184355373529], [27.752138098845943, -32.97164547930233], [27.756960625175186, -32.974036538797755], [27.7580192539392, -32.980152284092604], [27.76240310720071, -32.98527646907695], [27.761249276129707, -32.988823497185805], [27.75764866475983, -32.9905999157056], [27.73854754260031, -32.988526436199834]]], [[[27.748851531196994, -32.88238571991489], [27.74707519759169, -32.878971465899376], [27.74891306313777, -32.874937883139914], [27.754397764176638, -32.87240442549222], [27.759395692620853, -32.8725231671277], [27.761689762540243, -32.8741647803066], [27.762177953328383, -32.87776190396515], [27.759353962676634, -32.88343548819688], [27.748851531196994, -32.88238571991489]]], [[[27.719607885550808, -32.78629216444974], [27.72394900457982, -32.781287761940526], [27.735349186342127, -32.783122022671], [27.75060338794162, -32.78115716176899], [27.75550512337279, -32.78436604738315], [27.75905518117894, -32.79111669790431], [27.75396189291832, -32.80073813693037], [27.738416025906684, -32.806588658076905], [27.721531079751173, -32.802867188272664], [27.720498046931052, -32.80031209749222], [27.72155516252903, -32.79510646359847], [27.718603154106766, -32.78998815495966], [27.719607885550808, -32.78629216444974]]], [[[27.679545652749756, -33.15022962787664], [27.679330701002407, -33.14604887641168], [27.682200886252225, -33.140880676979776], [27.684929149366667, -33.139529703993105], [27.694465630965183, -33.144423360051306], [27.70325543653406, -33.14355316876269], [27.70597624000874, -33.14811090555028], [27.702573781176064, -33.15444249319052], [27.693281951133777, -33.15982122574433], [27.683498384293454, -33.15538012875048], [27.679545652749756, -33.15022962787664]]], [[[27.616778317248645, -33.06707599165449], [27.618794142339823, -33.06389888269058], [27.625837515415675, -33.061414721767264], [27.632770632606725, -33.06680930948657], [27.641570305871237, -33.0676846172085], [27.64355709603232, -33.07522130575964], [27.640396603971492, -33.0779784351807], [27.627105343794657, -33.079557854254304], [27.61750535980062, -33.07278719819074], [27.616778317248645, -33.06707599165449]]], [[[27.6115967724343, -32.90741478300496], [27.617666899507483, -32.904303232721595], [27.62346727381268, -32.90686831682368], [27.625718370113194, -32.91989887211858], [27.629766423194717, -32.925588915461994], [27.627962253162632, -32.93425943566235], [27.626032928690076, -32.93653043903452], [27.62109139076234, -32.93636883083945], [27.61637465415841, -32.92993698973301], [27.610468374732427, -32.912154958428], [27.6115967724343, -32.90741478300496]]]]}, "properties": {}}