{"type": "Feature", "properties": {"city": "Abuja", "country": "Nigeria", "real_area": 330.81}, "geometry": {"type": "MultiLineString", "coordinates": [[[7.57976672341229, 9.01212180891543], [7.57863845757146, 9.00783042525609], [7.58205155078241, 9.0044267245627], [7.58659306659167, 9.00531412352758], [7.58772169798686, 9.00960548412498], [7.58430844802798, 9.01300946883808], [7.57976672341229, 9.01212180891543]], [[7.32590662520565, 8.94614977391324], [7.322495207968, 8.94954558663394], [7.31796886034067, 8.9486577787568], [7.31685413549171, 8.94437442102644], [7.32026539285639, 8.94097889158661], [7.32479153495214, 8.94186643661495], [7.32820271186224, 8.93847078341654], [7.33272913880095, 8.93935818422945], [7.33384459443468, 8.94364150099461], [7.33043325775864, 8.94703743749868], [7.32590662520565, 8.94614977391324]], [[7.26448476960606, 9.00727616496341], [7.26337208295743, 9.00299017661628], [7.26678518179541, 8.99959431781943], [7.27131112800747, 9.00048416429566], [7.2724241805029, 9.00477013309566], [7.26901092094855, 9.00816627498525], [7.26448476960606, 9.00727616496341]], [[7.49431859765808, 9.129808527446], [7.49090152631346, 9.13321360560721], [7.48635934424483, 9.1323213770238], [7.48523444171184, 9.12802433255345], [7.48865135477582, 9.1246195380793], [7.48752641843564, 9.12032291455401], [7.49094308956491, 9.11691827883242], [7.49548485527308, 9.11780998295685], [7.49661015802142, 9.12210658498759], [7.5011524145569, 9.1229984049138], [7.50227804998885, 9.12729540641935], [7.49886106245801, 9.13070060955069], [7.49431859765808, 9.129808527446]], [[7.37831075424633, 9.18036633821553], [7.37719068709699, 9.17606818445893], [7.38060915903759, 9.17266471136238], [7.38514785792637, 9.1735591087008], [7.38626829197276, 9.17785724247722], [7.3828496602426, 9.18126099891408], [7.37831075424633, 9.18036633821553]], [[7.35108276085062, 9.17499816337163], [7.34996409202751, 9.17070077015285], [7.35338240710614, 9.1672981173876], [7.35791955113519, 9.16819257459776], [7.35903858684651, 9.17248994811697], [7.3556201116498, 9.17589288414426], [7.35108276085062, 9.17499816337163]], [[7.32800582273245, 8.98722035694663], [7.32689020998631, 8.98293452780967], [7.33030266822612, 8.97953767087897], [7.33483089908087, 8.98042635981142], [7.3382432766323, 8.97702937862949], [7.33712726352986, 8.97274399183678], [7.3325992384661, 8.97185556578757], [7.33148355622582, 8.96757058059694], [7.33489553349447, 8.96417404191975], [7.33377981653702, 8.95988947884827], [7.33719155335335, 8.95649309952272], [7.3417191668419, 8.95738099996337], [7.34513082288237, 8.95398449680495], [7.34965872097999, 8.95487225284195], [7.35307029610832, 8.9514756259653], [7.3575984786542, 8.95236323761228], [7.3610099727341, 8.94896648713209], [7.35989312483736, 8.94468240840742], [7.36330437839981, 8.94128581784692], [7.36783263920093, 8.94217302262128], [7.3712438115496, 8.93877630871139], [7.37577235639465, 8.93966336919941], [7.37688993499667, 8.94394740599842], [7.37347860342253, 8.94734440334144], [7.37459614759525, 8.95162886267194], [7.37912538872069, 8.95251630362661], [7.3802432638672, 8.95680116440301], [7.38477299516482, 8.95768872331796], [7.38818464502179, 8.9542911590657], [7.39271466012832, 8.95517857350602], [7.39612622831332, 8.95178088594527], [7.40065652706768, 8.9526681559247], [7.40177546408033, 8.95695337571791], [7.39836373694544, 8.96035134677932], [7.39948263968378, 8.96463698906445], [7.39607067176841, 8.96803512028312], [7.39153996010654, 8.96714732570763], [7.38812791044077, 8.97054533345371], [7.38359748259201, 8.96965739426426], [7.38018535131222, 8.97305527842285], [7.38130348871213, 8.97734138520755], [7.37789111668754, 8.98073942909447], [7.37900921966609, 8.98502595805055], [7.37559660687445, 8.98842416151581], [7.37671467541171, 8.99271111254585], [7.38124572239174, 8.99359983925351], [7.38236412216344, 8.99788719144729], [7.37895110926875, 9.00128583776479], [7.37441985590684, 9.00039684844591], [7.37100676151426, 9.00379537061767], [7.36647579245749, 9.0029062363651], [7.36535812410163, 8.99861884264717], [7.36082764572746, 8.99772982621159], [7.35741462950203, 9.00112794074841], [7.35288443567246, 9.00023877942858], [7.34947133832953, 9.00363676961485], [7.34494142920559, 9.00274746339726], [7.34382482348222, 8.99846042987661], [7.34723776113325, 8.99506272302565], [7.34612112075397, 8.99077611132652], [7.34159190842566, 8.989887186027], [7.34047559906793, 8.98560097575107], [7.33594687747988, 8.98471216859176], [7.33253425938045, 8.98810930881493], [7.32800582273245, 8.98722035694663]], [[7.37453740114184, 8.96788148912611], [7.37000774760961, 8.96699352322158], [7.36889027235506, 8.96270821911944], [7.36436110915836, 8.96182037121417], [7.36094921510353, 8.96521756485202], [7.36206632485688, 8.96950288977855], [7.36659569417548, 8.9703910002615], [7.36771313494113, 8.97467672660364], [7.37224299468032, 8.97556495506202], [7.37565520743771, 8.97216719460575], [7.37453740114184, 8.96788148912611]], [[7.28765884268698, 9.14618457073887], [7.28654359767148, 9.14188992283648], [7.28996103139122, 9.1384896333829], [7.29449387096921, 9.1393837087623], [7.29560948274083, 9.14367833753804], [7.29219188818749, 9.14707891007972], [7.28765884268698, 9.14618457073887]], [[7.5262302308185, 9.08716755506154], [7.52735673329205, 9.09146282781391], [7.52394088195404, 9.094867642984], [7.51939868588333, 9.09397690157899], [7.5182725495792, 9.08968160683766], [7.51373084391966, 9.0887909811822], [7.51260504019084, 9.08449608601941], [7.51602057597113, 9.08109183844356], [7.52056207329709, 9.08198220225901], [7.52397752495408, 9.07857783066948], [7.52851930418941, 9.07946804849654], [7.52964584017455, 9.08376289965729], [7.5262302308185, 9.08716755506154]], [[7.24883876210231, 8.96353979032288], [7.24772729170359, 8.95925667499984], [7.25113902701737, 8.95586242281709], [7.25566239352282, 8.95675100290881], [7.25677422948986, 8.96103409864579], [7.25336233339219, 8.96442863389581], [7.24883876210231, 8.96353979032288]], [[7.26241025340473, 8.96620629580848], [7.26129808706601, 8.96192279788252], [7.26470990379877, 8.9585281379584], [7.26923404750097, 8.95941669287222], [7.27034657941352, 8.96370017107335], [7.2669346020591, 8.96709511410416], [7.26241025340473, 8.96620629580848]], [[7.5808669178639, 9.03269454066338], [7.57973838577758, 9.02840191228957], [7.58315211964644, 9.02499760438752], [7.58202355443741, 9.02070539850805], [7.58543704633996, 9.0173012521254], [7.58997926020285, 9.01818902761737], [7.59110819104838, 9.02248121045855], [7.58769454240409, 9.02588564086471], [7.58882344018098, 9.03017824626286], [7.58540954951924, 9.03358283817814], [7.5808669178639, 9.03269454066338]], [[7.55937917722401, 8.98371684138538], [7.55825220738917, 8.97942747984219], [7.56166443137083, 8.97602507695777], [7.56620378212242, 8.9769117516615], [7.56733111734503, 8.98120109023565], [7.57187095715234, 8.98208788091006], [7.57299862459042, 8.98637761940382], [7.56958608681474, 8.9897805902497], [7.56504603845993, 8.9888935385954], [7.56391873643781, 8.98460377709377], [7.55937917722401, 8.98371684138538]], [[7.5559029731269, 9.01966917646137], [7.55477580410424, 9.01537772422525], [7.55818915201376, 9.01197439082613], [7.55706194971161, 9.00768336112715], [7.56047505583664, 9.00428018913822], [7.55934782027475, 8.99998958207409], [7.56276068463792, 8.99658657164543], [7.56730094154312, 8.99747388433208], [7.57071372108654, 8.99407075163608], [7.57525425858763, 8.99495791914847], [7.57638222517149, 8.99924848034575], [7.57296928876571, 9.00265189703344], [7.57409722219779, 9.00694288099079], [7.57068404395055, 9.01034645936842], [7.56614308917513, 9.00945876978855], [7.56272982602835, 9.01286222573474], [7.56385736068287, 9.01715365521345], [7.56839852409978, 9.01804160590568], [7.57181194421113, 9.0146378659882], [7.57635338830877, 9.01552567128857], [7.57748162101236, 9.01981747757523], [7.57406804399362, 9.02322150147799], [7.57519624354025, 9.02751373029421], [7.57178242458364, 9.0309179155764], [7.56724056302938, 9.0300295880487], [7.56611272917102, 9.02573733639733], [7.56157135710975, 9.02484912454034], [7.56044385570048, 9.02055727255959], [7.5559029731269, 9.01966917646137]], [[7.36170237949914, 9.06708587471832], [7.36058429029055, 9.06279472856752], [7.36399923071253, 9.05939481231775], [7.36288110691722, 9.05510408732584], [7.36629580632031, 9.05170432929106], [7.37082878914507, 9.05259501290333], [7.37194727904111, 9.05688571748644], [7.37648075299466, 9.05777651853438], [7.37989553047642, 9.05437635210239], [7.37877667450433, 9.05008566802957], [7.38219121090896, 9.04668566009214], [7.38107232047763, 9.04239539740279], [7.38448661582745, 9.03899554811044], [7.38901996096844, 9.03988567810206], [7.39243417458496, 9.03648570417052], [7.39696780388255, 9.03737568882319], [7.40038193562911, 9.03397559036741], [7.40491584892182, 9.03486542969463], [7.40603583727131, 9.0391556300548], [7.410570241293, 9.04004558658929], [7.41398445006053, 9.03664508022581], [7.41851913783702, 9.03753489138532], [7.41963982381733, 9.04182547138458], [7.41622545607856, 9.04522626126064], [7.41734610784872, 9.04951726286104], [7.42188149334772, 9.05040745354797], [7.42300247692243, 9.05469885565848], [7.42753835316966, 9.05558916329042], [7.43095303868162, 9.05218780634688], [7.42983168909732, 9.04789642533084], [7.42529602000131, 9.04700638014521], [7.4241750022504, 9.04271539960087], [7.42758928763042, 9.03931448538106], [7.4264682357232, 9.03502392650093], [7.42988227985203, 9.03162317161451], [7.43441753465315, 9.03251269206484], [7.43553895246228, 9.03680322972438], [7.44007469776207, 9.03769286710524], [7.44119644739941, 9.04198380523299], [7.44573268320412, 9.04287355945689], [7.44914696204789, 9.03947211329412], [7.44802484650493, 9.03518119652691], [7.44348881801445, 9.03429170454327], [7.44236703432848, 9.03000118820581], [7.43783149625761, 9.02911181308958], [7.43671004436588, 9.02482169725523], [7.43217499670843, 9.02393243909386], [7.43105387654821, 9.01964272383594], [7.42651931929791, 9.01875358271681], [7.42310567515874, 9.02215389456101], [7.41857140133609, 9.02126460823395], [7.41515767488802, 9.02466479603871], [7.41062368465462, 9.02377536449005], [7.40720987603427, 9.0271754281403], [7.40267616955171, 9.02628585135644], [7.40155647850648, 9.0219964734319], [7.39702326266118, 9.0211070139668], [7.39360953114545, 9.02450666987737], [7.38907659929114, 9.02361706522654], [7.38566278598404, 9.0270165967774], [7.38113013828213, 9.02612684692729], [7.38001151045357, 9.02183782821326], [7.38342516445663, 9.01843858009361], [7.38795760560158, 9.01932806727546], [7.3913711779208, 9.01592869482088], [7.39025214985163, 9.01164011864493], [7.39366548120529, 9.0082409054369], [7.39819799978254, 9.00912998495694], [7.40161124928676, 9.00573064766858], [7.40049182112915, 9.00144251435595], [7.39595950918678, 9.00055369732253], [7.39254641877641, 9.00395275113379], [7.38801439073815, 9.00306378913089], [7.38689565966927, 8.99877603584605], [7.39030859092956, 8.99537726549769], [7.38918982548703, 8.9910899342179], [7.3846584944458, 8.99020135235382], [7.38354006026665, 8.98591442219957], [7.38695259150233, 8.98251609486774], [7.39148371608136, 8.98340441424971], [7.39260251587766, 8.98769132342693], [7.39713413081885, 8.98857976046105], [7.4005467394096, 8.98518102589373], [7.40507863808951, 8.98606931811153], [7.4061981347994, 8.99035660725953], [7.41073052376939, 8.99124501697962], [7.41414320930749, 8.98784587522815], [7.41302334700117, 8.98355860729795], [7.41643579158267, 8.98015962552268], [7.41531589508373, 8.97587277988401], [7.418728098731, 8.97247395823496], [7.42326035761144, 8.97336169868554], [7.42667247902048, 8.96996275374458], [7.4312050210729, 8.97085034949667], [7.43461706010724, 8.96745128137882], [7.43349639853236, 8.9631649011201], [7.43690819659702, 8.95976599355749], [7.44144081470443, 8.96065318265518], [7.4448525302291, 8.9572541521703], [7.44938543110302, 8.95814119667387], [7.45279706395127, 8.95474204338179], [7.45733024743019, 8.95562894330516], [7.46074179746559, 8.952229667321], [7.46527526338797, 8.95311642267811], [7.46868673047409, 8.949717024117], [7.47322047867833, 8.95060363492181], [7.47434296707285, 8.95488990593172], [7.47887720476556, 8.95577663378406], [7.48000002470578, 8.96006330553209], [7.48453475189292, 8.96095015034483], [7.48794645167704, 8.95755006182932], [7.48682326641988, 8.95326341227316], [7.48228874668613, 8.95237682902196], [7.48116589300319, 8.94809058016542], [7.48457719378144, 8.94469093679596], [7.48911150606442, 8.94557725853817], [7.49023472501053, 8.94986348514015], [7.49476952662356, 8.95074992380423], [7.49818090174784, 8.94734987441558], [7.50271598507835, 8.94823616850661], [7.50383990089346, 8.95252277337536], [7.5004283681212, 8.95592310656606], [7.50155225033521, 8.96021013441721], [7.50608803062564, 8.96109680666342], [7.50721224456734, 8.96538423502957], [7.51174851420507, 8.96627102393594], [7.51287305993693, 8.9705588527439], [7.5094609706635, 8.97395991507298], [7.51058548284262, 8.97824816669696], [7.50717315217119, 8.9816493903679], [7.50829763077779, 8.98593806471055], [7.51283480552452, 8.98682549301614], [7.51395961605195, 8.99111456765797], [7.51849728032781, 8.99200211239986], [7.51962242283858, 8.99629158726743], [7.51620953554142, 8.99969353977244], [7.51733464452811, 9.00398343719161], [7.52187300639137, 9.00487135972505], [7.52299844745805, 9.00916165726157], [7.52753729894698, 9.01004969603146], [7.52866307215616, 9.01434039361168], [7.53320241327636, 9.01522854853027], [7.53432851869056, 9.01951964608047], [7.53091491731347, 9.02292261114484], [7.52637536796725, 9.02203419478032], [7.52296168237453, 9.02543703683537], [7.52408738861277, 9.02972857908594], [7.52862714618779, 9.0306172569488], [7.52975318469941, 9.03490919909923], [7.53429343208193, 9.0357979929735], [7.53541980292947, 9.04009033494987], [7.53996054012504, 9.04097924474759], [7.54337469806399, 9.03757555110146], [7.54791571659312, 9.03846431531063], [7.54904278565874, 9.04275703457123], [7.5535842939264, 9.04364591455261], [7.55471169548135, 9.04793903345225], [7.55129722293026, 9.05134329489575], [7.5467555060922, 9.05045415351528], [7.54334094892108, 9.05385829171194], [7.53879951341921, 9.05296900460247], [7.53538487176495, 9.0563730194367], [7.53084371776186, 9.05548358658426], [7.52742899176139, 9.0588874779405], [7.52288811941961, 9.05799789933119], [7.52176218141034, 9.053704691015], [7.51722179913227, 9.05281522834278], [7.51380714663308, 9.05621871229754], [7.51493271869189, 9.06051194271379], [7.51151782440969, 9.06391558676741], [7.5126433628741, 9.06820923897983], [7.50922822678633, 9.07161304298176], [7.50468771009476, 9.07072291097974], [7.5012724901002, 9.0741265910171], [7.5023976288664, 9.07842068680008], [7.50693835372063, 9.07931108069175], [7.50806382493681, 9.08360557620174], [7.5046482051702, 9.08700969964839], [7.5057736427325, 9.09130461665961], [7.51031506623737, 9.09219538839443], [7.51144083634651, 9.09649070502297], [7.50802481673967, 9.0998952717208], [7.50348318498122, 9.09900423801655], [7.50006708144554, 9.10240868030497], [7.50119245164055, 9.10670444002318], [7.49777610618649, 9.11010904150626], [7.49323454865451, 9.10921759953293], [7.48981811943741, 9.11262207635097], [7.48527684455073, 9.11173048811664], [7.48186033170765, 9.11513484015421], [7.47731933962875, 9.11424310564524], [7.47390274329674, 9.11764733278694], [7.46936203418806, 9.11675545198976], [7.46823812934578, 9.11245960639957], [7.4636979112118, 9.11156784170763], [7.46257433880745, 9.1072723958928], [7.46599061818011, 9.10386873602787], [7.46486701183201, 9.09957371130055], [7.46032749242073, 9.09868232518149], [7.45920421841366, 9.09438770033918], [7.45466518987951, 9.09349643052626], [7.45124922769324, 9.09689952317023], [7.45237213541019, 9.10119416921194], [7.45691137161291, 9.10208570142895], [7.45803461164215, 9.10638074739428], [7.45461824913395, 9.1097842822975], [7.45574145516546, 9.11407974928722], [7.4602813900874, 9.11497166021749], [7.46140492852811, 9.11926752702119], [7.45798816562946, 9.122671504025], [7.45344802294831, 9.12177933061068], [7.45003117697194, 9.12518318237256], [7.44549131774802, 9.12429086262941], [7.44207438883096, 9.12769458903405], [7.44319716030129, 9.13199091872315], [7.43977998964535, 9.13539480319038], [7.43524020644498, 9.13450207441475], [7.43182295301441, 9.13790583326934], [7.42728345367869, 9.13701295806107], [7.42616141529589, 9.13271658678399], [7.42162240741699, 9.13182382797368], [7.42050070136216, 9.12752785662933], [7.42391763664942, 9.12412466478115], [7.42279589636109, 9.11982911410963], [7.41825758727467, 9.11893673460162], [7.41484081114391, 9.12233964296753], [7.41596218493373, 9.12663521430505], [7.41254516722498, 9.13003828047527], [7.40800693498159, 9.12914549183198], [7.40458983498839, 9.13254843220909], [7.40005188709205, 9.13165549723342], [7.39663470495143, 9.13505831170233], [7.3977553112739, 9.13935434454948], [7.39433788759103, 9.14275731639131], [7.38980001710823, 9.14186397197109], [7.38867977741307, 9.13756791882661], [7.38414239869664, 9.13667469114637], [7.38072505267227, 9.14007725345363], [7.37618795878862, 9.13918387940121], [7.37277053102792, 9.14258631545512], [7.37389003739389, 9.14688240888882], [7.37842733820685, 9.14777604619358], [7.37954717672669, 9.15207253979079], [7.38408496947032, 9.1529662938746], [7.38520514020707, 9.15726318756129], [7.38178715144946, 9.16066634725154], [7.38290728767706, 9.16496366106074], [7.37948905733915, 9.16836697752985], [7.37495085055873, 9.16747269683346], [7.3715325384641, 9.17087588660363], [7.36699461684887, 9.16998145922825], [7.36587521427403, 9.16568410551049], [7.36133778483921, 9.1647897949288], [7.36021871445693, 9.16049284134166], [7.35568177719569, 9.15959864764169], [7.35226370355817, 9.16300114403735], [7.3477270517813, 9.16210680377245], [7.34660868033354, 9.15781023066516], [7.34207252080197, 9.15691600743344], [7.33865452612821, 9.16031809371654], [7.33977253074628, 9.16461468644677], [7.34430889687703, 9.16550917328965], [7.34542723356602, 9.16980616630113], [7.34200883724991, 9.17320869204777], [7.33747226451769, 9.17231394154146], [7.3363542947123, 9.16801692897061], [7.33181821438934, 9.16712229553674], [7.32839989736275, 9.17052441095237], [7.32386410300921, 9.1696296309145], [7.32274683212426, 9.16533299924395], [7.3182115302513, 9.16443833642993], [7.3147932929229, 9.16784004146434], [7.31025827725926, 9.16694523209695], [7.30914170519733, 9.16264898157882], [7.30460718208536, 9.16175428958658], [7.30349094187988, 9.157458439612], [7.30690885793268, 9.154057300852], [7.30579258270537, 9.14976187069748], [7.30125875823114, 9.14886756008141], [7.30014281476328, 9.14457253057954], [7.30356032899923, 9.1411718309415], [7.3024443504958, 9.13687722139413], [7.30586162365888, 9.13347667791321], [7.31039503595309, 9.13437046085958], [7.31151138116396, 9.13866505107688], [7.31604528574643, 9.13955895155846], [7.31946263893678, 9.13615799807182], [7.32399682955724, 9.13705175229294], [7.32511387323564, 9.14134672369013], [7.32964855607331, 9.14224059529545], [7.33306598888277, 9.13883923185324], [7.3376009575187, 9.13973295714767], [7.33871869976196, 9.14402830947304], [7.34325416054378, 9.1449221520005], [7.34667167256399, 9.14152037865306], [7.34555356362805, 9.13722504603939], [7.34897083435493, 9.1338234293867], [7.35350637410281, 9.13471686209856], [7.35692356358296, 9.13131511901291], [7.35580505330018, 9.127020226513], [7.35922200148009, 9.12361864041335], [7.35810345653854, 9.11932416831261], [7.3615201634405, 9.11592273935009], [7.36040158386015, 9.11162868774725], [7.35586666387514, 9.11073604508445], [7.35474841612867, 9.10644239401102], [7.3581647219053, 9.10304140564892], [7.35704643950614, 9.09874817520734], [7.36046250410096, 9.09534734429546], [7.36499701092238, 9.09623946052064], [7.36841299412443, 9.09283850387573], [7.36729431074754, 9.0885457143585], [7.3627600105044, 9.08765386127358], [7.3593441870691, 9.09105453458432], [7.3548101718029, 9.09016253567408], [7.35139426708248, 9.09356308327684], [7.34686053695467, 9.09267093852801], [7.34574291796646, 9.08837850943607], [7.34120967946542, 9.0874864821529], [7.34009239208817, 9.08319445384578], [7.34350797689142, 9.07979447281899], [7.34804100906778, 9.08068623683707], [7.3514565128011, 9.07728613015238], [7.35598983011127, 9.07817774847167], [7.35710785008655, 9.08246973664554], [7.3616416588598, 9.08336147239135], [7.36505724115788, 9.07996095683259], [7.36959133482509, 9.08085254682964], [7.37300683567208, 9.07745190581768], [7.37754121407179, 9.0783433500793], [7.38095663333091, 9.07494258372903], [7.37983751464342, 9.07065065651674], [7.37530334290023, 9.06975947521398], [7.3741845559064, 9.06546794866859], [7.36965087538399, 9.06457688469002], [7.36623577529345, 9.06797708429251], [7.36170237949914, 9.06708587471832]], [[7.39562562497812, 9.09819018191074], [7.40016196866881, 9.09908209449728], [7.40357802558977, 9.09568019448248], [7.40245757949839, 9.09138666533703], [7.40587339504047, 9.0879849234613], [7.40475291461952, 9.08369181532754], [7.40021698492211, 9.08280042841212], [7.39680132865953, 9.08620188683977], [7.39226568321402, 9.08531035408913], [7.38884994501132, 9.08871168724355], [7.38996969285754, 9.09300483655312], [7.39450554521556, 9.09389663218983], [7.39562562497812, 9.09819018191074]], [[7.39237802747991, 9.05275722634402], [7.39349758115825, 9.0570482905036], [7.39803211489607, 9.0579389177757], [7.4014468881288, 9.05453821816881], [7.40032696839496, 9.05024717476079], [7.39579264147462, 9.04935681018944], [7.39237802747991, 9.05275722634402]], [[7.49235759929802, 9.00723480600761], [7.49348161142204, 9.01152477001636], [7.4980191278489, 9.01241312817897], [7.50143242433735, 9.00901126064025], [7.50030804656701, 9.00472131872661], [7.4957707379451, 9.00383322223791], [7.49235759929802, 9.00723480600761]], [[7.50139245860007, 9.02528504331435], [7.50251710113859, 9.02957622991192], [7.5070558052785, 9.03046508251542], [7.50818077997098, 9.03475666916408], [7.51271997407222, 9.03564563799319], [7.51613398540795, 9.03224275850241], [7.51500864492983, 9.02795119400204], [7.51046965889219, 9.02706248682548], [7.50934465059648, 9.02277132233749], [7.50480615443482, 9.0218827314112], [7.50139245860007, 9.02528504331435]], [[7.41638323112978, 8.99642123423926], [7.41185035186324, 8.9955327071039], [7.40843742534624, 8.99893200868156], [7.40955721920776, 9.00322012090238], [7.40614405168952, 9.00661958215612], [7.40726381129882, 9.0109081163759], [7.41179710416844, 9.01179716823048], [7.41291719529219, 9.01608610328442], [7.41745097863512, 9.01697527241886], [7.42086446395702, 9.01357524411897], [7.41974400707164, 9.00928633023347], [7.41521043061669, 9.00839742346074], [7.4140903052746, 9.00410891037109], [7.41750339067031, 9.00070932526696], [7.41638323112978, 8.99642123423926]], [[7.4731322090321, 8.98312623829741], [7.46971970231786, 8.9865266871322], [7.47084238708919, 8.99081504947354], [7.47537794411636, 8.99170294105793], [7.47879060889882, 8.98830220851061], [7.4776675585953, 8.98401386811009], [7.4731322090321, 8.98312623829741]], [[7.42881193379053, 9.0110641159089], [7.43334628398494, 9.01195299476725], [7.43675960449455, 9.00855271878299], [7.44129423787227, 9.00944145252385], [7.44470747577083, 9.00604105287002], [7.44358592175044, 9.00175220309808], [7.4469989184585, 8.99835196351847], [7.44587733043493, 8.99406353596269], [7.4413431113268, 8.99317532643237], [7.43793027311807, 8.99657528239747], [7.4390514955088, 9.00086373148874], [7.43563841616081, 9.0042638475385], [7.4311042730198, 9.00337523088842], [7.42769111116848, 9.00677522329323], [7.42881193379053, 9.0110641159089]]]}}