{"type": "FeatureCollection", "features": [{"type": "Feature", "properties": {"threshold": 70}, "geometry": {"type": "MultiPolygon", "coordinates": [[[[-35.2937951754591, -5.9410834792069345], [-35.28958426745168, -5.928599631556746], [-35.280654362822915, -5.925875538302708], [-35.28058953198941, -5.918237539121367], [-35.28544953975991, -5.913692643282803], [-35.2855278810615, -5.90988392203178], [-35.27419044603932, -5.904064085730387], [-35.27611711848708, -5.893634048981808], [-35.26790193835559, -5.889191585218045], [-35.2590051325976, -5.8932974926003014], [-35.25468490019279, -5.881753632731405], [-35.25621528482995, -5.87649012040381], [-35.254067990947775, -5.875138529683887], [-35.246631694388334, -5.876079114206997], [-35.24367615663052, -5.8818925243678795], [-35.233476386645954, -5.874379365903704], [-35.23536302837349, -5.867855709869723], [-35.24621335108328, -5.861817395090358], [-35.25911014039859, -5.868280011162812], [-35.261802478373845, -5.8595845612148905], [-35.27279577689477, -5.853478669469485], [-35.26985817202581, -5.84926039805255], [-35.248930424027606, -5.841390326836791], [-35.25273696147892, -5.831197054511627], [-35.2450993171332, -5.832378635044966], [-35.2426254597751, -5.826863767717121], [-35.24413036689334, -5.824448089283], [-35.25291204061487, -5.822997837133796], [-35.25089969236874, -5.812154501010634], [-35.24573748066084, -5.8084914540972], [-35.24670365859387, -5.803832661316943], [-35.22841257971939, -5.800524687259181], [-35.22402565077776, -5.790384584441492], [-35.21534752611599, -5.789722916581139], [-35.20553318731641, -5.777102186669609], [-35.20311109975586, -5.764615986141458], [-35.19464954914366, -5.76700507871577], [-35.186808324494, -5.78953058849958], [-35.194298879573964, -5.795397096001277], [-35.19444194630079, -5.801485699318911], [-35.19933816237561, -5.80511260632786], [-35.19359758553681, -5.807450424454609], [-35.1946308907445, -5.820222757280266], [-35.19029019604763, -5.828709808154488], [-35.19925751638077, -5.828400739101488], [-35.204739201819606, -5.836644664458903], [-35.20117517210403, -5.842837125634777], [-35.19540538248665, -5.844134266283973], [-35.1976055845085, -5.855443334785919], [-35.18234551686582, -5.8655967427263], [-35.175753958257, -5.878637582825375], [-35.164159943775964, -5.88479228889544], [-35.16396824352347, -5.888328684314777], [-35.16864714733761, -5.894551203506851], [-35.17843276255538, -5.892782897005435], [-35.18695145979867, -5.876160676937308], [-35.19655620287537, -5.8725661729304175], [-35.197890337859775, -5.875889048980606], [-35.19387359450208, -5.878329461644281], [-35.19415908086759, -5.8849104100521314], [-35.18803910748445, -5.892093925316855], [-35.193306091500304, -5.900084229630583], [-35.19990131578271, -5.9044549738473], [-35.21692736062422, -5.890818043037007], [-35.21677196729044, -5.885349130204604], [-35.22506259739324, -5.8787223363258825], [-35.22922037971723, -5.8950416394727725], [-35.23922928519152, -5.89420953942823], [-35.24026401820807, -5.88743514365708], [-35.24441205636209, -5.886860076788158], [-35.24752688990643, -5.8916326392807195], [-35.2542369597932, -5.8936941775941145], [-35.256678448535794, -5.905722479191764], [-35.26592407936911, -5.90567432908832], [-35.270102957114936, -5.914657296762231], [-35.26151891482542, -5.933170085563547], [-35.26257257028126, -5.936495965438561], [-35.283347925771224, -5.935101479750897], [-35.28410268726922, -5.942048437205358], [-35.28884851138802, -5.94495348491665], [-35.29369990634274, -5.9447607338440065], [-35.2937951754591, -5.9410834792069345]], [[-35.24209783412845, -5.8389254954323535], [-35.23707627166435, -5.844729977580403], [-35.23495724529665, -5.852751747224138], [-35.230461335382586, -5.856430375294269], [-35.22920480584012, -5.862629126442506], [-35.22249618529806, -5.868252768609199], [-35.219272540256824, -5.868021405257318], [-35.214674315335, -5.858502515901161], [-35.2154411109132, -5.848798954139162], [-35.22091270340157, -5.845773298964988], [-35.2255943769288, -5.838670036442404], [-35.239584732972524, -5.836311633455628], [-35.24209783412845, -5.8389254954323535]]], [[[-35.293259872909665, -5.763900297157783], [-35.29053455449569, -5.75265770197246], [-35.280562343697056, -5.749202136837451], [-35.28145999299339, -5.74206331667237], [-35.27372682957235, -5.733606874661474], [-35.275871596985766, -5.7249316866274675], [-35.26833436051712, -5.72606339349036], [-35.27014272518198, -5.73285352576473], [-35.26137419498987, -5.741314898106432], [-35.25589294601685, -5.737008699043634], [-35.25898074059219, -5.726545983493047], [-35.25455786620758, -5.721054233964656], [-35.24912774379138, -5.7183466042583975], [-35.23865915219621, -5.718434823848246], [-35.23482393516024, -5.720946515792143], [-35.23837937737149, -5.729464446528316], [-35.23412932628803, -5.7342127979769595], [-35.22679433323155, -5.733670728715051], [-35.22905757194487, -5.741006803466067], [-35.22356000822212, -5.742801116402839], [-35.222223326776664, -5.746312924379755], [-35.22449222268818, -5.7516353951776065], [-35.23043762454026, -5.751973403536662], [-35.23533776412076, -5.757430043838319], [-35.24146180871176, -5.757757554952716], [-35.24862286239236, -5.763048687235713], [-35.25209148423178, -5.772090123498685], [-35.2458787800517, -5.778459493663604], [-35.249809702649465, -5.78249297566721], [-35.263672542627845, -5.777761855741431], [-35.27312761712879, -5.784067736852101], [-35.279048699869435, -5.782876678432014], [-35.27880105727092, -5.776109335697578], [-35.273068821283736, -5.774981445029851], [-35.2696462789926, -5.767127297061584], [-35.26806914380782, -5.755072249542041], [-35.27225623478152, -5.750596366099095], [-35.278046705894674, -5.752277491929784], [-35.27665503470349, -5.7684115305251416], [-35.28150841815811, -5.773375929626642], [-35.28634527539027, -5.774689646638242], [-35.288195884948806, -5.7697696454983305], [-35.29231218639099, -5.768648144621617], [-35.293259872909665, -5.763900297157783]]], [[[-35.2184802865948, -5.745298578323562], [-35.21460622814542, -5.738666516825928], [-35.207928096823935, -5.736899234946629], [-35.20171344146817, -5.753018640022063], [-35.206138785312554, -5.755952837519659], [-35.209507949022665, -5.748288594131174], [-35.2184802865948, -5.745298578323562]]], [[[-35.338677023169666, -5.788088222798391], [-35.33362106559576, -5.782259574747475], [-35.324214066331464, -5.78274780235779], [-35.323380253656566, -5.789146997530043], [-35.32888461812665, -5.797155069877709], [-35.33894563122443, -5.79693349608599], [-35.338677023169666, -5.788088222798391]]], [[[-35.43884297880384, -5.640954654323368], [-35.4362906864238, -5.632622379357317], [-35.4205184314107, -5.630186877525328], [-35.415951020719795, -5.634111458020418], [-35.41528591836003, -5.654678150686085], [-35.422622871281575, -5.656757216626013], [-35.42954202964323, -5.65261132707765], [-35.43721263078977, -5.654093732970752], [-35.43884297880384, -5.640954654323368]]]]}}, {"type": "Feature", "properties": {"threshold": 80}, "geometry": {"type": "MultiPolygon", "coordinates": [[[[-35.29400108996925, -5.944215312278222], [-35.289633043089225, -5.928664917039937], [-35.280654362822915, -5.925875538302708], [-35.28058953198941, -5.918237539121367], [-35.28544953975991, -5.913692643282803], [-35.2855156027906, -5.909803323063708], [-35.27419044603932, -5.904064085730387], [-35.27630327012532, -5.894078919736754], [-35.27276935128114, -5.8894785292523615], [-35.257069451026204, -5.888986660121767], [-35.25465988678506, -5.881509425891462], [-35.25621528482995, -5.87649012040381], [-35.25238921247158, -5.871809899324956], [-35.24726791572578, -5.872071027273451], [-35.24392810032529, -5.881889791185528], [-35.233782319278106, -5.873458310656803], [-35.23811176225462, -5.865179240933928], [-35.24621335108328, -5.861817395090358], [-35.256736337230386, -5.868324454307827], [-35.26077212356335, -5.867439450347772], [-35.261802478373845, -5.8595845612148905], [-35.27279577689477, -5.853478669469485], [-35.26985817202581, -5.84926039805255], [-35.248930424027606, -5.841390326836791], [-35.25273696147892, -5.831197054511627], [-35.244871516218254, -5.832267721674238], [-35.24270346373435, -5.826113478007597], [-35.25416140399512, -5.822969517286065], [-35.25089969236874, -5.812154501010634], [-35.24573748066084, -5.8084914540972], [-35.24670365859387, -5.803832661316943], [-35.22841257971939, -5.800524687259181], [-35.22402565077776, -5.790384584441492], [-35.21534752611599, -5.789722916581139], [-35.20881939675897, -5.780935443835179], [-35.20311109975586, -5.764615986141458], [-35.19464954914366, -5.76700507871577], [-35.186808324494, -5.78953058849958], [-35.19393718355908, -5.795430862255468], [-35.19444194630079, -5.801485699318911], [-35.19933816237561, -5.80511260632786], [-35.19359758553681, -5.807450424454609], [-35.1946308907445, -5.820222757280266], [-35.19029019604763, -5.828709808154488], [-35.19910097868212, -5.828604809987894], [-35.20412917719276, -5.837334102227949], [-35.201394256440565, -5.842297589164512], [-35.195402132390726, -5.843300396197595], [-35.19753321538684, -5.855249406578881], [-35.17985061762736, -5.866440357915582], [-35.175031894936346, -5.877766047549813], [-35.16409982235373, -5.884847280428201], [-35.16396824352347, -5.888328684314777], [-35.168570372944586, -5.8945240330042346], [-35.17919855175495, -5.894482544466513], [-35.18671270045591, -5.877155095058972], [-35.19280188678341, -5.875490229717535], [-35.193972875514966, -5.8845949697221975], [-35.18803910748445, -5.892093925316855], [-35.193437470777326, -5.900556115110331], [-35.19239916243836, -5.9074668437060796], [-35.1983224113208, -5.908769539178943], [-35.19720264267741, -5.915318051058612], [-35.20457319639713, -5.9116535495558935], [-35.20172536271772, -5.90358245244181], [-35.210409457753684, -5.895453951167169], [-35.21527512748702, -5.894160096299592], [-35.21856254685594, -5.886255693319952], [-35.22494976147665, -5.88573578076989], [-35.22951997107355, -5.895164498180148], [-35.23907926496712, -5.894272471373264], [-35.24252902758787, -5.890748927160394], [-35.25311211194204, -5.89277738587693], [-35.2557302393457, -5.905611160730357], [-35.265202759097264, -5.904984218341492], [-35.2701014218966, -5.91392164752063], [-35.26168146557932, -5.935605355022845], [-35.27620445163034, -5.934198699831436], [-35.283014604607004, -5.937102899128539], [-35.28321445226481, -5.948493197024565], [-35.28629524679353, -5.950781055465251], [-35.29400108996925, -5.944215312278222]], [[-35.24209783412845, -5.8389254954323535], [-35.23490236825415, -5.851863062279727], [-35.22962204863804, -5.854765988135318], [-35.2290285374735, -5.861306178502841], [-35.22380199927493, -5.862117728321429], [-35.22274883350812, -5.8522916799499916], [-35.21739373968037, -5.849458346279508], [-35.223240937771905, -5.840945361648855], [-35.23540755238078, -5.83660070056779], [-35.24030425521454, -5.836451986102924], [-35.24209783412845, -5.8389254954323535]]], [[[-35.29574630869628, -5.759736385125205], [-35.29168823978955, -5.756431233818744], [-35.29055328678337, -5.745218629256254], [-35.285481108520884, -5.743027439293766], [-35.289828804752865, -5.738260055078768], [-35.28699937230431, -5.730043207607907], [-35.27917191945429, -5.730323586059592], [-35.282332144774415, -5.735406171865408], [-35.27921474707548, -5.739273479418249], [-35.27372682957235, -5.733606874661474], [-35.27716518013181, -5.729555240502705], [-35.2763184967921, -5.724429538923695], [-35.269486333847375, -5.724984474674445], [-35.27002804952035, -5.733070482309964], [-35.26089881065956, -5.741197624089298], [-35.25577211634614, -5.7365334813981015], [-35.25896995607007, -5.73187174076724], [-35.25888557478378, -5.726236142161416], [-35.24912774379138, -5.7183466042583975], [-35.23506736946921, -5.720296659156613], [-35.23849406733888, -5.729247491941576], [-35.23412932628803, -5.7342127979769595], [-35.22679433323155, -5.733670728715051], [-35.229023943489416, -5.740967804765308], [-35.22356000822212, -5.742801116402839], [-35.222223326776664, -5.746312924379755], [-35.22449222268818, -5.7516353951776065], [-35.23043762454026, -5.751973403536662], [-35.23533776412076, -5.757430043838319], [-35.24146180871176, -5.757757554952716], [-35.24862286239236, -5.763048687235713], [-35.25209148423178, -5.772090123498685], [-35.2458787800517, -5.778459493663604], [-35.24988874843302, -5.782512473556298], [-35.263672542627845, -5.777761855741431], [-35.27229507645266, -5.784071071909372], [-35.279048699869435, -5.782876678432014], [-35.27880105727092, -5.776109335697578], [-35.273068821283736, -5.774981445029851], [-35.2696462789926, -5.767127297061584], [-35.26806914380782, -5.755072249542041], [-35.27225623478152, -5.750596366099095], [-35.27794103289579, -5.752055996147262], [-35.276675129619385, -5.768490539372401], [-35.284669585616356, -5.774821730852404], [-35.288376828005504, -5.769604059622481], [-35.29231218639099, -5.768648144621617], [-35.2965273111846, -5.762650712039235], [-35.29574630869628, -5.759736385125205]]], [[[-35.2184802865948, -5.745298578323562], [-35.21460622814542, -5.738666516825928], [-35.207928096823935, -5.736899234946629], [-35.20088090540506, -5.7530218533506705], [-35.206138785312554, -5.755952837519659], [-35.209507949022665, -5.748288594131174], [-35.2184802865948, -5.745298578323562]]], [[[-35.31149020219912, -5.789489471102542], [-35.303777519228106, -5.778289168208574], [-35.29763952094652, -5.780210908778565], [-35.29708428292765, -5.792205273031745], [-35.309366351366336, -5.793113213851408], [-35.31149020219912, -5.789489471102542]]], [[[-35.33870377512371, -5.788104132291631], [-35.33716379860107, -5.783204139420512], [-35.330047857367695, -5.780547401190094], [-35.3244528701634, -5.782422542295744], [-35.3233369930982, -5.786323140257107], [-35.32596453942618, -5.795123536158896], [-35.329120995642135, -5.797213336974644], [-35.33894563122443, -5.79693349608599], [-35.33870377512371, -5.788104132291631]]], [[[-35.43906859352961, -5.641147741492672], [-35.4362906864238, -5.632622379357317], [-35.4243156687992, -5.629243241037643], [-35.41802173865132, -5.6301972451805185], [-35.41510717477495, -5.63419560252429], [-35.41528591836003, -5.654678150686085], [-35.422622871281575, -5.656757216626013], [-35.42954202964323, -5.65261132707765], [-35.43721263078977, -5.654093732970752], [-35.43906859352961, -5.641147741492672]]]]}}, {"type": "Feature", "properties": {"threshold": 90}, "geometry": {"type": "MultiPolygon", "coordinates": [[[[-35.29400108996925, -5.944215312278222], [-35.289633043089225, -5.928664917039937], [-35.280654362822915, -5.925875538302708], [-35.28058953198941, -5.918237539121367], [-35.28544953975991, -5.913692643282803], [-35.2855278810615, -5.90988392203178], [-35.27419044603932, -5.904064085730387], [-35.27616588821597, -5.893699337329428], [-35.27236775204516, -5.889212187697501], [-35.25761801914743, -5.887270263197101], [-35.25480580712156, -5.88222883640009], [-35.25594847352497, -5.87167102955702], [-35.26111470479358, -5.867930835534646], [-35.26228863095479, -5.8595311330550075], [-35.26995731057324, -5.856520409064076], [-35.27280336895307, -5.852401279041338], [-35.25810403973148, -5.843436029816259], [-35.248930424027606, -5.841390326836791], [-35.25273696147892, -5.831197054511627], [-35.244871516218254, -5.832267721674238], [-35.24270346373435, -5.826113478007597], [-35.25416140399512, -5.822969517286065], [-35.24670365859387, -5.803832661316943], [-35.22841257971939, -5.800524687259181], [-35.22402565077776, -5.790384584441492], [-35.21534752611599, -5.789722916581139], [-35.20881939675897, -5.780935443835179], [-35.20311109975586, -5.764615986141458], [-35.19464954914366, -5.76700507871577], [-35.186804491235364, -5.788533834932566], [-35.18752757431996, -5.794186149555194], [-35.1937809461461, -5.795241692878162], [-35.19657923955878, -5.804111981313609], [-35.19353934553258, -5.807687170639886], [-35.1943651121218, -5.821930886670097], [-35.19029019604763, -5.828709808154488], [-35.19910097868212, -5.828604809987894], [-35.20412917719276, -5.837334102227949], [-35.201394256440565, -5.842297589164512], [-35.195402132390726, -5.843300396197595], [-35.19753321538684, -5.855249406578881], [-35.18607653709323, -5.864161742945116], [-35.179837662506685, -5.863104845325692], [-35.178330413767135, -5.869414277180084], [-35.169103206362216, -5.88212671539943], [-35.16404537351877, -5.884907907780387], [-35.16396824352347, -5.888328684314777], [-35.16872621213779, -5.894570707950936], [-35.18780955735752, -5.8920625123187955], [-35.1929991451905, -5.899401091018032], [-35.191441319645634, -5.9071711111486795], [-35.19636986458017, -5.915321347635964], [-35.20540926776727, -5.912484105142643], [-35.201610645856434, -5.903799417258327], [-35.2106127640085, -5.8953167530360915], [-35.216107863379904, -5.894156783218355], [-35.21856254685594, -5.886255693319952], [-35.22539386937181, -5.886431827173678], [-35.22951997107355, -5.895164498180148], [-35.253115475867716, -5.893611221657081], [-35.2557302393457, -5.905611160730357], [-35.265202759097264, -5.904984218341492], [-35.27012657913788, -5.914412426410958], [-35.261499451884724, -5.933249254814228], [-35.26370082936279, -5.941392222632571], [-35.25682904393625, -5.942794325761908], [-35.25251588820065, -5.946327980073645], [-35.25174920149516, -5.9506551620192845], [-35.25604715950263, -5.952545809174561], [-35.262396358170946, -5.94474290913717], [-35.26627503643895, -5.943985370632206], [-35.26855007004887, -5.935088006722946], [-35.2746913535567, -5.9450119843760785], [-35.279437874880294, -5.943373449193761], [-35.279898618557475, -5.937238974608374], [-35.283214933856264, -5.937255934135457], [-35.28321445226481, -5.948493197024565], [-35.286218463900894, -5.9507539063760735], [-35.29400108996925, -5.944215312278222]], [[-35.19299060496945, -5.880205343443244], [-35.19281887167538, -5.885357233773743], [-35.18509284186433, -5.888931225824778], [-35.1836172051845, -5.885584763301747], [-35.18778744224075, -5.8769912892476786], [-35.19179980835309, -5.876428424494694], [-35.19299060496945, -5.880205343443244]], [[-35.24209783412845, -5.8389254954323535], [-35.228475989994216, -5.859400651802211], [-35.22494817965161, -5.859588266564036], [-35.22358479995011, -5.853122233244451], [-35.219609206583584, -5.8490661122235155], [-35.22368455727176, -5.840394339868881], [-35.23565141064454, -5.836575668509025], [-35.24030425521454, -5.836451986102924], [-35.24209783412845, -5.8389254954323535]], [[-35.25539208485676, -5.868494192335272], [-35.25399420648488, -5.8715361707808995], [-35.24726791572578, -5.872071027273451], [-35.24442477124208, -5.881808412786522], [-35.23371536428658, -5.873228870022686], [-35.23811176225462, -5.865179240933928], [-35.24621335108328, -5.861817395090358], [-35.25539208485676, -5.868494192335272]]], [[[-35.20673915238221, -5.917959908792048], [-35.199918067296515, -5.924095307324077], [-35.20193866398231, -5.927713331498568], [-35.211582193915774, -5.93027062524591], [-35.22304381582568, -5.926454066028678], [-35.22268533312148, -5.92199563965553], [-35.21198925127962, -5.9218390895790005], [-35.20673915238221, -5.917959908792048]]], [[[-35.31215379333441, -5.747795829518418], [-35.30991595625383, -5.743107770601701], [-35.30140149569393, -5.747290963128662], [-35.29316007350569, -5.745486151720373], [-35.29395487445491, -5.732163189602348], [-35.289200739783944, -5.727380100601447], [-35.27917191945429, -5.730323586059592], [-35.28232726025149, -5.737082150983775], [-35.27855242607548, -5.738994908866257], [-35.27372682957235, -5.733606874661474], [-35.27716518013181, -5.729555240502705], [-35.275708696728636, -5.724066718341229], [-35.26833436051712, -5.72606339349036], [-35.27014272518198, -5.73285352576473], [-35.26089881065956, -5.741197624089298], [-35.25589294601685, -5.737008699043634], [-35.25898074059219, -5.726545983493047], [-35.25455786620758, -5.721054233964656], [-35.24912774379138, -5.7183466042583975], [-35.237372689748206, -5.718373580426], [-35.2348407364599, -5.723468068282051], [-35.23858697461768, -5.7290203220029925], [-35.23412932628803, -5.7342127979769595], [-35.2267399015631, -5.733731354697452], [-35.228311447675324, -5.7419925120173225], [-35.22133729266469, -5.743328941764812], [-35.21780070120451, -5.738563646102103], [-35.207928096823935, -5.736899234946629], [-35.20081329050973, -5.752642744235906], [-35.206138785312554, -5.755952837519659], [-35.20969681310793, -5.748132120507044], [-35.22083097109376, -5.744988435005684], [-35.22449222268818, -5.7516353951776065], [-35.23043762454026, -5.751973403536662], [-35.23533776412076, -5.757430043838319], [-35.24123499847898, -5.757664500734038], [-35.24782510307769, -5.762417843157549], [-35.25212111892975, -5.771588977251975], [-35.2458831912079, -5.776548238465682], [-35.249589226031915, -5.782389604016928], [-35.26334043855, -5.778166107980105], [-35.27221831945795, -5.784043911628998], [-35.276637415563464, -5.784092455268032], [-35.27996914712732, -5.778834880252705], [-35.27187671641574, -5.7729265604677495], [-35.2686838808771, -5.753756928691285], [-35.27271774219763, -5.750429553215336], [-35.277667408389185, -5.75164935010931], [-35.276675129619385, -5.768490539372401], [-35.285901087937965, -5.7748760196678735], [-35.288195884948806, -5.7697696454983305], [-35.29214943827071, -5.768829452727406], [-35.297325299206975, -5.762721196952447], [-35.296237689559725, -5.756332078720293], [-35.311111530857026, -5.756335917459915], [-35.31215379333441, -5.747795829518418]]], [[[-35.312241484484176, -5.769474765392018], [-35.31153595850221, -5.767274963175895], [-35.30092584325832, -5.769357873593949], [-35.3010497005937, -5.777508345479018], [-35.29607713160111, -5.780091331634974], [-35.295032751480655, -5.783856256548284], [-35.29708428292765, -5.792205273031745], [-35.310721945368336, -5.791920597344862], [-35.309110733541864, -5.7795509464199135], [-35.305807389345915, -5.776408864315564], [-35.31137733686932, -5.773699807072373], [-35.312241484484176, -5.769474765392018]]], [[[-35.33905069810527, -5.78843921162182], [-35.333159829881296, -5.771797907675206], [-35.33037091525225, -5.771468286434336], [-35.32961490312211, -5.777095983662158], [-35.32250928650526, -5.784578258029784], [-35.32596453942618, -5.795123536158896], [-35.33875070589462, -5.7970795348557855], [-35.33905069810527, -5.78843921162182]]], [[[-35.44000109913012, -5.6437568548617225], [-35.43663252049783, -5.632961984850228], [-35.43288113970015, -5.6309342772128215], [-35.41999197481201, -5.629261213880241], [-35.41432619780502, -5.63229483362882], [-35.41433424915687, -5.64853560269056], [-35.41737293617391, -5.656712872372229], [-35.42209592641919, -5.657554386095816], [-35.42979333541809, -5.652571446693049], [-35.43721263078977, -5.654093732970752], [-35.436913032760565, -5.646448982138748], [-35.44000109913012, -5.6437568548617225]]]]}}, {"type": "Feature", "properties": {"threshold": 95}, "geometry": {"type": "MultiPolygon", "coordinates": [[[[-35.13831472603745, -5.971727308287111], [-35.139769345342835, -5.965830502464919], [-35.13289409462519, -5.966587772257661], [-35.12270662197733, -5.976029517914693], [-35.121066852898565, -5.982796536263463], [-35.131377726448065, -5.982151918692199], [-35.13831472603745, -5.971727308287111]]], [[[-35.16795127973602, -5.951455706832002], [-35.16516344705106, -5.945510085564829], [-35.15287828745463, -5.94728825939152], [-35.15139155266431, -5.955957817638233], [-35.14762553587497, -5.958420658856771], [-35.146767083500194, -5.962612924843603], [-35.15372811483644, -5.964594645079255], [-35.153430389966054, -5.958830271043759], [-35.15779689896419, -5.95286750453919], [-35.16753818415154, -5.954627804677496], [-35.16795127973602, -5.951455706832002]]], [[[-35.29400108996925, -5.944215312278222], [-35.289633043089225, -5.928664917039937], [-35.280654362822915, -5.925875538302708], [-35.28058953198941, -5.918237539121367], [-35.28544953975991, -5.913692643282803], [-35.2855278810615, -5.90988392203178], [-35.27419044603932, -5.904064085730387], [-35.27616588821597, -5.893699337329428], [-35.27258827896186, -5.889315532401249], [-35.266861890330524, -5.88899067722754], [-35.26319118893833, -5.8850803063978105], [-35.25761801914743, -5.887270263197101], [-35.25480580712156, -5.88222883640009], [-35.25594847352497, -5.87167102955702], [-35.26111806632879, -5.8687646674335285], [-35.26228863095479, -5.8595311330550075], [-35.26995731057324, -5.856520409064076], [-35.27280336895307, -5.852401279041338], [-35.25810403973148, -5.843436029816259], [-35.248930424027606, -5.841390326836791], [-35.25273696147892, -5.831197054511627], [-35.2450993171332, -5.832378635044966], [-35.24262617580846, -5.826611464700632], [-35.24658890786909, -5.8235356457479055], [-35.25416140399512, -5.822969517286065], [-35.24921133290177, -5.806324253285884], [-35.24621125567784, -5.803431209202333], [-35.22841257971939, -5.800524687259181], [-35.22402565077776, -5.790384584441492], [-35.21534752611599, -5.789722916581139], [-35.20881939675897, -5.780935443835179], [-35.20311109975586, -5.764615986141458], [-35.19547569560498, -5.765334122367152], [-35.186804491235364, -5.788533834932566], [-35.18752757431996, -5.794186149555194], [-35.194074155160926, -5.795634457964728], [-35.19596421523143, -5.803821033220952], [-35.19353934553258, -5.807687170639886], [-35.1943651121218, -5.821930886670097], [-35.19029019604763, -5.828709808154488], [-35.19910097868212, -5.828604809987894], [-35.20412917719276, -5.837334102227949], [-35.201394256440565, -5.842297589164512], [-35.195402132390726, -5.843300396197595], [-35.19753321538684, -5.855249406578881], [-35.18607653709323, -5.864161742945116], [-35.179837662506685, -5.863104845325692], [-35.17430486554925, -5.875277435939044], [-35.16404537351877, -5.884907907780387], [-35.16396824352347, -5.888328684314777], [-35.16872621213779, -5.894570707950936], [-35.18780955735752, -5.8920625123187955], [-35.1929991451905, -5.899401091018032], [-35.191441319645634, -5.9071711111486795], [-35.19636986458017, -5.915321347635964], [-35.20540926776727, -5.912484105142643], [-35.201610645856434, -5.903799417258327], [-35.2106127640085, -5.8953167530360915], [-35.216107863379904, -5.894156783218355], [-35.21856254685594, -5.886255693319952], [-35.22539386937181, -5.886431827173678], [-35.22951997107355, -5.895164498180148], [-35.253115475867716, -5.893611221657081], [-35.25489413550127, -5.904780705163086], [-35.265202759097264, -5.904984218341492], [-35.27012657913788, -5.914412426410958], [-35.261499451884724, -5.933249254814228], [-35.26370082936279, -5.941392222632571], [-35.25682904393625, -5.942794325761908], [-35.25251588820065, -5.946327980073645], [-35.25174920149516, -5.9506551620192845], [-35.25612063031433, -5.952510648505901], [-35.262396358170946, -5.94474290913717], [-35.268405630068706, -5.942329360255959], [-35.27766890682503, -5.944952432455257], [-35.28123635418402, -5.936677688646132], [-35.284066781477236, -5.938761436346276], [-35.28323456444941, -5.948572202953341], [-35.28614470822959, -5.950719352478372], [-35.29400108996925, -5.944215312278222]], [[-35.19301122810007, -5.884349898729097], [-35.18761414703506, -5.889423151252353], [-35.18409603450078, -5.887450473017615], [-35.1848622472849, -5.880916192695115], [-35.18883900223743, -5.876296171100193], [-35.1918341597147, -5.877458728777495], [-35.19301122810007, -5.884349898729097]], [[-35.24209783412845, -5.8389254954323535], [-35.228538416221326, -5.859295406891811], [-35.22476530266392, -5.859297150971941], [-35.22358479995011, -5.853122233244451], [-35.219609206583584, -5.8490661122235155], [-35.22368455727176, -5.840394339868881], [-35.23565141064454, -5.836575668509025], [-35.24030425521454, -5.836451986102924], [-35.24209783412845, -5.8389254954323535]], [[-35.254748769800834, -5.867266083500463], [-35.25429026992737, -5.871314388910882], [-35.24721967612325, -5.8721367105362985], [-35.24442477124208, -5.881808412786522], [-35.23371536428658, -5.873228870022686], [-35.23811176225462, -5.865179240933928], [-35.24596001554398, -5.861886780464807], [-35.254748769800834, -5.867266083500463]]], [[[-35.20593478789328, -5.917796844846306], [-35.19988024143903, -5.923335287891469], [-35.20193866398231, -5.927713331498568], [-35.211582193915774, -5.93027062524591], [-35.22304381582568, -5.926454066028678], [-35.22268533312148, -5.92199563965553], [-35.21198925127962, -5.9218390895790005], [-35.209414337941396, -5.9179212460260056], [-35.20593478789328, -5.917796844846306]]], [[[-35.312241484484176, -5.769474765392018], [-35.31167860015198, -5.767281400947416], [-35.30198291316746, -5.768290552029907], [-35.30024120860544, -5.775578262469517], [-35.28944790576773, -5.778375130736117], [-35.28849888510035, -5.784506309263503], [-35.295092707690536, -5.787118036634006], [-35.297228007380724, -5.792281465335049], [-35.309664872300985, -5.792987944963835], [-35.311662237574325, -5.78795783784497], [-35.3058239784706, -5.776167788521188], [-35.31137733686932, -5.773699807072373], [-35.312241484484176, -5.769474765392018]]], [[[-35.28636770900058, -5.774710112714602], [-35.288195884948806, -5.7697696454983305], [-35.29728373150631, -5.762791297157996], [-35.29735463961369, -5.756931431740531], [-35.31237246794288, -5.75484571572155], [-35.31214868171627, -5.745066124141037], [-35.306631551813446, -5.742694539015239], [-35.304904432884335, -5.738958892816569], [-35.29501121410767, -5.742986698691165], [-35.293900391937605, -5.730339892544312], [-35.28927748790709, -5.7274072612775715], [-35.27917191945429, -5.730323586059592], [-35.282332144774415, -5.735406171865408], [-35.27944990002156, -5.739322484533954], [-35.27377559645924, -5.733847452018241], [-35.27716518013181, -5.729555240502705], [-35.2763184967921, -5.724429538923695], [-35.26941288872152, -5.725019625547256], [-35.27014272518198, -5.73285352576473], [-35.26137419498987, -5.741314898106432], [-35.25589294601685, -5.737008699043634], [-35.25898074059219, -5.726545983493047], [-35.25455786620758, -5.721054233964656], [-35.24912774379138, -5.7183466042583975], [-35.237230108900604, -5.7183811539928096], [-35.2348407364599, -5.723468068282051], [-35.23858697461768, -5.7290203220029925], [-35.23412932628803, -5.7342127979769595], [-35.2267399015631, -5.733731354697452], [-35.22811241165602, -5.742147156943993], [-35.221102474168475, -5.743258590688821], [-35.21787068468733, -5.738605292723501], [-35.21165663975792, -5.736825584962876], [-35.20498978410329, -5.7390279901884655], [-35.20524843458749, -5.744357125510593], [-35.20080734971923, -5.751097826303636], [-35.204597630690834, -5.755923937772504], [-35.20969681310793, -5.748132120507044], [-35.220348519758794, -5.744857785302764], [-35.22449222268818, -5.7516353951776065], [-35.23043762454026, -5.751973403536662], [-35.235407750926775, -5.757471686932225], [-35.24123499847898, -5.757664500734038], [-35.24724868590121, -5.761744645450374], [-35.25209148423178, -5.772090123498685], [-35.24421368325419, -5.77846607626138], [-35.249732945830345, -5.782465811868173], [-35.26334043855, -5.778166107980105], [-35.27229507645266, -5.784071071909372], [-35.279048699869435, -5.782876678432014], [-35.27880105727092, -5.776109335697578], [-35.273068821283736, -5.774981445029851], [-35.26959778026301, -5.7668861290146145], [-35.26806914380782, -5.755072249542041], [-35.27271774219763, -5.750429553215336], [-35.27819069469178, -5.752746184034175], [-35.27673795862683, -5.768640759931509], [-35.28636770900058, -5.774710112714602]]], [[[-35.30208587188969, -5.884772373970066], [-35.30396177027558, -5.877408993832547], [-35.294399706301355, -5.877428550957782], [-35.28043655752485, -5.883222168206466], [-35.282553427803904, -5.887362991628429], [-35.29286264822693, -5.889082443710144], [-35.30208587188969, -5.884772373970066]]], [[[-35.341208107810644, -5.782268678022295], [-35.33410243665923, -5.778316748751477], [-35.333159829881296, -5.771797907675206], [-35.330236083312585, -5.771559321182569], [-35.32961490312211, -5.777095983662158], [-35.32250928650526, -5.784578258029784], [-35.32605543708067, -5.795258579360697], [-35.338885540335596, -5.796988496160808], [-35.341208107810644, -5.782268678022295]]], [[[-35.370855928830686, -5.850707972266623], [-35.36961717235243, -5.847951872531719], [-35.35808538045183, -5.846437103275903], [-35.35606511461572, -5.850410108931442], [-35.358443593138425, -5.85699437928628], [-35.35281293291535, -5.861642644829923], [-35.34309966228589, -5.862390593335234], [-35.341306860817056, -5.871006049137739], [-35.35306650334893, -5.8721239158672205], [-35.35563997622147, -5.865024949539571], [-35.36324947696451, -5.865306425652599], [-35.35923405276015, -5.856006475751631], [-35.37055055181403, -5.853679363533359], [-35.370855928830686, -5.850707972266623]]], [[[-35.44000109913012, -5.6437568548617225], [-35.43663252049783, -5.632961984850228], [-35.43288113970015, -5.6309342772128215], [-35.41999197481201, -5.629261213880241], [-35.41432619780502, -5.63229483362882], [-35.41434461308938, -5.65103684252133], [-35.41737293617391, -5.656712872372229], [-35.42209592641919, -5.657554386095816], [-35.42979333541809, -5.652571446693049], [-35.43721263078977, -5.654093732970752], [-35.436913032760565, -5.646448982138748], [-35.44000109913012, -5.6437568548617225]]]]}}]}