{"type": "FeatureCollection", "features": [{"type": "Feature", "properties": {"threshold": 70}, "geometry": {"type": "MultiPolygon", "coordinates": [[[[73.25671852221622, 31.481735976922145], [73.2565719662214, 31.486182438576385], [73.2596554753668, 31.48916285583248], [73.25554305191271, 31.493394613218683], [73.25540376377826, 31.49905836596339], [73.258719256244, 31.501188283790867], [73.25931150394024, 31.506613540295106], [73.26334769078478, 31.50829538247566], [73.27341467845464, 31.50686199322589], [73.28079798982583, 31.500386730598784], [73.29109374620195, 31.499058391981624], [73.29315613224006, 31.487765914320033], [73.2865375633525, 31.48339035889727], [73.27993139821852, 31.485509707151575], [73.2749596190497, 31.483234824910337], [73.27207157540269, 31.490661290562752], [73.26786773535669, 31.492521452385297], [73.26425923259397, 31.4879366956364], [73.26731969328871, 31.48311351249938], [73.26539786401256, 31.476336268247014], [73.25972934733687, 31.476208958639155], [73.25671852221622, 31.481735976922145]]], [[[73.01163827511152, 31.397794041979306], [73.01625398155473, 31.402724849014792], [73.01293708921621, 31.40872643815595], [73.01635061180697, 31.419865514352306], [73.02293659208316, 31.422878206406374], [73.02503690441485, 31.429302170641673], [73.02125594791967, 31.433972951049807], [73.01349587528759, 31.434382975950225], [73.01150891394431, 31.443758095776815], [73.02077986324566, 31.4487498729966], [73.02851073213456, 31.447239603612328], [73.03340076210495, 31.449035415368588], [73.03823450003944, 31.461999268300843], [73.04995298059922, 31.459215463016793], [73.05760545429919, 31.459957040252746], [73.06065874882486, 31.463139952713256], [73.06828001139972, 31.463494814042154], [73.07489729606492, 31.47069369207064], [73.0721597274874, 31.474064943298476], [73.06551300257448, 31.471226031021963], [73.0579963599393, 31.482041857453726], [73.05654666311949, 31.48985095122172], [73.04870951186476, 31.49584898554906], [73.05061739258899, 31.501936124461697], [73.06526768726748, 31.50932892660581], [73.06402561762133, 31.516877395873593], [73.07223956222882, 31.51300107262653], [73.07688455725967, 31.50566199082872], [73.08604302277723, 31.50005437925836], [73.08367332494473, 31.492807126515352], [73.08911053888346, 31.483476582143368], [73.09820509002756, 31.485999524994607], [73.10515273461057, 31.481992084875287], [73.10815111712964, 31.47625783474602], [73.10743915019769, 31.467596850268304], [73.11535648929708, 31.4610332128156], [73.12473364869659, 31.459455378141733], [73.13377330072103, 31.46133338596178], [73.14235875963935, 31.469781286870138], [73.14974201851031, 31.467634333623366], [73.16125356610324, 31.470036639170658], [73.18319605032482, 31.4634844996846], [73.18915502905597, 31.473388190327473], [73.19580024469008, 31.475914529319933], [73.20032152063087, 31.473202714952972], [73.2003262425716, 31.468650868834413], [73.18971359261148, 31.462075629072658], [73.18873067928513, 31.457583468519655], [73.17718445735196, 31.456704228535752], [73.17364857566255, 31.443480419774758], [73.16367319728178, 31.44572192634284], [73.15845606398689, 31.452901127779423], [73.15383142007072, 31.452051309842183], [73.15709480973187, 31.442928431247502], [73.147505546404, 31.44144497947599], [73.14864215505833, 31.43467164983702], [73.15701256680556, 31.42597458674685], [73.16820528840836, 31.43026461210562], [73.17078840579, 31.42534586960151], [73.16671178931654, 31.4195294754894], [73.16155524839779, 31.42033667078389], [73.15696686589122, 31.425460990781264], [73.14715584921136, 31.417732429126136], [73.1380074695159, 31.421672994233468], [73.13491133231774, 31.41840856696583], [73.13747155885575, 31.411527795541385], [73.14289048253904, 31.411438257447212], [73.1460562975918, 31.408606741370697], [73.15113400968609, 31.412324441604227], [73.15561847901643, 31.41227377454097], [73.1604422116657, 31.40744295977923], [73.16059184142262, 31.403531028593903], [73.1666365406332, 31.40087683843809], [73.16872132420119, 31.397076509275493], [73.16084545283354, 31.39489109303397], [73.15452683692763, 31.396210904751946], [73.14746735794581, 31.39316448405012], [73.13981367603112, 31.396224735807795], [73.12938304839713, 31.39463482492742], [73.12695656773266, 31.389034788319833], [73.13431502802743, 31.375251930583502], [73.12590645204054, 31.36606145419568], [73.12298643823478, 31.366364535751423], [73.12074595859757, 31.37762082646743], [73.11779785304144, 31.379176777210812], [73.11184345057147, 31.377504294793145], [73.10624895607933, 31.369639597515146], [73.09585710960623, 31.369984520653624], [73.09394372421191, 31.366472634443813], [73.08861873691303, 31.36607821319605], [73.08390418928886, 31.36158065868174], [73.07875725704784, 31.361560987039493], [73.07750552626213, 31.36482098334668], [73.07436224381792, 31.365308617922462], [73.07092493133891, 31.359085191379247], [73.06676954274712, 31.361694562193787], [73.06121904025854, 31.372950731880817], [73.05648412291464, 31.374130424456805], [73.05182568105714, 31.37109312881619], [73.05016389376812, 31.37614470638754], [73.04308707733539, 31.379880777583367], [73.04501757957406, 31.383740248163203], [73.055210971307, 31.38998683257833], [73.05691406539297, 31.397082261234534], [73.05225183744588, 31.40243125653026], [73.03063241950842, 31.398931556297427], [73.02496557719061, 31.393636320306474], [73.01288464491681, 31.3950379816669], [73.01163827511152, 31.397794041979306]], [[73.06322830385982, 31.431519852570176], [73.0723036996634, 31.424658898985264], [73.08194088153917, 31.425809016737347], [73.08932980825055, 31.41835240083263], [73.09388091683657, 31.420313057271212], [73.09379609877264, 31.4250739229781], [73.08703051021031, 31.43604409603278], [73.0808026394138, 31.43675397335288], [73.07511963232938, 31.441371357948643], [73.06267963264743, 31.43826808425839], [73.06322830385982, 31.431519852570176]], [[73.07899825850451, 31.408652947290943], [73.07963500013912, 31.405744487095692], [73.08338971580113, 31.405667536366284], [73.08838285321838, 31.414276819796417], [73.0801952355188, 31.414022254152087], [73.07899825850451, 31.408652947290943]], [[73.05873883524804, 31.39856784568469], [73.06159833551708, 31.396200121004636], [73.06442517254605, 31.39898876824369], [73.06111164130043, 31.401072549015353], [73.05873883524804, 31.39856784568469]]]]}}, {"type": "Feature", "properties": {"threshold": 80}, "geometry": {"type": "MultiPolygon", "coordinates": [[[[73.25671852221622, 31.481735976922145], [73.2565719662214, 31.486182438576385], [73.2596554753668, 31.48916285583248], [73.25554305191271, 31.493394613218683], [73.25540376377826, 31.49905836596339], [73.258719256244, 31.501188283790867], [73.25931150394024, 31.506613540295106], [73.26334769078478, 31.50829538247566], [73.27341467845464, 31.50686199322589], [73.28079798982583, 31.500386730598784], [73.29109374620195, 31.499058391981624], [73.29315613224006, 31.487765914320033], [73.2865375633525, 31.48339035889727], [73.27993139821852, 31.485509707151575], [73.2749596190497, 31.483234824910337], [73.27207157540269, 31.490661290562752], [73.26786773535669, 31.492521452385297], [73.26425923259397, 31.4879366956364], [73.26731969328871, 31.48311351249938], [73.26539786401256, 31.476336268247014], [73.25972934733687, 31.476208958639155], [73.25671852221622, 31.481735976922145]]], [[[73.00371877342135, 31.40087211597848], [73.01274997834788, 31.402286703607338], [73.01635061180697, 31.419865514352306], [73.02293659208316, 31.422878206406374], [73.02501581295425, 31.429077138480938], [73.02125594791967, 31.433972951049807], [73.01349587528759, 31.434382975950225], [73.01156646296072, 31.443814554746098], [73.02086430685014, 31.448769399848626], [73.0293829424705, 31.447808021137597], [73.04094836672363, 31.464373734158947], [73.04941614531306, 31.459302118572833], [73.0573480922114, 31.459909084813578], [73.06065874882486, 31.463139952713256], [73.06828001139972, 31.463494814042154], [73.07480078092925, 31.470483632302525], [73.07242228599493, 31.47404676591931], [73.06557288689673, 31.471171370095824], [73.05707000011371, 31.483561694954478], [73.0566711385102, 31.48932753321239], [73.04244602344731, 31.49575330500358], [73.04712332041605, 31.50427870239322], [73.05122950203449, 31.50600677377252], [73.05900528424367, 31.504660056470847], [73.06512517860502, 31.509139030030585], [73.06080909688276, 31.51674052768697], [73.06308315515722, 31.519163965991748], [73.07035507003793, 31.5175743459898], [73.07671399588183, 31.505843828398266], [73.08604302277723, 31.50005437925836], [73.08367332494473, 31.492807126515352], [73.08911053888346, 31.483476582143368], [73.09909980876066, 31.486012818903273], [73.10513727666229, 31.48275881493827], [73.10815111712964, 31.47625783474602], [73.10743915019769, 31.467596850268304], [73.11535648929708, 31.4610332128156], [73.12473364869659, 31.459455378141733], [73.13377330072103, 31.46133338596178], [73.14235875963935, 31.469781286870138], [73.14974201851031, 31.467634333623366], [73.16125356610324, 31.470036639170658], [73.18319605032482, 31.4634844996846], [73.18624401633951, 31.472369155497386], [73.195467292692, 31.478916798847397], [73.20330721378356, 31.479027096394613], [73.20925342920404, 31.474094966162024], [73.20905961167031, 31.467028545471507], [73.1996729975983, 31.467760982690795], [73.18971359261148, 31.462075629072658], [73.18858700913212, 31.457498205846665], [73.17736475994442, 31.4568751920218], [73.17372283613793, 31.44352003395577], [73.16374431054449, 31.445678271479583], [73.15987547650377, 31.452035615901618], [73.15577965556594, 31.453090901128018], [73.15321416545856, 31.44880747449897], [73.15698697046592, 31.4427241485987], [73.14675891808238, 31.440475624596985], [73.14864215505833, 31.43467164983702], [73.15655620872876, 31.426199869417484], [73.16820528840836, 31.43026461210562], [73.17088875282379, 31.42576402969753], [73.16671178931654, 31.4195294754894], [73.16148415390279, 31.42038032527952], [73.15723011584855, 31.425464777842095], [73.14715584921136, 31.417732429126136], [73.1385289245806, 31.42161438779334], [73.1349584963485, 31.419746378362944], [73.13786712084338, 31.411230631698487], [73.14289048253904, 31.411438257447212], [73.14721040150775, 31.408496610229484], [73.15105561181363, 31.41229124587916], [73.1553919966146, 31.41238580886739], [73.16961377426885, 31.398919961776798], [73.16364321485736, 31.39340825027407], [73.15515768807877, 31.39516692795686], [73.1463272991874, 31.392392029388553], [73.13928721687927, 31.396238632157434], [73.13006753347275, 31.39501760771505], [73.12706560744233, 31.39187177423417], [73.13481342274379, 31.374785419416856], [73.14140693870132, 31.370680805783795], [73.1468226671852, 31.37049960924611], [73.14416686348972, 31.36424729696051], [73.13591396393323, 31.363938443302843], [73.13126198743623, 31.370315820050504], [73.12328247704221, 31.36609370070998], [73.12074595859757, 31.37762082646743], [73.1180651438895, 31.379199772657998], [73.11184345057147, 31.377504294793145], [73.10617061028223, 31.369606376196348], [73.09585710960623, 31.369984520653624], [73.09387444573912, 31.36642693051397], [73.08861873691303, 31.36607821319605], [73.08390418928886, 31.36158065868174], [73.07677877885114, 31.36141612956397], [73.07326007956213, 31.357586361853436], [73.06647983534899, 31.359583379733245], [73.06488026802778, 31.357081031934563], [73.06761771190652, 31.3533791666453], [73.07441121086546, 31.352873161899534], [73.08214079482183, 31.347656714035583], [73.08003297330245, 31.34010499178083], [73.07342327405343, 31.34363453183803], [73.06952387015829, 31.34178904726762], [73.06757356911088, 31.333750135290355], [73.06211823075371, 31.3346004817315], [73.05726542759588, 31.342515272646224], [73.05625256925856, 31.348312339684817], [73.05945039526961, 31.35015339903257], [73.06151873832988, 31.35755799279599], [73.05781136677761, 31.36086004393688], [73.0564627503964, 31.369039497156304], [73.04618996040374, 31.373423547131008], [73.0413088004102, 31.37839245422274], [73.04236823899859, 31.382165905452393], [73.05511457350755, 31.38977676048796], [73.05691406539297, 31.397082261234534], [73.05281817003082, 31.401962413332544], [73.0487324912751, 31.40315707070608], [73.03205788590238, 31.399014606564812], [73.02796166785195, 31.394535958296245], [73.0132739650697, 31.38961442698518], [73.00989467474612, 31.390671351208216], [73.00939309804104, 31.395239559991538], [73.00371877342135, 31.40087211597848]], [[73.06322830385982, 31.431519852570176], [73.0723036996634, 31.424658898985264], [73.08194088153917, 31.425809016737347], [73.08932980825055, 31.41835240083263], [73.09388091683657, 31.420313057271212], [73.09379609877264, 31.4250739229781], [73.08703051021031, 31.43604409603278], [73.0808026394138, 31.43675397335288], [73.07511963232938, 31.441371357948643], [73.06267963264743, 31.43826808425839], [73.06322830385982, 31.431519852570176]], [[73.07899825850451, 31.408652947290943], [73.07963500013912, 31.405744487095692], [73.08338971580113, 31.405667536366284], [73.08838285321838, 31.414276819796417], [73.0801952355188, 31.414022254152087], [73.07899825850451, 31.408652947290943]], [[73.05873883524804, 31.39856784568469], [73.06159833551708, 31.396200121004636], [73.06442517254605, 31.39898876824369], [73.06111164130043, 31.401072549015353], [73.05873883524804, 31.39856784568469]]], [[[72.98580651335033, 31.218542855451734], [72.98473143386948, 31.22372899739008], [72.98945919142129, 31.22805139481093], [72.99967494729675, 31.226877549548917], [73.00534477362305, 31.229928673471104], [73.00559923945066, 31.218072154782448], [73.01255622022215, 31.21221396896206], [72.9936977740962, 31.20757684528496], [72.9895472812502, 31.21018396387158], [72.98580651335033, 31.218542855451734]]]]}}, {"type": "Feature", "properties": {"threshold": 90}, "geometry": {"type": "MultiPolygon", "coordinates": [[[[73.25671852221622, 31.481735976922145], [73.2565719662214, 31.486182438576385], [73.2596554753668, 31.48916285583248], [73.25554305191271, 31.493394613218683], [73.25543513745046, 31.499205727166775], [73.258719256244, 31.501188283790867], [73.25923715600015, 31.506573972818824], [73.27124612062974, 31.507930400973517], [73.26673338748186, 31.515300670325296], [73.2677044624544, 31.51951684718408], [73.27048953249599, 31.51986127041756], [73.27569032303897, 31.513980359341154], [73.27218666829263, 31.509136187898545], [73.2744369446344, 31.504259763821196], [73.28104520030789, 31.50028621016216], [73.29093458725298, 31.499236400109993], [73.29315613224006, 31.487765914320033], [73.2863771379666, 31.483330879913417], [73.27969539293301, 31.48550653489158], [73.27520734417122, 31.483162610132965], [73.27207157540269, 31.490661290562752], [73.26760115393886, 31.492490797159917], [73.26425923259397, 31.4879366956364], [73.26731969328871, 31.48311351249938], [73.26545559016849, 31.476392619157025], [73.2598004425126, 31.476165249812368], [73.25671852221622, 31.481735976922145]]], [[[73.2052901534311, 31.49839453615669], [73.21156765423046, 31.51119023159169], [73.21652358603424, 31.511871886640176], [73.21804617635316, 31.51528119419017], [73.2226014466727, 31.515178917401983], [73.22571457160382, 31.50617008499278], [73.22068243221996, 31.500180563952547], [73.21943428363116, 31.493345683907716], [73.20593794637239, 31.492991505101052], [73.2052901534311, 31.49839453615669]]], [[[73.00372452073384, 31.398780094654086], [73.00524049850789, 31.40460200989081], [73.01248898768499, 31.40736541957323], [73.01638656184919, 31.419933863168158], [73.02293659208316, 31.422878206406374], [73.02501581295425, 31.429077138480938], [73.02125594791967, 31.433972951049807], [73.01349587528759, 31.434382975950225], [73.01150891394431, 31.443758095776815], [73.02077986324566, 31.4487498729966], [73.0276517355164, 31.447835240105675], [73.04094836672363, 31.464373734158947], [73.04536398633358, 31.464370615582737], [73.04956329613195, 31.45929665354982], [73.0573480922114, 31.459909084813578], [73.06065874882486, 31.463139952713256], [73.06828001139972, 31.463494814042154], [73.07480078092925, 31.470483632302525], [73.07242228599493, 31.47404676591931], [73.06557288689673, 31.471171370095824], [73.05707000011371, 31.483561694954478], [73.0566711385102, 31.48932753321239], [73.04244602344731, 31.49575330500358], [73.04712332041605, 31.50427870239322], [73.05122950203449, 31.50600677377252], [73.05900528424367, 31.504660056470847], [73.06512517860502, 31.509139030030585], [73.06080909688276, 31.51674052768697], [73.06308315515722, 31.519163965991748], [73.07035507003793, 31.5175743459898], [73.07671399588183, 31.505843828398266], [73.08604302277723, 31.50005437925836], [73.08367332494473, 31.492807126515352], [73.08911053888346, 31.483476582143368], [73.09909980876066, 31.486012818903273], [73.10782135288734, 31.482798529115996], [73.10735810648968, 31.467811905589873], [73.11535648929708, 31.4610332128156], [73.12473364869659, 31.459455378141733], [73.13377330072103, 31.46133338596178], [73.14235875963935, 31.469781286870138], [73.14974201851031, 31.467634333623366], [73.16125356610324, 31.470036639170658], [73.18370425424953, 31.463601309832207], [73.18859599336528, 31.474812323083132], [73.18777609399024, 31.481462446637373], [73.19382747807838, 31.484316995873826], [73.19895744901717, 31.48421950895242], [73.20096164149447, 31.4798108153531], [73.20925342920404, 31.474094966162024], [73.20905961167031, 31.467028545471507], [73.1996729975983, 31.467760982690795], [73.18971359261148, 31.462075629072658], [73.18858700913212, 31.457498205846665], [73.17736475994442, 31.4568751920218], [73.17372283613793, 31.44352003395577], [73.16374431054449, 31.445678271479583], [73.15987547650377, 31.452035615901618], [73.15577965556594, 31.453090901128018], [73.15321416545856, 31.44880747449897], [73.15698697046592, 31.4427241485987], [73.14675891808238, 31.440475624596985], [73.1487697144811, 31.43448595022892], [73.1567779269036, 31.426077604295354], [73.16534795315627, 31.430223719942376], [73.17084627720435, 31.427951388141594], [73.16671178931654, 31.4195294754894], [73.16148415390279, 31.42038032527952], [73.15723011584855, 31.425464777842095], [73.14715584921136, 31.417732429126136], [73.1385289245806, 31.42161438779334], [73.1349584963485, 31.419746378362944], [73.13808844730751, 31.411108399194315], [73.14280767647699, 31.411462322247868], [73.14721040150775, 31.408496610229484], [73.15105561181363, 31.41229124587916], [73.15530919206219, 31.41240988196622], [73.16234201176133, 31.404705909527017], [73.17043392806137, 31.402073778871696], [73.17037157082483, 31.39843130624483], [73.16372764323786, 31.393427682078215], [73.15227556284836, 31.394771512634644], [73.1463272991874, 31.392392029388553], [73.13928721687927, 31.396238632157434], [73.13006753347275, 31.39501760771505], [73.12706560744233, 31.39187177423417], [73.13234299673785, 31.381037696796803], [73.13987403432698, 31.383016425833684], [73.14130358862967, 31.378403193199688], [73.14840526263885, 31.376015888754143], [73.14855963006961, 31.368145690038297], [73.14357129971042, 31.363962959018053], [73.12352058183303, 31.366001300277297], [73.12021708263246, 31.378416656603196], [73.11252773882498, 31.377887164498667], [73.10632312962284, 31.36967924779871], [73.09585710960623, 31.369984520653624], [73.09387444573912, 31.36642693051397], [73.08861873691303, 31.36607821319605], [73.08590995094094, 31.36247346163884], [73.07626549447203, 31.35845490122771], [73.07424583684252, 31.353338988642335], [73.08192451946965, 31.34819476353083], [73.08398266429202, 31.342917072014888], [73.07901077358176, 31.338498423806328], [73.07339921705226, 31.339540935869625], [73.06757356911088, 31.333750135290355], [73.06120924206249, 31.33535371542462], [73.05724270804184, 31.34258767524444], [73.05623283962538, 31.34823929432314], [73.05955206459912, 31.350353955186396], [73.0612467448488, 31.35842473952044], [73.0413088004102, 31.37839245422274], [73.04147453597923, 31.38215225535734], [73.05511457350755, 31.38977676048796], [73.05691406539297, 31.397082261234534], [73.05281817003082, 31.401962413332544], [73.04898060653188, 31.403191046839588], [73.03521774367766, 31.399809450341614], [73.0315049165281, 31.396124331717175], [73.01342693785375, 31.389623252439492], [73.00450431543793, 31.394362050274495], [73.00372452073384, 31.398780094654086]], [[73.06322830385982, 31.431519852570176], [73.0723036996634, 31.424658898985264], [73.08194088153917, 31.425809016737347], [73.08932980825055, 31.41835240083263], [73.09388091683657, 31.420313057271212], [73.09379609877264, 31.4250739229781], [73.08703051021031, 31.43604409603278], [73.0808026394138, 31.43675397335288], [73.07511963232938, 31.441371357948643], [73.06267963264743, 31.43826808425839], [73.06322830385982, 31.431519852570176]], [[73.07899825850451, 31.408652947290943], [73.07963500013912, 31.405744487095692], [73.08338971580113, 31.405667536366284], [73.08838285321838, 31.414276819796417], [73.0801952355188, 31.414022254152087], [73.07899825850451, 31.408652947290943]], [[73.05873883524804, 31.39856784568469], [73.06159833551708, 31.396200121004636], [73.06442517254605, 31.39898876824369], [73.06111164130043, 31.401072549015353], [73.05873883524804, 31.39856784568469]]], [[[73.17296612192924, 31.388057072905376], [73.1785367157303, 31.39128488675069], [73.18440035108127, 31.3904481698588], [73.18653725292998, 31.39369927558425], [73.19268287230554, 31.39222000710057], [73.20346278122817, 31.39700556650376], [73.20811181316014, 31.395703217426806], [73.20420376382225, 31.3763421686741], [73.20060223157873, 31.37661663250231], [73.19607693573336, 31.38599659298262], [73.18061745472873, 31.380600568931857], [73.17277187115124, 31.38536661396618], [73.17296612192924, 31.388057072905376]]], [[[73.17087935569565, 31.56463332621192], [73.17077475158324, 31.57165210823598], [73.1763041872083, 31.582115232091653], [73.19463796862063, 31.578329962889608], [73.19500394150954, 31.566256979243335], [73.1893940947959, 31.558788599405975], [73.18464195137182, 31.5563061826313], [73.17694726246557, 31.557007112584824], [73.17087935569565, 31.56463332621192]]], [[[72.98605311873028, 31.22429483805345], [72.98969299871528, 31.22815093438437], [72.9994140047335, 31.226851356864266], [73.00577910270698, 31.22968892510086], [73.00633466771271, 31.219738428196525], [73.0125679651418, 31.213277856393766], [73.00980979898283, 31.20183201059977], [72.99331210288464, 31.205516421125953], [72.98806512157606, 31.21700744505921], [72.98483847791492, 31.21868524468006], [72.98605311873028, 31.22429483805345]]], [[[72.85363920511323, 31.35395298395513], [72.85404173984413, 31.36049786970136], [72.8574290619071, 31.361789465021797], [72.86603056363121, 31.359545580117835], [72.8702999409039, 31.355600958738034], [72.88139799211204, 31.36139154811105], [72.89166911950055, 31.362148074033882], [72.89505888119587, 31.36548036469689], [72.89868970747189, 31.358718922927043], [72.89843452781773, 31.355748359730654], [72.89103574775204, 31.35318557941923], [72.8706639106517, 31.354749398023163], [72.85968544782881, 31.34880242831522], [72.85355189098684, 31.35122082193859], [72.85363920511323, 31.35395298395513]]]]}}, {"type": "Feature", "properties": {"threshold": 95}, "geometry": {"type": "MultiPolygon", "coordinates": [[[[73.25671852221622, 31.481735976922145], [73.2565719662214, 31.486182438576385], [73.2596554753668, 31.48916285583248], [73.25554305191271, 31.493394613218683], [73.25540376377826, 31.49905836596339], [73.258719256244, 31.501188283790867], [73.25895123109478, 31.506294910149684], [73.27156119654967, 31.508564451330827], [73.26407232119854, 31.515059007438463], [73.26489659339647, 31.521647621149064], [73.26767645499207, 31.522142380937314], [73.27566772134557, 31.514052803496185], [73.27218666829263, 31.509136187898545], [73.2744369446344, 31.504259763821196], [73.28104520030789, 31.50028621016216], [73.29093458725298, 31.499236400109993], [73.2931760712747, 31.487838929809705], [73.2863771379666, 31.483330879913417], [73.27969539293301, 31.48550653489158], [73.27520734417122, 31.483162610132965], [73.27207157540269, 31.490661290562752], [73.26760115393886, 31.492490797159917], [73.26425923259397, 31.4879366956364], [73.26731969328871, 31.48311351249938], [73.26545559016849, 31.476392619157025], [73.2598004425126, 31.476165249812368], [73.25671852221622, 31.481735976922145]]], [[[73.2053189579175, 31.49640463973961], [73.20352934282353, 31.50009200439397], [73.20919772789068, 31.503969536519314], [73.2115099412958, 31.51113385705974], [73.21636335418233, 31.511871574355233], [73.21804617635316, 31.51528119419017], [73.22253564607766, 31.51522836666404], [73.22571457160382, 31.50617008499278], [73.22068243221996, 31.500180563952547], [73.21949199127191, 31.493402054937402], [73.20602081134865, 31.492967401835994], [73.2053189579175, 31.49640463973961]]], [[[73.00248989663355, 31.39549221587596], [73.0059936432625, 31.40603182428614], [73.01424592145993, 31.410381381793027], [73.01638656184919, 31.419933863168158], [73.02293659208316, 31.422878206406374], [73.02501581295425, 31.429077138480938], [73.02125594791967, 31.433972951049807], [73.01349587528759, 31.434382975950225], [73.01150891394431, 31.443758095776815], [73.02077986324566, 31.4487498729966], [73.0276517355164, 31.447835240105675], [73.04094836672363, 31.464373734158947], [73.04536398633358, 31.464370615582737], [73.04956329613195, 31.45929665354982], [73.0573480922114, 31.459909084813578], [73.06065874882486, 31.463139952713256], [73.06828001139972, 31.463494814042154], [73.07480078092925, 31.470483632302525], [73.07242228599493, 31.47404676591931], [73.06557288689673, 31.471171370095824], [73.05707000011371, 31.483561694954478], [73.0566711385102, 31.48932753321239], [73.04244602344731, 31.49575330500358], [73.04712332041605, 31.50427870239322], [73.05122950203449, 31.50600677377252], [73.05900528424367, 31.504660056470847], [73.06512517860502, 31.509139030030585], [73.06080909688276, 31.51674052768697], [73.06308315515722, 31.519163965991748], [73.07035507003793, 31.5175743459898], [73.07671399588183, 31.505843828398266], [73.08604302277723, 31.50005437925836], [73.08367332494473, 31.492807126515352], [73.08911053888346, 31.483476582143368], [73.09999452817091, 31.48602610656225], [73.10782135288734, 31.482798529115996], [73.10735810648968, 31.467811905589873], [73.11535648929708, 31.4610332128156], [73.12473364869659, 31.459455378141733], [73.13377330072103, 31.46133338596178], [73.14220563696408, 31.46977260996482], [73.14974201851031, 31.467634333623366], [73.15935601519344, 31.470026826257804], [73.17118572951718, 31.4679986798583], [73.17229471509485, 31.473986144457417], [73.18781698114613, 31.473655500581312], [73.18777609399024, 31.481462446637373], [73.19203797719578, 31.484291727218558], [73.19888632101092, 31.484263182649027], [73.20096164149447, 31.4798108153531], [73.20925342920404, 31.474094966162024], [73.20905961167031, 31.467028545471507], [73.1996729975983, 31.467760982690795], [73.18971359261148, 31.462075629072658], [73.18858700913212, 31.457498205846665], [73.17736475994442, 31.4568751920218], [73.17372283613793, 31.44352003395577], [73.16374431054449, 31.445678271479583], [73.15987547650377, 31.452035615901618], [73.15577965556594, 31.453090901128018], [73.15321416545856, 31.44880747449897], [73.15698697046592, 31.4427241485987], [73.14675891808238, 31.440475624596985], [73.1487697144811, 31.43448595022892], [73.1567779269036, 31.426077604295354], [73.16534795315627, 31.430223719942376], [73.17084627720435, 31.427951388141594], [73.16671178931654, 31.4195294754894], [73.16148415390279, 31.42038032527952], [73.15723011584855, 31.425464777842095], [73.14715584921136, 31.417732429126136], [73.1385289245806, 31.42161438779334], [73.1349584963485, 31.419746378362944], [73.13808844730751, 31.411108399194315], [73.14280767647699, 31.411462322247868], [73.14721040150775, 31.408496610229484], [73.15105561181363, 31.41229124587916], [73.15530919206219, 31.41240988196622], [73.16234201176133, 31.404705909527017], [73.17043392806137, 31.402073778871696], [73.17037157082483, 31.39843130624483], [73.16372764323786, 31.393427682078215], [73.1524652647124, 31.39476625743126], [73.1463272991874, 31.392392029388553], [73.13928721687927, 31.396238632157434], [73.13006753347275, 31.39501760771505], [73.12706560744233, 31.39187177423417], [73.13255697376904, 31.38157241331837], [73.13977613583803, 31.38380724708346], [73.14150153041905, 31.378254422696987], [73.14926889174987, 31.37756231589723], [73.14855963006961, 31.368145690038297], [73.14406988891287, 31.364121053678833], [73.13374711549567, 31.36370817769501], [73.12537721678156, 31.358383959731714], [73.12074595859757, 31.37762082646743], [73.11779785304144, 31.379176777210812], [73.11184345057147, 31.377504294793145], [73.10624895607933, 31.369639597515146], [73.09610328302655, 31.370064245783833], [73.09380028030002, 31.36638727331967], [73.07949857103173, 31.361232612237536], [73.075162211311, 31.35476484515606], [73.08400241478108, 31.342990114152716], [73.0799858127705, 31.33853828365921], [73.07339921705226, 31.339540935869625], [73.06879389077541, 31.334708694122536], [73.07178529507479, 31.32922564547452], [73.07045676217251, 31.32382293816912], [73.06570456980981, 31.32639808690146], [73.06646250105078, 31.332301905432576], [73.06114944572239, 31.335408378999], [73.05724270804184, 31.34258767524444], [73.05623283962538, 31.34823929432314], [73.05955206459912, 31.350353955186396], [73.0612467448488, 31.35842473952044], [73.0413088004102, 31.37839245422274], [73.04147453597923, 31.38215225535734], [73.05511457350755, 31.38977676048796], [73.05691406539297, 31.397082261234534], [73.05281817003082, 31.401962413332544], [73.04898060653188, 31.403191046839588], [73.03521774367766, 31.399809450341614], [73.0315049165281, 31.396124331717175], [73.01342693785375, 31.389623252439492], [73.00248989663355, 31.39549221587596]], [[73.17334558977845, 31.466221428753574], [73.18105350601803, 31.463444298634638], [73.1854409690056, 31.465679463375867], [73.18388878877852, 31.468553580822807], [73.17596268319927, 31.47025480410832], [73.17277109022659, 31.46911538878354], [73.17334558977845, 31.466221428753574]], [[73.06322830385982, 31.431519852570176], [73.0723036996634, 31.424658898985264], [73.08194088153917, 31.425809016737347], [73.08932980825055, 31.41835240083263], [73.09388091683657, 31.420313057271212], [73.09379609877264, 31.4250739229781], [73.08703051021031, 31.43604409603278], [73.0808026394138, 31.43675397335288], [73.07511963232938, 31.441371357948643], [73.06267963264743, 31.43826808425839], [73.06322830385982, 31.431519852570176]], [[73.07899825850451, 31.408652947290943], [73.07963500013912, 31.405744487095692], [73.08338971580113, 31.405667536366284], [73.08838285321838, 31.414276819796417], [73.0801952355188, 31.414022254152087], [73.07899825850451, 31.408652947290943]], [[73.05873883524804, 31.39856784568469], [73.06159833551708, 31.396200121004636], [73.06442517254605, 31.39898876824369], [73.06111164130043, 31.401072549015353], [73.05873883524804, 31.39856784568469]]], [[[73.17208715341665, 31.387277560880065], [73.1766645663587, 31.391240048157865], [73.18359780583943, 31.390694744386366], [73.18733196853638, 31.39445927874813], [73.19326843945302, 31.392913478000104], [73.20346278122817, 31.39700556650376], [73.20808919301875, 31.39577565007238], [73.20428818756687, 31.376361573700905], [73.20065543737678, 31.37655714159266], [73.19603614280884, 31.38454460642136], [73.17695576122838, 31.380559559160524], [73.17208715341665, 31.387277560880065]]], [[[73.16844961473264, 31.564262842911088], [73.1763041872083, 31.582115232091653], [73.18780535316327, 31.582374778311735], [73.19463796862063, 31.578329962889608], [73.19500394150954, 31.566256979243335], [73.1893940947959, 31.558788599405975], [73.18464195137182, 31.5563061826313], [73.17703019206085, 31.556983030556854], [73.16844961473264, 31.564262842911088]]], [[[72.98605311873028, 31.22429483805345], [72.98969299871528, 31.22815093438437], [72.9994140047335, 31.226851356864266], [73.00577910270698, 31.22968892510086], [73.00633466771271, 31.219738428196525], [73.0125679651418, 31.213277856393766], [73.00980979898283, 31.20183201059977], [72.99331210288464, 31.205516421125953], [72.99242622300375, 31.208980991773963], [72.98861649946055, 31.210237202532365], [72.98806512157606, 31.21700744505921], [72.98483847791492, 31.21868524468006], [72.98605311873028, 31.22429483805345]]], [[[72.85709581192307, 31.349014297131284], [72.85339220193516, 31.351398265611017], [72.85227650510143, 31.356397788449225], [72.8563651674456, 31.361742461077075], [72.86603056363121, 31.359545580117835], [72.8702999409039, 31.355600958738034], [72.88139799211204, 31.36139154811105], [72.89166911950055, 31.362148074033882], [72.89505888119587, 31.36548036469689], [72.89865239544034, 31.35886523337762], [72.89843452781773, 31.355748359730654], [72.89103574775204, 31.35318557941923], [72.8706639106517, 31.354749398023163], [72.85709581192307, 31.349014297131284]]]]}}]}