{"type": "Feature", "geometry": {"type": "MultiPolygon", "coordinates": [[[[90.60898061496198, 23.830150339642614], [90.61201368618408, 23.837757614763746], [90.61977979196855, 23.838721303821114], [90.63419303378637, 23.82767826144076], [90.63540624505012, 23.823803677236963], [90.62650581266999, 23.813352479041818], [90.62279833143886, 23.81232235032897], [90.60775908315362, 23.823908269480174], [90.60699603235555, 23.827239123707436], [90.60898061496198, 23.830150339642614]]], [[[90.55160167321571, 23.678773772069054], [90.55300898858019, 23.683078870507508], [90.56010136940974, 23.68466559985077], [90.56491335062162, 23.68948358970597], [90.57443828832093, 23.690738937546257], [90.57879498411127, 23.68742869608939], [90.57823399265385, 23.68367867258967], [90.57185567563374, 23.676271486869272], [90.56758837469516, 23.673985838865143], [90.56617050326909, 23.668353567267587], [90.5634651155314, 23.666120736562526], [90.55752992365242, 23.667700075250092], [90.55160167321571, 23.678773772069054]]], [[[90.48474833903673, 23.715489634515738], [90.48762856770105, 23.722116504425152], [90.49776929006894, 23.72546303859518], [90.5022429057141, 23.724887021037325], [90.50825801334396, 23.726600259486847], [90.51431197684948, 23.72280246490511], [90.52464549842885, 23.724519322059358], [90.52731132210948, 23.72125088774339], [90.52636075814483, 23.711352828568263], [90.52883630844093, 23.709485110168963], [90.5375632943603, 23.708015450501044], [90.54398389904674, 23.69360571926967], [90.54391642923605, 23.69050954126834], [90.5395524095912, 23.68361299132397], [90.53903236334064, 23.67756548939831], [90.54056696227687, 23.671307254603807], [90.53845851989861, 23.667624574951926], [90.53415137310205, 23.664879352369564], [90.5317610701813, 23.6593024570877], [90.53393915383201, 23.653579513029168], [90.53339690575677, 23.649717297645886], [90.52695282649402, 23.64586919600587], [90.5251702770766, 23.640515815174744], [90.52109857836192, 23.63751534819503], [90.51867659317944, 23.633100625455803], [90.52035198153652, 23.62560418995994], [90.52526788801839, 23.620661676533384], [90.52442143433983, 23.617359225761057], [90.5213636127383, 23.615390147156063], [90.51824053287086, 23.615372566242172], [90.51215088519672, 23.618672466729986], [90.507317692548, 23.61306414428076], [90.50294674944601, 23.612500317692508], [90.50077909827223, 23.614620063063224], [90.5004552294244, 23.619060873271557], [90.4972147802618, 23.62501203951018], [90.49924609448544, 23.62802570759073], [90.50738714693028, 23.629771007595767], [90.5097187851944, 23.631664045585666], [90.5069543761845, 23.644603495310733], [90.51254723463119, 23.64995090082319], [90.51284478143192, 23.661008934255406], [90.51818583564514, 23.66721030640793], [90.51730401212029, 23.67123852052732], [90.51397820867582, 23.674992689909303], [90.51149180366725, 23.68738739666764], [90.51451941932856, 23.689667160185888], [90.5239631120254, 23.689059334259937], [90.52839165471171, 23.691889751773914], [90.52894148680645, 23.69560512537723], [90.526057507022, 23.69846143554115], [90.52000377615346, 23.69777517219209], [90.51487247512884, 23.701063636536848], [90.50582076016886, 23.698575080677266], [90.49929879366631, 23.70464101583708], [90.49241435549496, 23.706526053005113], [90.48261114997558, 23.705851454021175], [90.48034499393336, 23.711256543097857], [90.48474833903673, 23.715489634515738]]], [[[90.51689969929268, 23.787115606512916], [90.52076597735751, 23.794377817791695], [90.52375448839128, 23.796029719250505], [90.52988406477631, 23.79439202550779], [90.53468050166146, 23.796231790578883], [90.53860622719392, 23.795685043623216], [90.54243983529464, 23.792678175506357], [90.54400652578983, 23.789070599328497], [90.54280633822633, 23.785460067835867], [90.53951697423925, 23.782435765955444], [90.52891727582076, 23.78560352559359], [90.52102234427127, 23.779444063240778], [90.51623286984508, 23.781977046641742], [90.51689969929268, 23.787115606512916]]], [[[90.50669731656015, 23.763016076259788], [90.50890283413771, 23.767531104039833], [90.51561253814485, 23.767490227859042], [90.51751294085311, 23.76517031155131], [90.51854865005294, 23.757214142957917], [90.52484803620587, 23.752907192754307], [90.52492545799565, 23.746694231978907], [90.5180135781954, 23.73968813974862], [90.51392808577918, 23.739468743718675], [90.51087949285576, 23.74181166727911], [90.50669731656015, 23.763016076259788]]], [[[90.48518386934191, 23.80108837990474], [90.48613788757477, 23.804287361077954], [90.49113336243468, 23.8091392140035], [90.49530828935067, 23.810227930230223], [90.50261259794884, 23.805084679481894], [90.50467504602646, 23.79646131893464], [90.5012582688218, 23.7898833349125], [90.49609372472555, 23.787722002183813], [90.4875378524117, 23.795811850161908], [90.48518386934191, 23.80108837990474]]], [[[90.45634458458485, 23.599039681583605], [90.45577020796982, 23.603281603760596], [90.45727233374585, 23.605874644874493], [90.46954209749715, 23.609560627595858], [90.48123303115952, 23.598264160405485], [90.4823730978105, 23.594597722581803], [90.47896532119012, 23.588200765836856], [90.4743052192053, 23.586359341456863], [90.46046483369918, 23.594116517930125], [90.45634458458485, 23.599039681583605]]], [[[90.32385482773158, 23.640452426205247], [90.32375593766903, 23.644225147616872], [90.32645741788592, 23.646625862026774], [90.33428615706217, 23.643342186038655], [90.33771626954076, 23.643961988140568], [90.34710979673542, 23.65338954709555], [90.34916400083621, 23.65769167662211], [90.34842885661295, 23.66142870316726], [90.34379295163927, 23.664864619051578], [90.33330062353062, 23.664381707794966], [90.32954094418504, 23.666316454459892], [90.32817481545983, 23.66882460062626], [90.33062890576326, 23.67340468390484], [90.33750460270548, 23.674951917450993], [90.3414679609126, 23.681331208045023], [90.34102829548706, 23.687342683325326], [90.3367412097097, 23.69420295354472], [90.33815887233928, 23.69696415658546], [90.34275143397808, 23.69887320182744], [90.35181963204396, 23.695933880344803], [90.35394879827862, 23.69363211215676], [90.35242588136951, 23.672446109853936], [90.35540691996923, 23.66754983182367], [90.3560613552559, 23.66191774378643], [90.3591647521854, 23.6596858524817], [90.36389792377571, 23.6613154773528], [90.36544450469746, 23.66963259282689], [90.37331721592965, 23.673409864144205], [90.37570108195115, 23.676969841567736], [90.38272009182384, 23.681925259750273], [90.38658167708365, 23.68267754862538], [90.39009257406238, 23.68041269006574], [90.39102052787432, 23.67252705999523], [90.39524105471328, 23.666967145263534], [90.40483892458462, 23.664602870034354], [90.40755568709048, 23.660548640095218], [90.41793449078592, 23.653467825275452], [90.42111501134386, 23.64911024959222], [90.42535743168038, 23.648697578821505], [90.43462078435297, 23.653992393170025], [90.44127805684366, 23.653877770141293], [90.44447988169772, 23.658968625559503], [90.43984510104755, 23.66905877091846], [90.44224694692917, 23.677684576413007], [90.43919984433789, 23.68466093320092], [90.44080528705186, 23.68758134081736], [90.44439663791401, 23.688708968488843], [90.44860820761107, 23.685895336191518], [90.45829205305414, 23.6719072454832], [90.46733319333967, 23.663435738091184], [90.46930174829592, 23.6582270770983], [90.47584331879693, 23.65121231067772], [90.47481034287938, 23.647796243454806], [90.47002108959951, 23.64519926083274], [90.46711157906172, 23.64089382380601], [90.46668419594627, 23.631668268084766], [90.45220319182616, 23.626819811066312], [90.44039996267678, 23.608895661151642], [90.43919090655274, 23.60357257233738], [90.432689287634, 23.600468249486607], [90.43018074193974, 23.596309675218645], [90.42761173441987, 23.59511468946316], [90.42254104383188, 23.596283067144046], [90.41810691120737, 23.602259879614383], [90.40766189090986, 23.601672079596746], [90.40522059737752, 23.606121666179067], [90.40475551851907, 23.611811026906288], [90.39810311533557, 23.614793696696655], [90.39248780613163, 23.612646460628937], [90.38848700955693, 23.598511196294854], [90.38412616177722, 23.59790244733747], [90.3754646127893, 23.600511472402076], [90.37308793099999, 23.60337440043106], [90.37416910290251, 23.609660753026162], [90.37268041104163, 23.61496477723455], [90.36590329386758, 23.625033233538463], [90.36232511548644, 23.63385600687234], [90.35783481000047, 23.634041061232132], [90.35100148648633, 23.628335039930388], [90.34863508597077, 23.623212667011128], [90.34492838474175, 23.622213058931283], [90.33401199973883, 23.631862699136956], [90.32580554785854, 23.63454333125904], [90.32385482773158, 23.640452426205247]]], [[[90.1862166166565, 23.78841332098578], [90.19655225731675, 23.794671195708858], [90.19680396375175, 23.80411682775834], [90.19928643219477, 23.81196971936788], [90.19747957721259, 23.819597444018655], [90.19980847652654, 23.825149049526683], [90.206940851813, 23.830361841887076], [90.2057792310126, 23.84235386724359], [90.20863770777801, 23.845809723490405], [90.21396321461148, 23.846015744330128], [90.22623165031764, 23.84238319580706], [90.23314842355636, 23.844504063338487], [90.24045357603805, 23.844132997249744], [90.24453191410865, 23.841446127905822], [90.25125473415142, 23.828087854336978], [90.2560876599123, 23.826665519017247], [90.2646305960239, 23.830972265239474], [90.26959806089006, 23.829995913470704], [90.27901077365316, 23.831078360404963], [90.28177373145652, 23.828622843044172], [90.28230351526655, 23.82252119767918], [90.28502142106038, 23.82041198953881], [90.28837183551121, 23.821193330623796], [90.29299457816948, 23.826697834863545], [90.29988789197914, 23.82910911112912], [90.30537112115235, 23.829023007100094], [90.30871086999436, 23.82519260092355], [90.30805232787779, 23.81810520695252], [90.31088363842758, 23.812140722580285], [90.32091338413579, 23.810782729759303], [90.33306598759351, 23.79750284836362], [90.33589280447815, 23.796487575710913], [90.34833394447533, 23.80725358732589], [90.34833486354829, 23.81406569603535], [90.35178747435073, 23.82212445340153], [90.35710924237407, 23.82349172762226], [90.36428115945992, 23.82007810119276], [90.36930358286892, 23.82197714805617], [90.37031897570452, 23.82486972420352], [90.36869530925121, 23.82901450454004], [90.36905270773563, 23.8347750993524], [90.37405274609678, 23.844584910904114], [90.37756816518797, 23.846114517428003], [90.38221060895901, 23.84311280502244], [90.38075013196881, 23.83545025911318], [90.38418453514342, 23.830792949127286], [90.38490677973438, 23.825804057061166], [90.38850096632643, 23.822764940374128], [90.39054807259052, 23.81826002097021], [90.39735905311527, 23.813377931468807], [90.39685100971751, 23.810855583928536], [90.3911214624248, 23.80378571201602], [90.39044273308892, 23.798524893746787], [90.38788802582471, 23.795947092698043], [90.38434909150702, 23.79631367137748], [90.38017648520044, 23.799657405944803], [90.3710956097555, 23.80070610239053], [90.36031969820012, 23.79582493432851], [90.35920370414229, 23.790523988379515], [90.36518007436757, 23.782497277520076], [90.37860530486955, 23.781341259887604], [90.38101670547233, 23.775115400814812], [90.38512817820354, 23.773068037398463], [90.38573946268666, 23.766290452422385], [90.39439257941014, 23.762872212643554], [90.39803137807148, 23.765195104111744], [90.39875140600526, 23.769803505120024], [90.39682112855807, 23.772174896161843], [90.38831901939366, 23.774953180467467], [90.38778736222977, 23.7869770389987], [90.39000524429146, 23.788868378842157], [90.40432492375278, 23.790723597802167], [90.40816009815438, 23.7952680830032], [90.41329891943604, 23.79671724121736], [90.41521136728713, 23.799609820467428], [90.41420570468195, 23.804133666574796], [90.40946033912942, 23.806768209646375], [90.40303173953166, 23.815187917956635], [90.4065479449764, 23.822947274069787], [90.40481561673984, 23.827861338636318], [90.40525403948274, 23.83608859786115], [90.39907450591559, 23.850329910405133], [90.4032545724293, 23.858533314800138], [90.40660957320934, 23.860143090227552], [90.41330356609787, 23.85844082774324], [90.41595074677556, 23.853855301135052], [90.42167054828828, 23.851073230471965], [90.4287435069344, 23.84281838587898], [90.4277441881052, 23.83870166160391], [90.42239541238075, 23.836855880770113], [90.41999516908106, 23.83353589660884], [90.42066447902984, 23.82566131878564], [90.41835247228825, 23.81953982795981], [90.4201144195434, 23.81195153879685], [90.42484260029336, 23.807810380069782], [90.4259923524694, 23.802491402293665], [90.43131727369223, 23.79593121648623], [90.42722136486314, 23.791280571013143], [90.41853794301659, 23.787674466471017], [90.41735665820018, 23.783382549106285], [90.41828065394105, 23.780501504904464], [90.42553851998666, 23.778504804433734], [90.42814116135766, 23.773383718464824], [90.43063177575672, 23.771993421357227], [90.44270891229738, 23.775066782902027], [90.4509216420911, 23.782520929327298], [90.45155141495817, 23.78625038598473], [90.44768748321734, 23.790725472106946], [90.44012883216303, 23.790854201617783], [90.43624390172988, 23.79581614360907], [90.44361443018222, 23.803490319452322], [90.45935584436803, 23.810751710515706], [90.46571650492253, 23.808130570762682], [90.46747798823053, 23.805823967466047], [90.46517984498864, 23.793918793306283], [90.46831540211176, 23.788444371631392], [90.46883425858175, 23.781583470263868], [90.4637341418157, 23.775153791597557], [90.46467028014953, 23.76870677732628], [90.46140265991993, 23.75978227075818], [90.45427508160321, 23.752014554306157], [90.44880293211956, 23.751636869113593], [90.44546757944359, 23.756409423447817], [90.4413330606639, 23.758771140559066], [90.43215411031672, 23.75954036197134], [90.42907492980234, 23.757418405042316], [90.4296510161584, 23.752722326245628], [90.43663503004952, 23.750563006673726], [90.43853181476946, 23.746436250489783], [90.43832098323767, 23.738682002499548], [90.43266989794512, 23.73353334308343], [90.43254115603176, 23.7245130381156], [90.42923529015255, 23.71742052044139], [90.4294108370117, 23.709079487402004], [90.4354352511413, 23.69686110359937], [90.43056820242134, 23.688150810159275], [90.42273321595063, 23.682350788138084], [90.4173080081906, 23.68594065832984], [90.42015706972201, 23.694965348990927], [90.41592785415577, 23.7057864997651], [90.41273954070613, 23.709401564557982], [90.4128523539844, 23.714581685631625], [90.41139852176495, 23.7168817407448], [90.40090423260207, 23.72095957436544], [90.38469042639892, 23.71785523644534], [90.377500338503, 23.72289798254689], [90.3664240383767, 23.723822536332243], [90.36204828541877, 23.72801144661481], [90.35405715528287, 23.72962760311473], [90.34992663912297, 23.737747737106545], [90.3476367850276, 23.739273508590735], [90.334162211119, 23.736374058255567], [90.33098374788965, 23.73120030973418], [90.32677721897196, 23.729091151216398], [90.31788910712687, 23.729050571446137], [90.31594608807804, 23.72668117801134], [90.31638483017079, 23.72166078419616], [90.31413907183435, 23.71444168350226], [90.31019117433716, 23.713091558741024], [90.30476067558286, 23.714911502331827], [90.30181318444427, 23.724073402380945], [90.29590961896426, 23.730595440848063], [90.29653232376606, 23.73369044794867], [90.30091975654652, 23.736431357637272], [90.30201727771379, 23.739711924449182], [90.29354375240517, 23.74872629608808], [90.29426553795774, 23.752740857243868], [90.29818658945034, 23.75586963710332], [90.29895766509425, 23.758810548877268], [90.29105520322055, 23.766804462808576], [90.29191484064819, 23.784157353963078], [90.28951879972544, 23.787578027271852], [90.28083844327398, 23.78730880747576], [90.27353843318947, 23.793042568421587], [90.2677421546284, 23.78915956559581], [90.26147330052892, 23.788533111591672], [90.25864210602387, 23.784844676013737], [90.25874596551822, 23.77845799345239], [90.25287323927287, 23.773521253789117], [90.25378430193146, 23.767882300464006], [90.25244886268283, 23.76509012523365], [90.24692875666595, 23.763843811933], [90.24237538437421, 23.7679686263624], [90.23873771494327, 23.7681647226524], [90.23352351988143, 23.764335242802876], [90.22776714586436, 23.754899539093785], [90.22463843676317, 23.75357616968407], [90.21946256994825, 23.756457184000794], [90.22189527861667, 23.76637918530784], [90.21726454814467, 23.770521568629498], [90.21481446238549, 23.775473557712868], [90.20722764829242, 23.776434685292735], [90.20261817733729, 23.77903571786145], [90.19701404000733, 23.776867320395663], [90.1924250875094, 23.777119005880927], [90.18329208602039, 23.782420159319535], [90.18325387932022, 23.786183355341734], [90.1862166166565, 23.78841332098578]], [[90.346492627275, 23.7459427234557], [90.34943131764189, 23.74407856958829], [90.35271816519894, 23.74522207466064], [90.35443062347274, 23.749076245966208], [90.35329167099388, 23.752355311142452], [90.35040282911774, 23.753547482300316], [90.34647674467625, 23.7519903513617], [90.34523989346215, 23.749158111051692], [90.346492627275, 23.7459427234557]]], [[[90.38403812014522, 23.928816659596627], [90.38644458541616, 23.93290135284483], [90.39124467323367, 23.93240617888717], [90.39587492712835, 23.92530801447505], [90.40546989240153, 23.919421451536103], [90.40767750587246, 23.911429988606567], [90.41587579261196, 23.910643331655034], [90.42215931866387, 23.904180994169565], [90.42696097081735, 23.90566035283003], [90.42972466431408, 23.91359352304513], [90.43278529091886, 23.91693010890205], [90.44597196258648, 23.923622201779263], [90.4575094705866, 23.917395068958406], [90.4648005938163, 23.916395501746848], [90.46641741055112, 23.91379973452296], [90.46667737587937, 23.906335430814046], [90.46327223096927, 23.90218334144812], [90.44963529271654, 23.894669369154222], [90.43862471299788, 23.89611639365681], [90.42345099891472, 23.884931566055158], [90.41960881666263, 23.878137044089026], [90.40016660471954, 23.879400558065033], [90.39507452966245, 23.884018537502648], [90.39305979127624, 23.888492007046427], [90.38800169713139, 23.891149166106317], [90.38483457298773, 23.899610961419953], [90.38487530125724, 23.90446172997263], [90.39093481066541, 23.908875770532234], [90.392017406288, 23.911732734229485], [90.38403812014522, 23.928816659596627]]], [[[90.30814903321735, 23.886993462906627], [90.31095104019907, 23.894288821286114], [90.31568963249391, 23.89871887971206], [90.31375291354638, 23.904857328210078], [90.31471549191399, 23.908918693729206], [90.31976751372895, 23.912408376056575], [90.3210659972961, 23.91716477046706], [90.32541163174072, 23.92287924356474], [90.33030693250028, 23.92680061047573], [90.33534544762148, 23.927720392734187], [90.34470177915276, 23.922150600398194], [90.3472534940581, 23.917602419237397], [90.34703951461472, 23.91362641383647], [90.34255233301285, 23.91005802095159], [90.33668557177896, 23.90866489662658], [90.33525204622472, 23.904866840625964], [90.33819679315937, 23.90057908758535], [90.35163900534519, 23.895128042399644], [90.34984056558505, 23.886257198520607], [90.35300242963194, 23.88049173662792], [90.35156510965815, 23.87644475510827], [90.3440731618599, 23.87537246833024], [90.33451087442236, 23.878899827991404], [90.33044925544672, 23.884122748480923], [90.32671634938022, 23.886211081505987], [90.31985504300653, 23.885600589023426], [90.315546294951, 23.880973952543616], [90.31060347101604, 23.8802784820211], [90.30773939941808, 23.88282943284884], [90.30814903321735, 23.886993462906627]]], [[[90.25530982465195, 23.958343484788625], [90.25677821470441, 23.962072463644592], [90.26169340548904, 23.96387204054595], [90.26786991604212, 23.96022507952212], [90.2760221525137, 23.961029531305257], [90.28150470373254, 23.954441596912957], [90.2846226549098, 23.9550025796347], [90.28819161926612, 23.958125508475533], [90.29180112363635, 23.958116766174943], [90.29400337079784, 23.9560627167876], [90.29459073477823, 23.952010104370984], [90.28930797098745, 23.94648156324619], [90.28934421691848, 23.94082887054965], [90.28707225350644, 23.93453299526938], [90.28281998856629, 23.932520819060805], [90.27946090314299, 23.934399973649896], [90.27364385220075, 23.942609898939622], [90.2616576521426, 23.9453287905385], [90.25976191084116, 23.95246590630374], [90.25604265446383, 23.955670309511138], [90.25530982465195, 23.958343484788625]]], [[[90.20839564902889, 23.90793862872288], [90.20519733915636, 23.916507211953853], [90.20540124103336, 23.924948440505528], [90.20669730796514, 23.927567366283956], [90.21076676927169, 23.92951071215109], [90.2286930022435, 23.923402667838168], [90.23804520431295, 23.926315723681757], [90.24347922947952, 23.92189745216662], [90.24938904163703, 23.921183156889242], [90.25515660695969, 23.922928959981384], [90.25866567996141, 23.926395938702903], [90.2629308630853, 23.926511749908563], [90.26984828942943, 23.925056325785654], [90.27296127356675, 23.919889143106335], [90.27157831595153, 23.91581609164632], [90.26479521475632, 23.91285856599355], [90.26601697670188, 23.90360563745617], [90.2633082286608, 23.89865931570511], [90.25972017442012, 23.897012309218194], [90.25426481882789, 23.899271697566473], [90.25370558529137, 23.90895108711627], [90.2507835807255, 23.911918992946497], [90.24716931208057, 23.911089540842273], [90.24464716108808, 23.906408708118043], [90.24161128842182, 23.904696217303115], [90.23801106230921, 23.904893113533795], [90.23425104817257, 23.908139461814404], [90.23154808973683, 23.908457419604954], [90.22260288849996, 23.90442423624572], [90.218190828472, 23.900162573739966], [90.21356337630809, 23.899068785025523], [90.20984383869231, 23.901042932196734], [90.20839564902889, 23.90793862872288]]], [[[90.19900237874009, 23.98093836889639], [90.2022851389949, 23.98477089346329], [90.20920927843626, 23.986369483686232], [90.21270021457497, 23.99014994107601], [90.21650085697996, 23.991465718561717], [90.22375256140533, 23.98870922165735], [90.22875113577776, 23.983572301043807], [90.22956906208567, 23.97969368955007], [90.22802807220208, 23.97669885864453], [90.22453345547108, 23.975738465671746], [90.21664178501062, 23.979060176002857], [90.211882177945, 23.973953167952637], [90.2052866808023, 23.972799545240687], [90.20011531428024, 23.9767137754334], [90.19900237874009, 23.98093836889639]]], [[[90.14163375912436, 23.91803060949324], [90.14194596445404, 23.921396488885225], [90.14472647497726, 23.924147250958647], [90.14997979353876, 23.924487879627936], [90.15423083127374, 23.92724469341696], [90.15905758079333, 23.927189992591817], [90.16332406769011, 23.923861806036797], [90.17131237027039, 23.921333806233076], [90.17667498105288, 23.91550893942683], [90.17696392339751, 23.911341479170257], [90.17337518768855, 23.907883263891435], [90.16706962842447, 23.90932862402791], [90.15492102192151, 23.908623863580143], [90.1460579027144, 23.912051059508205], [90.14163375912436, 23.91803060949324]]]]}, "properties": {}}