{"type": "Feature", "properties": {"city": "Asyut", "country": "Egypt", "real_area": 48.62}, "geometry": {"type": "MultiLineString", "coordinates": [[[31.1117790205104, 27.2036947602162], [31.1084439157147, 27.2079664531534], [31.1026401993803, 27.2075043469336], [31.1001720917273, 27.202770486082], [31.103507471549, 27.1984989703783], [31.1010395414, 27.1937651210774], [31.1043745949456, 27.1894936786633], [31.1101773036947, 27.1899559082767], [31.1135117560596, 27.1856843620648], [31.1193140922306, 27.1861462489593], [31.1217824796997, 27.1908796202241], [31.1184483024825, 27.1951513436585], [31.1209168675652, 27.1998847265614], [31.1175823641933, 27.2041565234316], [31.1117790205104, 27.2036947602162]], [[31.0778267365754, 27.191913336283], [31.0753598484277, 27.1871787941232], [31.0786960522363, 27.1829078106688], [31.0844988697627, 27.1833711918667], [31.0869659871198, 27.1881054952414], [31.0836300577916, 27.1923766562036], [31.0778267365754, 27.191913336283]], [[31.2245988160949, 27.1854137486449], [31.2270708232473, 27.1901443026061], [31.2237422407951, 27.1944176285488], [31.217941374026, 27.1939602241259], [31.2154695934527, 27.189229430225], [31.2187984530189, 27.1849562806864], [31.2163268507532, 27.1802254980118], [31.2196553849882, 27.1759524232787], [31.2254552444559, 27.1764099547761], [31.2279270732464, 27.1811404974674], [31.2245988160949, 27.1854137486449]], [[31.2989948868545, 27.2638183824009], [31.3047980286768, 27.2642715974888], [31.3072746191681, 27.2689998789496], [31.3039478424895, 27.2732751856017], [31.3064246122175, 27.2780034756465], [31.3030975103023, 27.2822788557551], [31.2972933595564, 27.2818257704962], [31.2939656532602, 27.2861010485527], [31.2881611237359, 27.2856476209544], [31.2848328131169, 27.2899227967206], [31.2790279050613, 27.2894690266354], [31.2756989901779, 27.2937440998731], [31.2698937038382, 27.2932899871535], [31.2665641847488, 27.2975649576245], [31.2607585203724, 27.297110502123], [31.2582828797929, 27.2923810118082], [31.2616126773319, 27.2881062168673], [31.2591372157184, 27.2833767349178], [31.2624666876209, 27.2791020127287], [31.2599914049497, 27.2743725393677], [31.263320551277, 27.2700978901568], [31.2608454475241, 27.2653684256074], [31.2641742683373, 27.2610938496014], [31.2699779145972, 27.2615485624943], [31.2733061316317, 27.2572738842287], [31.2791094000067, 27.2577282549099], [31.2815849556602, 27.2624572393608], [31.2873883502289, 27.2629112033396], [31.2907156847682, 27.2586362475052], [31.2965187009201, 27.2590898694245], [31.2989948868545, 27.2638183824009]], [[31.3255325147027, 27.2613542353431], [31.323055473981, 27.2566264347117], [31.3263807169172, 27.2523509990972], [31.332182721154, 27.2528031889074], [31.3346599867079, 27.2575307489885], [31.3313350232435, 27.2618063598099], [31.3255325147027, 27.2613542353431]], [[31.3429397851721, 27.2627098600483], [31.3404621155222, 27.257982531849], [31.3437864744663, 27.253706820114], [31.3495882233077, 27.2541582615159], [31.3520661174665, 27.2588853490279], [31.3487420383256, 27.2631612358254], [31.3429397851721, 27.2627098600483]], [[31.2433410258117, 27.2957456354966], [31.2408660170707, 27.2910156739867], [31.2441966967231, 27.2867411577764], [31.2500021070503, 27.2871964274023], [31.2524773423219, 27.2919261491774], [31.2491469407864, 27.2962008410616], [31.2433410258117, 27.2957456354966]], [[31.149691204907, 27.2656849935494], [31.1472201256741, 27.2609524713655], [31.1505548312667, 27.256679675849], [31.1563603399351, 27.2571392259532], [31.1588316473388, 27.2618715090538], [31.1554972179539, 27.2661444811339], [31.149691204907, 27.2656849935494]], [[31.0430051373573, 27.1891281845222], [31.0405395220055, 27.1843927121911], [31.0438774750712, 27.1801222932194], [31.0496807697267, 27.1805871687867], [31.0521466149311, 27.1853224026123], [31.0488089356779, 27.1895929993765], [31.0430051373573, 27.1891281845222]], [[31.3208549079862, 27.1249538256886], [31.3183811820275, 27.1202257119013], [31.3217024390306, 27.1159516886403], [31.3274971433692, 27.1164056032103], [31.3299710936761, 27.1211334759303], [31.3266501153466, 27.1254076751476], [31.3208549079862, 27.1249538256886]], [[31.1722794598069, 27.2130331694142], [31.1698088149535, 27.2083011771802], [31.1731406857052, 27.2040285394023], [31.1706702188875, 27.1992965581762], [31.1648681089219, 27.1988369752907], [31.1623980477162, 27.1941047658149], [31.156596067319, 27.1936447779738], [31.1541264117809, 27.1889123404753], [31.1483245611894, 27.1884519478139], [31.1458553113745, 27.1837192825197], [31.1491876842331, 27.1794472492721], [31.1549890311732, 27.1799077043421], [31.158320802459, 27.1756355682988], [31.1641217755423, 27.176095681239], [31.1674529451954, 27.1718234426378], [31.1732535441741, 27.1722832135945], [31.1765841121348, 27.1680108726731], [31.1741143572234, 27.1632789377097], [31.1774445996394, 27.1590066715687], [31.1832443208101, 27.1594661635283], [31.1865739615657, 27.1551937954909], [31.1923733081734, 27.1556529459027], [31.1948435173935, 27.1603844013694], [31.200642992572, 27.1608431472551], [31.2039717550987, 27.1565705007988], [31.2097708551822, 27.1570289052873], [31.2122416961171, 27.1617598929679], [31.2089132102806, 27.1660327160926], [31.2113842293978, 27.1707637156251], [31.2080554182607, 27.175036613822], [31.2022553112351, 27.1745783358581], [31.1989258979848, 27.178851132313], [31.201396868461, 27.1835823833193], [31.1980671297572, 27.1878552544338], [31.2005382784086, 27.1925865168022], [31.1972082141901, 27.1968594623498], [31.1996795410404, 27.2015907358571], [31.1963491512461, 27.2058637556114], [31.1988206563191, 27.2105950400345], [31.1954899408876, 27.2148681337688], [31.1979616242068, 27.2195994288847], [31.1946305830771, 27.2238725963725], [31.1888275818552, 27.223414292266], [31.1863561257888, 27.2186827575709], [31.1896874436409, 27.2144097665612], [31.1872161657663, 27.2096782425152], [31.1814137973759, 27.2092194699465], [31.1780822029832, 27.2134922843861], [31.1722794598069, 27.2130331694142]]]}}