{"type": "Feature", "properties": {"city": "Temuco", "country": "Chile", "real_area": 53.81}, "geometry": {"type": "MultiLineString", "coordinates": [[[-72.6481775095268, -38.7607132691707], [-72.6463500912822, -38.7651550809115], [-72.6409568072959, -38.7664160897976], [-72.6373917630218, -38.7632353702065], [-72.631999062702, -38.7644959417583], [-72.6284350555746, -38.7613152199111], [-72.6230429390619, -38.7625753542914], [-72.6212140083869, -38.7670161269976], [-72.6158216545754, -38.7682757407122], [-72.6139921183287, -38.7727163441195], [-72.6085995273709, -38.7739754370571], [-72.6067693854816, -38.7784158709655], [-72.6013765575305, -38.779674443015], [-72.5995458099279, -38.7841147072245], [-72.5941527451362, -38.7853727582748], [-72.590591249618, -38.7821906292206], [-72.5851987698403, -38.783448243404], [-72.5816383118106, -38.7802661128605], [-72.5834699643324, -38.7758267191855], [-72.5799101743476, -38.772644938316], [-72.574519101058, -38.7739022001464], [-72.5709603481178, -38.770720418087], [-72.5727922991511, -38.7662817251511], [-72.5781825513466, -38.7650243789894], [-72.58174167352, -38.7682058100866], [-72.5871325106157, -38.7669480274749], [-72.5889634044745, -38.762508729573], [-72.5854039132913, -38.7593276495268], [-72.5872346539877, -38.7548886173301], [-72.5836758304493, -38.7517078871498], [-72.5782866350748, -38.7529658381115], [-72.5747288478243, -38.7497851068534], [-72.5765598869891, -38.745346775667], [-72.5730027668503, -38.7421663944756], [-72.5676149764966, -38.7434239935139], [-72.5640588922024, -38.7402436115434], [-72.558671686508, -38.7415007746752], [-72.5551166379147, -38.7383203921215], [-72.556948425811, -38.7338831972781], [-72.553394043497, -38.730703165094], [-72.5552256777322, -38.7262662362358], [-72.5516719614649, -38.723086554519], [-72.553503442046, -38.7186498917635], [-72.5499503915928, -38.7154705606116], [-72.5445662296198, -38.7167275414592], [-72.5410142138252, -38.7135482102268], [-72.5428459908443, -38.7091122488814], [-72.5392946403323, -38.7059332684136], [-72.541126263539, -38.7014975733812], [-72.5465087874279, -38.7002404236595], [-72.5500605069498, -38.7034190533889], [-72.5554436150034, -38.7021614685565], [-72.5589963687292, -38.7053400982141], [-72.564380060809, -38.7040820781087], [-72.5679338488823, -38.707260707499], [-72.5661035762596, -38.7116977079283], [-72.5696580302806, -38.7148766878744], [-72.5678276043632, -38.71931395469], [-72.5713827245646, -38.722493285094], [-72.5767686393757, -38.7212349976677], [-72.5803247946663, -38.7244143274042], [-72.5857112934788, -38.723155604127], [-72.5892684840021, -38.7263349330003], [-72.5946555666766, -38.7250757737099], [-72.5964846389505, -38.7206372017245], [-72.6018714854269, -38.7193775225721], [-72.6036999533187, -38.7149387820811], [-72.6090865634446, -38.7136785831779], [-72.6109144270246, -38.7092396743808], [-72.6163008006477, -38.7079789558381], [-72.6181280599865, -38.7035398789349], [-72.6235141969546, -38.7022786408639], [-72.6270738940814, -38.7054565629347], [-72.6324606137088, -38.7041948885472], [-72.636021345728, -38.7073728089899], [-72.6414086478748, -38.7061106981238], [-72.6449704149287, -38.7092886167422], [-72.6503582994545, -38.7080260692353], [-72.6521835971258, -38.7035855202556], [-72.6575712440469, -38.7023224532269], [-72.6611344130571, -38.7055000178886], [-72.6665226419507, -38.7042365140221], [-72.6700868461227, -38.7074140763742], [-72.6682624548619, -38.7118554946305], [-72.6628734059997, -38.7131189159054], [-72.6610484100233, -38.7175601665465], [-72.6556591231764, -38.7188230681181], [-72.6538335224135, -38.7232641509438], [-72.6484439977339, -38.7245265327004], [-72.6448808940967, -38.7213479145243], [-72.6467069479884, -38.7169072664364], [-72.6431445127596, -38.7137289979901], [-72.6377563907813, -38.7149910258635], [-72.6359298840436, -38.7194312391795], [-72.6394919520474, -38.7226098593857], [-72.6376652934072, -38.7270503394], [-72.6412280297534, -38.7302293093408], [-72.6466177921135, -38.7289674475108], [-72.6501815643926, -38.7321464153184], [-72.6483552070374, -38.7365875967337], [-72.651919648192, -38.7397669140745], [-72.650093139096, -38.7442083619769], [-72.6536582493599, -38.7473880287525], [-72.651831588517, -38.7518297430244], [-72.6553973681241, -38.7550097591363], [-72.6535705555283, -38.7594517396598], [-72.6481775095268, -38.7607132691707]], [[-72.599844112999, -38.7479321207496], [-72.594454569503, -38.7491910284825], [-72.5926244338695, -38.75363023001], [-72.5961842938393, -38.7568109589164], [-72.6015746580889, -38.7555521350751], [-72.6034043415322, -38.7511124984276], [-72.599844112999, -38.7479321207496]], [[-72.7540423430531, -38.7760830755576], [-72.7504651489242, -38.772903099315], [-72.7450665175168, -38.7741695323255], [-72.7414903617792, -38.7709895514721], [-72.7433124716183, -38.7665434904048], [-72.7397369882242, -38.7633638578497], [-72.7415589480631, -38.7589180633913], [-72.746955934894, -38.7576514670311], [-72.750531783971, -38.7608307467866], [-72.7559293521238, -38.7595637114898], [-72.7595062391328, -38.7627429866457], [-72.7649043884647, -38.7614755122497], [-72.7684823135464, -38.7646547826085], [-72.766661724015, -38.7691018803572], [-72.7702403221053, -38.7722814988004], [-72.7684195831002, -38.7767288632295], [-72.7630197886931, -38.7779961747884], [-72.7594415560319, -38.7748162033542], [-72.7540423430531, -38.7760830755576]]]}}