{"type": "Feature", "geometry": {"type": "MultiPolygon", "coordinates": [[[[-75.53610047381025, 5.071106113303754], [-75.5300897685239, 5.079811569086084], [-75.53620021586462, 5.094600371108796], [-75.53424847156553, 5.09818902731535], [-75.53084683038492, 5.099126325444464], [-75.52169989322738, 5.09278504205558], [-75.52014808212022, 5.08171761180909], [-75.51443879226727, 5.074303235158986], [-75.50927010079835, 5.074444403817047], [-75.50563907363977, 5.082246610364405], [-75.5005952261118, 5.083776343164429], [-75.49696633089546, 5.081972520950531], [-75.49044075811213, 5.0708263869889825], [-75.48386544266113, 5.070394229553578], [-75.47928451541829, 5.0730028201430475], [-75.47613954269953, 5.0726388482003735], [-75.46790162330701, 5.067695732076989], [-75.46479029647743, 5.062373074015544], [-75.46579604707358, 5.053153084336282], [-75.46475682586447, 5.050663641828886], [-75.45757832338286, 5.049084221546165], [-75.45209096125383, 5.043800908971396], [-75.44686260543673, 5.044002659753439], [-75.43346218756992, 5.051669273447511], [-75.41816494567017, 5.047770004451399], [-75.4163359522834, 5.044733649910103], [-75.41808283264605, 5.037372532146795], [-75.41665633925957, 5.030872064763983], [-75.42450652783029, 5.025649871829265], [-75.4353660238638, 5.024639875853047], [-75.44148611819064, 5.021142409705686], [-75.45517739239477, 5.023451744069009], [-75.46017871091146, 5.027836412263198], [-75.4669760979205, 5.029899333489023], [-75.47390418868667, 5.027169827939262], [-75.47489876973754, 5.018547550635387], [-75.4774485616403, 5.016205669242652], [-75.48083794195222, 5.015876827270036], [-75.49629981545212, 5.03428175910182], [-75.50493325786495, 5.036188428567228], [-75.5134674123558, 5.031539916576242], [-75.51815344451921, 5.033905800166183], [-75.524360550081, 5.0456114743140725], [-75.53122115331557, 5.049785347340238], [-75.5337529545873, 5.0574306552592], [-75.53194431638659, 5.064493069121156], [-75.53610047381025, 5.071106113303754]]], [[[-75.60125797738219, 5.026211954272821], [-75.60142722495436, 5.031877180565124], [-75.59459837533068, 5.0379341202472], [-75.59829403473223, 5.046734246957253], [-75.59685522393312, 5.052924579031677], [-75.58990008335897, 5.057591134597639], [-75.58587848318551, 5.057312011474299], [-75.58172959285287, 5.053231529448157], [-75.58209959958518, 5.045896081380126], [-75.59270704448154, 5.04026316556472], [-75.5945166505783, 5.0373347886701305], [-75.59004937963171, 5.030249451978962], [-75.59013344338325, 5.027140882756902], [-75.59586268815093, 5.0224483421641795], [-75.59903273245983, 5.0232048844766926], [-75.60125797738219, 5.026211954272821]]], [[[-75.64011888269451, 5.017762399533534], [-75.63910186763195, 5.020592663637392], [-75.63628706717495, 5.021938361624094], [-75.6292496058413, 5.017775324701882], [-75.62558995264482, 5.018604552846738], [-75.6241653280664, 5.021079250202706], [-75.62390122386877, 5.029411621558446], [-75.62141567033532, 5.03315756709012], [-75.61942587090925, 5.042485365893693], [-75.6166458893297, 5.044466413322096], [-75.61226156873282, 5.043711730121108], [-75.6102625314338, 5.039600107076228], [-75.61325386134722, 5.023471800038924], [-75.61633728851069, 5.019119474622755], [-75.61590875639459, 5.010179467016404], [-75.61801079769106, 5.003512007871292], [-75.61110232089655, 4.998796763590154], [-75.59560910032204, 5.0011297162024535], [-75.59310974284818, 4.998304252975208], [-75.59373771183418, 4.993485716491781], [-75.60082491037076, 4.990518248618934], [-75.6045024077179, 4.987094667250206], [-75.60769095020733, 4.97702328179035], [-75.61074573007217, 4.975322426756583], [-75.6135821065587, 4.975774747038129], [-75.61789843221435, 4.980709565470513], [-75.62008742337463, 4.989512270536872], [-75.62299256357923, 4.990379567837271], [-75.62775220569608, 4.989079677405815], [-75.63070038010653, 4.990890386013379], [-75.63189326229768, 5.005330945464343], [-75.63756031687409, 5.010755571608787], [-75.64011888269451, 5.017762399533534]]], [[[-75.6240398028317, 4.760688130986703], [-75.62305718121037, 4.766308785352645], [-75.61745804431865, 4.767064765975138], [-75.60726373861023, 4.763749586080464], [-75.60595586394923, 4.757284342571272], [-75.60811573383478, 4.754153592972768], [-75.61227076111857, 4.753107386354587], [-75.62207059541296, 4.75785223051391], [-75.6240398028317, 4.760688130986703]]], [[[-75.63746212309998, 4.86295055864549], [-75.63164682123626, 4.875558025220792], [-75.62716025358984, 4.8758409371255755], [-75.62206894046156, 4.871099995813084], [-75.62013755649797, 4.862509072962302], [-75.62346508593853, 4.8586174937163955], [-75.63460235110001, 4.859159400502969], [-75.63746212309998, 4.86295055864549]]], [[[-75.64641550049596, 4.73234181821205], [-75.64847733687724, 4.735435606893721], [-75.64720584955668, 4.7395503277057776], [-75.63804521844696, 4.740560294519289], [-75.6341874646178, 4.73403386089376], [-75.62768503035595, 4.729249190584359], [-75.62710827212194, 4.723244270039937], [-75.62988601206388, 4.7209656291479964], [-75.63733948527555, 4.720721145284551], [-75.64360487657295, 4.730570212813016], [-75.64641550049596, 4.73234181821205]]], [[[-75.7944366244272, 4.815324658574246], [-75.79424103821717, 4.820329233902573], [-75.787726543744, 4.823055948547784], [-75.77893250070323, 4.817045670504306], [-75.7709805403062, 4.817714309910134], [-75.76664982269881, 4.816249797783885], [-75.76188421615302, 4.817590045835883], [-75.74822393158486, 4.814047844218217], [-75.7427265037951, 4.821784864112615], [-75.74182713820291, 4.828918670138276], [-75.73556782318566, 4.833159517404641], [-75.72601152941829, 4.832089438251445], [-75.72137520584783, 4.825471655631771], [-75.71763556590658, 4.8247300132433], [-75.71187421651142, 4.830534567195038], [-75.70518537980104, 4.830114850741536], [-75.70030610011428, 4.832378231921654], [-75.69502704480463, 4.839807109875562], [-75.68728701876341, 4.839392517219065], [-75.68144778249918, 4.842705314729495], [-75.67394040445684, 4.851230504256854], [-75.67166460398617, 4.857345736494208], [-75.66684086328607, 4.860209906411545], [-75.66357645978029, 4.866462335413404], [-75.65284533376044, 4.866230496717349], [-75.64617336810127, 4.850489272770506], [-75.65558281665699, 4.828242312708496], [-75.65267333931861, 4.8204349826885045], [-75.65702894258716, 4.806870719543493], [-75.65567640366618, 4.804067778564056], [-75.65097772737163, 4.801363420650752], [-75.65033519025862, 4.79796788292728], [-75.65301409472877, 4.795165756826626], [-75.66211325903393, 4.794686204191518], [-75.66888913077756, 4.791197183472893], [-75.67097456656929, 4.783987608497766], [-75.67506381356124, 4.78119375134332], [-75.67626027715153, 4.778383619957775], [-75.6680329157923, 4.766163606970922], [-75.6688745247852, 4.7563671321387675], [-75.66145602320782, 4.751460163612681], [-75.65823576188411, 4.745227754041621], [-75.6586975362926, 4.741863802694018], [-75.66132059889388, 4.739391154626449], [-75.66596725986821, 4.739336168441412], [-75.67414573696213, 4.736280578137045], [-75.68515727930506, 4.737200002509132], [-75.6878666178587, 4.742874209675411], [-75.69281816874087, 4.747562658361579], [-75.68920534909198, 4.758922588404739], [-75.6957566587223, 4.768485019691394], [-75.70192975044851, 4.771336517604234], [-75.7027242244366, 4.779116994007204], [-75.70630691935746, 4.783702025240679], [-75.71627675794619, 4.786354826402123], [-75.72229730244209, 4.7792411714332514], [-75.7249160185086, 4.778182178518553], [-75.73132490647453, 4.781452246967125], [-75.73706774349728, 4.781440716518552], [-75.74194521688645, 4.783544296605071], [-75.75012537055214, 4.7828170605758435], [-75.7580741018083, 4.784904922720663], [-75.770942013833, 4.783178772891222], [-75.77509691281465, 4.788486835346052], [-75.78468077312583, 4.791928052894451], [-75.78537723776641, 4.795121484942848], [-75.78194781784026, 4.800634466648129], [-75.78208569134571, 4.803619841418641], [-75.78431022406477, 4.806737183800927], [-75.78934428452521, 4.808757051104851], [-75.7944366244272, 4.815324658574246]]], [[[-75.68525076362387, 5.089597098294011], [-75.68483175503778, 5.092566981054109], [-75.68274780903533, 5.09431720794224], [-75.67875451937445, 5.095113423748422], [-75.67602461896928, 5.093363089613087], [-75.6725512336441, 5.081652249279062], [-75.67532338887807, 5.075397935067502], [-75.67929273247927, 5.074583339503466], [-75.68213584748295, 5.076342728543779], [-75.68525076362387, 5.089597098294011]]], [[[-75.75352394217482, 4.998719921443917], [-75.75215334483339, 5.00187886403569], [-75.74849068003832, 5.003128395330976], [-75.74077327905191, 4.998762460994285], [-75.73672627260777, 4.993252330711144], [-75.73764889290896, 4.985484964195505], [-75.74044402152427, 4.984071164736187], [-75.74363070763957, 4.984987151748736], [-75.75352394217482, 4.998719921443917]]], [[[-75.81839839754804, 4.99237917848306], [-75.8184724506233, 4.99808927171962], [-75.816244806162, 5.001073009152347], [-75.80831022637521, 5.004232492962364], [-75.80402985270243, 5.00217651741782], [-75.80369769577261, 4.99772360542], [-75.80729163036303, 4.99274436203887], [-75.80674957877193, 4.986514031018072], [-75.8123226161958, 4.980663027403854], [-75.81573222726874, 4.980486924541854], [-75.81817166468554, 4.982500171990772], [-75.81839839754804, 4.99237917848306]]], [[[-75.82954052212581, 4.942764679354905], [-75.82929638156925, 4.945690385899152], [-75.8272555267973, 4.947713455039066], [-75.82205434970678, 4.946608080862197], [-75.8193574939642, 4.943800994735591], [-75.81769068133448, 4.9382370664998065], [-75.81835974479968, 4.935369434270082], [-75.82102630875137, 4.933669281997443], [-75.82419002617105, 4.934179348577639], [-75.82872375622523, 4.938960397755002], [-75.82954052212581, 4.942764679354905]]]]}, "properties": {}}