{"type": "Feature", "geometry": {"type": "MultiPolygon", "coordinates": [[[[-41.55663977081201, -2.9193608900113244], [-41.55893042410443, -2.9216722516745373], [-41.56311116533289, -2.922012504041047], [-41.56539281420237, -2.9199259283372485], [-41.56570116697073, -2.915923259369999], [-41.56335792827185, -2.9135678585587637], [-41.55912455234569, -2.913292543529808], [-41.55678557101386, -2.9155386425457226], [-41.55663977081201, -2.9193608900113244]]], [[[-41.70536077302569, -2.8930499440795248], [-41.69770029798608, -2.882320013692668], [-41.69454810689314, -2.8821491792348444], [-41.69049574454606, -2.885091680553602], [-41.690754052343316, -2.8898506096930947], [-41.69403466236079, -2.8956493074144243], [-41.69828889065258, -2.8985528447024755], [-41.70236668166923, -2.9042499581040886], [-41.70663608704043, -2.904285027298381], [-41.70893822504169, -2.901639676095806], [-41.707731116211896, -2.895270347960949], [-41.70536077302569, -2.8930499440795248]]], [[[-41.712814317114095, -2.9302867707806852], [-41.713686849053225, -2.9251716057969883], [-41.705926197481624, -2.9183734601105433], [-41.701538805358055, -2.9181759504486062], [-41.69766064330197, -2.921546917953505], [-41.69740287106292, -2.9250100614557253], [-41.70078518789588, -2.9288118918965247], [-41.70879499112863, -2.9320335205172294], [-41.712814317114095, -2.9302867707806852]]], [[[-41.73710111710098, -2.9001998466597803], [-41.73471974949792, -2.8952970349235065], [-41.737595717538106, -2.8901195716359447], [-41.73734207826483, -2.8870485504733585], [-41.73283422525256, -2.881471645308011], [-41.72776211128649, -2.881544068357202], [-41.72543396894135, -2.887208108920313], [-41.731468225669275, -2.8946741335521384], [-41.728748932335414, -2.9001795183712393], [-41.728957357919136, -2.906190792955947], [-41.731642815453874, -2.9078467353381043], [-41.73518844021173, -2.9071928698121847], [-41.73710111710098, -2.9001998466597803]]], [[[-41.753998157171985, -2.921295936322318], [-41.75091119050917, -2.9197553324797054], [-41.74732489448581, -2.9211038204617616], [-41.74527773633507, -2.924674423529074], [-41.74670295654717, -2.9288563424837433], [-41.74406381290755, -2.9316648198417017], [-41.73979357636785, -2.9305044006028815], [-41.739787234912875, -2.9251929108920836], [-41.73570267612025, -2.921343817888526], [-41.72943828234926, -2.9235198840019145], [-41.72835901332586, -2.928278839194356], [-41.73038237403026, -2.9307936362101774], [-41.73665698004732, -2.93235646108023], [-41.73763514932475, -2.9403376898228415], [-41.740035233802196, -2.9427424738419607], [-41.743022855194845, -2.94299306069498], [-41.7478821765282, -2.9383014857588012], [-41.74722794435383, -2.9303954093275744], [-41.75461736532506, -2.9260680362306903], [-41.753998157171985, -2.921295936322318]]], [[[-41.779090696043596, -3.04331205008529], [-41.776196562500786, -3.035846998593509], [-41.770035996728424, -3.0334197719404044], [-41.76297339840053, -3.0369720811277627], [-41.76052985363553, -3.040903784777124], [-41.762443021322895, -3.045790867660232], [-41.768130482791996, -3.0482135775462385], [-41.776004951536535, -3.0482270592018326], [-41.779090696043596, -3.04331205008529]]], [[[-41.794037832790536, -2.9507583732214573], [-41.78986214895397, -2.9449610993054343], [-41.778234105152066, -2.9419922828030316], [-41.77264552961124, -2.947756788549513], [-41.76434077426137, -2.950161196395587], [-41.76291634836153, -2.9537157904378972], [-41.76549809758742, -2.9623831744384828], [-41.76939460920161, -2.964306230688552], [-41.77579359849854, -2.9617355702423], [-41.77598095858631, -2.9533387710639603], [-41.77923891411305, -2.9507498198222457], [-41.78335452363213, -2.9525447358910397], [-41.78686174250451, -2.9597706384951503], [-41.793415982913395, -2.960393073527523], [-41.79628185508435, -2.9545282320459516], [-41.794037832790536, -2.9507583732214573]]], [[[-41.78753328396969, -2.921461677855047], [-41.78955753311691, -2.916192163076733], [-41.78452598523167, -2.9096875920096794], [-41.78772127335548, -2.9022149579714487], [-41.78555795341293, -2.899105134698398], [-41.78212460568216, -2.8983216868889206], [-41.776477394811614, -2.900654020313529], [-41.77528906496784, -2.904488307296352], [-41.78104570702563, -2.911283068533338], [-41.77929061059216, -2.917447026355365], [-41.780499588864, -2.9209318856375193], [-41.783628110065216, -2.9227091642906506], [-41.78753328396969, -2.921461677855047]]], [[[-41.783331954654486, -2.874235044493008], [-41.78651788812405, -2.8764414161181913], [-41.79013683746734, -2.8758280527335063], [-41.79244146902673, -2.872641569366737], [-41.79180892131657, -2.8688660738825242], [-41.78880214890339, -2.866672816528585], [-41.78491508632294, -2.8672596806546937], [-41.78263598798233, -2.8705189005040777], [-41.783331954654486, -2.874235044493008]]], [[[-41.909520070631686, -2.8779019831714177], [-41.9069581661887, -2.875684134757272], [-41.90386776669363, -2.876070865011577], [-41.90166045939132, -2.8790189618432103], [-41.90201274449357, -2.8820994958439483], [-41.90468691140616, -2.8840769806740307], [-41.90785488455344, -2.8837617050460063], [-41.90976571731765, -2.8813287822166047], [-41.909520070631686, -2.8779019831714177]]]]}, "properties": {}}