{"type": "FeatureCollection", "features": [{"type": "Feature", "properties": {"threshold": 70}, "geometry": {"type": "MultiPolygon", "coordinates": [[[[-75.56269548943085, 10.399229567384646], [-75.55342651803412, 10.410927581647561], [-75.54793753360124, 10.411055755112356], [-75.55199358410724, 10.399415791064234], [-75.54370405149972, 10.39089481423453], [-75.54707108068769, 10.38955231000922], [-75.55523165412146, 10.393587726519815], [-75.560731240422, 10.392908311469013], [-75.56269548943085, 10.399229567384646]]], [[[-75.54611886243154, 10.412863206611235], [-75.54705663068614, 10.416433700405491], [-75.55455064904883, 10.420007931519265], [-75.55111015527889, 10.430675314932408], [-75.54152079993555, 10.436807400021621], [-75.52649120699917, 10.441292725066141], [-75.52508892457541, 10.445727050503306], [-75.51925389081362, 10.449343721782823], [-75.51275831302672, 10.439727816733631], [-75.51282882198156, 10.435631011963912], [-75.51787653682513, 10.433610848332147], [-75.52546018853879, 10.437712334656805], [-75.53169411218715, 10.431143131235283], [-75.52652729007036, 10.419348814304763], [-75.51960786483916, 10.41508049239161], [-75.5169023172989, 10.409835598081383], [-75.51761312519727, 10.399473140006407], [-75.51426377879027, 10.392699706582034], [-75.50925690016516, 10.39360884145885], [-75.51010612923314, 10.401309473908253], [-75.5070932099364, 10.41029892917505], [-75.49861643946159, 10.407938627600732], [-75.49219912634439, 10.411152320877532], [-75.48920014654408, 10.408972518960145], [-75.4894010215053, 10.40202895715166], [-75.48231704832833, 10.401164937249826], [-75.47332007488599, 10.403306435785597], [-75.4688089350839, 10.40850597708888], [-75.46889664114016, 10.412542955755985], [-75.46574966706237, 10.413748325576172], [-75.46149799038058, 10.409749260371997], [-75.44993851663399, 10.407654379164462], [-75.45751561690439, 10.395773976461486], [-75.44638648601995, 10.390692708778511], [-75.4475684528089, 10.382370458546443], [-75.45331162905177, 10.385782767367388], [-75.45607888740179, 10.384643363031534], [-75.45803763645056, 10.378418008530945], [-75.45558467144082, 10.37292361237453], [-75.45943258485593, 10.368994656399611], [-75.47439650452526, 10.366517145890457], [-75.47347585329152, 10.376333165775883], [-75.48125957619035, 10.379049446668432], [-75.48374444939508, 10.384372002156883], [-75.48865135681746, 10.384645712093302], [-75.49229392562623, 10.379862182187177], [-75.49097535475957, 10.37333828466614], [-75.50465177591792, 10.366316161792241], [-75.50464530641824, 10.362273892064803], [-75.50035207820302, 10.35882318287715], [-75.49271982248952, 10.360997522759384], [-75.489257888815, 10.366375309112094], [-75.48161077519711, 10.363401644091415], [-75.4807362569003, 10.35786533277388], [-75.48475195414477, 10.351507780903503], [-75.47730110255524, 10.329823886611287], [-75.48147150934854, 10.303152221849755], [-75.49362422445736, 10.305554266735603], [-75.49523732961715, 10.301774889847657], [-75.51246485493638, 10.292658888308257], [-75.51817279448193, 10.283626070350055], [-75.5176032636888, 10.278723592554426], [-75.52232397258953, 10.277534141284063], [-75.53133338054704, 10.277643010303871], [-75.5367466096675, 10.287534669344279], [-75.5344058762033, 10.289929042912586], [-75.52087023264632, 10.291402159297958], [-75.51872860271472, 10.301494999294079], [-75.50751276623564, 10.301655536602436], [-75.5050245759894, 10.303797993504206], [-75.50687875861561, 10.31298205115068], [-75.51161343107, 10.316309779549076], [-75.51250737241709, 10.326571527798379], [-75.51000376305934, 10.333686208352727], [-75.51250997391104, 10.339954301531145], [-75.50962184776394, 10.343917144887904], [-75.51256230713277, 10.36477866745646], [-75.50721537450764, 10.38320670347049], [-75.5093379627432, 10.38530143077509], [-75.5160147281675, 10.382955517429561], [-75.52235560747289, 10.384796333769142], [-75.52320307263318, 10.388736350691374], [-75.53018774240601, 10.39431447632385], [-75.52823014216087, 10.402193540972599], [-75.53825403582725, 10.40381523192111], [-75.54066779938584, 10.409788703427811], [-75.54611886243154, 10.412863206611235]], [[-75.49759883932508, 10.316871123599858], [-75.49596455213074, 10.312435474721765], [-75.49223347992628, 10.316116429488263], [-75.48643456921788, 10.315625914895904], [-75.48501228982788, 10.321771919899835], [-75.49026644921317, 10.326430868932224], [-75.49851614978492, 10.327162353444463], [-75.49958776499167, 10.322792715568392], [-75.4948998519654, 10.32080781100341], [-75.49759883932508, 10.316871123599858]], [[-75.49749996073467, 10.33781168700829], [-75.49613303164786, 10.334925408793993], [-75.48932188372646, 10.33364689693169], [-75.48561118981507, 10.336148493781446], [-75.48912916972935, 10.339787178266102], [-75.49749996073467, 10.33781168700829]]], [[[-75.50152713945546, 10.465198559839202], [-75.50177043825097, 10.469630816044798], [-75.49411574774997, 10.48230329327973], [-75.48790704855844, 10.482427531123069], [-75.48610794894762, 10.478775684997467], [-75.49627031772704, 10.46702319095634], [-75.50152713945546, 10.465198559839202]]]]}}, {"type": "Feature", "properties": {"threshold": 80}, "geometry": {"type": "MultiPolygon", "coordinates": [[[[-75.56269548943085, 10.399229567384646], [-75.55342651803412, 10.410927581647561], [-75.54793753360124, 10.411055755112356], [-75.55199358410724, 10.399415791064234], [-75.54373754506521, 10.389991226203], [-75.56080542141393, 10.39294288733107], [-75.56269548943085, 10.399229567384646]]], [[[-75.54611886243154, 10.412863206611235], [-75.54705663068614, 10.416433700405491], [-75.55455064904883, 10.420007931519265], [-75.55111015527889, 10.430675314932408], [-75.54152079993555, 10.436807400021621], [-75.52649120699917, 10.441292725066141], [-75.52508892457541, 10.445727050503306], [-75.51925389081362, 10.449343721782823], [-75.51275831302672, 10.439727816733631], [-75.51282882198156, 10.435631011963912], [-75.51787653682513, 10.433610848332147], [-75.52546018853879, 10.437712334656805], [-75.53169411218715, 10.431143131235283], [-75.52652729007036, 10.419348814304763], [-75.51960786483916, 10.41508049239161], [-75.5169023172989, 10.409835598081383], [-75.51761312519727, 10.399473140006407], [-75.51426377879027, 10.392699706582034], [-75.50925690016516, 10.39360884145885], [-75.51010612923314, 10.401309473908253], [-75.5070932099364, 10.41029892917505], [-75.49861643946159, 10.407938627600732], [-75.49219912634439, 10.411152320877532], [-75.48920014654408, 10.408972518960145], [-75.4894010215053, 10.40202895715166], [-75.48231704832833, 10.401164937249826], [-75.4743376740498, 10.403363363226886], [-75.47219726173847, 10.409282665478118], [-75.4649110721296, 10.413749544286043], [-75.46135848884592, 10.409704564234831], [-75.44994208607103, 10.410144861359088], [-75.44980887508473, 10.40515295241707], [-75.45434495965682, 10.401865759680081], [-75.4557399802292, 10.395388898234497], [-75.44553580580926, 10.390613595893965], [-75.44763871869729, 10.38232862898806], [-75.45331162905177, 10.385782767367388], [-75.45607888740179, 10.384643363031534], [-75.45803799198579, 10.378662413003827], [-75.45664878409478, 10.370838255390899], [-75.47048570356364, 10.366441114938807], [-75.47480288133907, 10.367005923208728], [-75.47382341690215, 10.37666563824335], [-75.48125957619035, 10.379049446668432], [-75.48396777221627, 10.384476161807452], [-75.49039147744044, 10.383679131877507], [-75.49236552689047, 10.379379137628598], [-75.4908221339512, 10.373623150279334], [-75.49535880259305, 10.368292472784987], [-75.49331689963776, 10.365241056850776], [-75.48725498714377, 10.366378350022464], [-75.47996775885191, 10.362647318550529], [-75.4840230558023, 10.346963521690908], [-75.47737831600642, 10.33684275687864], [-75.47562913571133, 10.328308242373344], [-75.48059311047527, 10.318340767658992], [-75.48149130670564, 10.303073451357672], [-75.49373275327268, 10.303858496204933], [-75.51407501452277, 10.28975912387825], [-75.51776756841979, 10.278543472890082], [-75.52743300601028, 10.276683800218658], [-75.5315138700579, 10.276975567685522], [-75.53656179503541, 10.287978641833337], [-75.52092428032142, 10.292032784873273], [-75.51872860271472, 10.301494999294079], [-75.50751276623564, 10.301655536602436], [-75.50497024653505, 10.304025008459421], [-75.50687875861561, 10.31298205115068], [-75.51161343107, 10.316309779549076], [-75.51250737241709, 10.326571527798379], [-75.51000376305934, 10.333686208352727], [-75.51250997391104, 10.339954301531145], [-75.50962184776394, 10.343917144887904], [-75.51256230713277, 10.36477866745646], [-75.50721537450764, 10.38320670347049], [-75.5093379627432, 10.38530143077509], [-75.5160147281675, 10.382955517429561], [-75.52235560747289, 10.384796333769142], [-75.52320307263318, 10.388736350691374], [-75.53018774240601, 10.39431447632385], [-75.52823014216087, 10.402193540972599], [-75.53825403582725, 10.40381523192111], [-75.54066779938584, 10.409788703427811], [-75.54611886243154, 10.412863206611235]], [[-75.50240251006188, 10.360559899414735], [-75.49777050931549, 10.359082640043255], [-75.49562459274892, 10.363088237396125], [-75.50286485170143, 10.365437360562815], [-75.50452585070747, 10.362967665211992], [-75.50240251006188, 10.360559899414735]]], [[[-75.50152713945546, 10.465198559839202], [-75.50177043825097, 10.469630816044798], [-75.49411574774997, 10.48230329327973], [-75.48790704855844, 10.482427531123069], [-75.48610665458854, 10.477945532334187], [-75.4912176331594, 10.475241539630629], [-75.49627031772704, 10.46702319095634], [-75.50152713945546, 10.465198559839202]]]]}}, {"type": "Feature", "properties": {"threshold": 90}, "geometry": {"type": "MultiPolygon", "coordinates": [[[[-75.42429163204649, 10.333810580364984], [-75.42006139929317, 10.343002049071222], [-75.41050018779342, 10.346335048056522], [-75.41031145940107, 10.34045283195557], [-75.41645514398728, 10.334881712639575], [-75.41718738772823, 10.331043789821987], [-75.42312778013282, 10.330856746997812], [-75.42429163204649, 10.333810580364984]]], [[[-75.45227148272427, 10.420521746970358], [-75.45030346155265, 10.4268622495062], [-75.44366176827093, 10.427853833590246], [-75.43805753607583, 10.416867950173721], [-75.44496561007126, 10.413816503964606], [-75.45118794977758, 10.416504934185989], [-75.45227148272427, 10.420521746970358]]], [[[-75.56269548943085, 10.399229567384646], [-75.55342651803412, 10.410927581647561], [-75.54793753360124, 10.411055755112356], [-75.55199358410724, 10.399415791064234], [-75.54373754506521, 10.389991226203], [-75.56080542141393, 10.39294288733107], [-75.56269548943085, 10.399229567384646]]], [[[-75.54611886243154, 10.412863206611235], [-75.54705663068614, 10.416433700405491], [-75.55455064904883, 10.420007931519265], [-75.55111015527889, 10.430675314932408], [-75.54152079993555, 10.436807400021621], [-75.52649120699917, 10.441292725066141], [-75.52508892457541, 10.445727050503306], [-75.51925389081362, 10.449343721782823], [-75.51275831302672, 10.439727816733631], [-75.51282882198156, 10.435631011963912], [-75.51871517821013, 10.433609488349498], [-75.52546018853879, 10.437712334656805], [-75.53169411218715, 10.431143131235283], [-75.52652729007036, 10.419348814304763], [-75.51960786483916, 10.41508049239161], [-75.5169023172989, 10.409835598081383], [-75.51761312519727, 10.399473140006407], [-75.51407567712648, 10.392553481511884], [-75.50925690016516, 10.39360884145885], [-75.51010612923314, 10.401309473908253], [-75.50716727800567, 10.410264105981769], [-75.49861643946159, 10.407938627600732], [-75.49219912634439, 10.411152320877532], [-75.48920014654408, 10.408972518960145], [-75.4894010215053, 10.40202895715166], [-75.48207139700955, 10.401189262534585], [-75.4739569211576, 10.403673649672474], [-75.47244148011526, 10.40935749828243], [-75.4748462871371, 10.41405150325846], [-75.46898300920631, 10.415403926197133], [-75.4627805423291, 10.415312278906487], [-75.46175770292665, 10.41051383986451], [-75.45730819016815, 10.40879866512301], [-75.4500580728472, 10.4102593571892], [-75.44896555491849, 10.401833483604214], [-75.45445305350248, 10.399879078729127], [-75.45566797768686, 10.395155119623519], [-75.44906120778634, 10.391650926187443], [-75.44387439417241, 10.393186685426757], [-75.4475684528089, 10.382370458546443], [-75.45331162905177, 10.385782767367388], [-75.45607888740179, 10.384643363031534], [-75.45803799198579, 10.378662413003827], [-75.45664878409478, 10.370838255390899], [-75.47048570356364, 10.366441114938807], [-75.47480288133907, 10.367005923208728], [-75.47382341690215, 10.37666563824335], [-75.48125957619035, 10.379049446668432], [-75.48396777221627, 10.384476161807452], [-75.49053637603218, 10.383469768715374], [-75.49236552689047, 10.379379137628598], [-75.4908221339512, 10.373623150279334], [-75.49507927778448, 10.370178402130387], [-75.49484020265392, 10.36674459513975], [-75.48001001331905, 10.362716880284355], [-75.48393285111939, 10.346501234262202], [-75.46991022090789, 10.336996731184396], [-75.46895121225813, 10.326336497907343], [-75.47867394011158, 10.325245856364223], [-75.48169946068947, 10.30272836254735], [-75.49060208092745, 10.302718819566786], [-75.49362452723057, 10.297584807671326], [-75.50087758279594, 10.29830216908685], [-75.51131829172138, 10.292208920441041], [-75.51765198242289, 10.278658315748784], [-75.5239990570004, 10.276701278022761], [-75.53139790696838, 10.276861099963046], [-75.53661051105345, 10.287913362337664], [-75.52092428032142, 10.292032784873273], [-75.51872860271472, 10.301494999294079], [-75.50751276623564, 10.301655536602436], [-75.50497024653505, 10.304025008459421], [-75.50687875861561, 10.31298205115068], [-75.51161343107, 10.316309779549076], [-75.51250737241709, 10.326571527798379], [-75.51000376305934, 10.333686208352727], [-75.51250997391104, 10.339954301531145], [-75.50962184776394, 10.343917144887904], [-75.51256230713277, 10.36477866745646], [-75.50721537450764, 10.38320670347049], [-75.5093379627432, 10.38530143077509], [-75.5160147281675, 10.382955517429561], [-75.52235560747289, 10.384796333769142], [-75.52320307263318, 10.388736350691374], [-75.53018774240601, 10.39431447632385], [-75.52823014216087, 10.402193540972599], [-75.53825403582725, 10.40381523192111], [-75.54066779938584, 10.409788703427811], [-75.54611886243154, 10.412863206611235]], [[-75.49960608620944, 10.363887819215423], [-75.50196529896508, 10.360544196153786], [-75.49777050834255, 10.359082640424015], [-75.49630538093953, 10.362279134442238], [-75.49960608620944, 10.363887819215423]]], [[[-75.50152713945546, 10.465198559839202], [-75.50177043825097, 10.469630816044798], [-75.49322330312414, 10.483194976444695], [-75.48532727932441, 10.480716654607404], [-75.4852678900041, 10.477946812107126], [-75.4912176331594, 10.475241539630629], [-75.49620963750796, 10.4670777979414], [-75.50152713945546, 10.465198559839202]]]]}}, {"type": "Feature", "properties": {"threshold": 95}, "geometry": {"type": "MultiPolygon", "coordinates": [[[[-75.42429163204649, 10.333810580364984], [-75.42006139929317, 10.343002049071222], [-75.41050018779342, 10.346335048056522], [-75.41031145940107, 10.34045283195557], [-75.41718738772823, 10.331043789821987], [-75.42312778013282, 10.330856746997812], [-75.42429163204649, 10.333810580364984]]], [[[-75.56269548943085, 10.399229567384646], [-75.55342651803412, 10.410927581647561], [-75.54793753360124, 10.411055755112356], [-75.55199358410724, 10.399415791064234], [-75.54373754506521, 10.389991226203], [-75.56080542141393, 10.39294288733107], [-75.56269548943085, 10.399229567384646]]], [[[-75.54611886243154, 10.412863206611235], [-75.54705663068614, 10.416433700405491], [-75.55455064904883, 10.420007931519265], [-75.55111015527889, 10.430675314932408], [-75.54152079993555, 10.436807400021621], [-75.52649120699917, 10.441292725066141], [-75.52019386728841, 10.449361087916355], [-75.51700050490106, 10.448095887162408], [-75.51282882198156, 10.435631011963912], [-75.51871517821013, 10.433609488349498], [-75.52546018853879, 10.437712334656805], [-75.53166907457911, 10.430899692557047], [-75.52652729007036, 10.419348814304763], [-75.51960786483916, 10.41508049239161], [-75.5169023172989, 10.409835598081383], [-75.51761312519727, 10.399473140006407], [-75.51343969593222, 10.392229323350847], [-75.50925690016516, 10.39360884145885], [-75.51010612923314, 10.401309473908253], [-75.50701605078784, 10.410326397593616], [-75.49861643946159, 10.407938627600732], [-75.49212494771056, 10.411117729016949], [-75.48922788942257, 10.409048904558354], [-75.48808690342486, 10.401313221867255], [-75.47500457988855, 10.403049893210532], [-75.4724411122957, 10.409113094717547], [-75.47466556623917, 10.41432012009867], [-75.46334614163382, 10.421204360114475], [-75.45395911371618, 10.419228815892856], [-75.45214514181355, 10.426679793789445], [-75.44650573264863, 10.430371994617213], [-75.44321143247784, 10.429182785638874], [-75.43803933185801, 10.418099620890315], [-75.44296391955065, 10.413787645194615], [-75.45336887313024, 10.416964210773273], [-75.45917680648583, 10.412146238946715], [-75.45730819007507, 10.408798665100077], [-75.449767958722, 10.409781733105282], [-75.44896318229632, 10.400173161131578], [-75.4544222404536, 10.399788956601874], [-75.45531903930441, 10.39451105327994], [-75.44906120778634, 10.391650926187443], [-75.4438622500121, 10.393106407377061], [-75.4475684528089, 10.382370458546443], [-75.45331162905177, 10.385782767367388], [-75.45607888740179, 10.384643363031534], [-75.45677523608168, 10.370735207596747], [-75.47424510383905, 10.366455316506196], [-75.4736415515776, 10.376507685237092], [-75.48125957619035, 10.379049446668432], [-75.4842003319988, 10.38455814841047], [-75.48939268950062, 10.384453281556128], [-75.491448925529, 10.38180674765225], [-75.490802335345, 10.373701921097124], [-75.49507927778448, 10.370178402130387], [-75.49474538304273, 10.366518941163179], [-75.48717542842844, 10.366358747102634], [-75.48001001331905, 10.362716880284355], [-75.47992531585717, 10.357790114587376], [-75.4839203907942, 10.353372414688923], [-75.4838550776811, 10.34627848790956], [-75.46995915201569, 10.337061859106376], [-75.46809673227612, 10.328906972707546], [-75.47034439762955, 10.324952874914025], [-75.47867394011158, 10.325245856364223], [-75.4817601131356, 10.302673759113766], [-75.49060208092745, 10.302718819566786], [-75.4936232362215, 10.296754646462153], [-75.50091731328249, 10.298128911579333], [-75.51104975726274, 10.291745691896036], [-75.51310481679153, 10.278379023078596], [-75.53118747287388, 10.276736652425424], [-75.5367466096675, 10.287534669344279], [-75.53448535165126, 10.289909188301438], [-75.52092428032142, 10.292032784873273], [-75.51872860271472, 10.301494999294079], [-75.50751276623564, 10.301655536602436], [-75.5050245759894, 10.303797993504206], [-75.50687875861561, 10.31298205115068], [-75.51161343107, 10.316309779549076], [-75.51250737241709, 10.326571527798379], [-75.51000376305934, 10.333686208352727], [-75.51250997391104, 10.339954301531145], [-75.50962184776394, 10.343917144887904], [-75.51256230713277, 10.36477866745646], [-75.50726392118567, 10.383446333891754], [-75.5095836762028, 10.385324996626615], [-75.5160147281675, 10.382955517429561], [-75.52235560747289, 10.384796333769142], [-75.52320307263318, 10.388736350691374], [-75.53018774240601, 10.39431447632385], [-75.52823014216087, 10.402193540972599], [-75.53825403582725, 10.40381523192111], [-75.54066779938584, 10.409788703427811], [-75.54611886243154, 10.412863206611235]], [[-75.49960608620944, 10.363887819215423], [-75.50196529896508, 10.360544196153786], [-75.49777050834255, 10.359082640424015], [-75.49630538093953, 10.362279134442238], [-75.49960608620944, 10.363887819215423]]], [[[-75.50152713945546, 10.465198559839202], [-75.50177043825097, 10.469630816044798], [-75.49456457321881, 10.478711899686372], [-75.49249351076782, 10.486391378443567], [-75.48797950012819, 10.48662654607502], [-75.48521913544846, 10.478012084953608], [-75.4912176331594, 10.475241539630629], [-75.49627031772704, 10.46702319095634], [-75.50152713945546, 10.465198559839202]]]]}}]}