{"type": "Feature", "properties": {"city": "Talca", "country": "Chile", "real_area": 50.43}, "geometry": {"type": "MultiLineString", "coordinates": [[[-71.7072698426338, -35.4546625685854], [-71.7117675419184, -35.4574906915843], [-71.7111438336637, -35.4616237083619], [-71.7060223044456, -35.4629285274445], [-71.7015247431458, -35.460100418198], [-71.7021485730652, -35.4559674761284], [-71.7072698426338, -35.4546625685854]], [[-71.6013894141219, -35.406097890807], [-71.6058817713428, -35.4089304734803], [-71.6109992625474, -35.4076282310825], [-71.6116241360481, -35.4034933166463], [-71.6167416777391, -35.4021905966826], [-71.6212346062977, -35.4050228804721], [-71.6263524586886, -35.4037197722401], [-71.6308458189626, -35.4065517431294], [-71.6359639817981, -35.4052482465498], [-71.6365885241148, -35.401112689874], [-71.6320950247943, -35.3982807051415], [-71.6269771221896, -35.3995842909399], [-71.6224840544422, -35.396751993294], [-71.6231087501889, -35.3926160960145], [-71.6282263925417, -35.3913124209401], [-71.6327195993856, -35.394144732433], [-71.6378375521005, -35.3928406690752], [-71.6384620377708, -35.388704204975], [-71.6435800404923, -35.387399664065], [-71.6442044372303, -35.3832627085894], [-71.6493224898547, -35.3819576901345], [-71.6538164057616, -35.384789716342], [-71.6531921302884, -35.3889267471769], [-71.6576863385146, -35.3917584464916], [-71.6570620953759, -35.3958950612623], [-71.6615565959136, -35.3987264335626], [-71.6609323851227, -35.4028626322046], [-71.6654271779642, -35.405693677369], [-71.6705463201384, -35.4043885376752], [-71.6750415437535, -35.4072192693743], [-71.6744174867309, -35.4113551269633], [-71.6789130025842, -35.41418553128], [-71.6782889779649, -35.4183209725585], [-71.6827847860485, -35.4211510493714], [-71.6821607938458, -35.4252860742751], [-71.6866568941519, -35.4281158234632], [-71.6860329343792, -35.432250431928], [-71.6905293268998, -35.4350798533698], [-71.6956498173923, -35.4337746801028], [-71.7001466402547, -35.4366037874413], [-71.6995228345035, -35.440738054271], [-71.7040199495145, -35.4435668336173], [-71.7033961762488, -35.4477006838269], [-71.698275166351, -35.4490056798874], [-71.6976513039483, -35.4531390386516], [-71.6925303430253, -35.4544435570213], [-71.6919063914969, -35.4585764243239], [-71.6867854796526, -35.4598804649956], [-71.6861614390099, -35.4640128408206], [-71.6810405763479, -35.4653164037873], [-71.6765440142317, -35.4624876795351], [-71.6714234608105, -35.4637908534222], [-71.6707992095651, -35.4679226629169], [-71.6656787055993, -35.4692253590994], [-71.6611827129342, -35.4663963344794], [-71.6560625186344, -35.467698641669], [-71.6515669571658, -35.4648693030232], [-71.6521914512432, -35.4607376433778], [-71.6476961822893, -35.4579079770091], [-71.6483207087035, -35.4537759008611], [-71.6534403827266, -35.4524734160625], [-71.654064820134, -35.4483408484149], [-71.6495697048628, -35.4455108406147], [-71.6444502910097, -35.4468134143036], [-71.6438257322719, -35.4509459068905], [-71.6387063683439, -35.4522480029188], [-71.638081720626, -35.4563800040009], [-71.6329624067267, -35.4576816223617], [-71.6284680008812, -35.454851328605], [-71.6233489975017, -35.4561525582824], [-71.6188550235102, -35.4533219510387], [-71.6137363309059, -35.4546227921122], [-71.6092427889681, -35.4517918715197], [-71.609867800262, -35.4476600959875], [-71.6149862323716, -35.4463591657941], [-71.6156111547662, -35.4422268987411], [-71.6111177661727, -35.439395637165], [-71.6059995945788, -35.4406966565356], [-71.601506638154, -35.4378650818608], [-71.6021317138508, -35.4337324739416], [-71.5976390501938, -35.4309005724076], [-71.598264158072, -35.4267675483909], [-71.6033818085717, -35.4254663504944], [-71.6078746117365, -35.4282982659179], [-71.6129925733567, -35.4269966797043], [-71.6136174713056, -35.4228630888019], [-71.6091245287251, -35.4200311594981], [-71.6040068275972, -35.4213328349888], [-71.5995143171581, -35.4185005928236], [-71.6001393683674, -35.4143666612955], [-71.5956471506616, -35.4115340925101], [-71.5962722340413, -35.4073997450237], [-71.6013894141219, -35.406097890807]], [[-71.6289718685818, -35.4189560313682], [-71.6244783548781, -35.416124401206], [-71.6193602924429, -35.4174269426165], [-71.618735483385, -35.4215610249864], [-71.6232288579074, -35.4243926412906], [-71.6283471806831, -35.423090189071], [-71.6289718685818, -35.4189560313682]]]}}