{"type": "Feature", "geometry": {"type": "MultiPolygon", "coordinates": [[[[-54.43445488399272, -16.641837288020458], [-54.438149528319585, -16.641902136286024], [-54.44219169729294, -16.63795516238603], [-54.44213309562826, -16.634825166706396], [-54.43861867119333, -16.630715111268888], [-54.435263017984944, -16.630990480941165], [-54.430999640127766, -16.635089203176577], [-54.431199427973915, -16.638302409730002], [-54.43445488399272, -16.641837288020458]]], [[[-54.47850335394546, -16.612636182120312], [-54.48258712664426, -16.609708294109804], [-54.48394728375959, -16.604165257256735], [-54.483239579773084, -16.601148386303716], [-54.480637735082595, -16.599550759187938], [-54.472387821894756, -16.601541333381533], [-54.46944181769773, -16.609680499860918], [-54.47850335394546, -16.612636182120312]]], [[[-54.46551529830614, -16.61102321748753], [-54.46151223153468, -16.608053012522443], [-54.45859661436349, -16.60781611708248], [-54.45397011536982, -16.61115506744442], [-54.45329645751447, -16.614813180945593], [-54.45663249937868, -16.619305812781228], [-54.46027858553386, -16.61994898640847], [-54.46395413409927, -16.617129031021225], [-54.46551529830614, -16.61102321748753]]], [[[-54.6699443616695, -16.5225416786577], [-54.65169345087263, -16.491788379469526], [-54.651419200302115, -16.483881071336224], [-54.64759383291088, -16.481787487869198], [-54.642013610931734, -16.482628846588806], [-54.63942615703017, -16.480398771258002], [-54.63989116486293, -16.475827456153652], [-54.64484123128917, -16.47331177402273], [-54.6467418685799, -16.47055905096587], [-54.644445448033714, -16.463149842478188], [-54.64068582362392, -16.461230478831606], [-54.634813447628844, -16.46300499033391], [-54.62752388573762, -16.46007319686554], [-54.62404123313312, -16.464663449976992], [-54.62419878246114, -16.473702954791193], [-54.62006313438337, -16.478049660071495], [-54.62093436811388, -16.482528441505906], [-54.624701438975166, -16.487610474666646], [-54.62040861132532, -16.49574469978205], [-54.621990627184985, -16.50029660094881], [-54.63128998673516, -16.506076311764314], [-54.637754600202804, -16.519499437982983], [-54.64063666899686, -16.520444928837215], [-54.6501692072283, -16.518179690708447], [-54.65906413113896, -16.52987312711213], [-54.66784493105778, -16.527485942437494], [-54.6699443616695, -16.5225416786577]]], [[[-54.61448722916426, -16.475438386663782], [-54.61399144365268, -16.47144900467451], [-54.61044394659587, -16.467859272345496], [-54.605458427853506, -16.46722665499726], [-54.60332098209954, -16.470368166417508], [-54.602922956121645, -16.475582112450542], [-54.599284287978065, -16.480500321963067], [-54.59960705429705, -16.48386353897277], [-54.60321383324012, -16.486195453290915], [-54.60629025623789, -16.485761312341836], [-54.6096331269396, -16.47876348712331], [-54.61448722916426, -16.475438386663782]]], [[[-54.59384128824118, -16.47394871373796], [-54.59583286649643, -16.469272177082797], [-54.5951454523533, -16.458261934749345], [-54.585858820121146, -16.45457149659703], [-54.58182252102232, -16.45554844185118], [-54.576439362407456, -16.462799927127982], [-54.57779293580346, -16.470667774286493], [-54.585766867254904, -16.475183250146372], [-54.591131188846255, -16.475622753802988], [-54.59384128824118, -16.47394871373796]]], [[[-54.62525489215263, -16.45479357205773], [-54.62805960908092, -16.45121506132776], [-54.62802987728255, -16.44746194529997], [-54.6262309682468, -16.44482220828743], [-54.62234275829768, -16.443935893863227], [-54.61883665484796, -16.446029747876903], [-54.618095840487015, -16.449403843032478], [-54.62038044969741, -16.45378337166974], [-54.62525489215263, -16.45479357205773]]], [[[-54.59443248122166, -16.55858806553249], [-54.59333144693786, -16.56203108309678], [-54.59503156367096, -16.565311806817704], [-54.598049456452294, -16.56616069851358], [-54.6018658054227, -16.56451246865882], [-54.6026892961088, -16.56132550162871], [-54.600725246973106, -16.557378606747665], [-54.59744798572415, -16.556561125632186], [-54.59443248122166, -16.55858806553249]]], [[[-54.687142843701984, -16.471554996524432], [-54.685248478711664, -16.467896140357745], [-54.66996872910313, -16.460840921197363], [-54.669129688132, -16.458241859358672], [-54.670632313291065, -16.450940672033493], [-54.669402819564944, -16.448096890125772], [-54.66583055802514, -16.446553103941408], [-54.6626975427332, -16.447779634315392], [-54.658374271115164, -16.4569536042102], [-54.65971419769117, -16.462759151103405], [-54.65525039714478, -16.47285112899945], [-54.65631811302528, -16.476800291665867], [-54.664665813169776, -16.480758758885234], [-54.670952591780065, -16.48504362026539], [-54.67390294647319, -16.489379714059567], [-54.67695290153151, -16.490143448389347], [-54.683980151916764, -16.48437128018236], [-54.687142843701984, -16.471554996524432]]], [[[-54.664208587240424, -16.686278805096066], [-54.661687395702415, -16.69086212545356], [-54.66236347038907, -16.694131317675797], [-54.66788810745081, -16.69695866189094], [-54.671161259492145, -16.696369385438867], [-54.67435669485267, -16.690614436135764], [-54.67381717220337, -16.68719979498292], [-54.66888181869505, -16.68463461838295], [-54.664208587240424, -16.686278805096066]]], [[[-54.69442026397446, -16.41995879715593], [-54.685706558957584, -16.420807337255614], [-54.680705450377744, -16.414285435649443], [-54.677160098396214, -16.413459490403433], [-54.668790359247886, -16.416599123994136], [-54.66670132896158, -16.426094501831642], [-54.66857246492169, -16.428755515938438], [-54.672391733849174, -16.429411350076084], [-54.68233931639916, -16.42398419620154], [-54.68780545447525, -16.430514848690045], [-54.69110978043067, -16.4313543951284], [-54.69750819077868, -16.426204941451775], [-54.697235530408214, -16.423219682258075], [-54.69442026397446, -16.41995879715593]]], [[[-54.67618703540755, -16.55205886449418], [-54.67499574819786, -16.555597879637336], [-54.6772313097213, -16.55917127441629], [-54.68040772482537, -16.55949301371422], [-54.685027660322156, -16.556915367103333], [-54.68536382962351, -16.553782554305453], [-54.68325155552931, -16.55074188293159], [-54.67618703540755, -16.55205886449418]]], [[[-54.6927481806756, -16.60142127677562], [-54.69641023130604, -16.60264676654775], [-54.70302342481888, -16.599848894576137], [-54.703162210949735, -16.59659601478544], [-54.69891175811137, -16.589113528365445], [-54.69312875582515, -16.589476409847077], [-54.69036146299836, -16.591868341060362], [-54.68992433277623, -16.595165340784188], [-54.6927481806756, -16.60142127677562]]], [[[-54.70233687142572, -16.625330339320694], [-54.70525195768178, -16.622947575027073], [-54.7064596735913, -16.616404001322493], [-54.704319174741784, -16.613645682039866], [-54.69969114972565, -16.612941844222608], [-54.69688090596457, -16.615319083737877], [-54.69565805062634, -16.621901306706068], [-54.697669564350484, -16.624584719368222], [-54.70233687142572, -16.625330339320694]]]]}, "properties": {}}