{"type": "FeatureCollection", "features": [{"type": "Feature", "properties": {"threshold": 70}, "geometry": {"type": "Polygon", "coordinates": [[[-72.55191901172338, 7.906918868788968], [-72.54972128362952, 7.927382606621323], [-72.54650209246664, 7.928230562039132], [-72.5340284956441, 7.9204539855120935], [-72.5280919741364, 7.9272129481507525], [-72.52085599319362, 7.92980198676816], [-72.51754982405424, 7.924531195817364], [-72.51217389804137, 7.922730054642683], [-72.50526879457489, 7.933257992607914], [-72.50636042643143, 7.936916527694314], [-72.51640134359563, 7.9391267778790535], [-72.52297979607064, 7.948529018361892], [-72.52897039127441, 7.950134023321039], [-72.52960198117385, 7.953849459887079], [-72.50477750089316, 7.9529926700557265], [-72.49817396746185, 7.946126560896939], [-72.48602180762357, 7.947660103463854], [-72.48706751328922, 7.933481201377371], [-72.48256235908488, 7.927021655513094], [-72.48483334546574, 7.920024385775902], [-72.48022125059322, 7.914971161686034], [-72.47533315190343, 7.920343833882567], [-72.46616983619082, 7.918416952070228], [-72.45855403552162, 7.895257236152957], [-72.46190931245998, 7.890583522418784], [-72.45978543671724, 7.880539942326514], [-72.46564869350439, 7.8787862357078895], [-72.46849482583296, 7.884735674617293], [-72.47222612708495, 7.885215906377249], [-72.47391044053603, 7.880680013415347], [-72.4794292758565, 7.879900802137596], [-72.48626796562698, 7.870716070927337], [-72.47976565978658, 7.869346250479022], [-72.47100962148237, 7.8497405177566035], [-72.46150028430424, 7.839146374640394], [-72.46210830886143, 7.834270866880177], [-72.45401630404155, 7.821398679183746], [-72.45678663451939, 7.814842922178388], [-72.46095934051931, 7.813828833395081], [-72.46437697887082, 7.817753319602705], [-72.47337017311577, 7.818043902330721], [-72.47721944154735, 7.82091570888093], [-72.47808149464262, 7.838936474957663], [-72.47417662010622, 7.841849390649534], [-72.47399402934019, 7.8465623320109295], [-72.479242894933, 7.853593969641534], [-72.48704690482373, 7.851761619484023], [-72.48620651370335, 7.869434156540368], [-72.4933757584184, 7.874196818323882], [-72.49528167352403, 7.871909231899508], [-72.49468705249431, 7.857098649541142], [-72.49765265177702, 7.853849527169057], [-72.49625033716596, 7.846129545807811], [-72.49067300708319, 7.838613176308882], [-72.4941243659539, 7.83564157978565], [-72.50078065355876, 7.842511228387963], [-72.50433743671987, 7.841569727445027], [-72.50638572373587, 7.834047478048007], [-72.50168519024787, 7.8320330368074424], [-72.50075521355704, 7.82702379260477], [-72.50948557063715, 7.823864386717005], [-72.51848943512324, 7.797099090914069], [-72.52315375973673, 7.796098876134645], [-72.52245364022124, 7.808571271350248], [-72.51932125570454, 7.81071372765633], [-72.50378481171093, 7.860386074135229], [-72.50795159695143, 7.862632332729221], [-72.50813697088694, 7.86819223772371], [-72.51308528154907, 7.871007397385688], [-72.52115244416726, 7.866589548567086], [-72.53190993388688, 7.867711991337338], [-72.53540639920966, 7.876048541618298], [-72.52662196563143, 7.884166627732665], [-72.52606953846694, 7.887800728532785], [-72.5369827807547, 7.889836330148487], [-72.53993675185059, 7.885130534644157], [-72.54419872322656, 7.885155560062785], [-72.55031011449928, 7.891388340648064], [-72.54867540508539, 7.898698755217579], [-72.55191901172338, 7.906918868788968]], [[-72.54544386082719, 7.912181966481499], [-72.5437899763654, 7.909363358795647], [-72.54068550985906, 7.910213445043002], [-72.54042954718987, 7.919105474590086], [-72.54480573636296, 7.918211831650818], [-72.54544386082719, 7.912181966481499]]]}}, {"type": "Feature", "properties": {"threshold": 80}, "geometry": {"type": "Polygon", "coordinates": [[[-72.55276595398547, 7.909307729853633], [-72.54985736372709, 7.927293107918347], [-72.54657876740869, 7.928258424898011], [-72.53968636672926, 7.92266599614823], [-72.53365489534191, 7.921509565077872], [-72.52360875126166, 7.932679683760033], [-72.5193105695339, 7.943356374019307], [-72.523541115775, 7.948571449107625], [-72.52891594549064, 7.950073412579253], [-72.52953172978427, 7.953890871232975], [-72.50477750089316, 7.9529926700557265], [-72.49817396746185, 7.946126560896939], [-72.48608753569191, 7.947901559795064], [-72.48664213086143, 7.933635268437302], [-72.482568515738, 7.927164235459253], [-72.48482515080195, 7.9209612859720915], [-72.47899041252097, 7.9170225991061605], [-72.47533315190343, 7.920343833882567], [-72.46782873527972, 7.920091179364657], [-72.46350291016067, 7.915635553452837], [-72.45857166730265, 7.895480363040158], [-72.46190931245998, 7.890583522418784], [-72.45962048085586, 7.880719212683931], [-72.47010989803458, 7.879231680555471], [-72.47366832816651, 7.871510605135173], [-72.47076414355962, 7.849698783891109], [-72.46479744943086, 7.8458228379133805], [-72.46141948242688, 7.838916812287431], [-72.46210830886143, 7.834270866880177], [-72.45403564779497, 7.821477717517165], [-72.45678663451939, 7.814842922178388], [-72.46095934051931, 7.813828833395081], [-72.46820208848386, 7.817993993533848], [-72.47125597398339, 7.812253866019067], [-72.478093775981, 7.814264269090197], [-72.48231842007405, 7.828144724098266], [-72.47901357286814, 7.833046734469059], [-72.48052895084113, 7.838355054370364], [-72.47543705197789, 7.842601454271177], [-72.47559593644803, 7.846318520309649], [-72.47986095162493, 7.851839763944907], [-72.48704690482373, 7.851761619484023], [-72.4887864228739, 7.863820588339186], [-72.48620651370335, 7.869434156540368], [-72.4933757584184, 7.874196818323882], [-72.49528167352403, 7.871909231899508], [-72.49385262340998, 7.857093671856945], [-72.4976380120009, 7.8537993151325995], [-72.49625033716596, 7.846129545807811], [-72.49160782592415, 7.842790349237081], [-72.49067300708319, 7.838613176308882], [-72.49296559678022, 7.835634683694601], [-72.4980906003074, 7.837705831653113], [-72.50557938102726, 7.836377170320011], [-72.50075521355704, 7.82702379260477], [-72.50948557063715, 7.823864386717005], [-72.51848943512324, 7.797099090914069], [-72.52315375973673, 7.796098876134645], [-72.52329289394454, 7.80774407936732], [-72.51926185938551, 7.8113973936677965], [-72.519057266223, 7.818536649595461], [-72.50393438618872, 7.860536379089321], [-72.5079815714696, 7.862644922196914], [-72.50972580805443, 7.868891754053828], [-72.51653249883805, 7.869748444810585], [-72.52556829016518, 7.863268229866689], [-72.53524291796558, 7.86856370408342], [-72.54284839195734, 7.877124966875387], [-72.54495102740246, 7.888029941601788], [-72.55031011449928, 7.891388340648064], [-72.54867540508539, 7.898698755217579], [-72.55274020414524, 7.903884460767987], [-72.55276595398547, 7.909307729853633]], [[-72.51593454445421, 7.929008830224633], [-72.51426646104694, 7.926278449535742], [-72.511244241212, 7.927420054803502], [-72.50902221383625, 7.932693205221947], [-72.51183001494515, 7.936074579040865], [-72.51567748231075, 7.935177465920215], [-72.51593454445421, 7.929008830224633]]]}}, {"type": "Feature", "properties": {"threshold": 90}, "geometry": {"type": "Polygon", "coordinates": [[[-72.55865889558234, 7.901642149144082], [-72.55941296968557, 7.9045580892027445], [-72.55400462177357, 7.909517698100349], [-72.55034164847419, 7.919704320407899], [-72.54991815462354, 7.927238824002974], [-72.54657876740869, 7.928258424898011], [-72.53968636672926, 7.92266599614823], [-72.53319178424118, 7.921671687224443], [-72.53170022346913, 7.924556433529588], [-72.5342735743575, 7.931634172693295], [-72.5315816821581, 7.940318697810862], [-72.52806133273563, 7.941435257409129], [-72.52446215796735, 7.937370435900139], [-72.52044295921068, 7.9405258972637185], [-72.52338703977529, 7.947076062913321], [-72.52819394348872, 7.948530534784495], [-72.52960198117385, 7.953849459887079], [-72.52167522220738, 7.953771422771429], [-72.51735260318912, 7.9572405217615865], [-72.50454821783299, 7.952909325132512], [-72.49841467096572, 7.946175802128612], [-72.48621840386542, 7.9484184324687215], [-72.48662393284427, 7.936270926607729], [-72.482568515738, 7.927164235459253], [-72.48485704703474, 7.921869094862846], [-72.47923477687154, 7.917048087782688], [-72.47533315190343, 7.920343833882567], [-72.46782873527972, 7.920091179364657], [-72.46350291016067, 7.915635553452837], [-72.45857166730265, 7.895480363040158], [-72.46190931245998, 7.890583522418784], [-72.45951481828399, 7.880938509192527], [-72.46450476789316, 7.877349322413177], [-72.46425413345709, 7.873303647054343], [-72.45959304130693, 7.86810719022866], [-72.4604607874752, 7.8626386925359695], [-72.46926951481214, 7.860553878595839], [-72.4704715832275, 7.856665200942384], [-72.46146584813994, 7.8390726181790535], [-72.46210830886143, 7.834270866880177], [-72.45567403098832, 7.826480016131581], [-72.45402095107285, 7.81865949943812], [-72.45673148356819, 7.814902873837477], [-72.46095934051931, 7.813828833395081], [-72.46818639450173, 7.817891956952917], [-72.47440828323256, 7.80823740113996], [-72.47891485360238, 7.808379233508139], [-72.4832071625149, 7.817089900402576], [-72.4839721652507, 7.8306508573539375], [-72.47564612021222, 7.845474368966586], [-72.48217141385399, 7.851036670748678], [-72.48688414048, 7.851580371586147], [-72.49151551870575, 7.858055514995816], [-72.49763952453692, 7.854038716429151], [-72.4962792084657, 7.846233320329158], [-72.49061783836963, 7.839923958447407], [-72.49242194242336, 7.8310612215565945], [-72.49827459457387, 7.829091498986088], [-72.50596230986764, 7.814364430451264], [-72.51352403182976, 7.808918443063104], [-72.51524838572657, 7.796112827401406], [-72.52309363392087, 7.796043883465518], [-72.5212662181556, 7.812113119020197], [-72.52655220791664, 7.816358452878444], [-72.52570769797624, 7.822736251031763], [-72.5178827557366, 7.82434817206996], [-72.51520908904963, 7.827537221889625], [-72.50555259427405, 7.860750088984758], [-72.50972580805443, 7.868891754053828], [-72.51653249883805, 7.869748444810585], [-72.51918800755821, 7.865869627648809], [-72.52642275121467, 7.863280269206402], [-72.54017493442552, 7.871034373578639], [-72.5437492896385, 7.876448289248073], [-72.54249629664068, 7.882040638012364], [-72.54483333772146, 7.887823654993665], [-72.5503371537446, 7.891465108174306], [-72.54905080409696, 7.899807921909372], [-72.55286419771878, 7.902567974567835], [-72.55865889558234, 7.901642149144082]], [[-72.47311446486361, 7.8731824758562245], [-72.47115068099014, 7.867507774151053], [-72.46674751806006, 7.868433407084537], [-72.46906909164515, 7.874636579625018], [-72.47311446486361, 7.8731824758562245]], [[-72.49463393909024, 7.862784443199078], [-72.49081670247196, 7.860576411288106], [-72.48622129137581, 7.868252491000842], [-72.49215921162137, 7.874189541407047], [-72.49520675736719, 7.872392843578746], [-72.49463393909024, 7.862784443199078]], [[-72.51349619894363, 7.936421906777158], [-72.51601223982043, 7.934043790707414], [-72.5135025920683, 7.9272695808099956], [-72.50923548707826, 7.932685996764252], [-72.51349619894363, 7.936421906777158]]]}}, {"type": "Feature", "properties": {"threshold": 95}, "geometry": {"type": "Polygon", "coordinates": [[[-72.55865889558234, 7.901642149144082], [-72.55941296968557, 7.9045580892027445], [-72.55400462177357, 7.909517698100349], [-72.55034164847419, 7.919704320407899], [-72.54985736372709, 7.927293107918347], [-72.54650209246664, 7.928230562039132], [-72.53599884212623, 7.92163277745648], [-72.53210893888085, 7.922638564909761], [-72.53423884547269, 7.937458764807549], [-72.53011244013034, 7.942462832722162], [-72.52960198117385, 7.953849459887079], [-72.51651795837087, 7.957235526631985], [-72.50454821783299, 7.952909325132512], [-72.49855628152181, 7.946440251326436], [-72.49176316241343, 7.950417975137832], [-72.48621840386542, 7.948418432468639], [-72.48662393284427, 7.936270926607729], [-72.482568515738, 7.927164235459253], [-72.48485704703474, 7.921869094862846], [-72.47923477687154, 7.917048087782688], [-72.47533315190343, 7.920343833882567], [-72.46782873527972, 7.920091179364657], [-72.46350291016067, 7.915635553452837], [-72.45857166730265, 7.895480363040158], [-72.46190931245998, 7.890583522418784], [-72.45951481828399, 7.880938509192527], [-72.46450476789316, 7.877349322413177], [-72.46425413345709, 7.873303647054343], [-72.45959304130693, 7.86810719022866], [-72.45962636943877, 7.8626336433384445], [-72.46926951481214, 7.860553878595839], [-72.4704715832275, 7.856665200942384], [-72.46146584813994, 7.8390726181790535], [-72.46210830886143, 7.834270866880177], [-72.45567403098832, 7.826480016131581], [-72.45402095107285, 7.81865949943812], [-72.45673148356819, 7.814902873837477], [-72.46088032470834, 7.813808589377628], [-72.46841277908275, 7.817814991503063], [-72.47499824757908, 7.8080497255552865], [-72.48046396693722, 7.809105633297691], [-72.48220416622928, 7.813690580047684], [-72.48716884277165, 7.814192732535026], [-72.48404181681927, 7.82251885941414], [-72.48558021017669, 7.830896465047413], [-72.47559196431217, 7.8452444016939875], [-72.48229885909623, 7.851024371938392], [-72.48688414048, 7.851580371586147], [-72.49025871884773, 7.857294570538968], [-72.49606178949607, 7.8562549155457875], [-72.49670081343399, 7.847278398974312], [-72.49061783836963, 7.839923958447407], [-72.49235867630483, 7.831211001661819], [-72.49751307917565, 7.82912308155925], [-72.49839861903476, 7.823472745416561], [-72.50324065370656, 7.821824941757957], [-72.50596230986764, 7.814364430451264], [-72.51129797896004, 7.81164670827676], [-72.51280234684708, 7.807867641068825], [-72.50838190603116, 7.802663822389739], [-72.50925356185857, 7.796362889589593], [-72.51398611875875, 7.795588494898871], [-72.518956324216, 7.790194887077414], [-72.52335941522324, 7.796445667289426], [-72.52359505688788, 7.813054949050995], [-72.52659933498143, 7.818421505300656], [-72.52560208917085, 7.822955580313475], [-72.52046419638287, 7.82481978331557], [-72.51531378580931, 7.834321690972407], [-72.52368258736205, 7.837652897619184], [-72.52643955770336, 7.8434644301374234], [-72.51519738612491, 7.861351546720138], [-72.5113639071158, 7.860530315236894], [-72.50894945717286, 7.856064634637121], [-72.50555259427405, 7.860750088984758], [-72.50972580805443, 7.868891754053828], [-72.51653249883805, 7.869748444810585], [-72.51918800755821, 7.865869627648809], [-72.52642275121467, 7.863280269206402], [-72.54017493442552, 7.871034373578639], [-72.54376865095502, 7.876527329465431], [-72.54306337154537, 7.883664881557333], [-72.5503371537446, 7.891465108174306], [-72.54905080409696, 7.899807921909372], [-72.55286419771878, 7.902567974567835], [-72.55865889558234, 7.901642149144082]], [[-72.47311446486361, 7.8731824758562245], [-72.47105527574007, 7.868118684912031], [-72.46699104883886, 7.870172290561221], [-72.46948848681689, 7.874890686267914], [-72.47311446486361, 7.8731824758562245]], [[-72.49395569490024, 7.861059889479801], [-72.49042078986106, 7.860865553049842], [-72.48617291185245, 7.868486087198049], [-72.49239987422342, 7.874238772990032], [-72.49525612887663, 7.8721528726590675], [-72.49395569490024, 7.861059889479801]], [[-72.51977367499168, 7.846478803210772], [-72.51665225621976, 7.839904393024177], [-72.51330827290381, 7.839556016161385], [-72.5086226071963, 7.855094164151372], [-72.51158260939533, 7.855765892510744], [-72.5187649936244, 7.8510577282411145], [-72.51977367499168, 7.846478803210772]], [[-72.51349619894363, 7.936421906777158], [-72.51601223982043, 7.934043790707414], [-72.5135025920683, 7.9272695808099956], [-72.50923548707826, 7.932685996764252], [-72.51349619894363, 7.936421906777158]]]}}]}