{"type": "Feature", "properties": {"city": "Kediri", "country": "Indonesia", "real_area": 666.26}, "geometry": {"type": "MultiLineString", "coordinates": [[[111.529242075883, -7.62177097011753], [111.533002209734, -7.62422994860287], [111.537335768054, -7.622075089835], [111.537909406789, -7.61746122970383], [111.534149410441, -7.61500204027045], [111.529815637845, -7.61715692192201], [111.526055272645, -7.61469755070935], [111.521721208051, -7.61685243862544], [111.517960474102, -7.61439288565695], [111.513626117649, -7.61654777979182], [111.513052709346, -7.6211622039084], [111.516813580639, -7.62362154596994], [111.5211477229, -7.62146667481612], [111.524908225523, -7.62392583510127], [111.529242075883, -7.62177097011753]], [[112.587784648642, -7.43874973514002], [112.588368413523, -7.43415023675306], [112.584654679866, -7.43170454233662], [112.580357033614, -7.43385855952856], [112.579773340735, -7.43845825583113], [112.583487222096, -7.44090373703097], [112.587784648642, -7.43874973514002]], [[112.542103589592, -7.51331295616808], [112.542686796412, -7.50871602086302], [112.538971822301, -7.5062728555527], [112.534673494154, -7.50842683876444], [112.534090359514, -7.51302397124335], [112.537805480831, -7.51546692334158], [112.542103589592, -7.51331295616808]], [[112.233968322335, -7.49515688622391], [112.234548744495, -7.4905520915129], [112.230819109024, -7.48810155969282], [112.226508907055, -7.49025603506096], [112.225928558515, -7.49486102442976], [112.229658338315, -7.49731134377777], [112.233968322335, -7.49515688622391]], [[112.612814681819, -7.93721814246023], [112.613397709059, -7.93264360925826], [112.609691288493, -7.93022197538255], [112.605401693229, -7.93237508859996], [112.604818737638, -7.93694981749208], [112.608525305653, -7.93937123748161], [112.612814681819, -7.93721814246023]], [[112.120200987802, -7.78902005112851], [112.120779794821, -7.78442710801736], [112.117048502832, -7.78198791735906], [112.112738260844, -7.78414188238532], [112.112159527828, -7.78873501778794], [112.115890962788, -7.79117399587813], [112.120200987802, -7.78902005112851]], [[112.196208838116, -8.08174513782679], [112.196787786282, -8.07716843222317], [112.193063633441, -8.07474465000808], [112.188760389011, -8.07689778646871], [112.188181514354, -8.08147468358463], [112.191905810608, -8.083898252733], [112.196208838116, -8.08174513782679]], [[112.623327481553, -7.41231859378112], [112.627039624114, -7.41476437707233], [112.63133575607, -7.41261041638094], [112.6319199654, -7.40801065752943], [112.628207970972, -7.40556466095817], [112.623911619071, -7.40771863652327], [112.620199241918, -7.40527245635427], [112.615902579178, -7.40742644670933], [112.61531851351, -7.41202660230781], [112.619031038722, -7.41447256921539], [112.623327481553, -7.41231859378112]], [[112.218965482215, -7.55010445040172], [112.219545660583, -7.54550199227658], [112.215816004123, -7.54305370972263], [112.211506025151, -7.54520809780763], [112.210925920446, -7.54981075020249], [112.214655721041, -7.55225882024781], [112.218965482215, -7.55010445040172]], [[112.676851864468, -7.49738342809622], [112.677436320551, -7.49278881461957], [112.673727524245, -7.49034776883558], [112.669434123375, -7.49250155003123], [112.668849738852, -7.49709636188585], [112.67255868363, -7.49953719417162], [112.676851864468, -7.49738342809622]], [[112.585399577526, -7.36238916018561], [112.585983468225, -7.35778592576392], [112.582268683931, -7.35533660245428], [112.577969861173, -7.35749072667675], [112.577386042523, -7.36209415935984], [112.581100974573, -7.36454326956385], [112.585399577526, -7.36238916018561]], [[112.576324280708, -7.90841848779683], [112.576907034071, -7.90384169631312], [112.573198535427, -7.90141790660786], [112.568907136272, -7.90357112216206], [112.568324454741, -7.90814810917679], [112.572033100523, -7.91057168511128], [112.576324280708, -7.90841848779683]], [[112.7470861407, -7.22959069179518], [112.74767174703, -7.22498483145116], [112.743963002464, -7.22253270957184], [112.739668502173, -7.2246866613216], [112.739082967201, -7.22929272191856], [112.742791861153, -7.23174463051745], [112.7470861407, -7.22959069179518]], [[107.54441389087, -6.88556818646127], [107.544946985737, -6.88084392630177], [107.541014465378, -6.87827617980489], [107.536548754699, -6.88043289203311], [107.536015754751, -6.8851573053587], [107.539948370556, -6.88772485329849], [107.54441389087, -6.88556818646127]], [[111.969547413258, -7.8943950045692], [111.97012461722, -7.88980395811142], [111.9663876773, -7.88736650928344], [111.962073391975, -7.88952031924525], [111.961496262661, -7.89411155621077], [111.965233344015, -7.89654879271222], [111.969547413258, -7.8943950045692]], [[112.631955516971, -7.50269562467116], [112.632539557773, -7.49810023471775], [112.62882869909, -7.49565848210134], [112.624533651544, -7.49781233284648], [112.623949682508, -7.50240792077727], [112.627660689243, -7.50484945999037], [112.631955516971, -7.50269562467116]], [[111.969029885847, -7.76978390670525], [111.969607322928, -7.76518667862169], [111.965868818609, -7.76274338599965], [111.961552735651, -7.76489753365014], [111.960975373282, -7.7694949528316], [111.964714019148, -7.77193803327011], [111.969029885847, -7.76978390670525]], [[112.778303798766, -7.30012617232065], [112.782009956708, -7.30257393093965], [112.786301714973, -7.30042014057036], [112.786887536106, -7.29581857835654], [112.783181527841, -7.2933706062658], [112.778889548756, -7.29552440986522], [112.775183155685, -7.29307625430311], [112.770890863011, -7.29523007465444], [112.7703051842, -7.29983203728612], [112.774011726874, -7.30227997939483], [112.778303798766, -7.30012617232065]], [[112.779283602871, -7.26085670805973], [112.778697782189, -7.26546011985445], [112.782404346255, -7.26790949597497], [112.786696581296, -7.26575567371854], [112.790402760445, -7.2682048664829], [112.789816854298, -7.27280766805946], [112.79352279825, -7.27525646398873], [112.797814498547, -7.2731026717948], [112.798400475795, -7.26850007068718], [112.794694681654, -7.26605106129995], [112.795280644612, -7.2614480503933], [112.791574615251, -7.25899864418826], [112.787282473135, -7.26115246233514], [112.783576058784, -7.25870287279226], [112.784161936307, -7.25409925168369], [112.78045528675, -7.2516492654189], [112.776162609969, -7.25380311367236], [112.772455575532, -7.25135294413011], [112.768162585119, -7.25350680950683], [112.767576849983, -7.25811083138807], [112.77128403404, -7.26056078754362], [112.775576803622, -7.25840693520001], [112.779283602871, -7.26085670805973]], [[124.966760096808, 1.41863039460526], [124.966001236384, 1.41358771827107], [124.969893916481, 1.41033772894458], [124.974545639288, 1.41213039938175], [124.975304611393, 1.41717322734469], [124.971411749016, 1.42042323324809], [124.966760096808, 1.41863039460526]], [[112.577701558066, -7.92914609269803], [112.578284283776, -7.92457035914985], [112.574576105363, -7.92214758226306], [112.5702850541, -7.92430075272622], [112.569702400205, -7.92887668171428], [112.573410725749, -7.93129924480428], [112.577701558066, -7.92914609269803]], [[125.053655907428, 1.67551004590926], [125.052895619949, 1.67046240711814], [125.056792031495, 1.6672135563565], [125.06144891201, 1.66901232955328], [125.062209311043, 1.67406011980423], [125.058312718013, 1.67730898540494], [125.053655907428, 1.67551004590926]], [[112.615187619188, -8.01306441045036], [112.615770520926, -8.00849369757891], [112.612065146445, -8.00607571934881], [112.607776722821, -8.00822866796828], [112.607193892686, -8.01279957617224], [112.610899414563, -8.01521734042922], [112.615187619188, -8.01306441045036]], [[112.565129124813, -7.45871810255508], [112.56571264586, -7.45411904978397], [112.561998087321, -7.45167381134557], [112.557699860252, -7.45382783887503], [112.557116411303, -7.45842708927575], [112.560831117316, -7.46087211452224], [112.565129124813, -7.45871810255508]], [[111.904919923568, -7.53852230039958], [111.905497201364, -7.53391231562127], [111.901752895039, -7.53145690413059], [111.897431169762, -7.53361168916745], [111.896853967088, -7.53822186558329], [111.90059841456, -7.54067706533015], [111.904919923568, -7.53852230039958]], [[112.07919929718, -7.69753889517905], [112.082933382293, -7.69998284170336], [112.087245926276, -7.69782864393604], [112.087824602082, -7.69323047971586], [112.084090659713, -7.69078632081029], [112.079777898785, -7.69294053851147], [112.076043580897, -7.69049619603303], [112.071730518726, -7.69265042258919], [112.071151991359, -7.69724897163708], [112.074886451915, -7.69969310175381], [112.07919929718, -7.69753889517905]], [[112.581582086446, -7.17011852620799], [112.580997873594, -7.17473084558698], [112.584714934725, -7.1771886318961], [112.589016060746, -7.17503431166323], [112.589600345722, -7.17042219146599], [112.585883432563, -7.16796419231514], [112.586467702771, -7.16335166323513], [112.582750554732, -7.16089326885458], [112.578448988525, -7.16304761638278], [112.577864790457, -7.16766034465143], [112.581582086446, -7.17011852620799]], [[112.609184389579, -7.23832914714504], [112.612899337144, -7.2407833736056], [112.612314976866, -7.24539159952798], [112.616029689607, -7.24784543015993], [112.620328614442, -7.24569124788256], [112.620913046663, -7.24108322107154], [112.617198482117, -7.23862917742179], [112.617782899648, -7.23402074090034], [112.614068100256, -7.23156630143945], [112.60976873515, -7.23372051150507], [112.606053552758, -7.23126588927367], [112.601753876687, -7.23342011566865], [112.601169603114, -7.23802895036102], [112.596869836269, -7.24018317906418], [112.596285619989, -7.24479180301097], [112.600001098526, -7.24724599928022], [112.604300645307, -7.2450917845784], [112.604884933605, -7.24048335961075], [112.609184389579, -7.23832914714504]], [[112.230153140524, -7.55744753169356], [112.233881952623, -7.55989483935974], [112.238190887947, -7.55774050980362], [112.238771229042, -7.55313885441938], [112.24308007806, -7.55098451782571], [112.243660477192, -7.546382642911], [112.239931953764, -7.54393491011448], [112.235622886833, -7.54608926480439], [112.235042561252, -7.55069133418944], [112.230733408049, -7.55284568191264], [112.227004362561, -7.55039797838941], [112.222694905305, -7.55255233719674], [112.222114711387, -7.55715438130753], [112.225843901109, -7.55960187228628], [112.230153140524, -7.55744753169356]], [[98.6841903781532, 3.52859393257579], [98.6846213092061, 3.53377105756657], [98.6803227884956, 3.53670840261298], [98.6755933535212, 3.53446850112776], [98.6751625571162, 3.52929132246183], [98.679461061031, 3.52635409894461], [98.6841903781532, 3.52859393257579]], [[117.900077676161, 4.16653820722064], [117.899418318377, 4.16164661952241], [117.903082171835, 4.15857797532064], [117.907405628241, 4.16040094651098], [117.908065109069, 4.1652927675803], [117.904401010449, 4.16836138408866], [117.900077676161, 4.16653820722064]], [[112.523674816749, -7.43641315644642], [112.524258004561, -7.43181207657914], [112.520541216317, -7.42936491387102], [112.516241093144, -7.43151904410171], [112.515657977634, -7.43612032135721], [112.519374912986, -7.43856727099867], [112.523674816749, -7.43641315644642]], [[107.588584332948, -6.98029424061238], [107.589117767391, -6.97557528090834], [107.585188063019, -6.97301224354034], [107.5807248283, -6.97516836473334], [107.580191488531, -6.97988747773616], [107.584121288797, -6.9824503162557], [107.588584332948, -6.98029424061238]], [[112.546429646646, -7.25681662015568], [112.547013387468, -7.25220742501831], [112.543295466232, -7.24975234522469], [112.538993656669, -7.25190667343888], [112.53840998813, -7.25651606701148], [112.542128056861, -7.25897093393945], [112.546429646646, -7.25681662015568]], [[112.653603227608, -7.42728111086465], [112.654187609654, -7.42268257268811], [112.650476850243, -7.42023773742298], [112.646181560451, -7.42239165368995], [112.645597250106, -7.42699039038873], [112.649308157843, -7.42943501230307], [112.653603227608, -7.42728111086465]], [[112.603805187008, -7.43933218568901], [112.604389095782, -7.43473308333064], [112.600676126702, -7.43228775619628], [112.596379100987, -7.43444174467905], [112.595795264141, -7.43904104508459], [112.599508381072, -7.44148615896499], [112.603805187008, -7.43933218568901]], [[112.796626513085, -7.37704197249273], [112.797212278217, -7.37244432699194], [112.793507701623, -7.37000017315023], [112.789217210193, -7.37215387841765], [112.78863151612, -7.37675172387684], [112.792336242409, -7.37919566411484], [112.796626513085, -7.37704197249273]], [[112.107448604259, -7.60151613055955], [112.111182567732, -7.60396396710763], [112.115495435761, -7.60180957965954], [112.116074557528, -7.59720733648291], [112.112340737158, -7.59475928760513], [112.11291984314, -7.59015662974404], [112.109185789747, -7.58770818536102], [112.104872487283, -7.58986261115763], [112.101138057809, -7.58741398362385], [112.096824453475, -7.58956841940068], [112.0962454958, -7.59417146349552], [112.099980068278, -7.59661987873555], [112.099401094782, -7.60122250813293], [112.103135434281, -7.60367052789247], [112.107448604259, -7.60151613055955]], [[112.74532940677, -7.24340703555021], [112.74591497057, -7.23880179389181], [112.742206311763, -7.23635028168616], [112.737911939791, -7.23850422444037], [112.737326447351, -7.24310966627099], [112.741035255513, -7.24556096517981], [112.74532940677, -7.24340703555021]], [[112.169231406936, -8.10381638843866], [112.173534992661, -8.10166331576887], [112.174113693399, -8.09708710564555], [112.178417193893, -8.09493401678469], [112.182141776816, -8.09735715981405], [112.186444975161, -8.09520407661686], [112.187023807429, -8.09062782870316], [112.183299367814, -8.08820447261674], [112.183878184507, -8.08362780434093], [112.180153512444, -8.08120404957692], [112.180732313555, -8.07662696101458], [112.17700740904, -8.07420280762613], [112.172703560144, -8.07635595583346], [112.172124832616, -8.08093323577628], [112.167820898493, -8.08308636809286], [112.164095475099, -8.08066224215543], [112.159791239038, -8.0828153801822], [112.159212643153, -8.08739262237777], [112.154908322021, -8.08954574425824], [112.154329784167, -8.09412275723461], [112.150025378028, -8.0962758628065], [112.14629929305, -8.0938519772755], [112.141994585296, -8.09600508832438], [112.141416179197, -8.10058206295102], [112.145142407127, -8.10300573550732], [112.149446898213, -8.10085264640628], [112.15317275085, -8.10327613334672], [112.152594255387, -8.10785249639361], [112.156319875686, -8.11027558469033], [112.160623848405, -8.10812252294332], [112.164349093294, -8.11054542556623], [112.168652764189, -8.10839236924974], [112.169231406936, -8.10381638843866]], [[111.539056726865, -7.60823286639499], [111.539630408206, -7.60361836330995], [111.535870318016, -7.60115857023094], [111.531536408943, -7.60331349117776], [111.530962804374, -7.60792818240581], [111.534723032097, -7.61038776454976], [111.539056726865, -7.60823286639499]], [[107.700668521394, -6.92166542763686], [107.701203327739, -6.91694541391535], [107.697277001112, -6.9143818977364], [107.692815770917, -6.91653859439722], [107.692281058803, -6.92125876275041], [107.696207482643, -6.9238220798195], [107.700668521394, -6.92166542763686]], [[112.447646358252, -7.49603535219376], [112.451365756923, -7.49848093515837], [112.455667389894, -7.49632680430745], [112.456249843189, -7.49172707403509], [112.452530590933, -7.48928127807988], [112.453113029194, -7.4846811348306], [112.449393542882, -7.48223494235296], [112.445091471906, -7.48438910610352], [112.444509106252, -7.48898944588892], [112.440206946492, -7.49114360616306], [112.439624638414, -7.49574372942688], [112.443344417459, -7.49818949595887], [112.447646358252, -7.49603535219376]], [[112.570113500651, -7.29242438754574], [112.573829631725, -7.29487691004862], [112.573245729803, -7.29948344532154], [112.576961626231, -7.30193557185683], [112.581261276812, -7.29978137612176], [112.581845250834, -7.29517503937394], [112.578129502184, -7.29272269983131], [112.578713461434, -7.28811595265815], [112.574997478116, -7.28566321716523], [112.570697387783, -7.28781744184029], [112.56698102206, -7.28536452342737], [112.562680621514, -7.28751876369603], [112.562096806536, -7.29212590786764], [112.565813319941, -7.29457861330922], [112.570113500651, -7.29242438754574]], [[111.960123327498, -7.74406142833225], [111.959545938724, -7.7486599067725], [111.955229423267, -7.7508140965272], [111.954652093131, -7.75541234937214], [111.958391203695, -7.75785622135703], [111.962707502904, -7.75570205264326], [111.963284907788, -7.75110399090912], [111.967601124082, -7.74894980875562], [111.971339719197, -7.75139370933497], [111.975655636193, -7.74923953482859], [111.979393857259, -7.75168325182925], [111.983709474822, -7.74952908501594], [111.987447321742, -7.7519726184165], [111.98686969284, -7.75657010641399], [111.990607307323, -7.7590132439624], [111.994922408911, -7.75685910573859], [111.995500112411, -7.75226180912129], [111.991762639735, -7.74981845934221], [111.992340327197, -7.74522074604473], [111.98860262206, -7.74277700042941], [111.984287087668, -7.74493118033175], [111.980549008307, -7.74248725113606], [111.976233174385, -7.74464143882502], [111.9724947209, -7.74219732607035], [111.968178587584, -7.74435152150001], [111.964439760073, -7.74190722520782], [111.965017207474, -7.73730852133206], [111.961278147564, -7.73486382938421], [111.956961498713, -7.73701805345717], [111.953222064896, -7.73457317803454], [111.953799421425, -7.72997386642075], [111.950059755228, -7.727528595441], [111.945742591064, -7.72968284818434], [111.945165309337, -7.73428235092813], [111.948905116962, -7.73672740980402], [111.948327819091, -7.74132649599448], [111.95206739436, -7.74377115929727], [111.956384126058, -7.74161694852401], [111.960123327498, -7.74406142833225]], [[112.062954334133, -7.8907585190109], [112.063532415092, -7.88616934562389], [112.059799733484, -7.88373371188096], [112.055488828578, -7.88588746407742], [112.054910821837, -7.89047682878222], [112.058643645775, -7.89291224997815], [112.062954334133, -7.8907585190109]], [[112.591660616746, -7.37649185251252], [112.592244536936, -7.37188944069919], [112.588530221793, -7.36944091025105], [112.584231838651, -7.37159500476066], [112.583647990475, -7.3761976148206], [112.587362453418, -7.37864593212911], [112.591660616746, -7.37649185251252]], [[112.601321300597, -7.9643937066155], [112.601904171474, -7.95982025915558], [112.598197542404, -7.95739966677481], [112.593907895131, -7.95955273574835], [112.593325095942, -7.96412637866859], [112.597031872328, -7.96654675715996], [112.601321300597, -7.9643937066155]], [[112.690716327963, -7.54632595644091], [112.686424375767, -7.54847962988664], [112.685839946516, -7.55307133560136], [112.689547397997, -7.55550916962725], [112.693839130165, -7.55335551154411], [112.697546198533, -7.55579316115381], [112.701837618969, -7.55363951692085], [112.702422191091, -7.54904820776707], [112.69871527137, -7.54661034452842], [112.699299829015, -7.54201862205653], [112.703591377786, -7.53986496120497], [112.704175992359, -7.53527302388883], [112.700468986756, -7.53283454902483], [112.701053586854, -7.52824219855725], [112.697346346664, -7.52580332575391], [112.693054357712, -7.52795701702154], [112.692469829047, -7.53254956589195], [112.696177217892, -7.53498822509667], [112.695592674734, -7.53958036080746], [112.691300814173, -7.54173403564776], [112.690716327963, -7.54632595644091]], [[112.672268313793, -7.91164932086187], [112.672851926233, -7.90707488080308], [112.669148004734, -7.90465332065333], [112.664860322764, -7.90680641456105], [112.664276781709, -7.91138105092755], [112.66798085123, -7.91380239708352], [112.672268313793, -7.91164932086187]], [[112.707310062978, -7.63680758179667], [112.707894523209, -7.63222044614965], [112.704188884862, -7.62978662397388], [112.699898637657, -7.6319401511978], [112.699314248777, -7.63652748479756], [112.703020035742, -7.63896109322545], [112.707310062978, -7.63680758179667]], [[112.574891968469, -7.44521175391573], [112.57547560408, -7.44061227196212], [112.571761340643, -7.43816660713384], [112.567463294009, -7.44032063745992], [112.566879730458, -7.44492031718993], [112.570594141472, -7.44736576882228], [112.574891968469, -7.44521175391573]], [[107.65372946141, -6.9265075050056], [107.654263727756, -6.92178697238386], [107.650335733414, -6.91922283547959], [107.645873376043, -6.92137943017497], [107.645339204126, -6.92610011693657], [107.649267295142, -6.92866405487139], [107.65372946141, -6.9265075050056]], [[112.211759567429, -7.799170986043], [112.215486254462, -7.80160735614791], [112.219792431741, -7.79945353246019], [112.220372139421, -7.79486331893962], [112.216645596293, -7.79242673601822], [112.212339201571, -7.79458057943911], [112.20861228157, -7.79214381215054], [112.204305583589, -7.7942976642683], [112.203726023022, -7.7988882638891], [112.207453086852, -7.80132481838049], [112.211759567429, -7.799170986043]], [[111.949533800737, -7.60266808512233], [111.950111374353, -7.59806221496892], [111.946369908922, -7.59561071833743], [111.942050728349, -7.59776530379816], [111.941473229617, -7.60237136567229], [111.945214836564, -7.60482265037037], [111.949533800737, -7.60266808512233]], [[111.82539155095, -8.17264415043432], [111.82596687372, -8.16806389203737], [111.822226774385, -8.16563644041094], [111.817911212478, -8.16778945944988], [111.817335964882, -8.17236990579147], [111.82107620401, -8.17479714515515], [111.82539155095, -8.17264415043432]], [[112.601918635765, -7.16857139085266], [112.602503050142, -7.16395926034892], [112.598786668006, -7.16150123076443], [112.594485723384, -7.16365554454976], [112.593901381073, -7.16826787437479], [112.597617911308, -7.17072569109792], [112.601918635765, -7.16857139085266]], [[112.630958245567, -7.44724706637236], [112.631542384546, -7.44264897069507], [112.635837947697, -7.44049505518838], [112.636422143808, -7.43589674567573], [112.632710704998, -7.43345215335507], [112.62841492192, -7.4356060838803], [112.627830797588, -7.44020459170286], [112.623534923545, -7.44235852171931], [112.622950856363, -7.44695681563316], [112.626662591418, -7.44940098129881], [112.630958245567, -7.44724706637236]], [[112.528680577089, -7.87231722178983], [112.529262968848, -7.86773756085526], [112.525551779234, -7.86531103269394], [112.521258051119, -7.86746437909297], [112.52067573143, -7.87204423534153], [112.524387067776, -7.87447054988209], [112.528680577089, -7.87231722178983]], [[111.934110104552, -8.0797371526661], [111.934686623411, -8.07515458263168], [111.930950349281, -8.07272508348408], [111.926637415359, -8.07487836681279], [111.926060971218, -8.07946112616234], [111.929797386272, -8.08189041287362], [111.934110104552, -8.0797371526661]], [[112.04197747107, -7.89693803442616], [112.042555345181, -7.89234870555283], [112.038821772003, -7.88991291551073], [112.034510182581, -7.89206666685092], [112.033932382782, -7.89665618683458], [112.037666098084, -7.89909176437313], [112.04197747107, -7.89693803442616]], [[112.086612329159, -7.76706219519744], [112.087190866608, -7.76246742488138], [112.083457749768, -7.76002649268347], [112.079145952798, -7.76218054326931], [112.078567489519, -7.76677550569707], [112.074255608257, -7.76892954408163], [112.073677203325, -7.77352428177573], [112.077410605457, -7.77596478905268], [112.08172226991, -7.77381077108879], [112.082300749031, -7.76921622543263], [112.086612329159, -7.76706219519744]], [[112.646498803263, -7.19805028597634], [112.647083564116, -7.19344058928131], [112.643369654853, -7.19098487179555], [112.639070836242, -7.19313906401624], [112.635356543534, -7.19068316387174], [112.631057413397, -7.19283737297298], [112.630472796268, -7.19744746871773], [112.634187237387, -7.19990315587412], [112.638486147233, -7.19774896026919], [112.642200204981, -7.20020446474822], [112.646498803263, -7.19805028597634]], [[112.625833863698, -7.32919195502656], [112.626418184466, -7.32458805544265], [112.622704905383, -7.32213803297137], [112.618407157358, -7.32429212323961], [112.617822908468, -7.32889622158339], [112.621536335715, -7.33134603090383], [112.625833863698, -7.32919195502656]], [[112.735190370356, -7.57556971130608], [112.735775199732, -7.57098023783615], [112.732070133946, -7.56854412261469], [112.727780089841, -7.57069769460073], [112.727195331716, -7.57528736655404], [112.730900546436, -7.5777232680427], [112.735190370356, -7.57556971130608]], [[112.100327533768, -7.85058010519471], [112.100906038618, -7.84598976536299], [112.097174587402, -7.84355304056767], [112.092864488602, -7.84570686820078], [112.092286057817, -7.85029739986001], [112.096017651757, -7.85273391206397], [112.100327533768, -7.85058010519471]], [[112.568630463618, -7.43112065136639], [112.569214069677, -7.42652034509588], [112.565499337383, -7.4240738867504], [112.561200851488, -7.42622794784272], [112.560617317525, -7.4308284519047], [112.564332197352, -7.43327469708773], [112.568630463618, -7.43112065136639]], [[112.808930555003, -7.2804479289609], [112.809516617581, -7.2758459382603], [112.805811443772, -7.27339750918465], [112.801520057472, -7.2755512843077], [112.800934065941, -7.28015347553477], [112.804639389654, -7.28260169111692], [112.808930555003, -7.2804479289609]], [[112.911847356727, -7.63701894943438], [112.912433644998, -7.63243656920423], [112.908737762737, -7.63000715857395], [112.904455441704, -7.63216034238565], [112.903869223831, -7.63674292225694], [112.907565256585, -7.63917211868002], [112.911847356727, -7.63701894943438]], [[112.019076512131, -7.75772504826013], [112.019654439202, -7.7531283261869], [112.023968557564, -7.75097419852799], [112.027704532283, -7.75341681360797], [112.032018350399, -7.75126269391774], [112.035753950384, -7.75370512526977], [112.040067468118, -7.75155101359414], [112.040645602494, -7.74695445002911], [112.036910144752, -7.7445118063443], [112.032596410382, -7.74666593856266], [112.02886057783, -7.74422311116954], [112.024546543118, -7.74637725145001], [112.020810335853, -7.74393424036984], [112.021388305433, -7.73933687671735], [112.017651865619, -7.73689346969383], [112.013337314149, -7.73904763860576], [112.012759419054, -7.74364519392056], [112.016496000934, -7.74608838866652], [112.015918089847, -7.75068552740021], [112.011603671374, -7.75283966298186], [112.01102581879, -7.75743657663701], [112.014762310182, -7.75987916313397], [112.019076512131, -7.75772504826013]], [[111.545685290747, -7.58761861556932], [111.546259074375, -7.58300324299185], [111.542499027962, -7.5805426354321], [111.538165060294, -7.5826976113812], [111.537591353419, -7.58731317225423], [111.541351537448, -7.5897735688883], [111.545685290747, -7.58761861556932]], [[112.612273227184, -7.15042578119785], [112.611688698203, -7.15503833032086], [112.615404549022, -7.15749639035524], [112.619704780554, -7.15534211414369], [112.620289381524, -7.15072976455466], [112.616573678982, -7.1482714916385], [112.617158265252, -7.14365873345088], [112.613442327726, -7.14120006527703], [112.609141655666, -7.14335436815943], [112.608557141403, -7.14796732588795], [112.612273227184, -7.15042578119785]], [[112.784507512132, -7.5980450180723], [112.785092740094, -7.5934577789291], [112.781390297324, -7.59102378263022], [112.777102477217, -7.59317723935211], [112.776517320266, -7.59776467727763], [112.780219912402, -7.60019845970369], [112.784507512132, -7.5980450180723]], [[112.654891192126, -7.16362388627648], [112.655476095296, -7.15901274413914], [112.659774768803, -7.15685855396121], [112.660359729153, -7.15224720303504], [112.656645944204, -7.14978984241727], [112.652347050247, -7.15194404570519], [112.651762161698, -7.15655559649622], [112.647463176325, -7.15870980396937], [112.646878344976, -7.16332114589839], [112.65059242717, -7.16577808056726], [112.654891192126, -7.16362388627648]], [[112.618070881395, -7.45370882482102], [112.618654891416, -7.44911074497736], [112.614942773804, -7.44666639553994], [112.610646498189, -7.44882033925697], [112.610062560022, -7.45341861719816], [112.613774825605, -7.45586275332959], [112.618070881395, -7.45370882482102]], [[111.961193623485, -7.92867999545129], [111.961770683948, -7.92409047058887], [111.958033784096, -7.921654452021], [111.953719682448, -7.92380817066497], [111.953142696655, -7.9283978857998], [111.95687973783, -7.93083369202374], [111.961193623485, -7.92867999545129]], [[112.678159474074, -7.23396361040066], [112.681871206128, -7.23641658692009], [112.686167766688, -7.23426252581814], [112.686752815641, -7.22965547477086], [112.683041232403, -7.22720228510132], [112.678744451386, -7.22935635963383], [112.675032484334, -7.22690298703981], [112.670735391216, -7.22905707834888], [112.670150485582, -7.23366452876938], [112.673862601378, -7.23611768823181], [112.678159474074, -7.23396361040066]], [[111.965781364734, -7.95649340152117], [111.966358414903, -7.95190536214868], [111.96262206996, -7.9494707463284], [111.958308533497, -7.95162438227111], [111.957731557962, -7.95621261182139], [111.961468044246, -7.95864701525666], [111.965781364734, -7.95649340152117]], [[111.95231663797, -7.83843050198128], [111.952893787825, -7.83383630171413], [111.949155363915, -7.83139586622447], [111.944839648819, -7.83354984322974], [111.944262573719, -7.83814423412548], [111.948001138951, -7.84058445739281], [111.95231663797, -7.83843050198128]], [[112.091185120127, -7.79491168713597], [112.091763646727, -7.79031839226786], [112.088031085204, -7.78787886194326], [112.083719854382, -7.79003283899792], [112.083141401917, -7.79462632588328], [112.086874106129, -7.79706564370207], [112.091185120127, -7.79491168713597]], [[107.608377082275, -6.91718256967209], [107.608910850091, -6.91246085960245], [107.604981071812, -6.90989554138163], [107.600517429548, -6.91205213204991], [107.599983756359, -6.91677399583055], [107.603913630799, -6.91933911524038], [107.608377082275, -6.91718256967209]], [[112.192735445829, -8.10920082698389], [112.193314309223, -8.10462542002085], [112.189590334496, -8.10220286144871], [112.185287353012, -8.10435592293094], [112.18470856313, -8.10893152124252], [112.188432681211, -8.11135386672869], [112.192735445829, -8.10920082698389]], [[112.008791204812, -7.64646501943978], [112.009369248517, -7.64186259979925], [112.005631050943, -7.63941438798331], [112.001314667612, -7.64156880794388], [112.000736698496, -7.64617141960632], [112.004475038112, -7.64861941929164], [112.008791204812, -7.64646501943978]], [[124.842341720525, 1.49412825392117], [124.841584431209, 1.48908709952317], [124.84547418494, 1.48583966792203], [124.844716862853, 1.48079855655576], [124.848606655465, 1.47755099911382], [124.853253953774, 1.47934453736063], [124.854011387852, 1.48438580198988], [124.850121411635, 1.48763337511563], [124.850878812952, 1.4926746828405], [124.846988875578, 1.49592213005118], [124.842341720525, 1.49412825392117]], [[111.924928533511, -8.02417520453902], [111.925505072648, -8.01958965142921], [111.921767689408, -8.01715734395346], [111.917453626135, -8.01931080195053], [111.916877161787, -8.02389654456579], [111.920614685914, -8.02632863968408], [111.924928533511, -8.02417520453902]], [[112.534937427384, -7.88632715047538], [112.535519848787, -7.8817483243981], [112.531809126469, -7.87932259442679], [112.527515835962, -7.88147590418869], [112.526933486593, -7.88605492556291], [112.530644355687, -7.8884804418833], [112.534937427384, -7.88632715047538]], [[111.959243371194, -7.78328592454057], [111.959820691053, -7.77868914832242], [111.956081903693, -7.77624628006353], [111.951765655023, -7.77840040020394], [111.948026493923, -7.77595734828735], [111.943709946339, -7.7781114757005], [111.943132776017, -7.78270863375171], [111.946872078481, -7.78515147351238], [111.951188409914, -7.7829973673723], [111.954927338714, -7.78544002345551], [111.959243371194, -7.78328592454057]], [[112.022544287105, -7.73014150815289], [112.023122299198, -7.72554350333235], [112.01938576893, -7.72309948815708], [112.015071084462, -7.72525369007305], [112.014493146853, -7.72985188663628], [112.018229819218, -7.73229568954623], [112.022544287105, -7.73014150815289]], [[112.629423950526, -8.02730322900567], [112.630006953023, -8.02273354934572], [112.626302426962, -8.02031655792021], [112.622014750881, -8.02246946018033], [112.621431819913, -8.027039335219], [112.625136493487, -8.02945611262383], [112.629423950526, -8.02730322900567]], [[112.693454889295, -7.58792641716494], [112.6940393196, -7.58333658116742], [112.698330483362, -7.58118297116056], [112.698914970592, -7.57659291957487], [112.695208222651, -7.57415627984148], [112.69091683888, -7.57630990535527], [112.69033242307, -7.58090015509072], [112.686040947689, -7.58305377867068], [112.685456588824, -7.58764381274457], [112.689163633891, -7.59008002516692], [112.693454889295, -7.58792641716494]], [[112.255397304503, -7.77304211725555], [112.255977390887, -7.76845139669995], [112.252252178543, -7.76601433111726], [112.24794673554, -7.76816819896504], [112.247366722541, -7.77275911303164], [112.251092079151, -7.77519596574466], [112.255397304503, -7.77304211725555]], [[112.236783580529, -7.53688449266583], [112.237363948645, -7.53228179000488], [112.233634958345, -7.52983326561775], [112.229325455604, -7.53198765643016], [112.228745161075, -7.53659055357497], [112.23247429569, -7.53903886542865], [112.236783580529, -7.53688449266583]], [[112.764455165893, -7.25105645670819], [112.765040886669, -7.24645202516807], [112.76133323227, -7.24400127578311], [112.757039707561, -7.24615517129392], [112.756454058053, -7.25075980312981], [112.760161861976, -7.25321033916376], [112.764455165893, -7.25105645670819]], [[112.745719463736, -7.49292717014889], [112.749424808548, -7.49536655822662], [112.753715088243, -7.49321292221887], [112.754300243505, -7.48861988351015], [112.750595047878, -7.48618028176611], [112.746304547795, -7.48833393240181], [112.742598968229, -7.48589414640589], [112.738308155482, -7.48804781180969], [112.737723142665, -7.49264124853002], [112.741428871343, -7.49508082087802], [112.745719463736, -7.49292717014889]], [[111.895966806382, -7.64233874884492], [111.896543802447, -7.63773364704929], [111.892800368203, -7.63528287335818], [111.888479796921, -7.6374374133217], [111.887902875967, -7.6420427061918], [111.891646451175, -7.64449326802936], [111.895966806382, -7.64233874884492]], [[112.042289133507, -7.86237120739093], [112.046022887118, -7.86480821609667], [112.050334441636, -7.86265440034708], [112.050912459061, -7.85806355475765], [112.047178847687, -7.85562633356651], [112.047756849209, -7.85103507012167], [112.052068536386, -7.84888121928234], [112.052646596286, -7.84428972948706], [112.04891289473, -7.84185189909902], [112.044600990998, -7.84400577098569], [112.044023005387, -7.84859745220767], [112.039711017821, -7.85075131021384], [112.039133090607, -7.85534276501155], [112.034821019268, -7.85749660897406], [112.03424315046, -7.86208783718841], [112.02993099541, -7.86424166694409], [112.029353185019, -7.86883266841611], [112.033087455321, -7.87126964893269], [112.037399393917, -7.86911584043349], [112.037977278655, -7.86452503016665], [112.042289133507, -7.86237120739093]], [[112.05474209645, -7.7312982399856], [112.055320406105, -7.72670100280782], [112.05158537541, -7.72425772210249], [112.04727189265, -7.72641189092414], [112.046693657329, -7.73100932011334], [112.050428830426, -7.73345238847483], [112.05474209645, -7.7312982399856]], [[112.606567646772, -7.92322499061471], [112.607150644725, -7.91864962161126], [112.603443756647, -7.91622718828462], [112.599153723203, -7.91838033782293], [112.595446453981, -7.91595771869067], [112.591156111152, -7.91811087811265], [112.590573256605, -7.92268663846716], [112.594280673157, -7.92510904376156], [112.593697803927, -7.9296843862355], [112.597404986762, -7.9321063918529], [112.601694891483, -7.92995326884409], [112.602277832416, -7.92537812200443], [112.606567646772, -7.92322499061471]], [[111.987074264682, -7.91575774579888], [111.987651591394, -7.91116814535041], [111.983915721759, -7.90873207075658], [111.984493032432, -7.904142051752], [111.988806287286, -7.90198829796391], [111.992542015285, -7.90442458495442], [111.996854970786, -7.90227083749272], [111.997432414484, -7.89768078134694], [112.001745286742, -7.89552701860618], [112.002322788921, -7.89093673484984], [111.998587344352, -7.88850002305295], [111.994274255854, -7.89065380742321], [111.990538437301, -7.88821691133741], [111.986225049393, -7.89037070217495], [111.985647696248, -7.89496136741602], [111.981334225227, -7.89711514295045], [111.980756930601, -7.90170558043321], [111.976443376529, -7.90385934050142], [111.97586614043, -7.90844955006712], [111.97960238382, -7.91088580900894], [111.979025131664, -7.91547560001163], [111.982761142882, -7.9179114622132], [111.987074264682, -7.91575774579888]], [[107.511227447298, -6.95517933930316], [107.511760044665, -6.95045793109691], [107.507827195065, -6.9478924967803], [107.503361653067, -6.95004866924162], [107.502829150719, -6.95477023004505], [107.506762095341, -6.95733546579854], [107.511227447298, -6.95517933930316]], [[112.119425670768, -7.69898589160424], [112.120004643003, -7.69438849784404], [112.116272203685, -7.69194507344279], [112.111960649076, -7.6940992552664], [112.111381750893, -7.69869684174209], [112.115114333259, -7.70114005368399], [112.119425670768, -7.69898589160424]], [[112.637792887573, -7.99315802693994], [112.638376031655, -7.98858683996649], [112.634671481, -7.9861684059692], [112.635254610503, -7.98159680045351], [112.639542362157, -7.97944382462176], [112.643246765136, -7.98186247262678], [112.647534206818, -7.97970950635647], [112.648117464707, -7.97513787383969], [112.644413209456, -7.97271901182302], [112.644996452786, -7.96814696093264], [112.641291963764, -7.96572769877967], [112.641875192529, -7.96115522959097], [112.638170469733, -7.95873556735327], [112.633882370479, -7.96088858829155], [112.633299213217, -7.96546125326368], [112.62901102325, -7.96761426565647], [112.625305771405, -7.96519463131707], [112.621017271669, -7.96734765331706], [112.61731163855, -7.96492783291201], [112.617894652694, -7.96035477656674], [112.622183371544, -7.95820173627581], [112.622766442657, -7.95362845734376], [112.619060723334, -7.95120802303437], [112.619643779829, -7.94663432593676], [112.615937826762, -7.94421349172003], [112.611648669697, -7.94636656852165], [112.611065684814, -7.95094046129153], [112.606776437287, -7.95309352950277], [112.606193509402, -7.95766719969674], [112.609899757403, -7.96008760608581], [112.609316814873, -7.96466085802074], [112.613022829173, -7.96708086447302], [112.612439872007, -7.97165369807343], [112.61614565261, -7.97407330453718], [112.615562680814, -7.97864571972769], [112.619268227725, -7.98106492615125], [112.623556598934, -7.97891193133527], [112.627261764626, -7.98133095163764], [112.626678706647, -7.98590275278041], [112.63038363863, -7.9883213729541], [112.629800566055, -7.99289275554551], [112.62551263303, -7.99504571352168], [112.624929617391, -7.99961687303094], [112.628634463243, -8.00203487902469], [112.63292217717, -7.99988193950398], [112.633505264334, -7.99531097553904], [112.637792887573, -7.99315802693994]], [[112.610937468848, -7.22450262007579], [112.611521856977, -7.21989336438083], [112.607806587883, -7.21743813347117], [112.603506782522, -7.21959237122647], [112.602922466391, -7.2242018260542], [112.606637883613, -7.22665684399857], [112.610937468848, -7.22450262007579]], [[112.721318436282, -7.24251442927112], [112.721903785889, -7.23790858729297], [112.718193973924, -7.23545652580971], [112.713898663209, -7.23761051955076], [112.713313385075, -7.24221656150416], [112.717023346174, -7.2446684097459], [112.721318436282, -7.24251442927112]], [[112.546339162013, -7.41644022010926], [112.550054892498, -7.41888744208477], [112.554353907754, -7.41673335135409], [112.554937412099, -7.4121320232831], [112.559236337238, -7.40997793152167], [112.559819898911, -7.40537638938131], [112.556104463305, -7.40292874118375], [112.551805318551, -7.40508284824333], [112.551221829028, -7.40968458819751], [112.546922594188, -7.41183869429782], [112.543206629304, -7.4093910757845], [112.538907084895, -7.41154519617878], [112.538323724925, -7.41614691966468], [112.542039837149, -7.41859432508667], [112.546339162013, -7.41644022010926]], [[112.485996485155, -7.51128647857877], [112.486579185931, -7.50668816444039], [112.482861543806, -7.50424371271005], [112.478561054212, -7.5063977882034], [112.477978425877, -7.51099629905414], [112.481696214685, -7.51344053770409], [112.485996485155, -7.51128647857877]], [[112.14136993432, -7.5888832612979], [112.141949320748, -7.58428096213268], [112.138216539544, -7.58183285495714], [112.133904228542, -7.58398725932685], [112.133324916117, -7.58858975191774], [112.137057840682, -7.59103764671848], [112.14136993432, -7.5888832612979]], [[98.6596897892747, 3.56175110009262], [98.6601203956045, 3.56692898990232], [98.655821065458, 3.56986676293864], [98.6510911461169, 3.56762652493887], [98.6506606745318, 3.56244858182461], [98.6549599875364, 3.55951093000302], [98.6596897892747, 3.56175110009262]], [[112.238524727414, -7.52307575173122], [112.239105138068, -7.51847241621116], [112.235376058674, -7.51602328359531], [112.23106642427, -7.51817769902418], [112.230486087201, -7.52278122910843], [112.234215310941, -7.52523014920475], [112.238524727414, -7.52307575173122]], [[112.657721669461, -7.48977270168543], [112.658305967812, -7.48517727881993], [112.654596170967, -7.48273546738739], [112.655180454734, -7.47813963190349], [112.651470423334, -7.47569742303417], [112.647175959875, -7.47785126308169], [112.643465545656, -7.47540887024276], [112.639170771124, -7.47756272456513], [112.638586630734, -7.48215895650962], [112.642297193159, -7.48460113593897], [112.646591747777, -7.48244729682864], [112.650301927459, -7.4848892922698], [112.649717700761, -7.48948491339042], [112.653427645908, -7.49192651137829], [112.657721669461, -7.48977270168543]], [[112.057585041712, -7.77295077548919], [112.058163298154, -7.76835565392013], [112.054428913142, -7.76591438250281], [112.050116129289, -7.7680684450598], [112.049537947147, -7.77266375846583], [112.053272474549, -7.77510481748326], [112.057585041712, -7.77295077548919]], [[112.821966614525, -7.39874020823831], [112.822552564357, -7.39414419647118], [112.818849462747, -7.39170160320895], [112.814560261387, -7.39385523540915], [112.813974382484, -7.39845144724046], [112.817677634002, -7.40089382681201], [112.821966614525, -7.39874020823831]], [[107.607162778307, -7.00254123887062], [107.607696385483, -6.99782365818914], [107.603767643888, -6.99526187386686], [107.599305199017, -6.99741786917673], [107.598771686422, -7.00213560327052], [107.60270052411, -7.00469718865064], [107.607162778307, -7.00254123887062]], [[112.184180712287, -7.82586371541812], [112.184760040657, -7.82127401292775], [112.181032169181, -7.81883791238128], [112.176724825783, -7.82099172709314], [112.176145571102, -7.82558162223894], [112.179873586121, -7.82801751002274], [112.184180712287, -7.82586371541812]], [[112.606681391726, -7.32154563450408], [112.607265553995, -7.31694092672838], [112.60355127457, -7.31449014160673], [112.599252684872, -7.31664427736194], [112.598668594572, -7.32124918377303], [112.602383021991, -7.32369975579829], [112.606681391726, -7.32154563450408]], [[107.63233286585, -7.00375709528303], [107.632866756552, -6.99903997534002], [107.628938954101, -6.99647868381507], [107.624477164559, -6.99863471126532], [107.62394336833, -7.00335198487139], [107.627871267161, -7.00591307737262], [107.63233286585, -7.00375709528303]], [[112.174944938275, -8.12238810404491], [112.175523612225, -8.11781296453411], [112.179826764366, -8.11565993554772], [112.180405496286, -8.11108456655792], [112.176681002507, -8.1086620353403], [112.172377633571, -8.1108150861796], [112.171798975219, -8.11539064637822], [112.16749552108, -8.11754368079526], [112.163770508547, -8.11512117690775], [112.159466752545, -8.11727421670875], [112.155741364581, -8.11485152710885], [112.151437306848, -8.1170045722471], [112.150858853772, -8.12158028496492], [112.154584384758, -8.12400276154682], [112.154005916039, -8.12857805347757], [112.157731214716, -8.13100013129528], [112.162034839075, -8.12884713020924], [112.162613381438, -8.12427202927361], [112.166916920718, -8.12211901144098], [112.170641700898, -8.12454111654013], [112.174944938275, -8.12238810404491]], [[112.517546481143, -7.86503766552178], [112.51812878598, -7.86045739195094], [112.51441698237, -7.85803027940218], [112.510122727278, -7.86018365401612], [112.509540494566, -7.86476412284422], [112.513252444811, -7.86719102180614], [112.517546481143, -7.86503766552178]], [[112.632509921628, -7.94017512622818], [112.631926736606, -7.94474884985937], [112.635631926961, -7.94716931211162], [112.639920154656, -7.94501626468441], [112.643624963517, -7.9474365409267], [112.647912881163, -7.94528350338325], [112.651617308438, -7.94770359359716], [112.655904915906, -7.94555056598361], [112.656488315374, -7.94097743017157], [112.660775831854, -7.93882439459052], [112.661359288204, -7.93425103688703], [112.657655156658, -7.93183051868177], [112.658238598475, -7.92725674309357], [112.654534233063, -7.92483582491422], [112.65511766034, -7.92026163151696], [112.659405524462, -7.91810855245464], [112.659989008633, -7.91353413749358], [112.656284557249, -7.91111260542033], [112.651996473789, -7.91326570228471], [112.651413061059, -7.91784031341533], [112.647124886646, -7.91999340268387], [112.64654153083, -7.92456779217709], [112.650246277957, -7.92698889631077], [112.649662907583, -7.9315628679859], [112.645374861552, -7.93371593155468], [112.641669966631, -7.93129504138523], [112.637381610496, -7.93344811497594], [112.633676334025, -7.93102703885214], [112.629387667913, -7.93318012241869], [112.625682009985, -7.93075886035903], [112.621393034027, -7.93291195385532], [112.620809935176, -7.93748629130245], [112.624515740699, -7.93990733943875], [112.628804497488, -7.93775426404631], [112.632509921628, -7.94017512622818]], [[112.780061091244, -7.28632026488704], [112.780646883741, -7.2817178824581], [112.776940405171, -7.27926911657188], [112.77264798446, -7.28142294655662], [112.772062263141, -7.28602552924279], [112.775768891344, -7.28847408169161], [112.780061091244, -7.28632026488704]], [[112.57988142248, -7.27890183622601], [112.583597257989, -7.28135478471038], [112.583013241422, -7.28596174362126], [112.586728842241, -7.28841429617266], [112.586144810912, -7.2930208447474], [112.589860177044, -7.29547300130832], [112.58927613096, -7.30007913946493], [112.592991262409, -7.3025308999779], [112.597290292023, -7.30037673537421], [112.601005040843, -7.30282831284386], [112.605303759777, -7.30067416387278], [112.605887949871, -7.29606842309673], [112.602173349054, -7.29361663256368], [112.597874410131, -7.29577079587486], [112.594159426609, -7.29331882231715], [112.59474352998, -7.28871247240692], [112.591028311753, -7.28626010281854], [112.591612400381, -7.28165334257937], [112.587896947445, -7.27920057701783], [112.58848102132, -7.27459340653176], [112.592780620182, -7.27243920034748], [112.593364751357, -7.26783181844882], [112.597664259563, -7.26567761393673], [112.598248448028, -7.2610700207881], [112.602547865518, -7.25891581811214], [112.603132111264, -7.25430801387621], [112.599416867509, -7.25185421341275], [112.595117229983, -7.25400843018668], [112.594533056257, -7.25861643332134], [112.590233328047, -7.26077065200341], [112.589649211621, -7.26537844397751], [112.585349392788, -7.26753266440375], [112.581633470424, -7.26507910706856], [112.577333341095, -7.26723334336442], [112.576749354075, -7.2718411227013], [112.572449134279, -7.27399536048539], [112.568732681615, -7.27154183326468], [112.569316596502, -7.26693385530792], [112.565599909161, -7.26447993230984], [112.561299159233, -7.26663420021132], [112.557582089543, -7.26418009441428], [112.553281029512, -7.26633437805175], [112.552697259005, -7.27094275304966], [112.55641447631, -7.27339664592742], [112.555830690972, -7.27800461073208], [112.559547673641, -7.2804581078555], [112.56384829402, -7.27830385310611], [112.567564894395, -7.28075716737144], [112.571865204597, -7.2786029282631], [112.575581422586, -7.28105605964874], [112.57988142248, -7.27890183622601]], [[112.666635664124, -7.98722925193286], [112.667219079351, -7.98265842957042], [112.663515821132, -7.98024034014849], [112.664099221844, -7.97566909935561], [112.660395729821, -7.97325060967237], [112.656108689202, -7.97540357483568], [112.655525359883, -7.97997501152273], [112.659228999781, -7.98239328715726], [112.658645655929, -7.98696430540469], [112.662349062044, -7.98938218076331], [112.666635664124, -7.98722925193286]], [[112.602696238554, -7.98510473269201], [112.603279081738, -7.9805323450554], [112.599572772667, -7.9781127664446], [112.595283473096, -7.98026578939022], [112.594700701585, -7.98483837239556], [112.598407157963, -7.98725773709156], [112.602696238554, -7.98510473269201]], [[111.925350068207, -7.60177740500926], [111.925927417059, -7.59717095989707], [111.922184829723, -7.59471891501275], [111.922762162365, -7.59011205498593], [111.919019342519, -7.58765961553773], [111.919596658942, -7.58305234067744], [111.915853606585, -7.58059950672409], [111.911533096559, -7.58275415947728], [111.907789670475, -7.5803011429018], [111.903468861831, -7.58245580454204], [111.899725062119, -7.58000260536676], [111.895403954994, -7.58215727584849], [111.891659781753, -7.57970389409583], [111.887338376284, -7.58185857337347], [111.883593829613, -7.57940500906584], [111.879272125935, -7.58155969709382], [111.875527205934, -7.57910595025366], [111.871205204185, -7.58126064698637], [111.870628338517, -7.58586907000159], [111.874373399369, -7.58832260510039], [111.878695185048, -7.58616792891989], [111.882439872647, -7.58862128146624], [111.881862915451, -7.59322909842969], [111.885607370649, -7.59568205662329], [111.889928642101, -7.59352740962588], [111.893672723925, -7.59598018520229], [111.893095675282, -7.60058739597621], [111.888774619951, -7.60274202242477], [111.888197630161, -7.60734900941916], [111.891941620563, -7.60980117873066], [111.891364614487, -7.61440775061879], [111.887043693146, -7.61656234436682], [111.88646674592, -7.62116869222771], [111.890210644899, -7.62362025518594], [111.894531350142, -7.62146568210193], [111.898274875758, -7.62391706229646], [111.90259528269, -7.62176249762876], [111.906338434844, -7.62421369503735], [111.910658543328, -7.62205913883163], [111.911235715827, -7.61745336465474], [111.907492704798, -7.61500195538226], [111.908069861055, -7.61039576602986], [111.912390103387, -7.60824117731422], [111.912967318448, -7.60363476424291], [111.917287478386, -7.60148016374942], [111.921030207006, -7.6039319967598], [111.925350068207, -7.60177740500926]], [[111.914121791136, -7.59442129952917], [111.909801414957, -7.59657592042735], [111.906058080179, -7.59412351015236], [111.906635262754, -7.58951626714708], [111.910955855169, -7.58736162586664], [111.914699048763, -7.58981424797916], [111.914121791136, -7.59442129952917]], [[112.70187846604, -7.83682187779325], [112.702462489758, -7.83224442239171], [112.698759051955, -7.82981995104757], [112.694471442056, -7.83197314908636], [112.69388748962, -7.83655080141103], [112.697591075792, -7.83897505877863], [112.70187846604, -7.83682187779325]], [[112.44625624573, -7.47518779726383], [112.446838653901, -7.47058682830236], [112.443118699466, -7.4681398429498], [112.438816190503, -7.47029403950433], [112.435095855677, -7.46784687072342], [112.430793039042, -7.4700010803813], [112.430210776196, -7.47460244237779], [112.433931257294, -7.47704939823698], [112.438233854976, -7.47489520501645], [112.441953955758, -7.47734197742834], [112.44625624573, -7.47518779726383]], [[112.774212994072, -7.23753963188462], [112.7747988286, -7.23293478209097], [112.771091473404, -7.23048360600099], [112.766798134044, -7.23263749306228], [112.766212370744, -7.23724254329804], [112.769919875567, -7.23969350603502], [112.774212994072, -7.23753963188462]], [[112.12573185903, -7.71306509156346], [112.126310862772, -7.70846852971844], [112.122578889213, -7.70602589768984], [112.118267768808, -7.70818004000292], [112.117688839082, -7.71277679454981], [112.121420955735, -7.71521921408705], [112.12573185903, -7.71306509156346]], [[112.641994494109, -7.17008649029635], [112.642579268248, -7.16547535739262], [112.638864802499, -7.16301824018302], [112.634565414129, -7.16517246883643], [112.633980711867, -7.16978380139253], [112.637695326087, -7.17224070564755], [112.641994494109, -7.17008649029635]], [[124.912069932529, 1.5210431096562], [124.911311687552, 1.51600021154759], [124.915203467585, 1.51275199464423], [124.919853675516, 1.51454666024419], [124.920612032337, 1.51958971095815], [124.916720069388, 1.52283794347315], [124.912069932529, 1.5210431096562]], [[112.280111559023, -7.54540013672244], [112.280692309932, -7.54079882128183], [112.276965443275, -7.53835160914927], [112.272657680983, -7.54050592510877], [112.272077003455, -7.54510743536039], [112.275804014829, -7.54755443484662], [112.280111559023, -7.54540013672244]], [[112.0905508504, -7.86406770732526], [112.091129238716, -7.85947781946752], [112.087397502105, -7.85704151985088], [112.083087234551, -7.85919532068056], [112.082508920338, -7.86378540021815], [112.086240799567, -7.86622148725158], [112.0905508504, -7.86406770732526]], [[112.457773045494, -7.44787244192152], [112.458355611314, -7.44327041264031], [112.454635862101, -7.4408223921504], [112.450333400578, -7.44297661387712], [112.449750907361, -7.44757883993661], [112.453470803056, -7.45002664749601], [112.457773045494, -7.44787244192152]], [[112.692085712947, -7.56712877671956], [112.692670171203, -7.5625378979113], [112.688962954239, -7.56010046192829], [112.684671130464, -7.56225411838272], [112.684086743663, -7.56684519535726], [112.687794109172, -7.56928241771587], [112.692085712947, -7.56712877671956]], [[112.76268177964, -7.54887931494086], [112.763266907415, -7.54428918138279], [112.759562821781, -7.54185239572644], [112.755273459151, -7.54400595739299], [112.754688402512, -7.54859628979288], [112.758392637358, -7.55103286168912], [112.76268177964, -7.54887931494086]], [[112.538432167752, -7.8588509968461], [112.539014673937, -7.85427089221797], [112.535303777941, -7.8518439368043], [112.531010228914, -7.85399729965175], [112.530427794761, -7.85857759974114], [112.534138837592, -7.86100434152683], [112.538432167752, -7.8588509968461]], [[112.546798034873, -7.22209160934965], [112.547381845977, -7.21748076244684], [112.543663515795, -7.21502407062991], [112.539361226966, -7.2171784385361], [112.538777488158, -7.22178948404152], [112.542495965874, -7.22424596304292], [112.546798034873, -7.22209160934965]], [[112.588269901135, -7.24449165480288], [112.588854045361, -7.23988283194308], [112.585137949298, -7.23742805718005], [112.580837561103, -7.2395823182247], [112.58025348897, -7.24419133993131], [112.583969732931, -7.24664590175122], [112.588269901135, -7.24449165480288]], [[112.077935966988, -7.83595806949798], [112.078514292006, -7.83136651082841], [112.082825125448, -7.82921263414994], [112.086557417124, -7.83165033691234], [112.090867949485, -7.82949646781924], [112.091446406935, -7.82490487527295], [112.087714257914, -7.82246695996571], [112.088292699548, -7.81787495000451], [112.092603364313, -7.81572104726771], [112.096335370627, -7.81815917512374], [112.100645734121, -7.816005280159], [112.104377365025, -7.81844322381729], [112.108687427113, -7.81628933667064], [112.109266075165, -7.81169748536189], [112.105534587096, -7.80925932913136], [112.10122430813, -7.81141323678715], [112.097492444575, -7.80897489637839], [112.098071002789, -7.80438243576257], [112.102381498629, -7.80222850762027], [112.102960115119, -7.79763582191611], [112.107270526404, -7.79548188131591], [112.107849201161, -7.7908889706828], [112.104117390583, -7.78844980849366], [112.099806762397, -7.79060376948777], [112.099228161699, -7.79519687227179], [112.094917448991, -7.79735082087795], [112.09433890658, -7.80194369865923], [112.090028109412, -7.80409763471416], [112.086295637835, -7.80165871349365], [112.081984539473, -7.80381265741523], [112.081406129494, -7.80840550197086], [112.085138743731, -7.8108442106738], [112.08456031792, -7.81543663797148], [112.080249352018, -7.81759054843427], [112.076516595174, -7.81515205224501], [112.077094946829, -7.81055943308464], [112.073361957397, -7.80812054026581], [112.073940293203, -7.80352750384053], [112.070207071181, -7.80108821444816], [112.07078539113, -7.79649476083657], [112.067051936514, -7.79405507492672], [112.062740019456, -7.79620905509665], [112.062161773736, -7.80080270051789], [112.065895370835, -7.8032421739649], [112.06531710924, -7.80783540219295], [112.061005324783, -7.80998934871517], [112.057271585253, -7.80755008772707], [112.057849772601, -7.80295666776319], [112.054115800522, -7.80051701028243], [112.054693971976, -7.79592317311848], [112.050959767346, -7.79348311920124], [112.0515379229, -7.78888886491596], [112.047803485717, -7.7864484146185], [112.048381625362, -7.78185374329073], [112.044646955623, -7.77941289666938], [112.040334003946, -7.78156693377339], [112.036598959389, -7.77912590326103], [112.037177008759, -7.77453062327355], [112.041490177054, -7.77237656548919], [112.042068284858, -7.76778106031324], [112.038333150001, -7.76533942121342], [112.034019765093, -7.7674934996556], [112.03028425546, -7.7650516767462], [112.025970570228, -7.76720576306205], [112.025392611213, -7.77180165157662], [112.021078842326, -7.77395572496738], [112.020500941782, -7.77855138814584], [112.016187089302, -7.7807054484481], [112.012450920875, -7.77826386638926], [112.01302874695, -7.77366801171599], [112.00929234605, -7.77122603355271], [112.004977977111, -7.77338012236598], [112.001241201805, -7.77093796043701], [112.001818937358, -7.76634149741808], [112.006133522752, -7.76418738775699], [112.006711316825, -7.75959069934012], [112.002974450972, -7.75714792913805], [111.998659649128, -7.75930205962449], [111.998081929597, -7.76389893948224], [111.99376704442, -7.76605305683314], [111.990029662372, -7.7636103151938], [111.985714477546, -7.76576444018855], [111.98197672131, -7.76332151486697], [111.977661236971, -7.76547564745961], [111.977083725216, -7.77007268437794], [111.972768157798, -7.77222680348446], [111.97219070463, -7.77682361462373], [111.975928744215, -7.7792661155032], [111.980244095329, -7.7771120174571], [111.983981760878, -7.77955433461492], [111.983404216993, -7.78415053757852], [111.979089082187, -7.78630461454187], [111.978511596869, -7.79090059155493], [111.982249171727, -7.79334230046452], [111.986564090218, -7.79118824460631], [111.987141650157, -7.78659245873881], [111.991456485467, -7.7844383891847], [111.995193544475, -7.78688012656113], [111.994615909954, -7.79147572121584], [111.990301290998, -7.79362976971234], [111.989723715014, -7.7982251384047], [111.985409012843, -7.8003791731354], [111.981671670345, -7.79793786029584], [111.977356668735, -7.8000919022947], [111.976779225918, -7.80468723593037], [111.972464141251, -7.80684126390648], [111.971886757009, -7.81143637118709], [111.975624382784, -7.81387725950574], [111.975046982466, -7.81847194935451], [111.978784375931, -7.82091244151518], [111.978206959544, -7.8255067138533], [111.973892224325, -7.82766068494696], [111.970154689277, -7.82522040505636], [111.965839654867, -7.82737438308999], [111.965262371705, -7.83196861957971], [111.969000048281, -7.83440868720435], [111.973314866501, -7.83225473059977], [111.977052169264, -7.83469461426028], [111.97647479537, -7.83928824223833], [111.980211865851, -7.84172772961236], [111.984526168605, -7.83957380130418], [111.988262865153, -7.84201310465231], [111.987685400608, -7.84660612398632], [111.983371314094, -7.84876003086832], [111.982793908082, -7.85335282326107], [111.986530514005, -7.85579151789337], [111.985953091946, -7.86038389237576], [111.989689465593, -7.86282219055295], [111.994003119609, -7.86066832659021], [111.99773911926, -7.86310644061962], [111.997161606627, -7.86769820624293], [111.992848168869, -7.8698520487126], [111.992270714738, -7.87444358713918], [111.996006623842, -7.87688109223804], [112.000319845338, -7.87472727128371], [112.000897373983, -7.87013592372063], [112.005210512179, -7.86798208795265], [112.005788099307, -7.8633905132667], [112.002052473753, -7.86095258340593], [112.002630044877, -7.85636059074486], [112.006943316043, -7.85420671895035], [112.007520945651, -7.84961449941054], [112.011834133426, -7.8474606131984], [112.01556947522, -7.84989896783787], [112.014991771155, -7.85449099629261], [112.010678799743, -7.85664486119837], [112.010101154142, -7.86123666284824], [112.013836405504, -7.86367440851953], [112.013258743917, -7.86826579220114], [112.016993762942, -7.8707031412398], [112.021306301608, -7.86854931901381], [112.021884037616, -7.86395812640353], [112.018149160545, -7.86152056494249], [112.018726880586, -7.85692895437084], [112.023039552108, -7.8547750964], [112.026774287171, -7.85721287028761], [112.03108665867, -7.85505901929784], [112.031664511538, -7.85046737321419], [112.035976799359, -7.84831350808731], [112.036554710644, -7.84372163550552], [112.032820259754, -7.84128343675234], [112.033398155102, -7.83669114646482], [112.037710575695, -7.83453724629176], [112.041444884419, -7.83697565748386], [112.0457570047, -7.8348217645723], [112.049490938729, -7.83725999161183], [112.053802758564, -7.83510610600786], [112.057536317801, -7.83754414887403], [112.061847837055, -7.83539027062376], [112.065581021402, -7.83782812929581], [112.065002828901, -7.84241965371504], [112.060691526275, -7.84457351103502], [112.060113392123, -7.84916480933672], [112.055802005471, -7.85131865296304], [112.055223929678, -7.85590972498813], [112.058957166294, -7.85834676190568], [112.058379074616, -7.86293741608236], [112.062112078767, -7.86537405618106], [112.066423032215, -7.86322025462227], [112.067001198108, -7.85862979192517], [112.063268336347, -7.8561929393019], [112.063846486373, -7.8516020587634], [112.068157572367, -7.84944822239622], [112.071890291685, -7.85188528754818], [112.076201076885, -7.84973145848627], [112.076779359428, -7.84514054337225], [112.073046782604, -7.84270326568749], [112.073625049301, -7.83811193290252], [112.077935966988, -7.83595806949798]], [[111.996313191019, -7.84229830253659], [112.000626894829, -7.84014438805696], [112.004362843215, -7.84258332329039], [112.003785229608, -7.84717596064177], [111.999471742118, -7.84932985379001], [111.998894187004, -7.85392226434785], [111.99458061622, -7.85607614298496], [111.990844384273, -7.85363763245986], [111.991421864854, -7.84904503095102], [111.995735651924, -7.84689113091282], [111.996313191019, -7.84229830253659]], [[112.019345183194, -7.78774207202868], [112.01876732515, -7.79233709264195], [112.014453605611, -7.79449111877712], [112.010717527653, -7.79205014520877], [112.011295311227, -7.7874549331812], [112.015609247238, -7.78530088613088], [112.019345183194, -7.78774207202868]], [[111.996926533043, -7.77309205689257], [111.996348856019, -7.77768829435392], [111.992034103952, -7.7798423774405], [111.988296812537, -7.77740024402558], [111.988874414979, -7.772803815271], [111.993189383428, -7.77064971121913], [111.996926533043, -7.77309205689257]], [[112.254264336739, -7.55832594929162], [112.254844824862, -7.55372468290123], [112.251116912756, -7.55127752932214], [112.246808368057, -7.55343185474093], [112.246227953429, -7.55803331566163], [112.249956009996, -7.56048025663837], [112.254264336739, -7.55832594929162]], [[112.258480942372, -7.62085704740464], [112.259061349337, -7.61625892730771], [112.255334404247, -7.61381478855169], [112.251026907741, -7.61596898258966], [112.250446574221, -7.62056729695442], [112.254173663753, -7.62301122301855], [112.258480942372, -7.62085704740464]], [[112.660767401459, -7.2124790947406], [112.66135226333, -7.20787041608224], [112.657639207595, -7.20541567282701], [112.653341141376, -7.20756982129535], [112.652756351274, -7.21217869956328], [112.648458193661, -7.21433285136322], [112.647873460736, -7.21894151983008], [112.651586813625, -7.22139583696534], [112.651002066076, -7.22600409600505], [112.654715184019, -7.22845801724351], [112.659012900947, -7.22630389251455], [112.662725635353, -7.22875763089307], [112.667023040441, -7.22660352285186], [112.667607931495, -7.22199566293632], [112.663895345737, -7.21954171146226], [112.659597720268, -7.22169583300396], [112.655884750898, -7.2192416986885], [112.656469555612, -7.21463322975801], [112.660767401459, -7.2124790947406]], [[112.247299584866, -7.61352466019654], [112.247879902905, -7.608925931095], [112.244152346684, -7.60648121242956], [112.239844328072, -7.60863543552715], [112.239264083533, -7.61323435883684], [112.242991784096, -7.61567886484596], [112.247299584866, -7.61352466019654]], [[106.843664320539, -6.17681501508519], [106.847630673615, -6.17942299982869], [106.852123146674, -6.17726236152307], [106.85264945274, -6.17249369164632], [106.848683187481, -6.16988551186572], [106.84419052833, -6.17204619700781], [106.840223961325, -6.16943786265129], [106.835731098804, -6.17159854138927], [106.835204989324, -6.17636750757919], [106.839171644045, -6.17897564692741], [106.843664320539, -6.17681501508519]], [[112.167349172831, -7.73532471773387], [112.167928519246, -7.73073017574957], [112.164198749325, -7.72828946835763], [112.159889489511, -7.73044351557212], [112.159310216907, -7.73503825050476], [112.163040130298, -7.73747874527981], [112.167349172831, -7.73532471773387]], [[112.789026539936, -7.34211689220915], [112.789612304684, -7.33751739226626], [112.793903272602, -7.33536365195224], [112.797608254956, -7.33780942501263], [112.801898909068, -7.33565570116868], [112.802484801655, -7.33105619091393], [112.798779969087, -7.32861020429644], [112.794489094136, -7.33076394149542], [112.790783876672, -7.32831777121114], [112.786492687952, -7.33047152492711], [112.785906937508, -7.33507143552078], [112.781615655914, -7.33722519226028], [112.777909904006, -7.33477905185034], [112.778495583323, -7.3301789411851], [112.782787085683, -7.32802517099671], [112.783372821816, -7.32342484983322], [112.787664231335, -7.32127108274025], [112.788250024275, -7.31667055124065], [112.784544336579, -7.31422358667669], [112.780252706266, -7.31637736712168], [112.776546633802, -7.31393021898971], [112.777132341289, -7.30932907692975], [112.773426033722, -7.30688153178127], [112.769133869084, -7.30903534216668], [112.768548232779, -7.31363668432186], [112.764255975456, -7.31579049785499], [112.76054913373, -7.31334298264938], [112.761134698817, -7.30874144046436], [112.757427622023, -7.3062935283206], [112.75801317274, -7.30169157579345], [112.762305871496, -7.29953773544309], [112.76289147909, -7.29493557270058], [112.767184085225, -7.29278173564184], [112.767769749687, -7.28817936284632], [112.764062736787, -7.28573062698627], [112.764648386891, -7.2811278441083], [112.760941138873, -7.27867871145731], [112.761526774612, -7.27407551857839], [112.757819291471, -7.27162598919306], [112.758404912838, -7.26702238639477], [112.754697194572, -7.26457246033175], [112.755282801558, -7.25996844769576], [112.751574848163, -7.25751812501178], [112.74728113835, -7.2596720283173], [112.743572800421, -7.25722152240074], [112.744158321696, -7.25261689985173], [112.740449748652, -7.25016599741058], [112.736155505, -7.25231993083622], [112.732446547534, -7.24986884522321], [112.733031983015, -7.24526361289339], [112.729322790448, -7.24281213085235], [112.725028013161, -7.24496609442315], [112.724442649098, -7.24957152678637], [112.728151990894, -7.25202279555005], [112.727566612382, -7.25662781821638], [112.7312757191, -7.25907869053466], [112.730690326146, -7.26368330342221], [112.726395897883, -7.26583724394877], [112.722686641966, -7.26338658492411], [112.718391900903, -7.26554054216861], [112.714682260802, -7.2630896999564], [112.71526751088, -7.25848468722918], [112.719562472526, -7.25633071659652], [112.720147779601, -7.25172549396996], [112.716438053566, -7.24927404207687], [112.712142871341, -7.25142802607281], [112.70843276116, -7.24897639107151], [112.704137266337, -7.25113039183536], [112.7004267721, -7.24867857374717], [112.696130964808, -7.25083259123449], [112.695545872269, -7.25543841334755], [112.691249973109, -7.25759243400888], [112.687538946027, -7.25514064605748], [112.688123966979, -7.25053462424707], [112.684412704909, -7.24808244004903], [112.684997711322, -7.24347600850435], [112.681286214262, -7.24102342811694], [112.676989561992, -7.24317749244539], [112.673277681172, -7.24072472907501], [112.668980716859, -7.24287881004091], [112.668395853769, -7.24748564079769], [112.672107883302, -7.24993819102013], [112.671523005637, -7.25454461202786], [112.667226170129, -7.25669868231774], [112.663513991934, -7.2542463452421], [112.664098797899, -7.24963972473447], [112.660386384773, -7.24718699153193], [112.656089017084, -7.24934109196996], [112.652376220457, -7.24688817580877], [112.652960940074, -7.24228094610342], [112.64924790853, -7.23982763391277], [112.644950008867, -7.24198176452445], [112.641236593933, -7.2395282694367], [112.636938382748, -7.24168241650809], [112.633224584517, -7.23922873854477], [112.633809145857, -7.23462070045858], [112.630095112744, -7.23216662660365], [112.630679659422, -7.22755817890382], [112.626965391422, -7.225103709215], [112.622666428434, -7.22725790025084], [112.622081953659, -7.23186654720852], [112.625796369959, -7.23432080387723], [112.625211880504, -7.23892904121407], [112.628926061939, -7.24138290203141], [112.628341557812, -7.24599072966503], [112.624042944146, -7.24814489566347], [112.623458497242, -7.25275251268174], [112.627172592108, -7.25520576453613], [112.626588130529, -7.25981297167941], [112.630301990559, -7.26226582754972], [112.634600163864, -7.26011168934332], [112.638313640727, -7.26256436226073], [112.642611502659, -7.26041024028297], [112.646324596262, -7.26286273022602], [112.650622146692, -7.26070862452142], [112.654334856942, -7.26316093146864], [112.653750165255, -7.26776713098991], [112.649452835085, -7.2699212228562], [112.645739976351, -7.26746912903482], [112.641442334642, -7.26962323712692], [112.63772909263, -7.26717096029115], [112.633431139512, -7.26932508456455], [112.632846648608, -7.27393147171133], [112.628548604366, -7.27608559811652], [112.627964170663, -7.28069177421708], [112.631677709339, -7.2831436248421], [112.631093260974, -7.28774939073206], [112.634806564847, -7.29020084518347], [112.634222101827, -7.29480620078094], [112.62992440678, -7.29696030092624], [112.626210954631, -7.29450905959554], [112.621912948419, -7.29666317559921], [112.618199113288, -7.29421175117968], [112.61878343256, -7.28960599765917], [112.615069362667, -7.28715417708875], [112.610770825364, -7.28930832312703], [112.610186578021, -7.29391427551013], [112.613900796042, -7.29636588299711], [112.613316533999, -7.30097142498387], [112.61703051728, -7.30342263630268], [112.621328614464, -7.30126851873069], [112.625042214837, -7.30371954694206], [112.629340000951, -7.30156544513651], [112.633053218323, -7.30401629021909], [112.632468797837, -7.30862102396591], [112.628171231826, -7.31077511154875], [112.627586868529, -7.31537963365686], [112.631299999396, -7.31782986928045], [112.63071562144, -7.32243398075438], [112.634428517559, -7.3248838199985], [112.633844124951, -7.32948752075669], [112.629546908055, -7.33164158110122], [112.628962572625, -7.33624506988044], [112.624665264689, -7.3383991313422], [112.624080986446, -7.34300240798027], [112.61978358753, -7.34515647039552], [112.619199366484, -7.34975953473029], [112.622912472484, -7.35220833798288], [112.622328236763, -7.35681099125385], [112.618030966914, -7.35896503987537], [112.614317712809, -7.35651644980469], [112.610020132117, -7.3586705136359], [112.606306495325, -7.35622174022376], [112.606890587247, -7.35161868982191], [112.603176715818, -7.34916951994482], [112.603760793029, -7.3445660584643], [112.60004668696, -7.34211649217914], [112.595748355736, -7.34427060050684], [112.59203386711, -7.34182085098102], [112.592617857612, -7.33721678002182], [112.596916408739, -7.33506265706505], [112.597500456506, -7.33045837367144], [112.593785881145, -7.32800801474107], [112.589487110118, -7.33016215230245], [112.588903134361, -7.33476663418481], [112.584604272761, -7.3369207724036], [112.584020354289, -7.34152504177824], [112.579721402178, -7.34367918049065], [112.579137541, -7.34828323719538], [112.582852559874, -7.35073295685038], [112.587151292151, -7.34857883288607], [112.590865928636, -7.35102836930298], [112.595164350498, -7.34887426046137], [112.598878604502, -7.35132361361897], [112.598294584535, -7.35592686248744], [112.602008603921, -7.3583758192199], [112.601424569233, -7.36297865692094], [112.597126587127, -7.36513273628757], [112.596542609683, -7.36973536112574], [112.60025654238, -7.37218370821623], [112.604554304603, -7.37002964362375], [112.608267854762, -7.37247780733548], [112.607683790656, -7.37707982245794], [112.603386248321, -7.37923387225182], [112.599672550214, -7.37678592171705], [112.595374697317, -7.37893998644469], [112.594790762394, -7.38354198683205], [112.598504608398, -7.38598972419154], [112.597920658748, -7.39059131307184], [112.593622935063, -7.39274536282915], [112.589908941213, -7.3902978386432], [112.585610907154, -7.39245190315023], [112.581896530989, -7.39000419552951], [112.582480336645, -7.38540221025171], [112.578765725953, -7.38295410608111], [112.579349516847, -7.37835170928135], [112.575634671626, -7.37590320861761], [112.571335887828, -7.37805731787769], [112.570752169006, -7.38265991278478], [112.574467161901, -7.3851082003293], [112.573883428298, -7.389710383707], [112.577598186686, -7.39215827474143], [112.577014438311, -7.39676004650863], [112.572716003612, -7.39891412527275], [112.572132312528, -7.40351568336754], [112.567833787494, -7.40566976152024], [112.567250153709, -7.41027110578081], [112.562951538402, -7.41242518315846], [112.562367961926, -7.41702631342304], [112.566082928654, -7.41947316844245], [112.570381324305, -7.41731910634], [112.574095909014, -7.41976577784985], [112.578393994665, -7.41761173012888], [112.582108197262, -7.42005821810819], [112.581524461877, -7.42465854062056], [112.585238430003, -7.42710463184663], [112.58953598579, -7.42495061375726], [112.593249571692, -7.42739652139225], [112.597546817182, -7.42524251772705], [112.598130696532, -7.42064259127363], [112.594417258438, -7.4181964704182], [112.590119793176, -7.42035048924145], [112.586405972784, -7.41790418481363], [112.586989765429, -7.41330364836371], [112.591287450457, -7.41114961440676], [112.595001123065, -7.41359613203822], [112.599298497739, -7.41144211264461], [112.599882419596, -7.40684156056214], [112.596168894827, -7.40439482972518], [112.596752801963, -7.39979386588529], [112.601050305821, -7.39763983109423], [112.604763682701, -7.4000867751385], [112.609060876018, -7.39793275509483], [112.609644912309, -7.39333177609261], [112.613942014855, -7.39117775596926], [112.617654861199, -7.39362472972484], [112.62195165298, -7.3914707244857], [112.625664116637, -7.39391751472256], [112.629960597522, -7.39176352441248], [112.6336726784, -7.39421013110967], [112.637968848259, -7.39205615577346], [112.638553157239, -7.38745555903877], [112.642849235986, -7.38530158406229], [112.6434336021, -7.38070077449224], [112.647729589673, -7.37854680003904], [112.651440991047, -7.38099364974798], [112.655736667277, -7.37883969049729], [112.659447685538, -7.38128635666196], [112.658863175993, -7.38588676876701], [112.654567719875, -7.38804071347748], [112.650856553199, -7.38559426061837], [112.646560785701, -7.38774822048424], [112.645976404968, -7.3923486185926], [112.649687720008, -7.39479485814784], [112.653983267426, -7.39264091289383], [112.657694199408, -7.3950869688468], [112.661989435411, -7.39293303870111], [112.665699984243, -7.395378911031], [112.66511544554, -7.39997850016255], [112.660820429657, -7.40213241571889], [112.660235948031, -7.40673179198478], [112.663946410635, -7.40917705395686], [112.66336191443, -7.41377601852648], [112.66707214235, -7.41622088342394], [112.666487631576, -7.42081943621671], [112.662192964517, -7.42297332277791], [112.661608510807, -7.42757166236665], [112.66531865252, -7.43001591674563], [112.66961309948, -7.42786204491898], [112.673322858043, -7.43030611549929], [112.672738318152, -7.43490384449689], [112.668444091297, -7.43705770156449], [112.667859608449, -7.44165521718164], [112.663565290162, -7.44380907420002], [112.659855234659, -7.44136543042704], [112.655560604961, -7.4435193021349], [112.651850166456, -7.44107547452619], [112.647555225476, -7.44322936087858], [112.643844404061, -7.44078534945472], [112.63954915193, -7.44293925040674], [112.638964941191, -7.44753714778185], [112.63466959797, -7.44969104824557], [112.634085444352, -7.45428873169723], [112.637796562204, -7.45673231639553], [112.642091685491, -7.45457843099922], [112.642675910851, -7.44998094584197], [112.646970943015, -7.44782705988594], [112.650681529838, -7.45027067411235], [112.650097232773, -7.45486796090962], [112.653807585008, -7.45731117788278], [112.658102085977, -7.45515732145281], [112.658686454709, -7.45056023308104], [112.662980864368, -7.4484063762752], [112.666690685241, -7.45084962277243], [112.66610624488, -7.45544651265321], [112.669815831128, -7.45788936181898], [112.674109709259, -7.45573553453524], [112.677818912376, -7.45817819976654], [112.67723438588, -7.46277447882419], [112.680943354356, -7.4652167466294], [112.685236700754, -7.46306294884338], [112.685821298787, -7.45846686839972], [112.682112478894, -7.45602438712335], [112.682697062403, -7.45142789442094], [112.686990537331, -7.44927408167748], [112.690699208588, -7.45171677642693], [112.690114553562, -7.45631307044202], [112.693822990139, -7.45875536774301], [112.693238320607, -7.46335124950731], [112.696946522506, -7.46579314930435], [112.696361838475, -7.47038861873783], [112.700069805701, -7.4728301209755], [112.704362308214, -7.47067636729965], [112.708069891996, -7.47311768546383], [112.707485122048, -7.47771254375786], [112.703192839736, -7.47986628262115], [112.69948510718, -7.47742517799821], [112.695192512887, -7.47957893145139], [112.694607871328, -7.48417377463884], [112.698315752607, -7.4866146657225], [112.697731096555, -7.49120909633148], [112.70143874319, -7.49364958972866], [112.700854072652, -7.49824360767943], [112.696561826918, -7.50039733081168], [112.695977213332, -7.50499113459042], [112.691684875876, -7.50714485703102], [112.69110031925, -7.51173844647666], [112.694808028623, -7.51417811499398], [112.699100145967, -7.51202440762897], [112.699684774041, -7.50743101667581], [112.703976799631, -7.50527730854786], [112.707683976987, -7.50771700640666], [112.707099277501, -7.51231019880211], [112.710806220224, -7.51474949880916], [112.715097713633, -7.51259582002099], [112.715682484493, -7.50800282624847], [112.71997388596, -7.505849146881], [112.720558713723, -7.50125593899544], [112.724850023189, -7.49910225921173], [112.725434907845, -7.49450883737419], [112.721728411709, -7.49206889654599], [112.722313281932, -7.48747506207459], [112.726604719617, -7.4853213672696], [112.727189646735, -7.48072731909509], [112.723483064843, -7.47828676686974], [112.724067977531, -7.47369230622886], [112.728359543434, -7.47153859673304], [112.728944513017, -7.46694392263813], [112.725237845375, -7.46450275910178], [112.725822800531, -7.45990767270822], [112.730114494651, -7.45775394885215], [112.733821013269, -7.46019532597046], [112.7332359868, -7.46479021335816], [112.736942270649, -7.46723119277858], [112.736357229772, -7.47182566787576], [112.740063278856, -7.47426624954311], [112.739478223578, -7.47886031226995], [112.743184037901, -7.48130049612911], [112.74747475837, -7.47914683089011], [112.748059884888, -7.47455296721802], [112.744354219707, -7.47211256972547], [112.744939331842, -7.46751829369122], [112.741233431878, -7.46507749840697], [112.741818529621, -7.46048281009032], [112.738112394871, -7.45804161706953], [112.738697478215, -7.45344651655034], [112.742988767575, -7.45129280819161], [112.743573907786, -7.44669749470227], [112.739867687374, -7.44425569041449], [112.735576177613, -7.4464094132064], [112.731869573278, -7.44396742487823], [112.732454627802, -7.43937150019382], [112.736746357962, -7.43721776299342], [112.74045281319, -7.43965996489063], [112.74474423068, -7.43750624287563], [112.745329413363, -7.43291030463112], [112.741623107294, -7.4304678891631], [112.737331469373, -7.43262162551508], [112.733624779326, -7.43017902606385], [112.729332828773, -7.43233277764806], [112.725625754839, -7.42988999423401], [112.726210780513, -7.42529324570472], [112.730502951456, -7.42313947976138], [112.734209876326, -7.42558247671117], [112.738501734672, -7.4234287260469], [112.739086888561, -7.41883196415], [112.735380112805, -7.41638875366275], [112.731088034037, -7.41854251861456], [112.727380874339, -7.41609912422178], [112.727965942494, -7.41150175136112], [112.73225824168, -7.40934797214645], [112.732843366743, -7.40475038691818], [112.737135573726, -7.40259660892993], [112.740842435186, -7.4050404303659], [112.740257238817, -7.409637816263], [112.743963865407, -7.41208124028942], [112.74337865464, -7.41667821456898], [112.747085046362, -7.41912124113025], [112.751376499622, -7.41696750696484], [112.75508250722, -7.4194103495797], [112.75449721083, -7.42400671278102], [112.750205978064, -7.42616043275256], [112.749620738522, -7.43075658355623], [112.753326660522, -7.43319881502066], [112.75761767279, -7.43104510926772], [112.76132321063, -7.43348715670823], [112.765613909878, -7.43133346632207], [112.769319063466, -7.43377532971835], [112.773609449565, -7.43162165474384], [112.774194902638, -7.42702610225274], [112.770489898481, -7.4245840252288], [112.766199291812, -7.4267377143283], [112.762493903329, -7.42429545327847], [112.763079270915, -7.41969928952278], [112.759373647533, -7.41725663087473], [112.759959000763, -7.41266005543733], [112.764250048561, -7.41050633816219], [112.764835458622, -7.40590955065027], [112.769126413844, -7.40375583496822], [112.772831738401, -7.40619892080656], [112.772246257184, -7.41079550872631], [112.775951346799, -7.41323819699985], [112.780241768128, -7.41108451096329], [112.780827320464, -7.40648812270087], [112.77712238036, -7.40404522081302], [112.777707918379, -7.39944842105364], [112.781998467609, -7.39729472290807], [112.785703258149, -7.39973783841184], [112.789993493895, -7.39758415609113], [112.793697899816, -7.40002708764237], [112.797987821949, -7.39787342119129], [112.798573558881, -7.39327680942676], [112.794869302647, -7.39083366423972], [112.790579159785, -7.39298734445765], [112.786874518859, -7.39054401533638], [112.78258406242, -7.39269771147074], [112.778879036893, -7.39025419843567], [112.77946461739, -7.38565677567016], [112.775759356874, -7.38321286515935], [112.776344923048, -7.37861503114614], [112.780635820864, -7.37646130745908], [112.781221443842, -7.37186326210668], [112.785512248871, -7.36970954073756], [112.786097928643, -7.36511128420782], [112.782392732283, -7.36266654914132], [112.782978397746, -7.35806788162166], [112.787269330673, -7.35591414913832], [112.787855052931, -7.3513152706919], [112.784149771161, -7.34886992474172], [112.784735479113, -7.34427063547482], [112.789026539936, -7.34211689220915]], [[112.686204860838, -7.42384455983936], [112.690498592825, -7.42169071817339], [112.694207436116, -7.42413463453801], [112.693622696125, -7.42873217912043], [112.689329184347, -7.43088600619276], [112.685620192361, -7.42844230327157], [112.686204860838, -7.42384455983936]], [[112.68737424028, -7.41464844814445], [112.683080288088, -7.41680230437948], [112.679370826672, -7.41435780698455], [112.679955466088, -7.40975923994938], [112.684249638481, -7.40760536916989], [112.687958951247, -7.41005007997478], [112.68737424028, -7.41464844814445]], [[112.62253581834, -7.38686973069545], [112.618823120062, -7.38442254371039], [112.61940727075, -7.37982113843565], [112.623704191571, -7.37766711864367], [112.627416741729, -7.38011451885992], [112.626832519195, -7.38471572563217], [112.62253581834, -7.38686973069545]], [[112.63092237453, -7.3525029099881], [112.635219242362, -7.35034887743102], [112.635803607092, -7.34574621050544], [112.640100383819, -7.34359217892203], [112.643812575715, -7.34604082868636], [112.648109041151, -7.34388681258592], [112.648693534806, -7.33928413238023], [112.652989908982, -7.337130117509], [112.656701569334, -7.33957879714666], [112.660997631996, -7.33742479789495], [112.661582254489, -7.33282210478365], [112.657870742619, -7.33037321190367], [112.658455350522, -7.32577010801761], [112.662751541993, -7.32361609609574], [112.663336207006, -7.31901278061282], [112.667632307033, -7.31685877041114], [112.668217029147, -7.31225524349359], [112.672513037669, -7.31010123517577], [112.67622410378, -7.31255076779137], [112.675639310016, -7.31715409547345], [112.671343521782, -7.31930808978011], [112.6707587851, -7.32391120610084], [112.674469765008, -7.32636012889171], [112.673885013763, -7.3309628345342], [112.677595758834, -7.33341136069024], [112.681891106477, -7.33125739447996], [112.68560146801, -7.33370573724248], [112.685016630614, -7.33830783291264], [112.688726757295, -7.3407557789442], [112.68814190537, -7.34535746378113], [112.683846998333, -7.34751140179632], [112.680136722926, -7.34506366907974], [112.67584150395, -7.34721762280135], [112.67213084506, -7.34476970663323], [112.667835314274, -7.34692367601657], [112.664124271994, -7.34447557641787], [112.659828429528, -7.34662956141827], [112.659243849552, -7.35123163173672], [112.662955040358, -7.353679518059], [112.667250662624, -7.35152554733452], [112.670961470114, -7.35397325020767], [112.670376803897, -7.35857471050714], [112.666081401836, -7.36072866693107], [112.665496792697, -7.3653299151162], [112.669207513972, -7.3677770078969], [112.673502695825, -7.36562306579814], [112.677213033746, -7.36806997505078], [112.676628338418, -7.37267061307008], [112.672333376778, -7.37482454081904], [112.671748738507, -7.37942496654668], [112.675458990265, -7.38187126556022], [112.674874337439, -7.38647127993773], [112.670579504469, -7.38862519420303], [112.666869104148, -7.38617910853215], [112.667453685352, -7.38157889525805], [112.663743050296, -7.37913241265853], [112.664327616927, -7.37453178802662], [112.660616747133, -7.37208490855475], [112.661201299185, -7.36748387264594], [112.657490194649, -7.36503659635807], [112.653194389607, -7.36719056927405], [112.652609909251, -7.37179180402915], [112.648314012913, -7.37394577779552], [112.644602376837, -7.37149853129313], [112.640306169193, -7.37365252030911], [112.636594150116, -7.37120509032287], [112.632297631296, -7.3733590945437], [112.628585229309, -7.37091148109457], [112.629169494356, -7.36630965019486], [112.625456857701, -7.36386164008792], [112.626041108089, -7.35925939796198], [112.630338066966, -7.35710536459489], [112.63092237453, -7.3525029099881]], [[112.641474914681, -7.36444945451807], [112.642059308682, -7.35984760977126], [112.638347203193, -7.35739956985145], [112.634050555419, -7.35955358791938], [112.633466233206, -7.36415563138864], [112.63717848697, -7.3666034580723], [112.641474914681, -7.36444945451807]], [[112.75196178164, -7.41237073207374], [112.748255539157, -7.4099274919549], [112.748840806794, -7.40533030545429], [112.753132388154, -7.40317655852956], [112.753717712652, -7.39857915996953], [112.758009201561, -7.39642541461791], [112.76171514541, -7.39886908185682], [112.761129749702, -7.40346628088185], [112.756838481346, -7.40562001220762], [112.756253142478, -7.41021699924651], [112.75196178164, -7.41237073207374]], [[112.689512416431, -7.36620886302887], [112.69322198737, -7.36865540516281], [112.692637148914, -7.3732556450302], [112.688342811054, -7.37540954187712], [112.684633091375, -7.37296321310759], [112.685217858286, -7.36836277413146], [112.689512416431, -7.36620886302887]], [[112.682878875646, -7.38676328300776], [112.686588509242, -7.38920900140719], [112.686003770304, -7.39380840539937], [112.689713169132, -7.3962537267354], [112.694007158175, -7.39409985747107], [112.697716173483, -7.396544995101], [112.697131348513, -7.40114378857718], [112.692837579735, -7.40329764344027], [112.689128415672, -7.40085271922369], [112.684834334924, -7.40300658932731], [112.681124787415, -7.40056148138617], [112.681709469326, -7.39596228995126], [112.677999687072, -7.39351678492986], [112.678584354444, -7.38891718198328], [112.682878875646, -7.38676328300776]], [[112.707473256477, -7.38303906430888], [112.711766749675, -7.38088521272927], [112.715475083561, -7.38333059350111], [112.71489007319, -7.38792961241271], [112.718598172231, -7.39037459602045], [112.718013147403, -7.39497320354013], [112.71372009494, -7.39712702667307], [112.710011846945, -7.39468225651732], [112.70571848216, -7.39683609507219], [112.702009850462, -7.39439114116901], [112.702594732421, -7.38979213528216], [112.70688831754, -7.38763828244464], [112.707473256477, -7.38303906430888]], [[112.727769082725, -7.38146813412987], [112.723476214415, -7.38362195454345], [112.71976826438, -7.38117675748214], [112.7203533317, -7.37657752655673], [112.724646420444, -7.37442369205081], [112.728354221423, -7.37686910256732], [112.727769082725, -7.38146813412987]], [[112.734013659354, -7.39555459270589], [112.734598826903, -7.39095638381499], [112.7388911621, -7.38880259312164], [112.74259810926, -7.39124702541873], [112.746890131652, -7.38909325037334], [112.750596694669, -7.39153749885905], [112.750011384549, -7.3961353088598], [112.745719582671, -7.39828906985726], [112.742012870407, -7.39584503489722], [112.737720755689, -7.3979988114957], [112.734013659354, -7.39555459270589]], [[112.732643018146, -7.27994576837638], [112.728934232331, -7.27749590244787], [112.729519582762, -7.2728919094258], [112.7338137904, -7.27073798226509], [112.737522426972, -7.2731880615218], [112.741816321644, -7.27103415107631], [112.74552457383, -7.27348404706364], [112.74493908067, -7.27808764014519], [112.740645406661, -7.28024153724709], [112.736937005157, -7.2777918546064], [112.732643018146, -7.27994576837638]], [[112.643986201698, -7.28128708370656], [112.64769897402, -7.28373856820702], [112.647114382022, -7.28834393589556], [112.64281708949, -7.29049801822202], [112.639104168767, -7.28804674686219], [112.639688688967, -7.28344118003999], [112.643986201698, -7.28128708370656]], [[112.658251376306, -7.29569662118684], [112.658836054665, -7.29109186296818], [112.66313272403, -7.288937812765], [112.66684449475, -7.29138853472231], [112.666259744687, -7.29599309368303], [112.661963295599, -7.2981471299491], [112.658251376306, -7.29569662118684]], [[112.668598829999, -7.27757361553548], [112.664886973003, -7.27512228406588], [112.665471751016, -7.27051669390796], [112.669768457718, -7.26836263462682], [112.67348016606, -7.27081417927675], [112.672895316363, -7.27541957002279], [112.668598829999, -7.27757361553548]], [[112.749231399562, -7.37069911901237], [112.748646061341, -7.37529796328523], [112.744353910792, -7.37745175056568], [112.740646877936, -7.37500670749528], [112.741232144875, -7.37040766365556], [112.745524515962, -7.36825386244842], [112.749231399562, -7.37069911901237]], [[112.712153277952, -7.34623784165209], [112.707859307511, -7.34839173227991], [112.704150183104, -7.34594455004354], [112.704735178075, -7.34134326381359], [112.70902936893, -7.33918935921713], [112.712738344389, -7.34163675482397], [112.712153277952, -7.34623784165209]], [[112.689110789998, -7.30608880897384], [112.685400256226, -7.30363924638756], [112.685985164125, -7.29903549646966], [112.682274395446, -7.29658553735674], [112.682859288805, -7.29198137710926], [112.687155022445, -7.28982737542521], [112.690865642331, -7.29227754778876], [112.695161063803, -7.29012356236684], [112.698871299892, -7.2925735514901], [112.698286263386, -7.29717731276147], [112.701996264527, -7.29962690533567], [112.701411213518, -7.30423025629255], [112.705120979716, -7.30667945226092], [112.704535914212, -7.31128239282179], [112.700241154018, -7.31343633692472], [112.696531238908, -7.31098735425986], [112.697116232894, -7.30638421419325], [112.693406082863, -7.30393483490537], [112.689110789998, -7.30608880897384]], [[112.645360691095, -7.30215879601828], [112.649073142187, -7.30460927477943], [112.648488578101, -7.30921361050093], [112.644191634695, -7.31136766651159], [112.643607127759, -7.31597179074094], [112.647319492457, -7.31842165992623], [112.646734970897, -7.32302537353626], [112.642438156414, -7.32517941693062], [112.638725643353, -7.32272976093486], [112.639310093129, -7.31812584835996], [112.635597345301, -7.31567579594492], [112.636181780435, -7.31107147274325], [112.640479035209, -7.3089174009242], [112.641063527514, -7.30431286615711], [112.645360691095, -7.30215879601828]], [[112.759184316682, -7.29248705025838], [112.754891397214, -7.29464090398001], [112.751183850274, -7.29219219812917], [112.751769372228, -7.28758942516187], [112.74806159021, -7.28514032254222], [112.748647097771, -7.28053713947702], [112.752940458649, -7.27838325908768], [112.756648091254, -7.28083257508959], [112.756062512403, -7.28543555809392], [112.759769909908, -7.28788447734424], [112.759184316682, -7.29248705025838]], [[112.131393556992, -7.79633585215017], [112.131972453706, -7.79174351837044], [112.128241770273, -7.78930490854053], [112.123932047047, -7.79145884509893], [112.123353224281, -7.79605137122987], [112.127084050784, -7.79848976845651], [112.131393556992, -7.79633585215017]], [[107.710841623561, -6.94351139124411], [107.711376507334, -6.93879260091042], [107.707450832616, -6.93623017458019], [107.7029901768, -6.9383867377688], [107.702455387202, -6.94310568276337], [107.706381159236, -6.94566790991685], [107.710841623561, -6.94351139124411]], [[112.608193898971, -8.0678962501724], [112.60877663139, -8.0633281097768], [112.605071601817, -8.06091258884817], [112.60078369254, -8.06306542233424], [112.60020103173, -8.067633757731], [112.60390620858, -8.07004906464553], [112.608193898971, -8.0678962501724]], [[112.234449744621, -7.77922068449454], [112.235029626237, -7.77462980024179], [112.239335459344, -7.77247593357119], [112.239915398919, -7.76788482605997], [112.236189431937, -7.76544739183585], [112.231883381255, -7.7676012779593], [112.231303515139, -7.7721925788488], [112.226997378354, -7.77434645454129], [112.223270890157, -7.77190904883903], [112.218964449827, -7.77406293350752], [112.215237584626, -7.77162534351652], [112.215817303709, -7.7670336560697], [112.220123961538, -7.7648797518541], [112.22070373863, -7.76028784108716], [112.216976784351, -7.75784964127785], [112.212669909028, -7.76000356501756], [112.208942577785, -7.75756518099923], [112.209522265774, -7.75297266048531], [112.213829358585, -7.75081871724447], [112.214409104603, -7.7462259735822], [112.21068168423, -7.74378697988834], [112.206374373935, -7.74594094260735], [112.20264657664, -7.74350176478441], [112.203226233502, -7.73890841151814], [112.207533761276, -7.73675442934397], [112.208113476189, -7.73216085310132], [112.204385589712, -7.72972106574605], [112.200077844465, -7.73187506735239], [112.196349581107, -7.72943509594817], [112.192041532679, -7.73158910676778], [112.191461965053, -7.73618306950697], [112.195190372184, -7.7386228282168], [112.194610788966, -7.74321637469089], [112.190302872289, -7.74537035560164], [112.186574321438, -7.74293080958267], [112.187153830975, -7.73833706996735], [112.183425047134, -7.73589712720998], [112.179116610104, -7.73805113674471], [112.17538744965, -7.73561100996061], [112.171078709801, -7.73776502852387], [112.17049934774, -7.74235915422181], [112.166190522492, -7.7445131620763], [112.165611218567, -7.74910706434315], [112.161302307983, -7.75126106132558], [112.160723062204, -7.75585474000164], [112.164452653205, -7.75829422884007], [112.168761346531, -7.75614025164213], [112.172490561146, -7.75857955639567], [112.171911225931, -7.76317262568114], [112.167602749868, -7.76532658307174], [112.163873391767, -7.76288749097894], [112.159564613132, -7.76504145707138], [112.155834878721, -7.7626021808743], [112.15152579765, -7.7647561556227], [112.15094666819, -7.76934938663822], [112.154676545958, -7.77178845019763], [112.158985409838, -7.76963449537392], [112.162714911373, -7.77207337480963], [112.167023472778, -7.76991942859463], [112.170752597983, -7.77235812388594], [112.170173305249, -7.77695055271415], [112.17390219756, -7.77938885114813], [112.178210239082, -7.77723493344082], [112.178789605556, -7.77264269745172], [112.183097561608, -7.77048876859186], [112.186825933863, -7.77292709553224], [112.186246493685, -7.77751913861564], [112.189974633005, -7.77995706861866], [112.189395177227, -7.78454869494316], [112.193123083615, -7.78698622795316], [112.192543612245, -7.79157743744025], [112.196271285703, -7.79401457340171], [112.200578286811, -7.79186071263304], [112.201157831811, -7.7872696961037], [112.205464747192, -7.7851158242286], [112.209191900163, -7.78755298864543], [112.213498512323, -7.78539912551432], [112.214078188933, -7.78080807828432], [112.218384715209, -7.77865420430296], [112.222111347393, -7.78109139719698], [112.226417570219, -7.77893753209859], [112.230143825379, -7.78137454066406], [112.234449744621, -7.77922068449454]], [[112.207203598776, -7.77134146285586], [112.202896551757, -7.77349536533861], [112.199168932837, -7.77105740683175], [112.199748504738, -7.76646533309342], [112.204055769179, -7.76431141096926], [112.207783244287, -7.76674958223005], [112.207203598776, -7.77134146285586]], [[111.92463009491, -8.05869849146919], [111.925206565326, -8.05411466010224], [111.92146959579, -8.05168396889884], [111.917156014977, -8.05383732146006], [111.916579619333, -8.05842134216349], [111.912265956321, -8.06057467607354], [111.908528473376, -8.05814401237741], [111.909104794209, -8.05355980240444], [111.905367079504, -8.05112874149119], [111.905943384137, -8.04654411121317], [111.902205437669, -8.04411265313773], [111.902781726095, -8.03952760263144], [111.899043547862, -8.03709574744882], [111.894728940543, -8.03924915510093], [111.894152727, -8.04383439482383], [111.897891045884, -8.04626603768359], [111.897314816116, -8.05085085717123], [111.893000342357, -8.05300422294733], [111.892424171257, -8.05758881125857], [111.888109615588, -8.05974215810215], [111.887533503164, -8.06432651507926], [111.891271871495, -8.0667573361567], [111.890695742833, -8.07134127265431], [111.894433879472, -8.0737716965252], [111.89385773458, -8.0783552124667], [111.89759563953, -8.0807852390762], [111.897019478416, -8.085368334385], [111.900757151679, -8.08779796367838], [111.905070845426, -8.0856447100292], [111.905647081391, -8.08106180376098], [111.909960693091, -8.07890853090373], [111.91369785329, -8.08133818760445], [111.91801116732, -8.07918491891707], [111.918587536704, -8.07460197031922], [111.914850517274, -8.07217210122174], [111.915426870483, -8.06758873208894], [111.919740317904, -8.06543542130347], [111.920316729721, -8.06085182097476], [111.92463009491, -8.05869849146919]]]}}