{"type": "Feature", "properties": {"city": "Santo Domingo de los colorados", "country": "Ecuador", "real_area": 68.36}, "geometry": {"type": "MultiLineString", "coordinates": [[[-79.1568120589112, -0.232679610658076], [-79.1525955766657, -0.229806602556332], [-79.153053656401, -0.22472414463973], [-79.14883735496, -0.221851335385105], [-79.1492954769558, -0.216769141155168], [-79.1539697750224, -0.214559671463047], [-79.1581860896109, -0.217432331222133], [-79.1628604561714, -0.215222826350822], [-79.1670769645407, -0.218095535559572], [-79.171751399372, -0.21588599554496], [-79.1759681013286, -0.218758754119792], [-79.1806426042075, -0.216549178997779], [-79.1848594995578, -0.219421986855097], [-79.1895340702613, -0.217212376661584], [-79.1937511588118, -0.220085233717788], [-79.1984257971166, -0.217875588488672], [-79.2026430786737, -0.220748494660143], [-79.2021857093898, -0.225831195331189], [-79.206403171337, -0.228704299773196], [-79.2110780149983, -0.226494554294007], [-79.2152956696854, -0.229367707641187], [-79.2148384683465, -0.234450755639791], [-79.2190563033286, -0.237324106949126], [-79.2185991443888, -0.242407418099168], [-79.2139240248671, -0.244617294062109], [-79.2134667827255, -0.249700784336663], [-79.2176847857087, -0.252574482498767], [-79.2172275859674, -0.257658235599128], [-79.2125522576356, -0.259868206639555], [-79.2120949746862, -0.264952138518649], [-79.2163131456791, -0.267826183227833], [-79.2158559051311, -0.2729103776069], [-79.2200742564528, -0.275784619621036], [-79.219617058316, -0.280869076312156], [-79.2149413832248, -0.283079207121135], [-79.2144841018653, -0.288163842106926], [-79.2187026212331, -0.291038430124402], [-79.218245382286, -0.296123327096107], [-79.2224640819883, -0.298998111998365], [-79.2220068854632, -0.304083270767887], [-79.2173308635774, -0.30629356079706], [-79.2131121761551, -0.303418627082529], [-79.2135694983311, -0.298333552162349], [-79.2093509912938, -0.295458815276975], [-79.2046751744742, -0.297669004467875], [-79.200456860296, -0.294794315683248], [-79.1957811108349, -0.297004468962937], [-79.1915629897095, -0.294129828362917], [-79.1868873078305, -0.296339945695534], [-79.1826693799517, -0.293465353363964], [-79.1779937658781, -0.295675434713661], [-79.1737760314396, -0.292800890734368], [-79.1742338982529, -0.287716414455896], [-79.1700163445133, -0.284842067994795], [-79.1704742536469, -0.279757853951347], [-79.1662568806285, -0.276883705190582], [-79.1615816114544, -0.279093621346849], [-79.1573644322155, -0.276219521275339], [-79.1526892314759, -0.278429401530665], [-79.1484722462101, -0.275555350232155], [-79.1489304485195, -0.270471567925481], [-79.1447136441427, -0.267597714762399], [-79.1400386507264, -0.269807494638525], [-79.1358220405888, -0.26693369045865], [-79.1311471161444, -0.269143434438956], [-79.1269307004395, -0.266269679325982], [-79.1222558451901, -0.268479387374631], [-79.1180396241112, -0.265605681412239], [-79.1133648382799, -0.267815353493404], [-79.1091488120205, -0.264941696765274], [-79.1096075578945, -0.259858517429478], [-79.1142822047549, -0.257648909566171], [-79.1184982447046, -0.260522416832012], [-79.1231729610742, -0.258312773077998], [-79.1236314985746, -0.253229686369849], [-79.1283061454093, -0.251020071138226], [-79.1325223935569, -0.253893478248719], [-79.1371971095457, -0.251683827274845], [-79.1376554386175, -0.246600833661538], [-79.133439177041, -0.243727575996034], [-79.1338975483474, -0.238644845655737], [-79.1385720558937, -0.236435288054478], [-79.1427883308288, -0.239308396262327], [-79.147462907265, -0.237098803144043], [-79.1516793763431, -0.239971960673357], [-79.1563540214462, -0.237762332073907], [-79.1568120589112, -0.232679610658076]], [[-78.5565909381895, -0.292697437592396], [-78.5607953535204, -0.295569516339513], [-78.560328815723, -0.30064945918801], [-78.5556577391463, -0.302857230573838], [-78.5514533450706, -0.299985000085813], [-78.5519200063085, -0.294905149963817], [-78.5565909381895, -0.292697437592396]], [[-79.1820155512769, -0.201302816406539], [-79.1862322788346, -0.204175276123558], [-79.1857746993488, -0.209257365247138], [-79.1811002668383, -0.21146691033805], [-79.176883552046, -0.208594301185845], [-79.1773412569914, -0.203512296389162], [-79.1820155512769, -0.201302816406539]]]}}