{"type": "Feature", "properties": {"city": "Gujrat", "country": "Pakistan", "real_area": 215.35}, "geometry": {"type": "MultiLineString", "coordinates": [[[74.0848558779017, 32.478937618487], [74.0855057422587, 32.4740008678333], [74.0910459620038, 32.4720261760182], [74.0959368377125, 32.4749879007898], [74.0952877593368, 32.4799247222178], [74.0897470192466, 32.4818997481341], [74.0848558779017, 32.478937618487]], [[74.2317687112228, 31.470298197908], [74.2323975993846, 31.4654048430326], [74.237847939479, 31.4634440729107], [74.2426698927094, 31.4663763230922], [74.2420417673632, 31.4712697463062], [74.2365909259483, 31.4732308510339], [74.2317687112228, 31.470298197908]], [[73.9974695860469, 32.5006311434579], [73.99812633402, 32.4956937354675], [74.0036714873043, 32.4937223767746], [74.0085604152585, 32.4966880930729], [74.0079044533528, 32.5016255734952], [74.0023587774007, 32.5035972652216], [73.9974695860469, 32.5006311434579]], [[73.0763958253317, 33.6620232935056], [73.0771358334239, 33.6570427088998], [73.0828128791665, 33.6550912046346], [73.0877504796789, 33.658119962765], [73.0870112808874, 33.6631006371549], [73.0813336722525, 33.6650524636645], [73.0763958253317, 33.6620232935056]], [[74.0379028616558, 32.5144796969703], [74.0372489602489, 32.5194180081292], [74.0317028075375, 32.5213913012926], [74.0268110785474, 32.5184259498415], [74.0274657665985, 32.5134877105498], [74.0330113970202, 32.5115147508078], [74.0336655425653, 32.5065767827967], [74.0392103662621, 32.5046036891628], [74.0441015664278, 32.507568230083], [74.0434482073914, 32.5125062698453], [74.0379028616558, 32.5144796969703]], [[74.5710727689352, 32.5165150246989], [74.5716858679458, 32.5115755028307], [74.5772117063407, 32.5095792989779], [74.5821249555366, 32.5125222768865], [74.5815126456698, 32.5174618602359], [74.575986297441, 32.51945840423], [74.5710727689352, 32.5165150246989]], [[74.3116249172434, 31.4555441123522], [74.312247662935, 31.450651230869], [74.317693946914, 31.4486874657189], [74.3225179845106, 31.4516162465271], [74.3218960016551, 31.4565091948522], [74.3164492183446, 31.4584732955609], [74.3116249172434, 31.4555441123522]], [[74.2202453853015, 32.6567156660656], [74.2146940657893, 32.6586994653454], [74.2097845469981, 32.6557383883608], [74.2042329352094, 32.6577217185497], [74.199323915232, 32.6547602409324], [74.1999667772633, 32.6498158374169], [74.1950585263546, 32.6468543636391], [74.1895071434441, 32.6488368890855], [74.1845993916684, 32.6458750150373], [74.185243292542, 32.6409310199248], [74.1803363096728, 32.6379691501697], [74.1809804585267, 32.6330254949084], [74.1760742443912, 32.6300636296843], [74.1767186410815, 32.6251203144499], [74.171813195507, 32.6221584539947], [74.1662630841191, 32.6241395043468], [74.1613581380171, 32.6211772444146], [74.1620035721942, 32.616234338648], [74.1675531627037, 32.6142536235143], [74.1724578398901, 32.6172154789631], [74.1780071400032, 32.6152342952874], [74.1829123163648, 32.618195751328], [74.1822684618504, 32.6231387954247], [74.1871744065896, 32.6261002562563], [74.1927239363571, 32.6241182686112], [74.1976303799532, 32.6270793296726], [74.2031796183371, 32.6250968734611], [74.208086560482, 32.6280575346056], [74.2136355071001, 32.6260746098813], [74.2185429474858, 32.6290348709625], [74.2240916019558, 32.6270514777791], [74.2289995402741, 32.6300113386506], [74.2283590947316, 32.6349549967876], [74.2228099204692, 32.6369387259072], [74.2221689332348, 32.6418826555534], [74.2270779108289, 32.6448429242101], [74.2264371724243, 32.6497871933697], [74.2313469188815, 32.6527474654571], [74.2307064294507, 32.6576920739541], [74.2251554025978, 32.6596763422711], [74.2202453853015, 32.6567156660656]], [[74.1199024588385, 32.6548126282188], [74.1205513977449, 32.6498684400408], [74.1261053339642, 32.6478888645035], [74.1310108536143, 32.6508531424388], [74.1303627051148, 32.6557974006615], [74.1248082465338, 32.6577773109385], [74.1199024588385, 32.6548126282188]], [[73.9593279828808, 32.707188174662], [73.9537630735332, 32.7091616726467], [73.9488604424347, 32.7061889514117], [73.9495229843726, 32.7012431381719], [73.9446211243326, 32.6982704244453], [73.9452839100687, 32.6933249513873], [73.9508477652921, 32.6913521186445], [73.9557493618001, 32.6943244264039], [73.9613129337115, 32.6923511220466], [73.9662150372645, 32.6953230314359], [73.9655538327627, 32.7002686510483], [73.9704567071848, 32.7032405677512], [73.9697957469094, 32.7081865273784], [73.9642311213164, 32.7101604972434], [73.9593279828808, 32.707188174662]], [[74.4961423285566, 32.5246814333398], [74.4906122354588, 32.5266744804796], [74.485701557885, 32.5237274851986], [74.4863212504188, 32.5187878450289], [74.4918508316054, 32.5167951369968], [74.4967612321467, 32.519741730061], [74.5022905122814, 32.5177485577833], [74.5072014004898, 32.5206947495822], [74.5065832859129, 32.5256345157703], [74.5010534940919, 32.5276280272846], [74.4961423285566, 32.5246814333398]], [[74.3391944375212, 31.5249966846136], [74.3398157679813, 31.5201006294825], [74.3452668338292, 31.518134287259], [74.3500970689721, 31.5210636642055], [74.3494765030878, 31.5259597856339], [74.3440249374624, 31.5279264638523], [74.3391944375212, 31.5249966846136]], [[73.9853462195187, 32.5519883663244], [73.9860044104258, 32.5470488463811], [73.9915543593189, 32.5450770282463], [73.9964466410456, 32.5480443971492], [73.9957892373834, 32.552983989739], [73.9902387647247, 32.5549561408135], [73.9853462195187, 32.5519883663244]], [[74.2027693880812, 32.5875390466578], [74.2034113239923, 32.5825974298418], [74.2089565691181, 32.5806155833527], [74.2138603977062, 32.583575018019], [74.2132192509746, 32.5885167033218], [74.2076734864514, 32.5904988855057], [74.2027693880812, 32.5875390466578]], [[74.3233095108366, 31.5681064321905], [74.3239324455723, 31.56320848922], [74.3293876597839, 31.5612419144754], [74.3342204400245, 31.5641729468719], [74.3335982707983, 31.5690709564228], [74.3384317945564, 31.5720020114736], [74.3378098682361, 31.5769003795223], [74.3323536524241, 31.578867626056], [74.327519863768, 31.5759361685813], [74.3281425557995, 31.5710378670307], [74.3233095108366, 31.5681064321905]], [[74.1709789476739, 32.1427108851672], [74.1716189380242, 32.1377881749704], [74.1771276607243, 32.1358163784838], [74.1819969061332, 32.1387669574638], [74.1813576941291, 32.1436897369138], [74.1758484583462, 32.1456618681647], [74.1709789476739, 32.1427108851672]], [[74.3162939634964, 31.5005555399448], [74.3169167850932, 31.4956606302894], [74.3223666377153, 31.4936957405535], [74.3271941686313, 31.496625424826], [74.3265721109384, 31.5015204012189], [74.3211217584033, 31.5034856266356], [74.3162939634964, 31.5005555399448]], [[74.1714210415898, 32.5846008757378], [74.1720653445947, 32.5796594655811], [74.1776114621533, 32.5776790221109], [74.1825137967478, 32.5806396535298], [74.1818702826998, 32.5855811327728], [74.1763236450763, 32.5875619115448], [74.1714210415898, 32.5846008757378]], [[73.7216034139085, 32.9325464901853], [73.722285706343, 32.9275921452176], [73.7173762517915, 32.9246052082067], [73.7180587851975, 32.9196512005092], [73.7236499782987, 32.9176840521352], [73.7285591738594, 32.9206705815484], [73.7278774353364, 32.9256246668991], [73.7327874077959, 32.9286112035761], [73.7383788595106, 32.9266432473365], [73.7432893495707, 32.9296293835275], [73.7426086474192, 32.9345838834347], [73.7370166599984, 32.9365521698158], [73.7321059104617, 32.9335656261141], [73.7265136455411, 32.935533434439], [73.7216034139085, 32.9325464901853]], [[74.2109959858293, 32.1988133970946], [74.2116334849761, 32.1938881779113], [74.217145511818, 32.1919135770909], [74.2220205525523, 32.1948638601584], [74.2213838332794, 32.199789147815], [74.2158712933748, 32.201764083965], [74.2109959858293, 32.1988133970946]], [[74.1115509400464, 32.4364863371756], [74.1121983465455, 32.4315512963996], [74.1177340156134, 32.4295762814491], [74.1226227972226, 32.4325359729246], [74.1219761758139, 32.437471083981], [74.1268657216284, 32.4404307850714], [74.1324016225552, 32.4384549704743], [74.1372916662447, 32.4414142763682], [74.1366460755337, 32.4463498014005], [74.1311096557331, 32.4483259505749], [74.1262193455415, 32.4453662401056], [74.1206826383147, 32.4473419238867], [74.1157928262932, 32.4443818181531], [74.1164399876813, 32.4394464333158], [74.1115509400464, 32.4364863371756]], [[74.4789824471787, 32.4931382971723], [74.4796023623942, 32.4881999555086], [74.4851295960356, 32.4862081395563], [74.4900374260243, 32.4891543263138], [74.4894182989829, 32.4940927312285], [74.483890553756, 32.496084886169], [74.4789824471787, 32.4931382971723]], [[74.1809629478731, 32.1062849456364], [74.1816018242951, 32.101363775248], [74.1871071246334, 32.099392277443], [74.1919740608135, 32.1023416152186], [74.1913359619185, 32.1072628546835], [74.1858301492928, 32.1092346873303], [74.1809629478731, 32.1062849456364]], [[74.5465035330957, 32.5442594681719], [74.5471187718596, 32.539318835387], [74.5526478655945, 32.5373231271284], [74.5575622313775, 32.5402677118136], [74.5569477823224, 32.5452084065366], [74.5514181777531, 32.5472044546708], [74.5465035330957, 32.5442594681719]], [[74.4992744988824, 32.457536377042], [74.4998925264628, 32.4525994878306], [74.5054160026495, 32.4506075141069], [74.5103219617952, 32.4535520904364], [74.5097047216187, 32.4584890425271], [74.50418073487, 32.4604813554435], [74.4992744988824, 32.457536377042]], [[73.9559998486382, 32.5341790211633], [73.9566600995395, 32.5292403333357], [73.9622095659667, 32.5272701172205], [73.9628692730699, 32.5223316994721], [73.9684179333109, 32.5203613477897], [73.9733074103148, 32.5233290812684], [73.9788557880989, 32.5213582615805], [73.9837457689569, 32.5243256000168], [73.9830876349921, 32.5292641637563], [73.987978382633, 32.5322315125845], [73.9873204919603, 32.5371704194485], [73.9817710668016, 32.5391419047056], [73.9768800560436, 32.5361741502489], [73.9713303479886, 32.5381451672361], [73.9664398413742, 32.5351770174547], [73.9608898508045, 32.5371475661211], [73.9559998486382, 32.5341790211633]], [[74.2756277697157, 31.5338890339489], [74.2762539675895, 31.5289927288513], [74.2817080345229, 31.5270288342554], [74.286536404882, 31.5299609095581], [74.285910971504, 31.5348572821467], [74.2804564032486, 31.5368215119754], [74.2756277697157, 31.5338890339489]], [[74.3186308805851, 31.5230680096273], [74.319253739991, 31.5181720876727], [74.3247053786585, 31.5162066360174], [74.329534658102, 31.5191367706087], [74.3289125631347, 31.5240327592485], [74.323460424263, 31.5259985466456], [74.3186308805851, 31.5230680096273]], [[74.0676044291193, 32.6498757294914], [74.068257318924, 32.6449318945383], [74.0738126954652, 32.6429546673776], [74.0787157056498, 32.6459209411238], [74.0842707948929, 32.6439432441829], [74.0891743075852, 32.646909119062], [74.088522997912, 32.6518530959054], [74.082967385418, 32.6538311270587], [74.0780636058728, 32.650864847122], [74.0725077058587, 32.6528424083632], [74.0676044291193, 32.6498757294914]], [[74.1126227303373, 32.5490582543003], [74.1132711731999, 32.5441184892298], [74.1188163651429, 32.5421412556823], [74.1237136350337, 32.545103452711], [74.1230659799814, 32.5500432880024], [74.1175202672036, 32.5520208560784], [74.1126227303373, 32.5490582543003]], [[73.7027731454943, 32.9533126259993], [73.7034571009168, 32.9483575034552], [73.7090512692838, 32.9463904702053], [73.7139620188981, 32.9493782297471], [73.7132788589805, 32.954333430216], [73.707684153917, 32.9563007932525], [73.7027731454943, 32.9533126259993]], [[73.068250314468, 33.608120243685], [73.0689903363103, 33.6031417707305], [73.0746629266656, 33.6011915280945], [73.0795960572878, 33.6042194363512], [73.0788568433467, 33.6091979992539], [73.073183690852, 33.6111485639858], [73.068250314468, 33.608120243685]], [[74.1196743207347, 32.4147725991023], [74.1203208927235, 32.4098384506896], [74.1258544317457, 32.4078635090945], [74.1307419172907, 32.4108223814865], [74.1300961299097, 32.4157566000325], [74.1245620723518, 32.4177318760873], [74.1196743207347, 32.4147725991023]], [[74.0947291091469, 32.6449309523932], [74.0953798749932, 32.6399872451619], [74.1009338657141, 32.6380089432318], [74.1058376133406, 32.6409740141532], [74.1051876375371, 32.6459177919134], [74.0996331240397, 32.6478964282577], [74.0947291091469, 32.6449309523932]], [[74.1575167594085, 32.2461361371943], [74.1581587868261, 32.2412090369357], [74.1636767117331, 32.2392357736522], [74.1685531242112, 32.2421892759351], [74.1679118775424, 32.2471164456661], [74.1623934376228, 32.249090043676], [74.1575167594085, 32.2461361371943]], [[74.2497118260154, 32.6744777329893], [74.2503510256266, 32.6695323785889], [74.2559019856955, 32.6675468360444], [74.2608142658401, 32.6705063115575], [74.2601758577421, 32.6754517335147], [74.2546243779624, 32.6774376124365], [74.2497118260154, 32.6744777329893]], [[74.1409594910311, 32.2520549599355], [74.141602835566, 32.2471276517402], [74.1471218486759, 32.2451549760538], [74.1519980327058, 32.2481092740686], [74.1513554689813, 32.2530366520488], [74.1458359403926, 32.2550096622635], [74.1409594910311, 32.2520549599355]], [[73.0428482853247, 33.5979546064863], [73.0435901548584, 33.5929766422158], [73.0492626990646, 33.5910277136869], [73.0541939362425, 33.5940564277113], [73.0534528741922, 33.5990344824187], [73.0583849061261, 33.602063202807], [73.057644076478, 33.6070415856096], [73.0519704071553, 33.6089911577028], [73.0470381300917, 33.6059620251462], [73.0477797674501, 33.6009837326989], [73.0428482853247, 33.5979546064863]], [[74.2533336564076, 31.3832215118058], [74.2539600926881, 31.378332019376], [74.2594024497623, 31.3763721573467], [74.2642188700517, 31.3793014530384], [74.2635931946653, 31.3841910134316], [74.2581503380729, 31.3861512102034], [74.2533336564076, 31.3832215118058]], [[74.0685639053764, 32.5223890032309], [74.0692154463935, 32.5174504776659], [74.0643224774593, 32.5144867188884], [74.0649742632502, 32.5095485362211], [74.0705182312633, 32.5075740411435], [74.0754109348385, 32.5105373948816], [74.0809546168619, 32.5085624327598], [74.0816050741586, 32.5036244508895], [74.0767126360572, 32.5006615021447], [74.0773633382664, 32.4957238633538], [74.0829056921369, 32.4937491023514], [74.0835558528631, 32.4888117358084], [74.0890973997982, 32.4868368422227], [74.0939893066081, 32.4897989811201], [74.0933399322105, 32.4947364184696], [74.0982326046577, 32.4976985663811], [74.0975834754532, 32.5026363468171], [74.10247691371, 32.5055985035061], [74.1018280298412, 32.5105366268544], [74.0962849209394, 32.5125125229084], [74.0956354955853, 32.5174509184387], [74.1005299660718, 32.520413488505], [74.0998807861267, 32.5253522266823], [74.1047760229493, 32.5283148050316], [74.1041270885557, 32.5332538856813], [74.109023091887, 32.536216472077], [74.1083744031875, 32.5411558950245], [74.1028289236092, 32.5431326611063], [74.1021796930117, 32.5480723557565], [74.1070767297029, 32.5510353547794], [74.1064277448731, 32.5559753914615], [74.1113255486002, 32.5589383980355], [74.1106768096809, 32.5638787765748], [74.1155753806165, 32.5668417904629], [74.1149268877506, 32.5717825106845], [74.109379035629, 32.5737601466836], [74.1087300004517, 32.5787011381276], [74.1136296058793, 32.5816645638915], [74.1129808168292, 32.5866058967515], [74.1178811899933, 32.5895693293336], [74.123430084939, 32.5875910242445], [74.1283309585369, 32.5905540586525], [74.1276832046893, 32.5954958028702], [74.132584846187, 32.5984588436436], [74.1381339737841, 32.5964797354784], [74.1387809386244, 32.5915379213434], [74.1443292560216, 32.5895586796937], [74.1492311295668, 32.5925209173122], [74.148584953809, 32.5974628011645], [74.1534875952343, 32.6004250447177], [74.1528416665266, 32.6053672693835], [74.1577450760047, 32.608329518634], [74.1570993944906, 32.6132720839379], [74.151549513967, 32.6152523304766], [74.1509032900705, 32.620195166778], [74.1453525985917, 32.6221752796242], [74.1447058321063, 32.6271183867159], [74.1496105469323, 32.6300814505767], [74.155161759764, 32.6281010027129], [74.1600669746675, 32.631063667175], [74.1656178974224, 32.6290827504003], [74.1705236120957, 32.6320450153168], [74.169878673023, 32.6369886014816], [74.1747851564405, 32.6399508711447], [74.1741404651355, 32.644894797245], [74.17904771747, 32.6478570714168], [74.1784032740763, 32.6528013372767], [74.1833112955009, 32.6557636157193], [74.1826671001624, 32.6607082211629], [74.1771140925933, 32.6626904791544], [74.1722058016342, 32.6597277962708], [74.1728507877546, 32.654783259871], [74.1679432660689, 32.6518205812358], [74.1623904890018, 32.653802034525], [74.1574834673632, 32.6508389558442], [74.1581294918207, 32.6458948284407], [74.1532232392927, 32.6429317544621], [74.1538695112365, 32.6379879669867], [74.148964027646, 32.6350248979481], [74.1434120035149, 32.6370052117962], [74.1385070202996, 32.6340417432904], [74.1391543295803, 32.6290983656158], [74.1342501151394, 32.6261349025033], [74.1348976714066, 32.6211918651925], [74.129994225567, 32.6182284077111], [74.1306420286774, 32.6132857109396], [74.1361924880822, 32.6113064017502], [74.1368397485354, 32.6063639757446], [74.131937338965, 32.603400928843], [74.1263874010762, 32.6053799032703], [74.1214854919204, 32.6024164577637], [74.1159352653865, 32.6043949635686], [74.1110338569521, 32.6014311196041], [74.1054833421555, 32.6034091567339], [74.1048337138575, 32.6083513722929], [74.0992823889982, 32.6103292750626], [74.0986322176318, 32.6152717610396], [74.1035341604433, 32.618236414746], [74.1028842352823, 32.6231792415144], [74.107786946724, 32.6261439014987], [74.1071372679116, 32.6310870688828], [74.1015840879402, 32.6330655058202], [74.0966811092998, 32.6301004409173], [74.097331577805, 32.6251573440299], [74.0924293679773, 32.622192285383], [74.0868764227189, 32.6241699186709], [74.0862251645966, 32.6291129448615], [74.0806714090017, 32.6310904430277], [74.0757694344918, 32.6281245808107], [74.0764214821554, 32.6231816255168], [74.0715202764764, 32.6202157699872], [74.065966756804, 32.6221924646629], [74.0653139196753, 32.6271353488603], [74.0597595899887, 32.629111908046], [74.0548586208368, 32.6261452491057], [74.0555122473544, 32.6212024362048], [74.050612047051, 32.6182357843833], [74.0450579544958, 32.6202115402382], [74.0401582573401, 32.6172444904926], [74.0346038789178, 32.6192197768591], [74.0297046852159, 32.6162523293372], [74.0241500213095, 32.6182271461637], [74.0234940270841, 32.6231697439761], [74.0179385538096, 32.6251444245767], [74.0172820150777, 32.6300872914873], [74.0117257323448, 32.6320618356081], [74.0110686488999, 32.6370049714089], [74.0055115566185, 32.6389793787957], [74.0006120725783, 32.636010317122], [74.0012699453778, 32.6310672536496], [74.0068265128879, 32.6290931794883], [74.0074838408384, 32.6241503847898], [74.0130395990522, 32.6221761739648], [74.01369638236, 32.6172336482482], [74.0192513313677, 32.6152593010135], [74.0199075702391, 32.6103170444868], [74.0254617101308, 32.6083425610965], [74.0261174047721, 32.6034005739676], [74.0316707356382, 32.6014259546755], [74.0323258862555, 32.5964842371521], [74.0378784081862, 32.5945094822121], [74.0385330149857, 32.589568034502], [74.0336358883407, 32.5866014135282], [74.02808388989, 32.588575834954], [74.0231872664261, 32.5856088169186], [74.0238429061879, 32.580667782858], [74.0293943811896, 32.5786936948845], [74.0342907398537, 32.5816603075535], [74.0398419297112, 32.5796857508036], [74.0404962376824, 32.574744914941], [74.0460466190369, 32.5727702231206], [74.0467003836721, 32.5678296575776], [74.0418045549543, 32.564863855503], [74.0362546965455, 32.5668382137314], [74.0313593704225, 32.5638720149456], [74.0320141675327, 32.5589318632612], [74.027119608862, 32.5559656732753], [74.0215699885042, 32.557939229645], [74.016675932742, 32.5549726433112], [74.0173317616835, 32.5500329060264], [74.0124384732085, 32.5470663289445], [74.013094546151, 32.5421269342689], [74.0186431203301, 32.5401540445091], [74.0235361446158, 32.5431202161853], [74.0228808589365, 32.5480596829927], [74.027774650328, 32.5510258639421], [74.0333234629374, 32.5490521727116], [74.0382177569403, 32.5520179573806], [74.0437662845243, 32.5500437980049], [74.0444199954477, 32.5451041875321], [74.0499677152123, 32.5431298937324], [74.0506208833508, 32.5381905541762], [74.0561677953864, 32.5362161262058], [74.0568204209456, 32.5312770577731], [74.0519269216383, 32.5283124887777], [74.0525797918323, 32.5233737630607], [74.0581253743496, 32.5213995349197], [74.0630186085278, 32.524363698783], [74.0623665253424, 32.5293024958853], [74.0672605260654, 32.5322666686554], [74.0666086877266, 32.5372058083899], [74.0715034551671, 32.5401699898303], [74.0770497953637, 32.5381946264591], [74.0819450639057, 32.5411584113116], [74.0874911176109, 32.539182580318], [74.0881413812812, 32.5342432985782], [74.0832463786429, 32.5312799187007], [74.0838968875837, 32.526340979426], [74.0894416119513, 32.5243653492074], [74.090091578996, 32.5194266817015], [74.0851976087216, 32.516463715251], [74.0796534055411, 32.5184390113902], [74.0790026514724, 32.5233776080252], [74.0734576406738, 32.5253527709366], [74.0685639053764, 32.5223890032309]], [[74.101232309179, 32.595503039958], [74.0963321698742, 32.5925388044575], [74.090781889349, 32.5945160385544], [74.0901312260011, 32.5994578424228], [74.0950316320721, 32.6024224828611], [74.1005824347494, 32.6004449144589], [74.101232309179, 32.595503039958]], [[73.7237848142891, 32.9553533550742], [73.7244671786191, 32.9503980768816], [73.7300607930519, 32.9484300867336], [73.734972579382, 32.9514170447554], [73.7342910107222, 32.9563724004705], [73.7286968600356, 32.9583407206755], [73.7237848142891, 32.9553533550742]], [[74.3027325689402, 31.5661749058059], [74.3033570344882, 31.5612770965788], [74.3088128211759, 31.5593114143435], [74.3136446435076, 31.5622432057593], [74.3130209433312, 31.5671410819551], [74.3178535092043, 31.5700728964432], [74.3172300515304, 31.5749711313014], [74.3220633611087, 31.577902968633], [74.3214401460749, 31.5828015619872], [74.326274199522, 31.5857334219336], [74.3256512272658, 31.5906323736174], [74.3201934355631, 31.5925993986664], [74.3195699400433, 31.5974986418735], [74.3141113602601, 31.5994655558142], [74.3092767775523, 31.5965328907814], [74.3038179113719, 31.5984993577017], [74.3031931261487, 31.6033988252892], [74.2977334719483, 31.6053651806776], [74.2928991049806, 31.6024317329036], [74.2935246563771, 31.597532332457], [74.2989838085906, 31.5955663126097], [74.2996088362608, 31.5906672032657], [74.3050672006943, 31.5887010719511], [74.3099010391819, 31.5916337144087], [74.315359117432, 31.5896671362006], [74.3159828556652, 31.5847682512391], [74.3111492815786, 31.5818360113683], [74.3117732623876, 31.5769374848186], [74.3069404321818, 31.5740052677717], [74.307564655429, 31.5691070998002], [74.3027325689402, 31.5661749058059]], [[74.5833492957307, 32.5026437282285], [74.5839613261004, 32.4977047630443], [74.5894855374085, 32.4957083129065], [74.5943982276591, 32.4986504877138], [74.5937869861507, 32.503589514151], [74.5882622655082, 32.5055863045625], [74.5833492957307, 32.5026437282285]], [[73.7405659162623, 32.9494485762319], [73.7412469307887, 32.9444934798511], [73.7468394539504, 32.9425248632666], [73.7517514983351, 32.9455110128318], [73.7510712794262, 32.9504661864157], [73.7454782204886, 32.9524351332656], [73.7405659162623, 32.9494485762319]], [[74.1490499809664, 32.2303745096292], [74.1496924971152, 32.2254481045042], [74.1552093920838, 32.2234755104869], [74.1600842858346, 32.2264289870267], [74.1594425500172, 32.2313554617904], [74.1539251400938, 32.2333283904097], [74.1490499809664, 32.2303745096292]], [[74.309756120758, 31.4702240654671], [74.3103791461757, 31.4653305297098], [74.315826714306, 31.4633665376996], [74.3206517565923, 31.4662957459234], [74.3200294943434, 31.4711893485525], [74.314581426617, 31.4731536761198], [74.309756120758, 31.4702240654671]], [[73.7048246979992, 32.9384478542997], [73.7055083397067, 32.9334933278168], [73.711101158457, 32.9315264757514], [73.716010871878, 32.9345138204049], [73.715328025323, 32.9394684247773], [73.709734670168, 32.9414356066408], [73.7048246979992, 32.9384478542997]], [[74.1629067451371, 32.1643757744608], [74.1635475605934, 32.1594521559854], [74.1586775197297, 32.1565003648123], [74.1593185791155, 32.1515770952912], [74.1648289007731, 32.1496055474274], [74.169698676597, 32.1525569344892], [74.17520871206, 32.1505849274924], [74.180078980087, 32.1535359247733], [74.1855887289813, 32.1515634586957], [74.1862276967135, 32.1466403301979], [74.1917366457717, 32.1446677400483], [74.1923750793569, 32.1397448915425], [74.1875053423265, 32.1367947022082], [74.1881440202507, 32.1318722028384], [74.1936516569449, 32.1298998238273], [74.1985211283097, 32.1328496092588], [74.2040284779674, 32.130876771713], [74.2088984403619, 32.1338261674217], [74.2144055026096, 32.1318528713937], [74.2192759557326, 32.1348018772352], [74.2186396128782, 32.1397245828378], [74.2131320384482, 32.141698214086], [74.2082613190784, 32.1387488044774], [74.2027534570202, 32.140721977114], [74.2021158019267, 32.1456448944782], [74.206986787432, 32.148594707901], [74.2063493770257, 32.1535179741468], [74.2112211198545, 32.1564678012148], [74.2105839542761, 32.1613914161707], [74.2050742669383, 32.1633651354004], [74.2044365672137, 32.168289030286], [74.2093093339181, 32.1712392745848], [74.2086718790951, 32.1761635179207], [74.2135454036405, 32.1791137753763], [74.21290819386, 32.1840383669909], [74.2073966800526, 32.1860126325439], [74.2025228890556, 32.1830619712433], [74.1970110874319, 32.1850357772496], [74.1963725635755, 32.1899605796602], [74.1908599610382, 32.1919342610753], [74.1902209023615, 32.1968593427191], [74.1847074988199, 32.198832899293], [74.1840679051204, 32.2037582599671], [74.1785537004837, 32.2057316914501], [74.1779135715587, 32.2106573309513], [74.1827884272457, 32.2136096081011], [74.182148543027, 32.2185355954384], [74.1766330229631, 32.220509236448], [74.1717579013831, 32.2175565552188], [74.1723985657362, 32.2126306370935], [74.1675242030755, 32.209677968895], [74.1681651119266, 32.2047523986888], [74.1736796035361, 32.202779427352], [74.1743199770266, 32.1978541358586], [74.1798336676975, 32.1958810392485], [74.1804735060299, 32.1909560266709], [74.1756004332979, 32.1880041799331], [74.1762405161223, 32.1830795156236], [74.181752892255, 32.1811066288686], [74.1823924401912, 32.1761822437664], [74.177520391258, 32.1732308146178], [74.1781601836128, 32.1683067780439], [74.1732888925519, 32.1653553626906], [74.167777543714, 32.1673275798756], [74.1629067451371, 32.1643757744608]], [[74.1946922830327, 32.1623881646166], [74.2002022579057, 32.1604149044922], [74.2008402023912, 32.1554913582285], [74.1959689508616, 32.1525411409446], [74.1904594889102, 32.1545140660505], [74.1898207655903, 32.1594375434247], [74.1946922830327, 32.1623881646166]], [[74.1211224234528, 32.5648640210034], [74.1217703742133, 32.5599235722112], [74.1273166078556, 32.5579456695446], [74.1322154116075, 32.5609078810516], [74.1377613567903, 32.5589295107092], [74.1426606600951, 32.5618913244623], [74.1420142858778, 32.5668319131611], [74.1364678200224, 32.5688106182876], [74.1315682490811, 32.5658483998969], [74.1260214945445, 32.5678266372163], [74.1211224234528, 32.5648640210034]], [[73.1212858534466, 33.6134999941077], [73.1220218348335, 33.6085210734491], [73.1276931271348, 33.6065683506743], [73.132628999053, 33.60959422579], [73.1318938260413, 33.6145732353783], [73.1262219727061, 33.6165262809555], [73.1212858534466, 33.6134999941077]], [[74.4433924224663, 32.4823838710824], [74.4440149537025, 32.4774460614678], [74.4495425744352, 32.4754559754134], [74.4544481761418, 32.4784033604687], [74.4538264326608, 32.4833412340184], [74.4482982996951, 32.4853316586121], [74.4433924224663, 32.4823838710824]], [[74.5379072712046, 32.5284885679299], [74.538523018327, 32.5235486142135], [74.5440510904669, 32.5215535855199], [74.5446663024719, 32.5166139094066], [74.5501935611314, 32.5146187565692], [74.5508082382248, 32.5096793582632], [74.5458964456199, 32.5067351748411], [74.5403696974711, 32.5087299879225], [74.539754231439, 32.5136693241476], [74.5342266700596, 32.5156640131518], [74.5293150854707, 32.5127190262692], [74.5237872217498, 32.5147132513833], [74.5188761239147, 32.5117678630201], [74.513347958231, 32.5137616241873], [74.5084373474591, 32.5108158344866], [74.5029088801911, 32.5128091316501], [74.497998756792, 32.5098629407551], [74.4986173778899, 32.5049238548525], [74.4937080191304, 32.5019776650991], [74.4943268932723, 32.4970389196027], [74.4998543377431, 32.4950463008596], [74.5004726765411, 32.4901078328936], [74.5059993087412, 32.4881150896502], [74.510908113257, 32.4910604751613], [74.5164344441692, 32.4890672683571], [74.5170514596565, 32.4841290153887], [74.5121429324266, 32.4811840319273], [74.5127602011536, 32.4762461196352], [74.5182852091011, 32.4742531281469], [74.5231934589359, 32.4771977096062], [74.5287181652887, 32.4752042549277], [74.529334111397, 32.4702665582698], [74.5244261390664, 32.467322378765], [74.5250423385445, 32.4623850229632], [74.5305657226245, 32.4603917842372], [74.5354734173418, 32.4633355618354], [74.5348580056148, 32.4682729800319], [74.5397664638642, 32.4712167589121], [74.5391513057161, 32.4761545178791], [74.5440605276667, 32.4790982978039], [74.5495846296964, 32.4771039169152], [74.554494337241, 32.4800472958584], [74.5538802210543, 32.4849854574445], [74.5587906924531, 32.4879288369808], [74.5581768303435, 32.4928673389009], [74.5630880657656, 32.4958107187926], [74.5686128845651, 32.4938151950361], [74.5735246052399, 32.4967581733755], [74.572911786077, 32.5016970771068], [74.5673864574919, 32.5036929408804], [74.5624744578776, 32.5007495608711], [74.5569488258884, 32.5027449612398], [74.5563346835007, 32.5076840815342], [74.5612469619458, 32.5106278632611], [74.5606330738595, 32.5155673234482], [74.565546116851, 32.5185111050313], [74.5649324832111, 32.5234509049353], [74.5594050173405, 32.5254468614952], [74.5544916954418, 32.5225026781703], [74.5489639262472, 32.5244981708256], [74.5483489684141, 32.5294381866515], [74.5428203854889, 32.5314335550965], [74.5379072712046, 32.5284885679299]], [[74.5102905627719, 32.4959990059788], [74.5047634194355, 32.497992088468], [74.5041453337468, 32.5029308969302], [74.5090551798942, 32.5058766857036], [74.5145828343917, 32.5038832639064], [74.5152001315581, 32.4989443926782], [74.5102905627719, 32.4959990059788]], [[74.5274859919768, 32.4850802672158], [74.5268697647308, 32.4900185827218], [74.5317795425373, 32.4929631664138], [74.5373052697388, 32.490969032658], [74.5379207086746, 32.4860306548142], [74.5330112087416, 32.4830864730297], [74.5274859919768, 32.4850802672158]]]}}