{"type": "Feature", "properties": {"city": "Rio de Janeiro", "country": "Brazil", "real_area": 740.16}, "geometry": {"type": "MultiLineString", "coordinates": [[[-43.532745737846, -22.7707735864187], [-43.5318356780374, -22.7754582979176], [-43.5267561125159, -22.7771451628238], [-43.5225866449112, -22.7741473472999], [-43.5234967785442, -22.769462598878], [-43.5285763059692, -22.7677757028915], [-43.5294863814512, -22.7630905921898], [-43.5345658149687, -22.7614034019852], [-43.5387352110268, -22.7644013535165], [-43.5378252093979, -22.7690864272368], [-43.532745737846, -22.7707735864187]], [[-43.4027322416053, -22.7306224468107], [-43.3985632259573, -22.7276195681086], [-43.3994743035316, -22.7229327893574], [-43.404554323577, -22.7212489249867], [-43.4087233053947, -22.7242518713266], [-43.407812301009, -22.7289386143879], [-43.4027322416053, -22.7306224468107]], [[-43.3815002888226, -22.7420418590349], [-43.3773312271988, -22.7390388167867], [-43.3782424933265, -22.7343527282842], [-43.3833227480057, -22.7326697175006], [-43.3874917761222, -22.7356728273626], [-43.3865805830785, -22.740358880383], [-43.3815002888226, -22.7420418590349]], [[-43.7780782996662, -22.8774802239956], [-43.7739079935607, -22.8744929753809], [-43.7748161973877, -22.8698127430321], [-43.779894632224, -22.868119798696], [-43.784064898758, -22.8711071160709], [-43.7831567700389, -22.8757873090101], [-43.7780782996662, -22.8774802239956]], [[-43.2879630884966, -22.6853012648189], [-43.2837945400079, -22.682293643703], [-43.284706480348, -22.6776048873306], [-43.2805379876166, -22.6745969014578], [-43.2814499431388, -22.6699077475991], [-43.2865303188244, -22.6682266141125], [-43.2906987795331, -22.6712346672594], [-43.2897868965907, -22.6759237866074], [-43.2939554130061, -22.67893147502], [-43.293043545264, -22.6836201968476], [-43.2879630884966, -22.6853012648189]], [[-43.5001206438826, -22.9873155991174], [-43.5042914895933, -22.9903062490979], [-43.5093729232852, -22.9886237616502], [-43.5135437875347, -22.991614109403], [-43.5126332535635, -22.9962868762124], [-43.5075517815522, -22.9979693320409], [-43.503380881843, -22.9949790526676], [-43.4982993546383, -22.9966612429378], [-43.4941284736093, -22.993670661314], [-43.4950391550917, -22.9889978210748], [-43.4908683281375, -22.9860068689445], [-43.4917790252301, -22.9813336265327], [-43.4876082523762, -22.9783423040179], [-43.4885189650722, -22.9736686595443], [-43.493600376938, -22.9719863741781], [-43.4977711145749, -22.9749777650071], [-43.4968604755746, -22.9796513728766], [-43.5010312672612, -22.9826423933424], [-43.5001206438826, -22.9873155991174]], [[-43.3102396432206, -22.7174040733228], [-43.3060708486536, -22.7143982104662], [-43.3069826555269, -22.7097110798608], [-43.3120631842608, -22.7080298468731], [-43.3162319464111, -22.711035777139], [-43.3153202122559, -22.7157228729718], [-43.3102396432206, -22.7174040733228]], [[-43.6143203954252, -22.8400477518605], [-43.6101504342429, -22.8370546246582], [-43.6050709466917, -22.8387428545638], [-43.6009010016683, -22.8357494259737], [-43.6018105811141, -22.8310676991927], [-43.5976406892556, -22.828073901019], [-43.5925611811512, -22.8297618979114], [-43.5883913057455, -22.8267677985287], [-43.5893009751703, -22.8220856340137], [-43.594380445845, -22.8203976064482], [-43.598550284513, -22.8233917740825], [-43.6036296974263, -22.8217034829779], [-43.6077995524059, -22.8246973494264], [-43.6068900313626, -22.8293794386931], [-43.6110599394564, -22.83237293558], [-43.6161393315848, -22.8306844114866], [-43.6203092556963, -22.8336776070088], [-43.6193998247618, -22.8383592582931], [-43.6143203954252, -22.8400477518605]], [[-43.6474619674405, -22.9384497214118], [-43.6432913336126, -22.9354611085656], [-43.638211304902, -22.9371486771807], [-43.6373018730884, -22.9418248281213], [-43.6322217484262, -22.9435121015868], [-43.6280510926263, -22.9405232546773], [-43.628960598833, -22.9358470657585], [-43.6247899959908, -22.9328578477525], [-43.6197098497155, -22.9345448872088], [-43.6155392626927, -22.9315553667388], [-43.6164488590976, -22.9268787383132], [-43.6122783251345, -22.923888846969], [-43.6071981577321, -22.9255756525493], [-43.6030276398823, -22.9225854589189], [-43.597947414453, -22.9242719999538], [-43.5937769129342, -22.9212815041148], [-43.5946866736639, -22.9166043988095], [-43.5905162253833, -22.9136135324195], [-43.5854359796716, -22.9152998397661], [-43.5812655480158, -22.9123086713457], [-43.5761852449005, -22.9139947141879], [-43.5720148300872, -22.9110032438146], [-43.5669344698327, -22.9126890221392], [-43.566024486734, -22.9173662398188], [-43.5701949379543, -22.9203576418183], [-43.575275335878, -22.9186718945004], [-43.5794458040821, -22.9216629945241], [-43.5785359108318, -22.9263397734588], [-43.5827064324011, -22.9293305030106], [-43.5817965549299, -22.9340068804562], [-43.5859671298386, -22.9369972394139], [-43.5910475455805, -22.9353112893543], [-43.5952181371027, -22.9383013460572], [-43.5943083495949, -22.9429772843466], [-43.5984789943545, -22.9459669702327], [-43.603559389792, -22.9442807863025], [-43.6077300508712, -22.9472701697558], [-43.6068203534166, -22.9519456686218], [-43.6109910676311, -22.9549346810359], [-43.6100813860123, -22.9596097780148], [-43.6142521533364, -22.9625984192677], [-43.619332565207, -22.960912032081], [-43.6235033484803, -22.9639003706231], [-43.6225937570295, -22.9685750277684], [-43.6175133079682, -22.9702613842186], [-43.6133424875601, -22.9672731142486], [-43.608261980169, -22.9689592057327], [-43.6040911758514, -22.9659706330288], [-43.6050009159066, -22.9612959003032], [-43.6008301647492, -22.9583069564167], [-43.6017399206288, -22.9536318217257], [-43.5975692226574, -22.9506425067784], [-43.5924887319934, -22.9523283950383], [-43.5883180504829, -22.9493387776352], [-43.5832375022072, -22.9510244010377], [-43.5790668373752, -22.9480344812564], [-43.5799767574168, -22.9433588696241], [-43.5758061459492, -22.940368579105], [-43.5707255779601, -22.9420539686669], [-43.5665549834649, -22.9390633759476], [-43.5614743584874, -22.9407485006933], [-43.5573037811824, -22.9377576058516], [-43.5522230994811, -22.9394424657679], [-43.5480525395838, -22.9364512688814], [-43.5489626975112, -22.9317751437205], [-43.544792191233, -22.9287835765203], [-43.5457023648734, -22.9241070498901], [-43.5415319122399, -22.9211151124987], [-43.5364512500112, -22.9227997700741], [-43.5355410024456, -22.927476333773], [-43.5304602461343, -22.9291606953043], [-43.5262897754771, -22.9261685244496], [-43.5272000969212, -22.921491923773], [-43.5230296800613, -22.9184993829288], [-43.5239400171753, -22.9138223809598], [-43.5290206973006, -22.9121379567683], [-43.5299309762358, -22.9074605905303], [-43.5257606488992, -22.9044676115601], [-43.5266709435089, -22.8997898442196], [-43.5317514915962, -22.8981050928079], [-43.5326617280213, -22.8934269614136], [-43.5284914902232, -22.8904335444822], [-43.5234109802478, -22.8921183271951], [-43.5192407605329, -22.8891246089022], [-43.5201510864714, -22.8844460396912], [-43.5159809206057, -22.8814519519212], [-43.5109003932412, -22.8831365015675], [-43.5099899935153, -22.8878151075917], [-43.5049093725484, -22.8894993613974], [-43.5007391896525, -22.886505040616], [-43.4956585135866, -22.8881890299488], [-43.4947479820329, -22.8928673085457], [-43.4989182002453, -22.8958615611574], [-43.4980076843049, -22.9005394388621], [-43.4929268764573, -22.9022231005726], [-43.4887566230191, -22.8992289161295], [-43.4836757604126, -22.900912313205], [-43.4795055259932, -22.8979178275892], [-43.4744246088922, -22.8996009600171], [-43.470254393709, -22.8966061733071], [-43.471165130558, -22.8919281860578], [-43.4669949696303, -22.888933030232], [-43.4619140370403, -22.8906159297669], [-43.461003226649, -22.8952939533488], [-43.4559222013529, -22.8969765564434], [-43.4517520252951, -22.8939811677802], [-43.4466709462984, -22.8956635061894], [-43.4457600044739, -22.9003412013578], [-43.4406788330494, -22.9020232431083], [-43.4365086424527, -22.8990276216395], [-43.4314274177622, -22.9007093986112], [-43.4272572474136, -22.8977134763396], [-43.4221759697217, -22.8993949885202], [-43.4180058198388, -22.8963987655243], [-43.4129244894103, -22.8980800129015], [-43.4087543602108, -22.8950834892602], [-43.4096655954319, -22.8904056502685], [-43.4054955209957, -22.8874087580985], [-43.4004141774643, -22.889089772894], [-43.3995028690115, -22.8937676476138], [-43.3944214339033, -22.8954483653473], [-43.3902513467234, -22.8924512406519], [-43.3911627283608, -22.887773330295], [-43.3962441240052, -22.8860925802591], [-43.3971554478776, -22.8814143048998], [-43.4022367520073, -22.8797332578587], [-43.4031480180973, -22.8750546176334], [-43.4082292306041, -22.8733732737246], [-43.4091404388943, -22.8686942687697], [-43.4142215596701, -22.8670126281308], [-43.4151327101433, -22.8623332585831], [-43.4202137390797, -22.8606513213516], [-43.4211248317186, -22.8559715873477], [-43.4262057687076, -22.8542893536614], [-43.4303756521996, -22.8572868860084], [-43.4294646328893, -22.8619665840858], [-43.4336345709679, -22.8649637481145], [-43.438715494052, -22.8632812820215], [-43.4396264399867, -22.8586016199618], [-43.4447072707831, -22.8569188575755], [-43.4456181588087, -22.8522388313123], [-43.4506988972092, -22.8505557727706], [-43.4548687864753, -22.8535527723277], [-43.4599494712126, -22.8518694495355], [-43.4608602278316, -22.8471890954307], [-43.4659408198949, -22.8455054767019], [-43.4668515185414, -22.8408247587257], [-43.4719320178227, -22.8391408441983], [-43.4761018571301, -22.8421376793003], [-43.4811823021435, -22.840453500697], [-43.4853521606441, -22.8434500352804], [-43.4904325511251, -22.8417655926138], [-43.4946024286016, -22.8447618266], [-43.4936919507629, -22.8494424351797], [-43.497861882293, -22.8524383004055], [-43.502942256378, -22.8507536251249], [-43.5071122065902, -22.8537491895737], [-43.5062018180751, -22.858429361185], [-43.5103718222391, -22.8614245566487], [-43.5154521794424, -22.8597396486191], [-43.5196222019946, -22.8627345431261], [-43.5187119028932, -22.8674142774997], [-43.5228819792953, -22.8704088027971], [-43.5279623191311, -22.8687236618839], [-43.528872544406, -22.8640439644069], [-43.5247025036833, -22.8610493709351], [-43.5256127446285, -22.8563692729598], [-43.5214427577051, -22.8533743103004], [-43.522353014314, -22.8486938119387], [-43.5274331840209, -22.8470083131468], [-43.5283433824677, -22.8423274513996], [-43.5334234582645, -22.840641657434], [-43.5375933736583, -22.8436367564018], [-43.5366832490772, -22.8483175811689], [-43.5408532181691, -22.8513123109929], [-43.5459332759024, -22.8496262842159], [-43.5501032626648, -22.8526207129726], [-43.5491932277076, -22.8573011002951], [-43.5533632680661, -22.8602951596837], [-43.5524532488271, -22.8649751465209], [-43.5566233427562, -22.8679688364184], [-43.5617034197421, -22.8662826077119], [-43.5658735309716, -22.8692759962619], [-43.5709535511208, -22.8675895034592], [-43.575123679433, -22.8705825905837], [-43.5802036424812, -22.8688958336983], [-43.5843737876586, -22.8718886193193], [-43.5894536933413, -22.8702015983644], [-43.5936238551663, -22.8731940824043], [-43.5927141479885, -22.8778735190519], [-43.5968843630531, -22.8808656330741], [-43.6019642484975, -22.8791783787957], [-43.6061344799159, -22.8821701910581], [-43.6112143073717, -22.880482672669], [-43.6121238661007, -22.8758033113644], [-43.6172035981012, -22.8741154982815], [-43.6213738085635, -22.8771070771113], [-43.6204643241291, -22.8817864006077], [-43.6246345876021, -22.8847776091175], [-43.6297142982878, -22.8830895625476], [-43.6306237083809, -22.8784102769506], [-43.6264534821412, -22.8754190000127], [-43.6273629081047, -22.8707393135561], [-43.6324424859495, -22.8690509419838], [-43.6366126748652, -22.8720422873512], [-43.6357033232716, -22.87672193585], [-43.639873565071, -22.8797129108185], [-43.6449531210104, -22.8780243057294], [-43.649123378152, -22.8810149786512], [-43.6482141168816, -22.8856941881761], [-43.6431345240233, -22.8873827628723], [-43.6422252042134, -22.892061609475], [-43.6371455153284, -22.893749889665], [-43.6362361369962, -22.8984283732083], [-43.6311563521921, -22.9001163587534], [-43.6269859827748, -22.8971258912508], [-43.6278954354846, -22.8924473697428], [-43.6237251190266, -22.8894565316754], [-43.6186453126538, -22.8911442835759], [-43.6177357856131, -22.8958228429574], [-43.6126558836608, -22.8975103000498], [-43.6117462981721, -22.9021884961179], [-43.6159166889263, -22.9051791972897], [-43.6209966280781, -22.9034917708291], [-43.6251670347394, -22.9064821698616], [-43.6302469153547, -22.9047944790999], [-43.6344173377056, -22.9077845759155], [-43.6335079167474, -22.9124622949894], [-43.6376783920061, -22.9154520209957], [-43.6427582507987, -22.9137640964317], [-43.646928741453, -22.9167535200434], [-43.6520085410859, -22.9150653311378], [-43.6529178131695, -22.9103876882148], [-43.6487473600924, -22.907398196065], [-43.6496566480915, -22.9027201518041], [-43.6547363146902, -22.9010316378609], [-43.6589067300995, -22.9040211985504], [-43.663986337199, -22.902332420429], [-43.6681567675039, -22.9053216786929], [-43.67323631484, -22.9036326364069], [-43.6741453951947, -22.8989543056331], [-43.6699750027893, -22.8959649788048], [-43.6708840991005, -22.891286246818], [-43.6667137592983, -22.8882965490448], [-43.6616342853245, -22.8899856518124], [-43.657463960353, -22.8869956517372], [-43.658373147142, -22.882316480385], [-43.6542028748758, -22.8793261095874], [-43.6551120775896, -22.8746465372777], [-43.6601914780712, -22.8729573739853], [-43.6643617125898, -22.8759478132819], [-43.663452584386, -22.8806273473604], [-43.6676228715592, -22.8836174159564], [-43.6727022490591, -22.8819280189847], [-43.6768725509218, -22.8849177853021], [-43.6759635132357, -22.8895968800355], [-43.680133867651, -22.8925862754296], [-43.6792248459327, -22.8972649690289], [-43.6833952528748, -22.9002539933777], [-43.6824862471311, -22.9049322857316], [-43.6866567065743, -22.9079209389129], [-43.6917361335907, -22.9062313683397], [-43.6926450646766, -22.9015531144969], [-43.6977243947557, -22.8998632497691], [-43.7018948301185, -22.9028516689277], [-43.7069740994717, -22.9011615401591], [-43.7078828971313, -22.8964829622685], [-43.7129620692698, -22.8947925395662], [-43.7171324799617, -22.8977807246731], [-43.7162237570816, -22.902459263812], [-43.7111445487184, -22.9041496566071], [-43.7102357670879, -22.9088278331549], [-43.7051564614479, -22.9105179319592], [-43.7042476210841, -22.9151957457785], [-43.699168218275, -22.916885550453], [-43.6982593191949, -22.9215630014065], [-43.7024298976528, -22.9245506090301], [-43.7015210145858, -22.9292276583723], [-43.7056916453911, -22.9322148943627], [-43.7047827783439, -22.9368915419827], [-43.6997032057493, -22.9385809922643], [-43.6987942799801, -22.9432572767241], [-43.6937146103076, -22.9449464324844], [-43.6895439028237, -22.9419593338871], [-43.6844641726507, -22.943648225158], [-43.6835551135035, -22.9483241848442], [-43.67847528653, -22.9500127813735], [-43.6775661687236, -22.9546883775671], [-43.6724862450572, -22.9563766792162], [-43.6683154758354, -22.9533894149554], [-43.6692246682399, -22.9487137803877], [-43.6743045552798, -22.9470254484434], [-43.6752136890536, -22.9423494503246], [-43.6710430103792, -22.9393617457967], [-43.6659631599983, -22.941050108047], [-43.6650539516444, -22.9457261445076], [-43.6599740048025, -22.9474142118529], [-43.6558033030795, -22.9444262730999], [-43.6507232966997, -22.9461140758323], [-43.649813955239, -22.9507897868758], [-43.6447338526757, -22.9524772944833], [-43.6405631284949, -22.9494891215342], [-43.6414725444136, -22.9448133723892], [-43.6465526100668, -22.9431258342833], [-43.6474619674405, -22.9384497214118]], [[-43.5511631090054, -22.8960425321643], [-43.55624345051, -22.8943569561881], [-43.5571534808304, -22.8896785351412], [-43.5529832436327, -22.8866856528813], [-43.547902939989, -22.8883712599655], [-43.5437327202979, -22.8853780762111], [-43.5386523603274, -22.8870634189554], [-43.5377421821042, -22.8917419142665], [-43.5419124377678, -22.8947350297583], [-43.5469928356938, -22.8930497181901], [-43.5511631090054, -22.8960425321643]], [[-43.5252315583024, -22.8827612256659], [-43.5294017423275, -22.8857550121756], [-43.5344821583605, -22.8840699337843], [-43.5353923522744, -22.8793910376395], [-43.5312222040298, -22.8763971829119], [-43.5261418260792, -22.8780822925586], [-43.5252315583024, -22.8827612256659]], [[-43.55063316782, -22.8743343561825], [-43.5464630377876, -22.8713407345283], [-43.5473731152688, -22.8666611111182], [-43.5432030388576, -22.8636671199511], [-43.5381228489914, -22.865352820426], [-43.53721269759, -22.8700324809152], [-43.5413828099632, -22.8730264038619], [-43.540472674257, -22.8777056637079], [-43.544642840302, -22.8806992171199], [-43.5497231060522, -22.8790135789166], [-43.55063316782, -22.8743343561825]], [[-46.6269066749473, -23.5210866319365], [-46.622741124931, -23.5182070347976], [-46.6236243962348, -23.5135579772417], [-46.6286731286915, -23.5117885836632], [-46.6328385961549, -23.5146682579255], [-46.631955413725, -23.5193172486319], [-46.6269066749473, -23.5210866319365]], [[-43.6563368516616, -22.9661153717549], [-43.6605076965551, -22.969102498682], [-43.6595984028741, -22.9737770035768], [-43.6545181897754, -22.9754644197549], [-43.6536088375038, -22.9801385606101], [-43.6577797728499, -22.9831252470676], [-43.6628600227286, -22.9814378613441], [-43.6670309730004, -22.9844242445821], [-43.6661217112064, -22.9890979448249], [-43.66104142458, -22.9907853001048], [-43.6568704365069, -22.9877989855739], [-43.6517900903042, -22.9894860758071], [-43.6476191172982, -22.9864994580336], [-43.6425387117834, -22.9881862832063], [-43.6383677540621, -22.9851993622672], [-43.6392772393625, -22.9805255475061], [-43.635106334521, -22.9775382548405], [-43.6360158357138, -22.9728640377952], [-43.6410961673226, -22.9711771514536], [-43.642005609982, -22.966502570252], [-43.6470858455607, -22.964815388452], [-43.6479952296694, -22.9601404432305], [-43.6530753691103, -22.9584529661105], [-43.657246161276, -22.9614404646998], [-43.6563368516616, -22.9661153717549]], [[-43.593551606581, -22.9956988355325], [-43.5893806385403, -22.9927108398348], [-43.5902905380046, -22.9880376029978], [-43.59537133131, -22.9863523994495], [-43.5995422625785, -22.9893404637129], [-43.5986324373255, -22.9940136629474], [-43.593551606581, -22.9956988355325]], [[-43.2827474177213, -22.9804376104795], [-43.2785769385981, -22.9774405348912], [-43.2794893451809, -22.9727676449107], [-43.2845721582596, -22.9710918650638], [-43.2887426053595, -22.9740890085094], [-43.2878302714158, -22.9787618639331], [-43.2827474177213, -22.9804376104795]], [[-43.6840896011652, -22.9700119143158], [-43.6849986870163, -22.965337122305], [-43.6808278506917, -22.9623505329353], [-43.6817369525239, -22.9576753387777], [-43.6868168160293, -22.9559867724759], [-43.6877258591909, -22.9513112147474], [-43.6928056258336, -22.949622353647], [-43.6969763857406, -22.9526090804464], [-43.6960674172704, -22.957284599619], [-43.7002382295746, -22.9602709544989], [-43.7053179719652, -22.9585818589336], [-43.7094887981948, -22.961567910533], [-43.7085799204915, -22.966242988926], [-43.7127507990162, -22.9692286683846], [-43.7118419373483, -22.973903344534], [-43.7067621223697, -22.9755923799475], [-43.7058532019516, -22.9802666924864], [-43.7007732897545, -22.9819554330126], [-43.6998643106032, -22.9866293818043], [-43.6947843012953, -22.9883178273049], [-43.6906133075523, -22.9853323541863], [-43.6855332377052, -22.9870205347636], [-43.6813622582349, -22.9840347581951], [-43.6822713867744, -22.9793607323057], [-43.6781004598276, -22.9763745836321], [-43.6730203662966, -22.9780625295913], [-43.6688494539166, -22.9750760776445], [-43.6697586730384, -22.9704016110393], [-43.6748387299459, -22.9687136347498], [-43.6790096043435, -22.9717001554073], [-43.6840896011652, -22.9700119143158]], [[-43.579520771624, -22.7990522270429], [-43.5753511094397, -22.7960566509618], [-43.5762608419705, -22.7913728870789], [-43.5813401626023, -22.7896847367123], [-43.5855097882512, -22.7926803809567], [-43.5905890514996, -22.7909919673238], [-43.5947586937652, -22.793987310787], [-43.5938491094707, -22.7986709996853], [-43.5980188049533, -22.8016659740797], [-43.5971092364615, -22.8063492632386], [-43.5920298983157, -22.8080376155855], [-43.5878601661059, -22.8050427093997], [-43.5887698087574, -22.8003593826698], [-43.5846001298152, -22.7973641073929], [-43.579520771624, -22.7990522270429]], [[-43.3121999588271, -22.9269900948691], [-43.3080297843318, -22.9239918758585], [-43.3089418765465, -22.9193159832914], [-43.3140240704921, -22.9176383445587], [-43.3181942125193, -22.9206366313897], [-43.3172821930807, -22.9253124891215], [-43.3121999588271, -22.9269900948691]], [[-43.6338201143603, -23.0085646016315], [-43.6296490289181, -23.0055781899], [-43.6305586153806, -23.0009055065677], [-43.6263875828938, -22.9979187229456], [-43.6213069266862, -22.9996046913233], [-43.6171359099844, -22.9966176045665], [-43.6120551953333, -22.9983033076935], [-43.6078841946342, -22.9953159178793], [-43.6087939456293, -22.9906427563379], [-43.6138746230303, -22.9889570223832], [-43.6180455866747, -22.991944480809], [-43.6231262057269, -22.9902584816714], [-43.6272971852326, -22.9932456370627], [-43.6323777456715, -22.9915593727558], [-43.6365487408208, -22.9945462250355], [-43.6356392128804, -22.999219272953], [-43.6398102609344, -23.0022057533634], [-43.6389007488884, -23.006878398698], [-43.6338201143603, -23.0085646016315]], [[-43.1211496053772, -22.9068133130077], [-43.1169799081526, -22.9038091735778], [-43.1118966015972, -22.905480903868], [-43.1109829499596, -22.9101567391042], [-43.105899557128, -22.9118281691618], [-43.1017298583585, -22.908823798513], [-43.1026435817211, -22.9041479304682], [-43.0984739402489, -22.9011431939812], [-43.0993876784457, -22.8964669255783], [-43.1044709864197, -22.8947954264255], [-43.10864059863, -22.897800230241], [-43.1137238628348, -22.8961284654659], [-43.1146374724347, -22.8914518623896], [-43.1104678895774, -22.8884469912452], [-43.1113815140345, -22.8837699879673], [-43.1164646495959, -22.8820978887112], [-43.120634203009, -22.8851028271853], [-43.1257172944597, -22.8834304624655], [-43.1298868754329, -22.886435102518], [-43.128973394553, -22.8911120399269], [-43.1331430325961, -22.8941163141031], [-43.1322295666101, -22.8987928512423], [-43.1271463907386, -22.900465147231], [-43.1262328678043, -22.9051413170365], [-43.1211496053772, -22.9068133130077]], [[-43.3227461841378, -22.7264203346914], [-43.3185773110065, -22.7234151354811], [-43.3194890299094, -22.7187284377725], [-43.3245695491718, -22.7170469741612], [-43.3287383896945, -22.7200522408261], [-43.327826743575, -22.7247389036363], [-43.3227461841378, -22.7264203346914]], [[-43.4489773993759, -22.737210562524], [-43.4448082813415, -22.7342091788851], [-43.4457189925032, -22.7295225795002], [-43.4415499289067, -22.7265208289602], [-43.4424606555692, -22.7218338310923], [-43.4475403724346, -22.7201486198676], [-43.4517094015449, -22.7231504381379], [-43.4507987482876, -22.727837399891], [-43.4549678317852, -22.7308388512826], [-43.4600475339242, -22.7291534086629], [-43.4642166371055, -22.7321545608271], [-43.4633060728374, -22.7368410878237], [-43.4582263319062, -22.7385264989077], [-43.4540571940469, -22.7355254145192], [-43.4489773993759, -22.737210562524]], [[-43.5077295063144, -22.7527829450019], [-43.5035602186369, -22.7497837256892], [-43.504470472938, -22.7450977433661], [-43.5095499412054, -22.7434110170758], [-43.5137191934479, -22.7464103043019], [-43.5128090128697, -22.7510962498934], [-43.5077295063144, -22.7527829450019]], [[-46.6577167083669, -23.6317086617482], [-46.6535506310314, -23.6288344661428], [-46.6544337556998, -23.6241914834504], [-46.6594828686694, -23.6224227633681], [-46.6636488629671, -23.6252970363377], [-46.6627658273434, -23.6299399520144], [-46.6577167083669, -23.6317086617482]], [[-43.6148524570937, -22.8617636998925], [-43.6106823527298, -22.8587713807904], [-43.6056026952316, -22.8604592550995], [-43.6014326070153, -22.8574666343847], [-43.5963528915475, -22.8591542448007], [-43.5921828196964, -22.8561613225508], [-43.5930925001002, -22.8514807215802], [-43.5981721781737, -22.8497930804667], [-43.6023422132259, -22.8527860710328], [-43.6074218334243, -22.8510981660942], [-43.6083313812267, -22.8464172399607], [-43.6134109060482, -22.8447290406382], [-43.6175809202933, -22.8477217980332], [-43.6166714467596, -22.8524026863983], [-43.6208415140419, -22.855395073863], [-43.6199320563582, -22.8600755617038], [-43.6148524570937, -22.8617636998925]], [[-43.4385741901001, -22.8151581402785], [-43.434404573136, -22.812159300077], [-43.4293240297343, -22.8138425179094], [-43.4284130642438, -22.8185245440509], [-43.4233324287564, -22.8202074660133], [-43.4224214054139, -22.8248891283464], [-43.417340677949, -22.8265717543009], [-43.4164295967719, -22.8312530526883], [-43.4113487774375, -22.8329353824969], [-43.410437638443, -22.8376163168018], [-43.4146073920451, -22.8406148854832], [-43.4136962684958, -22.8452954198], [-43.4086153180875, -22.8469774212156], [-43.4044455305529, -22.8439789204121], [-43.3993645278041, -22.8456606575154], [-43.398453273227, -22.8503408632445], [-43.4026230946032, -22.8533392961711], [-43.4017118554482, -22.8580191017542], [-43.3966307217178, -22.859700510075], [-43.3924608665907, -22.8567021450244], [-43.3873796808601, -22.8583832888716], [-43.3832098470148, -22.8553846237632], [-43.3781286095488, -22.8570655031246], [-43.3772171663466, -22.8617450152343], [-43.3813870337104, -22.8647436124904], [-43.3804756058893, -22.8694227243299], [-43.3753942376097, -22.8711032743707], [-43.3744827520753, -22.8757820213071], [-43.3786527079098, -22.8787801827351], [-43.3777412377517, -22.8834585292106], [-43.3726597386751, -22.8851387496911], [-43.3717482108096, -22.8898167310485], [-43.3759182550995, -22.8928144564822], [-43.3750067426057, -22.8974920371882], [-43.3699251127485, -22.8991719278689], [-43.3690135425531, -22.9038491432419], [-43.3731836752832, -22.9068464325155], [-43.3782653448226, -22.9051665743193], [-43.379176841938, -22.9004893943765], [-43.3842584202873, -22.8988092387631], [-43.3884285410973, -22.9018062955201], [-43.3875171171089, -22.9064834399416], [-43.3916872928596, -22.9094801282282], [-43.3967688589298, -22.9077997400418], [-43.4009390558643, -22.9107961277164], [-43.4060205698028, -22.9091154745532], [-43.4101907877036, -22.912111561537], [-43.4152722492458, -22.9104306434091], [-43.416183453571, -22.905753606098], [-43.4212648232421, -22.9040723908751], [-43.4254350277865, -22.9070682451174], [-43.4245238967765, -22.911745246543], [-43.4286941559568, -22.9147407319087], [-43.4277830404232, -22.9194173322933], [-43.4227015923641, -22.9210984832425], [-43.4185312990282, -22.9181030659266], [-43.4134497982137, -22.919783951855], [-43.4125385515071, -22.9244602228999], [-43.4074569588676, -22.9261408115391], [-43.4065456543386, -22.9308167171893], [-43.4014639699823, -22.9324970084021], [-43.4005526076483, -22.9371725485215], [-43.3954708316835, -22.9388525421706], [-43.3945594115618, -22.9435277166234], [-43.3987298406115, -22.9465228617512], [-43.3978184359089, -22.9511976347717], [-43.4019889198219, -22.9541924107922], [-43.4070707746065, -22.9525124818474], [-43.4112412794639, -22.955506956726], [-43.4103299634418, -22.9601812924496], [-43.4145005230608, -22.9631753979967], [-43.4195823646787, -22.9614952359196], [-43.4237529449482, -22.9644890401449], [-43.4228417176969, -22.9691629383035], [-43.4177598368445, -22.9708430681258], [-43.416848551731, -22.9755166003632], [-43.4210192207962, -22.9785099668795], [-43.4261011408507, -22.9768298693005], [-43.430271830414, -22.9798229342927], [-43.4293606341213, -22.9844960286772], [-43.4335313782931, -22.9874887238691], [-43.4386132844413, -22.9858083928625], [-43.4427840488173, -22.9888007863507], [-43.4478659016248, -22.9871201896973], [-43.4487769510637, -22.9824471674719], [-43.4538587113795, -22.9807662731568], [-43.4547697028584, -22.9760928851059], [-43.4598513705742, -22.9744116932663], [-43.4640220856237, -22.97740392146], [-43.4691036993937, -22.9757224641473], [-43.4732744339289, -22.9787143905261], [-43.4723635895493, -22.9833877059391], [-43.4765343783375, -22.9863792621351], [-43.4816159765323, -22.9846975711966], [-43.4857867845123, -22.9876888253988], [-43.4848760293447, -22.9923617022168], [-43.4797943925471, -22.9940433613321], [-43.4756235495316, -22.9910521754411], [-43.4705418583345, -22.9927335689598], [-43.4663710346523, -22.9897420810523], [-43.4612892893204, -22.9914232089618], [-43.4603783289229, -22.9960957928196], [-43.455296490867, -22.9977766230915], [-43.4543854724865, -23.0024488409681], [-43.4585563656842, -23.005440192303], [-43.4636382425616, -23.0037593940353], [-43.4678091553755, -23.0067504433081], [-43.4728909781939, -23.0050693792826], [-43.4738018494596, -23.0003972340595], [-43.4788835793217, -22.9987158724205], [-43.4830544765388, -23.0017066878844], [-43.4881361519069, -23.0000250605808], [-43.4923070681634, -23.0030155738493], [-43.4913963442001, -23.007687646056], [-43.4955673145562, -23.0106777886747], [-43.4946566062052, -23.01534945841], [-43.4988276306354, -23.0183392302569], [-43.5039093280995, -23.0166574007547], [-43.5080803711987, -23.0196468701271], [-43.5131620134506, -23.0179647748501], [-43.514072574275, -23.0132931785592], [-43.5099015666459, -23.0103036407663], [-43.510812143119, -23.0056316419388], [-43.5158936534173, -23.0039492177182], [-43.5200646254854, -23.0069388239332], [-43.5191541228278, -23.0116107859352], [-43.5233251487667, -23.0146000211985], [-43.522414661776, -23.0192715806311], [-43.52658574156, -23.0222604448211], [-43.5256752702431, -23.026931601574], [-43.5205936452785, -23.0286139310394], [-43.5164225298322, -23.0256251353139], [-43.5113408492962, -23.0273071989494], [-43.5071697522249, -23.0243181005711], [-43.502088016382, -23.0259998983639], [-43.5011773392759, -23.0306707628255], [-43.4960955099502, -23.0323522629969], [-43.4951847747291, -23.0370227613405], [-43.4901028520286, -23.0387039637534], [-43.4859317030636, -23.0357146996333], [-43.4808497256612, -23.0373956360293], [-43.4766785957896, -23.0344060693665], [-43.4715965639502, -23.0360867397328], [-43.4674254533897, -23.0330968706052], [-43.4623433673779, -23.0347772749291], [-43.4581722763463, -23.0317871034147], [-43.4590833060881, -23.02711645924], [-43.4549122694351, -23.0241259170916], [-43.4498301683965, -23.0258060874545], [-43.4456591515663, -23.022815243098], [-43.4405769969794, -23.0244951474615], [-43.4364060001898, -23.021504000975], [-43.4373171924153, -23.0168328818553], [-43.4331462501824, -23.0138413650583], [-43.4280640814141, -23.0155210356514], [-43.4238931595158, -23.0125292169036], [-43.4188109378231, -23.0142086215403], [-43.4146400364772, -23.0112165009199], [-43.4155513909185, -23.0065449074595], [-43.4113805443074, -23.0035524168526], [-43.4062983092786, -23.0052315879101], [-43.4021274835138, -23.0022387956101], [-43.3970451961845, -23.0039177007548], [-43.3961336952138, -23.0085893657303], [-43.3910513163365, -23.0102679724244], [-43.3901397575787, -23.0149392707233], [-43.3850572872615, -23.0166175788301], [-43.3808864152884, -23.0136246212084], [-43.3758038932763, -23.0153026632297], [-43.371633042868, -23.0123094040269], [-43.3665504694258, -23.0139871799507], [-43.3623796408001, -23.0109936192454], [-43.3572970161927, -23.0126711290596], [-43.3563851803972, -23.0173421667929], [-43.3513024649693, -23.0190193776428], [-43.3471316252688, -23.0160255835907], [-43.342048859111, -23.0177025282391], [-43.33787804177, -23.0147084328195], [-43.3327952251471, -23.0163851112545], [-43.3286244303835, -23.0133907145464], [-43.3235415635604, -23.0150671267562], [-43.3226294513417, -23.019737902627], [-43.3175464943179, -23.0214140154961], [-43.3133756897899, -23.0184193855867], [-43.3082926830012, -23.020095232139], [-43.3041219016276, -23.0171003010767], [-43.299038845339, -23.0187758813006], [-43.2948680873376, -23.0157806491642], [-43.289784981814, -23.0174559630481], [-43.2856142474025, -23.014460429917], [-43.2865266506374, -23.0097895149722], [-43.2916097156124, -23.0081141677795], [-43.2925220613838, -23.0034428853119], [-43.2976050367317, -23.0017672385951], [-43.2985173250222, -22.9970955887396], [-43.2943467106706, -22.9940995509326], [-43.2952590141856, -22.9894274991102], [-43.3003418593413, -22.9877515197972], [-43.3012541053695, -22.9830791007996], [-43.3063368607432, -22.9814028222914], [-43.3105074104717, -22.9843989959441], [-43.3155901162878, -22.9827224514723], [-43.3197606891159, -22.9857183243214], [-43.3248433451094, -22.9840415138976], [-43.3257553880248, -22.9793687976092], [-43.3215848477863, -22.9763728568131], [-43.322496905979, -22.9716997387576], [-43.3183264212377, -22.9687034292545], [-43.3192384947008, -22.9640299095429], [-43.3243209800786, -22.9623527342671], [-43.3252329959852, -22.9576788479216], [-43.321062599346, -22.9546821019293], [-43.3219746305278, -22.9500078141167], [-43.3270569855115, -22.9483303072537], [-43.3279689591308, -22.9436556530207], [-43.3237986506091, -22.9406584707039], [-43.3247106395083, -22.9359834151932], [-43.3205403864593, -22.9329858645816], [-43.3214523906316, -22.9283104079046], [-43.3265345750233, -22.9266325367873], [-43.3307047954122, -22.9296301552634], [-43.3357869296772, -22.9279520187881], [-43.3366988034223, -22.9232762309999], [-43.341780847271, -22.9215977963985], [-43.3426926634129, -22.9169216426753], [-43.3385225086172, -22.913923888467], [-43.3394343400666, -22.9092473338121], [-43.3445162533956, -22.9075685684866], [-43.345428027236, -22.902891648111], [-43.341257960669, -22.8998934579501], [-43.3421697498217, -22.8952161368328], [-43.3379997385761, -22.8922175787103], [-43.3329179053344, -22.8938964095408], [-43.3320060432902, -22.8985737657239], [-43.32692411971, -22.9002522987354], [-43.3227540983399, -22.8972535083792], [-43.3176721247457, -22.8989317763183], [-43.3167601323173, -22.9036088017185], [-43.3209301862867, -22.906607524274], [-43.3200182091225, -22.9112841489211], [-43.3149361051903, -22.9129620858836], [-43.3107660187124, -22.909963431128], [-43.3056838651071, -22.9116411028578], [-43.3047717576511, -22.9163173963347], [-43.2996895142027, -22.9179947697546], [-43.2955194186567, -22.9149958827517], [-43.2904371259704, -22.9166729908473], [-43.2862670539915, -22.9136738038776], [-43.281184712332, -22.9153506466373], [-43.2802724020722, -22.9200266431642], [-43.275189971019, -22.9217031873171], [-43.2742776033468, -22.9263788174276], [-43.2691950830083, -22.9280550628372], [-43.2682826579412, -22.9327303263958], [-43.2632000484258, -22.9344062729256], [-43.2590299047988, -22.9314069892579], [-43.2539472470866, -22.9330826702006], [-43.2530346921416, -22.9377576013703], [-43.2572048673975, -22.9407568173101], [-43.2622875659813, -22.9390811697965], [-43.2664577655882, -22.9420800857594], [-43.2655452983024, -22.946754581475], [-43.2604625588792, -22.9484301955714], [-43.2562923275929, -22.9454313473579], [-43.2512095400491, -22.9471066957188], [-43.2470393332553, -22.9441075475061], [-43.2419564978558, -22.9457826301202], [-43.2377863157722, -22.9427831819879], [-43.2386990004726, -22.9381085835484], [-43.2345288745716, -22.9351087678942], [-43.2294460327036, -22.9367836183732], [-43.2252759318064, -22.9337835029814], [-43.2201930427068, -22.93545808776], [-43.2160229670311, -22.9324576727106], [-43.2109400309649, -22.9341319917777], [-43.2100271292751, -22.9388066921226], [-43.2141972359222, -22.9418070395344], [-43.2192802132995, -22.9401327542274], [-43.2234503453098, -22.9431328019593], [-43.2225375309766, -22.9478070673275], [-43.2174545123206, -22.9494813188866], [-43.2132843492883, -22.9464813388138], [-43.2082012837419, -22.948155324513], [-43.2040311462143, -22.945155044738], [-43.1989480340425, -22.9468287645664], [-43.1980350179748, -22.9515027302853], [-43.2022051862917, -22.9545029424244], [-43.2072883398987, -22.952829256469], [-43.211458533862, -22.9558291688836], [-43.2165416407493, -22.9541552169888], [-43.2207118601413, -22.9571548295988], [-43.2197990036394, -22.9618283264125], [-43.2239692793657, -22.9648275714363], [-43.2290523804824, -22.9631533873368], [-43.2332226813437, -22.9661523323741], [-43.2383057351164, -22.9644778822886], [-43.242476060895, -22.9674765272596], [-43.2415633642279, -22.972149554559], [-43.2364802693676, -22.9738239710015], [-43.2355675153989, -22.9784966308588], [-43.2397379286999, -22.981494840149], [-43.2448210646156, -22.9798204573374], [-43.2489915026818, -22.9828183663574], [-43.2480788362607, -22.9874905903893], [-43.2522493304325, -22.990488131249], [-43.2573324594792, -22.9888135158757], [-43.2615029781224, -22.9918107562836], [-43.266586059012, -22.9901358747413], [-43.2707566019089, -22.9931328146181], [-43.2698440956782, -22.9978045681715], [-43.274014694503, -23.0008011395612], [-43.2790977676783, -22.9991260252624], [-43.283268390463, -23.0021222959397], [-43.2823559720265, -23.0067936130066], [-43.2772728581759, -23.0084686939162], [-43.2731022034488, -23.0054724911365], [-43.2680190409874, -23.0071473057516], [-43.2638484103618, -23.0041508022373], [-43.2587651995547, -23.0058253505465], [-43.2545945932483, -23.0028285463769], [-43.2555072293964, -22.9981571260567], [-43.2513366791445, -22.9951599534805], [-43.2462534612151, -22.9968342690669], [-43.2453407525909, -23.0015057236235], [-43.2402574458872, -23.0031797392871], [-43.2360868888723, -23.0001823340454], [-43.2310035346177, -23.0018560833694], [-43.2268330025752, -22.998858377711], [-43.2277458560098, -22.994186854954], [-43.2235753802501, -22.9911887811946], [-43.2184920199512, -22.9928622979677], [-43.2143215694577, -22.9898639239732], [-43.2092381622323, -22.991537174453], [-43.2050677372226, -22.9885385003032], [-43.1999842833358, -22.9902114844788], [-43.1990712130403, -22.9948831088558], [-43.1939876712324, -22.9965557927108], [-43.1898172412565, -22.9935568861827], [-43.1907303837443, -22.9888852281139], [-43.1865600103554, -22.9858859538929], [-43.1874731678551, -22.981213894147], [-43.1833028510787, -22.9782142523565], [-43.1842160235835, -22.9735417910448], [-43.180045763445, -22.9705417818083], [-43.1749623003649, -22.9722143015277], [-43.1707920665155, -22.9692139925801], [-43.1657085577576, -22.9708862461], [-43.1615383504148, -22.9678856375213], [-43.1624516820508, -22.9632127078453], [-43.1582815315234, -22.9602117321488], [-43.1591948781144, -22.9555384011969], [-43.1550247844279, -22.9525370585065], [-43.155938145967, -22.9478633263901], [-43.1517681091469, -22.9448616168297], [-43.1526814856273, -22.9401874836604], [-43.1577648269517, -22.9385150933481], [-43.1619348336906, -22.9415168704334], [-43.1610215291981, -22.9461909702945], [-43.1651915927528, -22.9491923805311], [-43.1702749305891, -22.947519758442], [-43.1711881630464, -22.94284569198], [-43.1670181297145, -22.9398442141964], [-43.1679313771429, -22.9351697467257], [-43.1730145858509, -22.9334967904833], [-43.1739277761978, -22.9288219555381], [-43.1697578298945, -22.925820043401], [-43.1706710352173, -22.9211448076367], [-43.1665011456542, -22.9181425288179], [-43.1614180205436, -22.9198155532799], [-43.1572481575839, -22.9168129753867], [-43.1581614498852, -22.91213730556], [-43.1632445331486, -22.9104642469699], [-43.1641577684029, -22.9057882099028], [-43.169240764428, -22.9041148516128], [-43.1701539426177, -22.8994384474407], [-43.1752368512959, -22.8977647895869], [-43.1761499724036, -22.8930880184454], [-43.1812327936262, -22.8914140611639], [-43.1854025353903, -22.894416908994], [-43.1904853106476, -22.892742686323], [-43.1913983025302, -22.8880655819316], [-43.1964809900528, -22.8863910600488], [-43.2006507271856, -22.8893936764019], [-43.1997378074757, -22.894070747118], [-43.203907601096, -22.8970729968972], [-43.2089902836281, -22.8953982434795], [-43.2099031311178, -22.8907212065298], [-43.214985725574, -22.8890461540596], [-43.2158985158596, -22.8843687505837], [-43.21172878395, -22.8813663657426], [-43.2126415892922, -22.876688561995], [-43.2177240542777, -22.8750131769581], [-43.2218937551954, -22.8780156293311], [-43.2269761731741, -22.8763399791656], [-43.2311458992688, -22.87934213246], [-43.2362282699758, -22.8776662171768], [-43.2371408734466, -22.8729881150855], [-43.2329711785764, -22.8699858942361], [-43.2338837971449, -22.8653073919964], [-43.2389660382121, -22.8636311446817], [-43.2398785995067, -22.8589522764593], [-43.2357089921107, -22.8559496214865], [-43.2366215685078, -22.8512703533066], [-43.2417036799186, -22.8495937741988], [-43.2426161990357, -22.8449141402509], [-43.2384466791294, -22.8419110513221], [-43.2333646087888, -22.8435876638654], [-43.2291951137869, -22.8405842761305], [-43.2301077203686, -22.8359042083729], [-43.2351897496066, -22.8342275623821], [-43.2393592133537, -22.8372310176079], [-43.2444411950914, -22.8355541069456], [-43.2486106836013, -22.8385572633877], [-43.253692617574, -22.8368800880652], [-43.2578621306292, -22.8398829456435], [-43.2629440165721, -22.8382055056718], [-43.2638563485961, -22.8335251748804], [-43.2689381454868, -22.8318474370868], [-43.2698504201496, -22.827166740994], [-43.2656809704431, -22.8241637483421], [-43.2665932602659, -22.8194826526856], [-43.2716749272681, -22.8178045840682], [-43.2725871597237, -22.8131231233257], [-43.2776687375191, -22.8114447572175], [-43.281838123513, -22.8144478849453], [-43.2869196525969, -22.8127692545086], [-43.2878317550713, -22.8080874633307], [-43.2836624010701, -22.8050842680641], [-43.284574518739, -22.8004020775596], [-43.2804052205177, -22.7973985160251], [-43.2813173533742, -22.7927159263069], [-43.2771481109584, -22.7897119986293], [-43.2780602589958, -22.7850290098104], [-43.2831415768719, -22.7833499831617], [-43.2840536675127, -22.7786666298254], [-43.2798845128599, -22.7756622686562], [-43.2807966186864, -22.7709785164116], [-43.2766275198395, -22.767973789371], [-43.2775396408448, -22.7632896383314], [-43.2826207881274, -22.7616102488147], [-43.2867898550019, -22.7646150433068], [-43.2918709534392, -22.762935389978], [-43.2927829444433, -22.7582509092682], [-43.2978639533179, -22.7565709593072], [-43.2987758868848, -22.7518861145706], [-43.2946068842278, -22.7488811851742], [-43.2955188330079, -22.7441959418809], [-43.3005997117888, -22.7425156626397], [-43.3047686822007, -22.745520659489], [-43.3038568060885, -22.7502058681151], [-43.3080258321042, -22.7532104991819], [-43.3131067018572, -22.7515299890866], [-43.3172757510141, -22.7545343217436], [-43.3163639628667, -22.7592190969867], [-43.3205330675259, -22.7622230636335], [-43.3256139277656, -22.7605423225463], [-43.3265256431325, -22.7558575821874], [-43.3223565710519, -22.75285354802], [-43.3232683016868, -22.7481684090029], [-43.3190992850579, -22.7451640088475], [-43.3140185052543, -22.7468448152191], [-43.3098495116252, -22.7438401166768], [-43.3107613302652, -22.7391545442984], [-43.3065923921894, -22.7361494799958], [-43.3075042260657, -22.73146350922], [-43.3125849253039, -22.7297826375178], [-43.3167538309528, -22.7327877692741], [-43.3218344804941, -22.731106634162], [-43.3260034090775, -22.7341114676568], [-43.3250917206998, -22.7387973687757], [-43.3292607047099, -22.7418018364298], [-43.3283490316048, -22.7464873390836], [-43.3325180710161, -22.749491440772], [-43.3316064131905, -22.7541765448471], [-43.3357755079774, -22.7571802804448], [-43.334863865438, -22.761864985828], [-43.3390330155751, -22.7648683552102], [-43.3441137754019, -22.7631870867638], [-43.3450253450667, -22.7585024164479], [-43.3501060143713, -22.7568208519097], [-43.3542751539184, -22.7598239901286], [-43.3593557724495, -22.7581421620091], [-43.3602672115648, -22.7534571633095], [-43.3653477392952, -22.7517750393167], [-43.3695168676613, -22.7547779463389], [-43.3686055015436, -22.7594629097301], [-43.3727746849809, -22.7624654502514], [-43.3778552011715, -22.760783095005], [-43.3820244062277, -22.7637853365581], [-43.381113128532, -22.7684698656888], [-43.3852823885579, -22.771471740514], [-43.3903628927231, -22.7697891538771], [-43.3945321740743, -22.7727907295522], [-43.3996126263135, -22.7711078793132], [-43.4005237577424, -22.7664234213244], [-43.3963545101008, -22.7634217779464], [-43.3972656569435, -22.7587369210298], [-43.402345978254, -22.7570537431546], [-43.4032570673364, -22.7523685230646], [-43.4083372970573, -22.7506850497775], [-43.4125064770075, -22.7536868285633], [-43.4175866542922, -22.7520030919168], [-43.4184976123536, -22.7473175445818], [-43.4143284663854, -22.7443156980911], [-43.409248328362, -22.7459994666518], [-43.4050792031537, -22.7429973211025], [-43.4059902498883, -22.7383113393216], [-43.411070348618, -22.7366275388355], [-43.415239439895, -22.7396297520673], [-43.4203194861127, -22.7379456883714], [-43.4244885980082, -22.7409476025676], [-43.4235776977706, -22.7456335127426], [-43.4277468642813, -22.7486350600953], [-43.4328268968274, -22.74695076499], [-43.4337377237461, -22.7422648907554], [-43.4388176641464, -22.7405803006769], [-43.4429868166268, -22.7435816165638], [-43.4480667037217, -22.7418967633125], [-43.4522358761684, -22.744897779926], [-43.4573157096936, -22.7432126635144], [-43.461484901889, -22.7462133807752], [-43.4605742952089, -22.7508991466387], [-43.4647435417149, -22.7538994966474], [-43.4698233601335, -22.7522141486015], [-43.4707338933069, -22.7475284190449], [-43.4758136188996, -22.7458427763503], [-43.4767240940883, -22.7411566843822], [-43.481803726747, -22.7394707471776], [-43.4859729227764, -22.7424709333401], [-43.4910525009023, -22.7407847330943], [-43.4952217158869, -22.7437846196901], [-43.4943113879098, -22.7484706386532], [-43.4984806569258, -22.7514701577133], [-43.4975703445538, -22.7561557777996], [-43.4924906895068, -22.7578419154189], [-43.4883213852878, -22.7548424642482], [-43.4832416755192, -22.7565283386891], [-43.482331231475, -22.7612136329239], [-43.4772514286485, -22.7628992127399], [-43.4730821084786, -22.7598995297433], [-43.4680022513649, -22.7615848462869], [-43.46709167577, -22.7662698143245], [-43.4620117258763, -22.7679548360235], [-43.4578423903463, -22.764954921233], [-43.4527623865997, -22.7666396795659], [-43.4485930708075, -22.7636394651957], [-43.4435130134726, -22.7653239601499], [-43.442602233028, -22.7700086377772], [-43.4375220833612, -22.771692837586], [-43.4366112450298, -22.7763771521924], [-43.4407806297453, -22.779377230927], [-43.4398698069073, -22.7840611463586], [-43.4440392461101, -22.7870608576279], [-43.4431284387724, -22.7917443737718], [-43.438048118839, -22.7934282147076], [-43.4371372536088, -22.7981113675342], [-43.4413067816999, -22.8011106433533], [-43.4403959319653, -22.8057933967], [-43.4445655145429, -22.8087923047836], [-43.4436546803106, -22.8134746585378], [-43.4385741901001, -22.8151581402785]], [[-43.4217558549262, -22.7550045715417], [-43.4208449123197, -22.7596897200746], [-43.4250141675938, -22.7626908327094], [-43.4300943313123, -22.7610068645498], [-43.4310052006104, -22.7563217519328], [-43.4268359795101, -22.753320571548], [-43.4217558549262, -22.7550045715417]], [[-43.2929131946695, -22.8064085356208], [-43.297082572291, -22.8094114320564], [-43.3021639627426, -22.8077322401096], [-43.3030759351136, -22.8030501188397], [-43.2989065897171, -22.8000471548421], [-43.293825239713, -22.8017263796879], [-43.2929131946695, -22.8064085356208]], [[-43.3413789818436, -22.7772395724895], [-43.3362980915597, -22.7789205121618], [-43.3353864220374, -22.7836040558666], [-43.3395557156695, -22.7866066248337], [-43.3446366459642, -22.7849257176943], [-43.3455482426043, -22.7802422090664], [-43.3413789818436, -22.7772395724895]], [[-43.4088623288214, -22.7724260419299], [-43.4037819287726, -22.7741091557588], [-43.4028708127643, -22.7787932147068], [-43.4070401700152, -22.7817941240955], [-43.4121206093846, -22.7801110422727], [-43.4130316521708, -22.7754270190666], [-43.4088623288214, -22.7724260419299]], [[-43.3798378800656, -22.9702578547862], [-43.3807494580614, -22.9655841798154], [-43.3765789281806, -22.9625892388164], [-43.3714967868636, -22.9642680408404], [-43.3705851357649, -22.9689417512674], [-43.3747556990744, -22.9719366242258], [-43.3798378800656, -22.9702578547862]], [[-43.3673262786455, -22.9612727988117], [-43.3682379451106, -22.9565986867515], [-43.3640674920094, -22.9536030757755], [-43.3589853391949, -22.9552816448679], [-43.3580735996922, -22.9599557922604], [-43.3622440860299, -22.9629513352397], [-43.3673262786455, -22.9612727988117]], [[-43.3221071317837, -22.9980581250904], [-43.3262778156307, -23.0010532601144], [-43.3313605520036, -22.9993765157089], [-43.3322725643442, -22.9947046032877], [-43.3373552103617, -22.9930275598704], [-43.341525884106, -22.9960224618207], [-43.3466084796768, -22.9943451524066], [-43.3475203614746, -22.9896729081752], [-43.3526028664113, -22.9879952999659], [-43.3535146905604, -22.9833226889824], [-43.3585971047546, -22.9816447821144], [-43.3595088712376, -22.9769718045142], [-43.3553382965363, -22.9739766985205], [-43.3562500783628, -22.9693033191314], [-43.3520795588795, -22.9663078441475], [-43.3469972245034, -22.9679858165585], [-43.3428267272597, -22.9649900406803], [-43.3377443422849, -22.9666677473913], [-43.3368324145458, -22.9713411971234], [-43.3410029447026, -22.9743369050298], [-43.3400910322705, -22.9790099530393], [-43.335008516766, -22.9806873282223], [-43.3340965467256, -22.9853600094998], [-43.3290139408195, -22.9870370858639], [-43.328101913188, -22.9917094002741], [-43.3230192169887, -22.9933861776828], [-43.3221071317837, -22.9980581250904]], [[-43.3239230559413, -22.818061611282], [-43.3280925585687, -22.821063243943], [-43.3331738401248, -22.8193832920364], [-43.3373433654262, -22.8223846254448], [-43.3424245966828, -22.8207044092791], [-43.3433362625884, -22.8160228271041], [-43.3484174033373, -22.8143423141474], [-43.3493290116387, -22.8096603675638], [-43.345159552111, -22.8066588988053], [-43.3400784513379, -22.8083394443173], [-43.3391667701284, -22.813021426021], [-43.3340855789096, -22.8147016747991], [-43.3299161089823, -22.8116999744861], [-43.3248348675584, -22.8133799590738], [-43.3239230559413, -22.818061611282]], [[-43.3859439611247, -22.8413442287292], [-43.3808628544886, -22.8430254371714], [-43.3799514536199, -22.847705714048], [-43.3841212324978, -22.8507047469657], [-43.3892023786973, -22.8490235708268], [-43.3901137064438, -22.8443433294783], [-43.3859439611247, -22.8413442287292]], [[-43.2828797701575, -22.8578954316373], [-43.2787100969798, -22.8548939055652], [-43.2736281779131, -22.856571543842], [-43.2727158913752, -22.8612506750306], [-43.2768855964749, -22.8642521334781], [-43.2819675562023, -22.86257452835], [-43.2828797701575, -22.8578954316373]], [[-43.3106343949164, -22.8618637103151], [-43.3097223989926, -22.8665427030527], [-43.3138921983149, -22.8695429636974], [-43.3189739610846, -22.8678642993077], [-43.3231437834186, -22.8708642603026], [-43.3282254962871, -22.8691853311265], [-43.3291373466209, -22.8645064081619], [-43.3249675569165, -22.8615063794296], [-43.319885884237, -22.863185341411], [-43.3157161174028, -22.8601850130516], [-43.3106343949164, -22.8618637103151]], [[-43.298125242572, -22.8528611599988], [-43.2939555778083, -22.8498598655875], [-43.2888737970067, -22.8515380664037], [-43.2879616404762, -22.8562175285966], [-43.2921313373944, -22.8592187553601], [-43.2972131587003, -22.857540587567], [-43.298125242572, -22.8528611599988]], [[-43.3812737347939, -22.9872714779514], [-43.3771030613786, -22.9842773435017], [-43.3780146817241, -22.979604436674], [-43.3738440633489, -22.9766099329086], [-43.3687617912282, -22.9782884040432], [-43.3678500977904, -22.9829613463025], [-43.3720207495539, -22.9859557820071], [-43.3711090714846, -22.9906283223334], [-43.3752797783388, -22.9936223887011], [-43.3803621298352, -22.991943982813], [-43.3845328582652, -22.9949377478244], [-43.3896151580852, -22.9932590760674], [-43.3905266898863, -22.9885866067613], [-43.3956088982823, -22.9869076366666], [-43.3997796143484, -22.9899011683703], [-43.4048617706329, -22.9882219324991], [-43.4090325076977, -22.9912151627119], [-43.408121122353, -22.9958875606347], [-43.4122919142038, -22.9988804211057], [-43.417374057406, -22.9972009518148], [-43.4182853694518, -22.9925285897197], [-43.414114611606, -22.9895356610763], [-43.4150259391116, -22.9848628968832], [-43.4108552360011, -22.9818695985193], [-43.405773171419, -22.9835491325111], [-43.4016024891658, -22.9805555326789], [-43.4025139053867, -22.9758823307366], [-43.3983432779707, -22.9728883614075], [-43.3932612005599, -22.9745676621393], [-43.3923497111238, -22.9792408997527], [-43.3872675422428, -22.9809199023401], [-43.3863559950367, -22.9855927736453], [-43.3812737347939, -22.9872714779514]], [[-43.3145403443218, -22.7685878848353], [-43.3136285139244, -22.7732718973499], [-43.3177977065984, -22.7762754303193], [-43.3228786971433, -22.774595018305], [-43.3270479127303, -22.7775982525567], [-43.3321288532771, -22.7759175767075], [-43.3330405380877, -22.7712336340049], [-43.3288713551803, -22.7682303321881], [-43.3237904547709, -22.7699110406506], [-43.319621294635, -22.7669074401389], [-43.3145403443218, -22.7685878848353]], [[-43.1898451045786, -22.822905787823], [-43.1856758244735, -22.8199004742247], [-43.1805936033123, -22.8215758304967], [-43.1764243493513, -22.8185702186998], [-43.1773373469858, -22.8138891833074], [-43.1824195265086, -22.8122137932193], [-43.1833324670541, -22.8075323920871], [-43.1791633001548, -22.8045263475468], [-43.180076255689, -22.7998445472691], [-43.1759071454307, -22.7968381374454], [-43.1768201159469, -22.7921559381352], [-43.1819021246562, -22.790480182145], [-43.1860712044784, -22.7934866592599], [-43.1911531672179, -22.7918106388992], [-43.195322273053, -22.7948168180664], [-43.2004041895579, -22.7931405333459], [-43.2045733211884, -22.7961464144848], [-43.209655191194, -22.7944698654154], [-43.2138243484024, -22.7974754484454], [-43.2129116664776, -22.8021575131747], [-43.2170808800486, -22.8051627306343], [-43.2161682131789, -22.809844396195], [-43.2203374830871, -22.8128492479593], [-43.2254193888239, -22.8111725015543], [-43.2263319834093, -22.8064908699015], [-43.2314138007915, -22.8048138256054], [-43.2355830647137, -22.8078184464], [-43.2346705424599, -22.8125000440536], [-43.2388398625673, -22.8155042989472], [-43.2439216736046, -22.8138270236237], [-43.2448341234797, -22.8091454600608], [-43.2499158458213, -22.8074678870062], [-43.2540851592248, -22.8104719108146], [-43.2531727817757, -22.8151534401955], [-43.2480910184853, -22.8168309799615], [-43.2471785837269, -22.8215121441412], [-43.2420967316789, -22.8231893861192], [-43.2379273554118, -22.8201854972514], [-43.2328454557873, -22.8218624747068], [-43.2319328913689, -22.8265433076159], [-43.2268509032657, -22.8282199870661], [-43.2226815207598, -22.8252158670671], [-43.223594157499, -22.8205350001824], [-43.2194248312792, -22.8175305142384], [-43.2143428372961, -22.8192069626152], [-43.2101735364263, -22.8162021782536], [-43.205091495661, -22.8178783620746], [-43.2041787144219, -22.8225592966365], [-43.1990965856894, -22.8242351822126], [-43.1949272796578, -22.8212301668935], [-43.1898451045786, -22.822905787823]]]}}