{"type": "Feature", "properties": {"city": "Teresina", "country": "Brazil", "real_area": 162.74}, "geometry": {"type": "MultiLineString", "coordinates": [[[-42.8448082772047, -4.98077124321906], [-42.8497623025992, -4.97894746113721], [-42.853824160285, -4.98230978540929], [-42.8529320166641, -4.98749591890831], [-42.8479779485133, -4.98931972954692], [-42.8470857516631, -4.9945058541832], [-42.8421316062333, -4.9963296287402], [-42.8412393561702, -5.00151574428223], [-42.8453013183487, -5.00487808387487], [-42.8444090818849, -5.01006418875279], [-42.8394548164357, -5.01188795538633], [-42.8385625267647, -5.01707405077092], [-42.8336081841812, -5.01889778082998], [-42.8295461741784, -5.01553538723692], [-42.8245917975175, -5.01735905236438], [-42.8236993879143, -5.0225451392347], [-42.8277614217024, -5.02590755977689], [-42.8268690256663, -5.03109363548034], [-42.8309311159946, -5.03445601663158], [-42.8358855785381, -5.03263229519], [-42.8399477015048, -5.03599460991373], [-42.8390553858176, -5.04118067287903], [-42.8431175652312, -5.04454294782806], [-42.8422252631406, -5.04972899909818], [-42.8462874989778, -5.05309123404584], [-42.8453952104902, -5.05827727338884], [-42.840440619345, -5.06010107926212], [-42.8395482776402, -5.06528710797847], [-42.834593609333, -5.06711087649059], [-42.8337012144274, -5.07229689434879], [-42.8287464690592, -5.0741206253023], [-42.8278540209692, -5.07930663207087], [-42.8319163850086, -5.08266890649123], [-42.8368711732995, -5.08084514760025], [-42.8409335699596, -5.08420735489373], [-42.8400412022358, -5.08939334753157], [-42.8350863710518, -5.09121713435475], [-42.8310239504957, -5.087854900598], [-42.8260690851874, -5.08967862163497], [-42.8251765974958, -5.09486460425305], [-42.8202216552711, -5.09668828723856], [-42.8193291144173, -5.10187425813645], [-42.8143740953773, -5.10369790287306], [-42.8134815013778, -5.10888386181929], [-42.8175439931149, -5.1122461747616], [-42.8166514126665, -5.11743212031141], [-42.8116962737895, -5.11925575414206], [-42.8108036402011, -5.12444168734115], [-42.814866212176, -5.12780398544183], [-42.8139735921343, -5.13298990484501], [-42.8090183334363, -5.13481352737111], [-42.8081256602602, -5.13999943402453], [-42.8031703249352, -5.1418230175135], [-42.8022775986413, -5.14700891118569], [-42.7973221867903, -5.14883245544008], [-42.796429407395, -5.15401833589957], [-42.8004921064725, -5.15738067096432], [-42.7995993405979, -5.16256653689331], [-42.7946438090291, -5.16439006885375], [-42.7937509900589, -5.16957592117102], [-42.788795382109, -5.17139941340406], [-42.7847326364907, -5.16803702626985], [-42.7797769956685, -5.16986045163593], [-42.7788840570678, -5.17504629106847], [-42.7739283401241, -5.17686967641024], [-42.7698656052869, -5.17350719546016], [-42.7707586103946, -5.1683213551974], [-42.7757142838434, -5.16649799670506], [-42.7766072359264, -5.16131214247126], [-42.7725445810614, -5.15794964595404], [-42.7675889511369, -5.1597729775917], [-42.7635263303364, -5.15641041355639], [-42.7585706681179, -5.1582336784063], [-42.7545080815832, -5.15487104697442], [-42.7554011800437, -5.14968517689645], [-42.7513386506323, -5.14632250441901], [-42.7522317625284, -5.14113662013227], [-42.7481692902637, -5.13777390683594], [-42.7490624155891, -5.13258800857235], [-42.7540179467955, -5.13076482403978], [-42.7580803963659, -5.134127511003], [-42.7571873374351, -5.13931340882201], [-42.7612498441056, -5.14267605503594], [-42.7603567986211, -5.14786193881375], [-42.7644193623682, -5.15122454405169], [-42.7693749487386, -5.14940123927397], [-42.7702679277672, -5.14421535613335], [-42.7662053868923, -5.14085277712338], [-42.7670983793842, -5.13566687987721], [-42.7630358955393, -5.13230425996086], [-42.7639289014883, -5.12711834884105], [-42.7688843248272, -5.12529505826445], [-42.7729467857619, -5.12865765184916], [-42.7779021766636, -5.12683429486916], [-42.7787950631211, -5.12164837138069], [-42.7747326251812, -5.11828580416167], [-42.769777277778, -5.12010913407531], [-42.76571487385, -5.11674649988049], [-42.7607594940967, -5.11856976348346], [-42.7598664746968, -5.123755688245], [-42.7549110191664, -5.12557891241147], [-42.7508486267193, -5.12221618492562], [-42.7458931392428, -5.12403934267526], [-42.7418307813414, -5.12067654842119], [-42.7427239335066, -5.11549062289963], [-42.7386616328218, -5.11212778850672], [-42.7337061574913, -5.11395085313742], [-42.7296438916234, -5.11058795225496], [-42.7305371234982, -5.10540201332907], [-42.7264749149402, -5.10203907269158], [-42.7273681602021, -5.09685312078091], [-42.7233060089774, -5.09349014061509], [-42.7241992676201, -5.08830417595157], [-42.7291546112335, -5.0864811914385], [-42.7300478170028, -5.08129521418423], [-42.7350030853857, -5.07947219042773], [-42.7390651918662, -5.0828351171263], [-42.744020428738, -5.0810120274167], [-42.7449135152977, -5.07582603792551], [-42.7408514313162, -5.0724631380117], [-42.741744531289, -5.0672771362704], [-42.7376825045241, -5.06391419726378], [-42.7385756179037, -5.05872818350434], [-42.7345136483788, -5.05536520563163], [-42.7295585430574, -5.0571882146043], [-42.7254966084365, -5.05382517109869], [-42.7263898014851, -5.04863914562385], [-42.7223279241973, -5.04527606363603], [-42.7232211306232, -5.04009002667135], [-42.7281761480964, -5.03826707154945], [-42.7290693016588, -5.03308102312736], [-42.7340242439286, -5.0312580295488], [-42.734917344611, -5.0260719699008], [-42.7398722115764, -5.02424893806298], [-42.7407652593623, -5.01906286742056], [-42.7457200509221, -5.01723979752088], [-42.7497818384519, -5.02060277105153], [-42.7488888569992, -5.02578884163741], [-42.7439340216726, -5.02761193875906], [-42.7430409872962, -5.03279799841442], [-42.7471028545856, -5.0361609608371], [-42.7520577336494, -5.03433783649872], [-42.7561196354492, -5.03770073339506], [-42.7610744825418, -5.03587754368677], [-42.7619673841734, -5.03069148440151], [-42.7669221554861, -5.02886825673223], [-42.7678150041395, -5.02368218664424], [-42.763753147913, -5.02031934390257], [-42.7646460100207, -5.01513326286637], [-42.769600661917, -5.01331002493895], [-42.7704934710407, -5.00812393349912], [-42.7754480470123, -5.00630065810351], [-42.7763408031356, -5.00111455649155], [-42.7812953030814, -4.99929124382517], [-42.7853570903137, -5.00265400507925], [-42.7903115574962, -5.00083062754016], [-42.791204194072, -4.99564451655624], [-42.7961585849692, -4.99382110204325], [-42.8002203825561, -4.99718377063198], [-42.7993278125552, -5.00236988091894], [-42.8033896668924, -5.00573251111103], [-42.802497110412, -5.0109186108238], [-42.7975426329916, -5.01274208111571], [-42.7966500234291, -5.01792817084805], [-42.7916954696087, -5.01975160397013], [-42.787633568666, -5.01638891956112], [-42.7826789819082, -5.01821228762504], [-42.7817862527427, -5.02339836777898], [-42.7768315898445, -5.02522169837618], [-42.7759388076571, -5.0304077680228], [-42.7709840687195, -5.03223106095587], [-42.7700912335266, -5.03741711986366], [-42.7651364186506, -5.03924037493517], [-42.7642435304688, -5.04442642287265], [-42.7683055236078, -5.04778921530666], [-42.7674126488821, -5.05297525166439], [-42.7714746990278, -5.0563380050573], [-42.7764296009414, -5.05451469519707], [-42.7804916850552, -5.05787738250625], [-42.7854465543328, -5.05605400710404], [-42.7863392960686, -5.05086797188701], [-42.7912940891347, -5.04904455852676], [-42.795356183784, -5.05240715281622], [-42.8003109438101, -5.05058367402018], [-42.8012035659033, -5.04539762861972], [-42.7971414945698, -5.04203506117874], [-42.7980341301809, -5.03684900417301], [-42.8029887705207, -5.03502551548893], [-42.8038813530448, -5.02983944793607], [-42.7998193618386, -5.02647686823121], [-42.800711957885, -5.02129078947263], [-42.8056664785226, -5.01946729129913], [-42.8065590214762, -5.01428120239252], [-42.8115134655555, -5.01245766714865], [-42.8155754098004, -5.01582019284699], [-42.8205298202931, -5.01399659265793], [-42.8214222434572, -5.00881049485269], [-42.8173603228198, -5.00544799620871], [-42.8182527595384, -5.00026188770053], [-42.8232070501981, -4.99843827890824], [-42.8240994337746, -4.99325216094652], [-42.8200375933928, -4.98988965074976], [-42.8150833457783, -4.99171323136657], [-42.8141908955113, -4.99689935034572], [-42.8092365711938, -4.998722894385], [-42.8051747402862, -4.99536029135248], [-42.8060672571994, -4.99017417148418], [-42.8110215383849, -4.98835065552767], [-42.8119140021938, -4.98316452630953], [-42.8078522514575, -4.97980191221325], [-42.8087447288021, -4.97461577298811], [-42.8136988902377, -4.97279224873802], [-42.817760617422, -4.97615483553696], [-42.8227147452153, -4.97433124681875], [-42.8267765053267, -4.97769376816822], [-42.8317305992324, -4.97587011498866], [-42.8357923920697, -4.97923257076715], [-42.8407464518425, -4.97740885313304], [-42.8448082772047, -4.98077124321906]], [[-42.7715631441374, -5.10973725937516], [-42.7756255251172, -5.11309986713469], [-42.7805807964837, -5.11127649808141], [-42.7814736433886, -5.10609054844807], [-42.7774112854415, -5.10272796715789], [-42.7783041458294, -5.09754200438553], [-42.7742418448192, -5.09417938285113], [-42.7692866604238, -5.09600269756001], [-42.7683937335494, -5.10118866096823], [-42.7724560575458, -5.10455130904159], [-42.7715631441374, -5.10973725937516]], [[-42.7654003820117, -5.19943624963607], [-42.7645072978103, -5.20462203042267], [-42.7595513094714, -5.20644532105733], [-42.7554884489823, -5.20308280434522], [-42.756381599626, -5.19789702285582], [-42.7523187962602, -5.19453446405238], [-42.7473628195662, -5.19635766086521], [-42.7433000507202, -5.1929950342445], [-42.7383440422793, -5.19481816377909], [-42.7342813081544, -5.19145546946264], [-42.7293252682122, -5.19327853171229], [-42.7252625690097, -5.18991576982169], [-42.7261559321026, -5.18472997171494], [-42.7311119281167, -5.18290693574262], [-42.7320052383161, -5.1777211227787], [-42.7369611590452, -5.1758980459895], [-42.7410238134346, -5.1792607557988], [-42.7459797025908, -5.17743761191683], [-42.7500423916399, -5.18080025422299], [-42.7549982489777, -5.17897704325494], [-42.7590609724853, -5.18233961793642], [-42.7581678613776, -5.1875254295627], [-42.7622306419852, -5.19088796244907], [-42.7671865108686, -5.18906465774815], [-42.7680795555238, -5.18387884682425], [-42.7730353484879, -5.18205550170419], [-42.7770981403084, -5.18541794077169], [-42.7820539007174, -5.18359452858573], [-42.7861167263925, -5.18695689966398], [-42.7852238147751, -5.19214270879835], [-42.7802680109306, -5.19396614782324], [-42.7793750462563, -5.19915194248393], [-42.7744191662765, -5.20097534109118], [-42.7703562944752, -5.19761291828689], [-42.7654003820117, -5.19943624963607]]]}}