{"type": "FeatureCollection", "features": [{"type": "Feature", "properties": {"threshold": 70}, "geometry": {"type": "MultiPolygon", "coordinates": [[[[-5.93505808518514, 35.71617815434319], [-5.934000254024992, 35.72383049810809], [-5.920922666935583, 35.72261870974201], [-5.917033941890719, 35.72644008300246], [-5.895959652236157, 35.732204422800415], [-5.897347867230926, 35.7380296390359], [-5.894933802183349, 35.74190047018294], [-5.901304033280045, 35.74804275731028], [-5.899199418398341, 35.75246977671197], [-5.884076309043286, 35.75286421944561], [-5.883130463410788, 35.74881859745491], [-5.878741948610563, 35.74602771018461], [-5.872628301037657, 35.74826631496642], [-5.8708873068642, 35.754314346895185], [-5.864527329898755, 35.760469972152734], [-5.869610116402104, 35.766306977829814], [-5.868930721927637, 35.774864316680734], [-5.8648501386205565, 35.77702723731808], [-5.861965513512666, 35.78545400929406], [-5.855990627912083, 35.78611679534724], [-5.854939250405121, 35.790014724816906], [-5.8456625538315095, 35.79264976768356], [-5.8441658616178165, 35.79625587914592], [-5.826482893560609, 35.79601307386149], [-5.803655858137913, 35.79064827158746], [-5.79671137303281, 35.78668647820109], [-5.79922289272847, 35.78088747392397], [-5.790367664011868, 35.777102616255874], [-5.767340311433484, 35.78265037420632], [-5.7579902507038705, 35.795256501975665], [-5.751249742108084, 35.795186808003834], [-5.752440557808046, 35.7865970311128], [-5.746019348796928, 35.777338003802626], [-5.745992379416079, 35.77338719056666], [-5.75245697849454, 35.76622732962104], [-5.750027986514039, 35.76011382435386], [-5.757389019919997, 35.7585808187502], [-5.759720256149686, 35.755841933242536], [-5.764741020682002, 35.7566271032831], [-5.768144566637287, 35.761529715444226], [-5.772828721708774, 35.76131488000374], [-5.7749680371703676, 35.75862307944239], [-5.766524691626829, 35.747345052339824], [-5.756288608019818, 35.74634280719104], [-5.7521396944986645, 35.743178578825045], [-5.756453525138935, 35.73800026442865], [-5.754589537232378, 35.73006418207209], [-5.749995688581762, 35.72811240843498], [-5.7429880295249855, 35.729737012491185], [-5.740152763203733, 35.72342548571471], [-5.755239228075576, 35.72449058548701], [-5.761171743945877, 35.72881850155876], [-5.7723895628189315, 35.72702551078505], [-5.777448040357142, 35.73077334906477], [-5.782531167936349, 35.72608308711008], [-5.794794487727902, 35.7249373034765], [-5.798795371502976, 35.709705581226295], [-5.811055381367253, 35.70779297782391], [-5.816532720603274, 35.71403733449568], [-5.814543289396785, 35.71945775670455], [-5.818459654613801, 35.7271255070422], [-5.823890052398264, 35.72867713687384], [-5.839539964038929, 35.72616280218246], [-5.844383290831315, 35.72861603151182], [-5.847670008725394, 35.722519375936066], [-5.851945066106703, 35.721475600023744], [-5.85325069057007, 35.72722021568909], [-5.858562845397984, 35.73059495881085], [-5.862963992927225, 35.72980718224489], [-5.864183283829382, 35.72639318909275], [-5.86902170834116, 35.726189030545136], [-5.873718730248637, 35.730421993121794], [-5.881309140861577, 35.72595338629244], [-5.888576969922993, 35.72534647856508], [-5.889582640661245, 35.71876238160275], [-5.898902676554145, 35.70640568233721], [-5.893556729053604, 35.700188362933865], [-5.905579310917387, 35.70142890563134], [-5.919173862110213, 35.694227175190825], [-5.921846835752978, 35.695698292524725], [-5.916474747667501, 35.7025459471473], [-5.918181083000947, 35.70806667259502], [-5.933785735464104, 35.71376803245784], [-5.93505808518514, 35.71617815434319]], [[-5.7879795471200675, 35.73451256951272], [-5.784127626193762, 35.734341835393295], [-5.783068174630825, 35.736990746614616], [-5.7904130909009925, 35.73995908003839], [-5.791943009284163, 35.737115055920675], [-5.7879795471200675, 35.73451256951272]], [[-5.891004371913332, 35.7329850443337], [-5.893610797487628, 35.73062974726345], [-5.890627453249207, 35.72830013791951], [-5.887802473820704, 35.73101338312635], [-5.891004371913332, 35.7329850443337]]], [[[-5.749230720798979, 35.79588621563437], [-5.751322228149942, 35.803976668447156], [-5.737847837740782, 35.81337140783165], [-5.735900379009573, 35.79671603270796], [-5.737634139201006, 35.78883691058671], [-5.740686116197235, 35.78866619582772], [-5.744102220857704, 35.79427437159121], [-5.749230720798979, 35.79588621563437]]], [[[-5.921700265636567, 35.7722956946221], [-5.916974171078539, 35.776258675406076], [-5.9015561474600675, 35.77834232797031], [-5.901221573285847, 35.76913980326285], [-5.905284470743401, 35.76562624838451], [-5.914890858728209, 35.76398386242498], [-5.921692471435041, 35.76918253897597], [-5.921700265636567, 35.7722956946221]]], [[[-5.942240094927793, 35.737513911002814], [-5.942311901597881, 35.74233566661362], [-5.937520061194245, 35.74506286150054], [-5.9408846361836956, 35.74940304937993], [-5.938096157319575, 35.75583926875638], [-5.926911161744798, 35.758477179535554], [-5.914395387030474, 35.75631518246524], [-5.914375113789026, 35.75235982830681], [-5.923154037246839, 35.75237243069617], [-5.936199046639815, 35.7449339379289], [-5.9371719221864465, 35.737159969603844], [-5.942240094927793, 35.737513911002814]]]]}}, {"type": "Feature", "properties": {"threshold": 80}, "geometry": {"type": "MultiPolygon", "coordinates": [[[[-5.934977537191894, 35.71398337025671], [-5.934078434233157, 35.72379797761923], [-5.920922666935583, 35.72261870974201], [-5.917033941890719, 35.72644008300246], [-5.895959652236157, 35.732204422800415], [-5.8953940270191545, 35.74150317531095], [-5.901304033280045, 35.74804275731028], [-5.899273357274746, 35.7524311834645], [-5.884076309043286, 35.75286421944561], [-5.883130463410788, 35.74881859745491], [-5.878741948610563, 35.74602771018461], [-5.872628301037657, 35.74826631496642], [-5.8708873068642, 35.754314346895185], [-5.864527329898755, 35.760469972152734], [-5.869610116402104, 35.766306977829814], [-5.868930721927637, 35.774864316680734], [-5.8648501386205565, 35.77702723731808], [-5.861965513512666, 35.78545400929406], [-5.855990627912083, 35.78611679534724], [-5.854939250405121, 35.790014724816906], [-5.8456625538315095, 35.79264976768356], [-5.8441658616178165, 35.79625587914592], [-5.826482893560609, 35.79601307386149], [-5.796420341353988, 35.789352350917795], [-5.799615469991611, 35.781446884351936], [-5.790367664011868, 35.777102616255874], [-5.767340311433484, 35.78265037420632], [-5.7579902507038705, 35.795256501975665], [-5.751249742108084, 35.795186808003834], [-5.752440557808046, 35.7865970311128], [-5.746019348796928, 35.777338003802626], [-5.745992379416079, 35.77338719056666], [-5.75245697849454, 35.76622732962104], [-5.750027986514039, 35.76011382435386], [-5.757389019919997, 35.7585808187502], [-5.759566691407673, 35.75585162168116], [-5.764741020682002, 35.7566271032831], [-5.768144566637287, 35.761529715444226], [-5.772828721708774, 35.76131488000374], [-5.774934683255259, 35.758409300478], [-5.766564173617762, 35.747466326590455], [-5.75729488693047, 35.74707613585677], [-5.752164898490915, 35.7439102862895], [-5.756453525138935, 35.73800026442865], [-5.754416196634265, 35.7299015004809], [-5.74042768275137, 35.72913053245053], [-5.7387819329144065, 35.726063443665275], [-5.729023822330103, 35.72253055551335], [-5.732399214773277, 35.7067592323309], [-5.734556009602275, 35.707074478038756], [-5.740655431556662, 35.72297012607576], [-5.756983399064041, 35.722986036858956], [-5.761237733360771, 35.727509673291586], [-5.768698871755736, 35.72418142047271], [-5.776139780472153, 35.73080356288299], [-5.780736539066344, 35.726124604142754], [-5.793580771675996, 35.72523765924668], [-5.798675000889927, 35.70980952160662], [-5.814361135700463, 35.70404812311548], [-5.816308885754736, 35.70707397208028], [-5.812856745568682, 35.711362277016946], [-5.816532720603274, 35.71403733449568], [-5.814543289396785, 35.71945775670455], [-5.818459654613801, 35.7271255070422], [-5.823890052398264, 35.72867713687384], [-5.839539964038929, 35.72616280218246], [-5.844383290831315, 35.72861603151182], [-5.847670008725394, 35.722519375936066], [-5.851945066106703, 35.721475600023744], [-5.85325069057007, 35.72722021568909], [-5.858562845397984, 35.73059495881085], [-5.862963992927225, 35.72980718224489], [-5.864183283829382, 35.72639318909275], [-5.86902170834116, 35.726189030545136], [-5.873718730248637, 35.730421993121794], [-5.881309140861577, 35.72595338629244], [-5.888445197960911, 35.725526698925925], [-5.891074359174196, 35.710175561358234], [-5.887726456336476, 35.70719891075509], [-5.873012967487953, 35.712906840816174], [-5.871340900500306, 35.70961853495812], [-5.8946320259587965, 35.69707528879334], [-5.904339678306168, 35.69750549362172], [-5.912722440251436, 35.694878740947054], [-5.908725978715102, 35.6796928040018], [-5.918368884826845, 35.67155293022315], [-5.923059728930737, 35.6795416288787], [-5.919345075708515, 35.68571373153578], [-5.919556680464564, 35.69131631629309], [-5.92989869519309, 35.69475257562061], [-5.921189463801451, 35.703378176480655], [-5.92137430261277, 35.70791709497676], [-5.929053108681929, 35.713573917858234], [-5.934977537191894, 35.71398337025671]], [[-5.7879795471200675, 35.73451256951272], [-5.784127626193762, 35.734341835393295], [-5.783068174630825, 35.736990746614616], [-5.7904130909009925, 35.73995908003839], [-5.791943009284163, 35.737115055920675], [-5.7879795471200675, 35.73451256951272]], [[-5.891004371913332, 35.7329850443337], [-5.893610797487628, 35.73062974726345], [-5.890627453249207, 35.72830013791951], [-5.887802473820704, 35.73101338312635], [-5.891004371913332, 35.7329850443337]]], [[[-5.749230720798979, 35.79588621563437], [-5.751322228149942, 35.803976668447156], [-5.737847837740782, 35.81337140783165], [-5.7350273325016605, 35.797468193214584], [-5.737634139201006, 35.78883691058671], [-5.740686116197235, 35.78866619582772], [-5.744102220857704, 35.79427437159121], [-5.749230720798979, 35.79588621563437]]], [[[-5.921604674974972, 35.76838791109236], [-5.921001184481197, 35.773609855901945], [-5.91713418080261, 35.77620005717784], [-5.90162805756005, 35.778472730915745], [-5.901221573285847, 35.76913980326285], [-5.905124471994402, 35.76568485030384], [-5.9173072682585515, 35.76312084820509], [-5.921604674974972, 35.76838791109236]]], [[[-5.942240094927793, 35.737513911002814], [-5.942311901597881, 35.74233566661362], [-5.937520061194245, 35.74506286150054], [-5.9408846361836956, 35.74940304937993], [-5.938096157319575, 35.75583926875638], [-5.926911161744798, 35.758477179535554], [-5.914395387030474, 35.75631518246524], [-5.914126620313044, 35.752650636509216], [-5.922024415854853, 35.74045811453397], [-5.942240094927793, 35.737513911002814]]]]}}, {"type": "Feature", "properties": {"threshold": 90}, "geometry": {"type": "MultiPolygon", "coordinates": [[[[-5.57241510936534, 35.828200968070135], [-5.57259511527833, 35.83569992990141], [-5.563375363390016, 35.84025577151267], [-5.562812605964563, 35.847178539974884], [-5.556869943721503, 35.84393567311728], [-5.549746750567217, 35.84369396495711], [-5.5498877007040734, 35.83965532120024], [-5.5634090134111265, 35.837385054674755], [-5.563488130852161, 35.83144381718003], [-5.5607608731534, 35.82902886901501], [-5.5627310919298285, 35.82408287031143], [-5.57241510936534, 35.828200968070135]]], [[[-5.667650927089443, 35.66930210855166], [-5.661873193427192, 35.66927145683336], [-5.658904171151391, 35.662253180041375], [-5.648678735766418, 35.656893240051915], [-5.651412350802419, 35.64705782884002], [-5.661572103768401, 35.64640082207685], [-5.659620510356125, 35.65121791613645], [-5.6622517492091635, 35.65683622333142], [-5.669253338296808, 35.6588815810087], [-5.669579691673959, 35.668679043274246], [-5.667650927089443, 35.66930210855166]]], [[[-5.69579122189364, 35.679931550831505], [-5.689137502302267, 35.697176930045224], [-5.683402303981115, 35.70043390766485], [-5.673618148252568, 35.700452095527815], [-5.6722917716155425, 35.69229862710525], [-5.679469101609556, 35.688056738328626], [-5.6846078376426705, 35.68013556696534], [-5.694061235256924, 35.6775109876136], [-5.69579122189364, 35.679931550831505]]], [[[-5.942549359491911, 35.69907123883769], [-5.944199641985449, 35.71042483404004], [-5.937008527395955, 35.710818921529146], [-5.928976490834681, 35.70292842434842], [-5.92318864086233, 35.704475785500875], [-5.923208889036562, 35.70817469459124], [-5.927634338394384, 35.71272059164964], [-5.935569611457982, 35.713416504010276], [-5.936871842975418, 35.71548463073172], [-5.934221227200321, 35.72371503137998], [-5.920922666935583, 35.72261870974201], [-5.917033941890719, 35.72644008300246], [-5.895808555275718, 35.73238121841139], [-5.8953940270191545, 35.74150317531095], [-5.901304033280045, 35.74804275731028], [-5.899342299715453, 35.75238686818731], [-5.884076309043286, 35.75286421944561], [-5.883130463410788, 35.74881859745491], [-5.878741948610563, 35.74602771018461], [-5.872628301037657, 35.74826631496642], [-5.8708873068642, 35.754314346895185], [-5.864527329898755, 35.760469972152734], [-5.869610116402104, 35.766306977829814], [-5.868930721927637, 35.774864316680734], [-5.8648501386205565, 35.77702723731808], [-5.861965513512666, 35.78545400929406], [-5.855990627912083, 35.78611679534724], [-5.854939250405121, 35.790014724816906], [-5.8456625538315095, 35.79264976768356], [-5.8441658616178165, 35.79625587914592], [-5.826482893560609, 35.79601307386149], [-5.796420341353988, 35.789352350917795], [-5.799615469991611, 35.781446884351936], [-5.790367664011868, 35.777102616255874], [-5.767340311433484, 35.78265037420632], [-5.7579902507038705, 35.795256501975665], [-5.751249742108084, 35.795186808003834], [-5.752440557808046, 35.7865970311128], [-5.746019348796928, 35.777338003802626], [-5.745992379416079, 35.77338719056666], [-5.752500986782936, 35.76601456768482], [-5.749876804173163, 35.755723582585816], [-5.756100858775472, 35.754466575845115], [-5.764512077790883, 35.7565222900839], [-5.768411896973813, 35.76156944815976], [-5.7730584021944304, 35.761207687384115], [-5.774934683255259, 35.758409300478], [-5.766564173617762, 35.747466326590455], [-5.75729488693047, 35.74707613585677], [-5.752212130988172, 35.74397062120885], [-5.756453525138935, 35.73800026442865], [-5.753603638112581, 35.73239614874771], [-5.747707293309389, 35.73189354351594], [-5.740198850554953, 35.729025667871994], [-5.7383349513504385, 35.725834361314256], [-5.728151473140096, 35.72328264139118], [-5.731357934708901, 35.71812113144355], [-5.732399214773277, 35.7067592323309], [-5.737347558341783, 35.70994013629084], [-5.740655431556662, 35.72297012607576], [-5.758667040989649, 35.72219773949934], [-5.76298184878669, 35.726005040386724], [-5.768698871755736, 35.72418142047271], [-5.776928199756355, 35.73084854672926], [-5.783130853624124, 35.72398244673992], [-5.796333184956931, 35.71757875258507], [-5.798795371502976, 35.709705581226295], [-5.805168030282906, 35.70578564016853], [-5.811643133414076, 35.7051778979068], [-5.8136171104478835, 35.70067355738528], [-5.81888115322895, 35.698100735432384], [-5.820639479767815, 35.70257883524165], [-5.814535184415384, 35.71924161354545], [-5.81801245852608, 35.726896731709815], [-5.823890052398264, 35.72867713687384], [-5.839539964038929, 35.72616280218246], [-5.844383290831315, 35.72861603151182], [-5.847670008725394, 35.722519375936066], [-5.851945066106703, 35.721475600023744], [-5.85353166370452, 35.72756138327621], [-5.860878346048758, 35.73076451369277], [-5.8654808496314175, 35.721474538160464], [-5.869836525446888, 35.719585383501396], [-5.87521139902056, 35.72223752494962], [-5.870055815867174, 35.72682347472533], [-5.87315833572841, 35.73048381954581], [-5.881309140861577, 35.72595338629244], [-5.888445197960911, 35.725526698925925], [-5.889572721985827, 35.71032478925606], [-5.886415466403357, 35.708335399615876], [-5.8727566511595395, 35.712860939049726], [-5.872080357598536, 35.705207295373256], [-5.879064991913381, 35.70641151532198], [-5.882183371079357, 35.69808239009183], [-5.903442779564215, 35.697527148818956], [-5.908785264190919, 35.694689450471], [-5.908990958350286, 35.67802484023406], [-5.913199765352109, 35.676886692078234], [-5.916070006715802, 35.671691311918316], [-5.918920668677187, 35.67174972766385], [-5.9247875278563695, 35.67790968101614], [-5.919413996564787, 35.68550523492732], [-5.919949589718013, 35.69187532207483], [-5.9400523245560315, 35.69304455879183], [-5.942549359491911, 35.69907123883769]], [[-5.7879795471200675, 35.73451256951272], [-5.784127626193762, 35.734341835393295], [-5.783068174630825, 35.736990746614616], [-5.7904130909009925, 35.73995908003839], [-5.791943009284163, 35.737115055920675], [-5.7879795471200675, 35.73451256951272]], [[-5.891004371913332, 35.7329850443337], [-5.893610797487628, 35.73062974726345], [-5.890627453249207, 35.72830013791951], [-5.887802473820704, 35.73101338312635], [-5.891004371913332, 35.7329850443337]]], [[[-5.749230720798979, 35.79588621563437], [-5.751322228149942, 35.803976668447156], [-5.7379282942143846, 35.813400188129606], [-5.736211524641247, 35.8020829276983], [-5.728312035060075, 35.799638183122944], [-5.722206485252098, 35.79307810663323], [-5.714376726114636, 35.790343365390186], [-5.714006340335794, 35.785162854423284], [-5.718126801904879, 35.78410071973266], [-5.7247224975424285, 35.79324340301734], [-5.728553942203062, 35.79223185078879], [-5.728818190716055, 35.78816137148307], [-5.7367895984196124, 35.78644808116215], [-5.744283750866039, 35.79441735948868], [-5.749230720798979, 35.79588621563437]]], [[[-5.921604674974972, 35.76838791109236], [-5.921001184481197, 35.773609855901945], [-5.91713418080261, 35.77620005717784], [-5.90162805756005, 35.778472730915745], [-5.901221573285847, 35.76913980326285], [-5.905124471994402, 35.76568485030384], [-5.9173072682585515, 35.76312084820509], [-5.921604674974972, 35.76838791109236]]], [[[-5.942240094927793, 35.737513911002814], [-5.942311901597881, 35.74233566661362], [-5.937520061194245, 35.74506286150054], [-5.9408846361836956, 35.74940304937993], [-5.938096157319575, 35.75583926875638], [-5.926911161744798, 35.758477179535554], [-5.914395387030474, 35.75631518246524], [-5.914126620313044, 35.752650636509216], [-5.922024415854853, 35.74045811453397], [-5.942240094927793, 35.737513911002814]]]]}}, {"type": "Feature", "properties": {"threshold": 95}, "geometry": {"type": "MultiPolygon", "coordinates": [[[[-5.57241510936534, 35.828200968070135], [-5.57259511527833, 35.83569992990141], [-5.563375363390016, 35.84025577151267], [-5.562876179932315, 35.84712909589849], [-5.557106302706639, 35.84536198226693], [-5.546322553173946, 35.84800341894254], [-5.54519433363614, 35.853253090058416], [-5.531122680784744, 35.86684275836938], [-5.516577849351515, 35.87373935344267], [-5.516418385387749, 35.87056690075376], [-5.522613803598806, 35.86734435239742], [-5.545344035448431, 35.842760428854454], [-5.554494973796712, 35.83803804879389], [-5.563126888629518, 35.83774916847497], [-5.563488130852161, 35.83144381718003], [-5.5607608731534, 35.82902886901501], [-5.562667535143653, 35.824132313944595], [-5.57241510936534, 35.828200968070135]]], [[[-5.674633835597444, 35.66786439878824], [-5.682136902101679, 35.670001282432594], [-5.663612491817712, 35.67132874947751], [-5.658904171151391, 35.662253180041375], [-5.648639113297978, 35.65682938138904], [-5.651269374362324, 35.647140446615204], [-5.662318794515617, 35.64480075345177], [-5.669930622220189, 35.652275778883286], [-5.66973061388071, 35.666444841281084], [-5.674633835597444, 35.66786439878824]]], [[[-5.69579122189364, 35.679931550831505], [-5.69005915548621, 35.697888622660074], [-5.681632621322126, 35.70120567694593], [-5.6727210399975245, 35.700472032873115], [-5.672229129601751, 35.692432168058076], [-5.6797685349026015, 35.687685008817596], [-5.680995846221349, 35.679483806393606], [-5.692347615889249, 35.675358602732594], [-5.69579122189364, 35.679931550831505]]], [[[-5.942549359491911, 35.69907123883769], [-5.944804518964085, 35.710655879672245], [-5.936303851799572, 35.712313734450476], [-5.934221227200321, 35.72371503137998], [-5.920922666935583, 35.72261870974201], [-5.917033941890719, 35.72644008300246], [-5.895808555275718, 35.73238121841139], [-5.8953940270191545, 35.74150317531095], [-5.901304033280045, 35.74804275731028], [-5.899342299715453, 35.75238686818731], [-5.884076309043286, 35.75286421944561], [-5.883130463410788, 35.74881859745491], [-5.878741948610563, 35.74602771018461], [-5.872628301037657, 35.74826631496642], [-5.8708873068642, 35.754314346895185], [-5.864527329898755, 35.760469972152734], [-5.869610116402104, 35.766306977829814], [-5.868930721927637, 35.774864316680734], [-5.8648501386205565, 35.77702723731808], [-5.861965513512666, 35.78545400929406], [-5.855990627912083, 35.78611679534724], [-5.854939250405121, 35.790014724816906], [-5.8456625538315095, 35.79264976768356], [-5.8441658616178165, 35.79625587914592], [-5.826482893560609, 35.79601307386149], [-5.796420341353988, 35.789352350917795], [-5.799615469991611, 35.781446884351936], [-5.790367664011868, 35.777102616255874], [-5.767340311433484, 35.78265037420632], [-5.7579902507038705, 35.795256501975665], [-5.751249742108084, 35.795186808003834], [-5.752499426097755, 35.78680712784824], [-5.745900416827039, 35.77366172206284], [-5.75251133445247, 35.76558364327236], [-5.747183787273275, 35.75578516126673], [-5.756100858775472, 35.754466575845115], [-5.764512077790883, 35.7565222900839], [-5.768411896973813, 35.76156944815976], [-5.7730584021944304, 35.761207687384115], [-5.774934683255259, 35.758409300478], [-5.766564173617762, 35.747466326590455], [-5.75729488693047, 35.74707613585677], [-5.752212130988172, 35.74397062120885], [-5.756453525138935, 35.73800026442865], [-5.753414499749684, 35.73235220221869], [-5.74490957291339, 35.731194546136514], [-5.734090783471628, 35.7243910815013], [-5.721845280263939, 35.72269325729955], [-5.7238264566692125, 35.718670373708626], [-5.731109182431444, 35.71805886525077], [-5.732399214773277, 35.7067592323309], [-5.737347558341783, 35.70994013629084], [-5.740655431556662, 35.72297012607576], [-5.770468122334694, 35.723408386538445], [-5.777190385551551, 35.730821359747715], [-5.780324756178401, 35.722630888065865], [-5.78664571883445, 35.72215211061874], [-5.790173872270843, 35.71791833803382], [-5.7959010954524715, 35.71719057636017], [-5.803089450068321, 35.70599226785557], [-5.810011904583876, 35.70459734815481], [-5.814468221838776, 35.69767148617121], [-5.818855382688962, 35.697369064164626], [-5.820639479767815, 35.70257883524165], [-5.814535184415384, 35.71924161354545], [-5.81801245852608, 35.726896731709815], [-5.823890052398264, 35.72867713687384], [-5.839539964038929, 35.72616280218246], [-5.844383290831315, 35.72861603151182], [-5.847670008725394, 35.722519375936066], [-5.851945066106703, 35.721475600023744], [-5.85353166370452, 35.72756138327621], [-5.860878346048758, 35.73076451369277], [-5.86553105006095, 35.721415831343904], [-5.870733697944299, 35.71956396731731], [-5.87521139902056, 35.72223752494962], [-5.870055815867174, 35.72682347472533], [-5.87315833572841, 35.73048381954581], [-5.881390875903758, 35.72592730597834], [-5.88812156304836, 35.72585235924044], [-5.88870791297059, 35.71816296409528], [-5.887490803849436, 35.70948422120886], [-5.8727566511595395, 35.712860939049726], [-5.872130543612082, 35.705148586353985], [-5.879057432652411, 35.70518653521454], [-5.882183371079357, 35.69808239009183], [-5.903693779341938, 35.69749166768468], [-5.909525864717944, 35.693779855414064], [-5.908775848401855, 35.67754331431936], [-5.898343183590308, 35.67780016617882], [-5.8942597082962696, 35.67533744359927], [-5.895447952186729, 35.6721893939953], [-5.905176023452451, 35.67192426053774], [-5.908469614822144, 35.675842462766546], [-5.918853959400673, 35.67170326248037], [-5.924772932512045, 35.67730322197181], [-5.919413996564787, 35.68550523492732], [-5.919796369646301, 35.69169979317003], [-5.9400523245560315, 35.69304455879183], [-5.942549359491911, 35.69907123883769]], [[-5.7879795471200675, 35.73451256951272], [-5.784127626193762, 35.734341835393295], [-5.783068174630825, 35.736990746614616], [-5.7904130909009925, 35.73995908003839], [-5.791943009284163, 35.737115055920675], [-5.7879795471200675, 35.73451256951272]], [[-5.891004371913332, 35.7329850443337], [-5.893610797487628, 35.73062974726345], [-5.890627453249207, 35.72830013791951], [-5.887802473820704, 35.73101338312635], [-5.891004371913332, 35.7329850443337]]], [[[-5.749230720798979, 35.79588621563437], [-5.751322228149942, 35.803976668447156], [-5.7379282942143846, 35.813400188129606], [-5.735147776436572, 35.80676198716865], [-5.724740594103305, 35.80757305257971], [-5.7259849518774315, 35.798710382321126], [-5.714261682476615, 35.79023539792319], [-5.714006340335794, 35.785162854423284], [-5.718060103381232, 35.784054142618196], [-5.7257379255496845, 35.792043857908034], [-5.728892250547357, 35.788122878462545], [-5.7367895984196124, 35.78644808116215], [-5.744283750866039, 35.79441735948868], [-5.749230720798979, 35.79588621563437]], [[-5.7362889905789185, 35.804339971878704], [-5.735259709213571, 35.80134970932462], [-5.731477170694604, 35.80220424646419], [-5.732559877967815, 35.80526292828939], [-5.7362889905789185, 35.804339971878704]]], [[[-5.921604674974972, 35.76838791109236], [-5.921001184481197, 35.773609855901945], [-5.91713418080261, 35.77620005717784], [-5.90162805756005, 35.778472730915745], [-5.901221573285847, 35.76913980326285], [-5.905124471994402, 35.76568485030384], [-5.9173072682585515, 35.76312084820509], [-5.921604674974972, 35.76838791109236]]], [[[-5.942240094927793, 35.737513911002814], [-5.942311901597881, 35.74233566661362], [-5.937520061194245, 35.74506286150054], [-5.9408846361836956, 35.74940304937993], [-5.938096157319575, 35.75583926875638], [-5.926911161744798, 35.758477179535554], [-5.914395387030474, 35.75631518246524], [-5.914126620313044, 35.752650636509216], [-5.922024415854853, 35.74045811453397], [-5.942240094927793, 35.737513911002814]]]]}}]}